Origin Time       2019/01/14 13:23:00
Lat.              36.162
Long.             139.810
Depth. (km)       53
Mag.              4.9
Station Code      CHB008
Station Lat.      35.6537
Station Long.     139.9023
Station Height(m) 4
Record Time       2019/01/14 13:23:55
Sampling Freq(Hz) 100Hz
Duration Time(s)  74
Dir.              U-D
Scale Factor      7845(gal)/8223790
Max. Acc. (gal)   5.349
Last Correction   2019/01/14 13:23:54
Memo.             
[...]
    5474     5508     5491     5433     5441     5513     5547     5526 
    5481     5437     5443     5485     5512     5505     5478     5486 
    5541     5571     5544     5513     5512     5510     5524     5567 
    5574     5522     5487     5474     5458     5472     5501     5489 
    5470     5493     5503     5481     5481     5493     5475     5459 
    5464     5448     5421     5428     5462     5498     5521     5521 
    5512     5502     5497     5514     5552     5568     5548     5544 
    5560     5555     5539     5513     5470     5455     5481     5485 
    5471     5481     5486     5463     5459     5474     5470     5454 
    5452     5459     5485     5533     5557     5547     5535     5517 
    5487     5483     5494     5487     5494     5521     5536     5532 
    5517     5490     5474     5468     5466     5475     5481     5462 
    5448     5481     5530     5571     5576     5535     5471     5447 
    5476     5514     5529     5525     5512     5505     5497     5472 
    5459     5470     5468     5464     5485     5497     5481     5479 
    5499     5524     5552     5556     5519     5472     5454     5464 
    5476     5490     5509     5513     5499     5489     5493     5510 
    5519     5508     5485     5475     5490     5509     5510     5503 
    5487     5471     5479     5498     5503     5506     5513     5514 
    5519     5526     5517     5519     5552     5563     5524     5481 
    5471     5478     5481     5483     5474     5458     5463     5478 
    5475     5479     5498     5497     5485     5486     5499     5518 
    5530     5521     5495     5479     5474     5475     5486     5503 
    5514     5517     5516     5512     5495     5474     5476     5522 
    5563     5551     5512     5487     5481     5471     5452     5454 
    5474     5493     5499     5491     5481     5489     5502     5514 
    5522     5516     5517     5535     5541     5526     5508     5499 
    5502     5501     5505     5509     5481     5443     5437     5462 
    5486     5513     5549     5563     5518     5440     5398     5431 
    5503     5548     5547     5526     5487     5441     5441     5487 
    5533     5545     5519     5486     5470     5472     5501     5530 
    5536     5514     5479     5455     5459     5486     5506     5514 
    5516     5512     5503     5489     5478     5501     5536     5543 
    5535     5526     5529     5537     5526     5498     5486     5498 
    5517     5513     5479     5454     5443     5428     5437     5503 
    5576     5651     5769     5910     6021     6065     6039     5972 
    5925     5949     5968     5853     5648     5578     5844     6462 
    7074     7060     6066     4218     1999      259      -83     1328 
    4102     7153     9271     9954     9116     6932     4654     3973 
    5073     6660     7547     7145     5250     2610      850     1019 
    2978     5757     7911     8433     7446     5641     3978     3747 
    5296     7223     8031     7569     6393     4951     3917     3981 
    4807     5587     6079     6112     5667     5109     4649     4625 
    5336     6249     6697     6380     5239     3940     3491     4238 
    5715     7241     8290     8144     6551     4519     3167     3026 
    4228     5921     6764     6430     5537     4596     3827     3647 
    4550     6327     7858     8380     8379     8073     6913     5194 
    3794     3088     3335     4429     5493     5913     5972     5899 
    5545     5390     5729     5659     5255     5793     6847     7005 
    6318     5462     4391     3219     2953     3886     4962     5637 
    5971     5886     5679     5605     5602     5659     5552     5387 
    5621     5806     5332     4812     4860     5007     4850     4743 
    5101     5826     6579     7260     7707     7727     7609     7391 
    6550     5239     4293     4052     4374     5171     6066     6404 
    6193     5967     5713     5140     4540     4225     4116     4301 
    4677     4842     4994     5454     5807     5601     5267     5601 
    6430     6902     6640     5757     4718     4117     4197     4789 
    5270     5209     5003     4943     5034     5528     6014     5757 
    5069     4788     5309     6266     6968     7109     6509     5564 
    5301     5675     5729     5225     4792     5022     5610     5860 
    5749     5679     5795     5952     6228     6716     6818     6241 
    5602     5155     4750     4426     3993     3591     3801     4403 
    5009     5763     6281     5981     5175     4784     5323     6411 
    7528     8379     8407     7310     5377     3345     2309     2646 
    3624     4654     5541     5896     5501     4916     5047     6188 
    7924     9429     9601     8054     5675     3554     2390     2432 
    3244     4266     5108     5328     4969     4765     5255     6239 
    7307     7996     7604     6110     4457     3416     3427     4608 
    6153     7059     7127     6509     5481     4747     4611     4590 
    4513     4707     5354     6282     6690     6192     5813     6183 
    6474     6093     5626     5638     5733     5638     5710     5840 
    5422     4263     3250     3574     4615     5016     5206     5756 
    5944     5518     5049     4753     4716     5490     7191     8757 
    9185     8348     6527     4523     3207     2533     2295     2798 
    3898     4891     5391     5440     5529     6251     7296     7855 
    7784     7414     6729     5552     4453     4156     4386     4611 
    4774     4783     4712     4907     5417     6162     7061     7765 
    7821     7056     5964     5240     4838     4386     3793     3213 
    3118     3622     4342     5313     6566     7647     8082     7612 
    6598     5699     5186     5263     5689     5595     4622     3169 
    2288     3014     4706     5971     6670     7080     7123     6839 
    6409     6234     6386     6227     5629     5159     4833     4467 
    4518     5016     5093     4622     4402     4599     4938     5329 
    5431     5238     5445     6316     7191     7387     7118     7032 
    6970     6343     5319     4463     3994     3965     4463     5377 
    6085     5896     5057     4322     4036     4325     5240     6485 
    7585     8175     7847     6564     5209     4436     4118     4348 
    4899     5092     5026     4857     4333     4085     4719     5616 
    6473     7453     7766     6943     5888     5265     4783     4301 
    4355     5067     5645     5618     5189     4676     4496     4904 
    5790     6821     7654     8035     7580     6315     5009     4129 
    3638     3550     3778     4256     5069     5849     6186     6465 
    6881     6835     6389     6247     6184     5691     4984     4376 
    4101     4390     4752     4442     3991     4376     5246     5965 
    6812     7530     7236     6191     5223     4490     4338     5105 
    5981     6042     5625     5661     6243     6527     5868     4766 
    4526     5333     5717     5412     5698     6218     5811     4923 
    4212     3842     4232     5188     6010     6516     6787     6767 
    6232     5347     4968     5400     5822     5726     5672     5875 
    5643     4982     4371     3759     3719     4704     5687     6060 
    6259     6131     5481     4870     4676     4908     5633     6604 
    7113     6841     6347     5840     4947     4301     4710     5585 
    6173     6397     6262     5961     5702     5394     5131     5074 
    5081     5039     4862     4560     4602     5331     6315     6772 
    6293     5368     4968     5306     5711     5637     5314     5283 
    5443     5435     5358     5117     4617     4472     5067     6023 
    6825     6932     6270     5629     5235     4450     3858     4671 
    6354     7727     8337     7715     6173     5085     4676     4099 
    3599     3844     4549     5375     6162     6432     6004     5158 
    4407     4368     5184     6370     7087     6804     5977     5323 
    5192     5593     5697     4922     4171     4274     4861     5139 
    4780     4495     4988     5895     6624     6945     6833     6268 
    5312     4558     4513     5046     5857     6338     6076     5782 
    6147     6751     6945     6501     5526     4745     4708     4843 
    4745     4843     5131     5219     5309     5590     5481     4772 
    4307     4553     5278     6404     7377     7476     7002     6281 
    5067     3716     3122     3591     4457     5027     5439     5845 
    6022     6173     6531     6799     6697     6210     5694     5643 
    5737     5293     4745     4833     5058     5015     5354     6112 
    6500     6355     6023     5595     5171     4973     4784     4415 
    4375     4936     5688     6146     6035     5458     4762     4511 
    5157     6058     6238     5869     5532     5352     5398     5447 
    4970     4371     4693     5705     6196     5891     5636     5892 
    6148     6331     6829     7061     6521     5753     4891     3793 
    3317     4171     5412     5895     5848     5678     5370     5231 
    5259     5116     5175     5678     6010     6119     6409     6281 
    5428     4909     5135     5476     5659     5391     4592     4189 
    4600     5259     6347     7885     8403     7346     5971     5019 
    4484     4563     4834     4542     4172     4498     4997     5060 
    5088     5584     6330     6752     6677     6237     5634     5294 
    5314     5173     4752     4556     4688     4860     5201     5931 
    6702     7148     7296     7056     6367     5590     4793     3870 
    3492     4113     5023     5572     5822     5764     5197     4477 
    4255     4618     5512     6806     7518     6848     5526     4797 
    5131     6072     6731     6606     5792     4648     3730     3476 
    3920     4823     5585     5645     5508     6061     6922     7195 
    7048     7059     7106     6654     5583     4507     4032     4117 
    4452     5034     6023     7006     7087     6091     4945     4486 
    4395     4074     3753     3655     3627     4074     5404     6739 
    7038     6702     6613     6720     6502     5570     4178     3526 
    4202     5440     6648     7569     7477     6157     4637     4088 
    4634     5521     5998     5861     5470     5379     5988     7017 
    7480     6982     5908     4403     2963     2512     2907     3848 
    5929     8474     9394     8329     6720     5394     4537     4369 
    4630     4808     5044     5580     6027     6046     5633     5043 
    5193     6497     7678     7497     6373     5254     4398     3916 
    4145     5001     5800     5863     5104     4101     3418     3348 
    3981     4814     5327     5819     6351     6259     5421     4488 
    4213     4889     6061     7168     7993     8164     7223     5547 
    4310     3912     3736     3761     4535     5759     6338     5807 
    4926     4426     4313     4758     5645     6147     6355     6836 
    6886     6004     5084     4708     4754     5238     5879     6288 
    6720     7209     7385     7304     6635     4950     3348     3059 
    3753     4661     5382     5620     5412     5227     5350     5445 
    5097     4396     3902     4549     6504     8214     8424     7484 
    6139     5209     5096     5300     5489     5535     5570     6340 
    7318     6932     5313     3731     2791     2694     3474     4592 
    5460     6156     6435     5771     5188     5768     6404     5967 
    4958     4174     3950     4369     5263     6053     6272     6353 
    6820     7229     6964     6259     5701     5290     4722     4192 
    4163     4630     5197     5571     5876     6412     6789     6184 
    4989     4415     4445     4472     4703     5035     4955     4953 
    5578     6413     7196     7923     8054     7331     6280     5144 
    3931     3456     4287     5294     5377     4996     4556     3951 
    3805     4526     5422     6011     6419     6496     6011     5379 
    5169     5518     6106     6197     5727     5540     5638     5574 
    5656     5710     5302     5136     5661     6218     6559     6957 
    6886     5656     4113     3678     4349     5339     6178     6673 
    7146     8060     8889     8655     7416     5981     4726     3751 
    3225     3100     3412     4352     5533     6050     5509     4450 
    3639     3403     3859     4928     5825     5702     4687     3694 
    3863     5499     7603     9049     8980     7080     4661     3439 
    3582     4243     4641     4415     4039     4407     5583     6635 
    7023     7028     6999     7175     7350     6691     5111     3769 
    3700     4845     6219     6822     6525     5876     5362     5053 
    5074     5992     7599     8344     7416     5575     3723     2627 
    2851     3947     5131     6169     7011     7699     8120     7639 
    5958     3701     1873     1360     2540     4810     6739     7352 
    7030     6592     6293     5926     5390     5169     5441     5294 
    4291     3272     2829     2934     3489     4118     4557     5101 
    5965     6853     7099     6223     4741     3973     4540     5694 
    6654     7335     7439     6826     6093     5273     4223     3793 
    4279     5007     6096     7832     9251     9328     8206     6689 
    5377     4376     3746     3809     4450     5164     5965     6928 
    7551     7537     7023     6162     5256     4644     4287     4145 
    4496     5148     5464     5475     5532     5848     6697     7377 
    6559     4329     1841       83     -110     1598     4453     7168 
    9028     9603     8418     6210     4560     3924     3809     3855 
    3943     4283     5193     6453     7447     7912     7900     7389 
    6489     5503     4679     4116     3996     4635     5850     6893 
    7294     7084     6696     6562     6628     6616     6259     5464 
    4544     3684     2751     2178     2731     4152     5408     6012 
    6222     6513     7038     7408     7434     7230     6488     5049 
    3748     3609     4587     5432     5194     4457     4233     4860 
    6185     7535     7921     7023     5498     4295     3865     4054 
    4490     4931     5560     6475     6959     6627     6326     6296 
    5682     4604     4009     4215     5121     6103     6131     5228 
    4322     3828     3774     4082     4243     4159     4460     5119 
    5590     6110     7005     8051     9000     9289     8476     7121 
    5741     4363     3431     3295     3655     4533     6070     7398 
    7608     6998     6065     4949     4055     3692     3738     4260 
    5302     6365     7030     7360     7273     6744     6340     6489 
    6902     7018     6427     5367     4448     3726     3265     3613 
    4822     6239     7122     7171     6716     6041     5098     4094 
    3511     3515     3766     3935     3932     3832     3873     4039 
    4043     4093     4579     5252     5628     5339     4382     3761 
    4455     5972     7318     7950     7596     6682     6230     6658 
    7300     7203     6095     4552     3364     2914     3284     4387 
    5805     7119     8131     8490     8094     7406     6696     5985 
    5628     5663     5603     5360     5152     4976     4882     5103 
    5846     6961     7651     7393     6544     5556     4769     4531 
    4754     5007     4945     4463     3751     3249     3385     4243 
    5670     7300     8469     8808     8164     6315     3902     2215 
    1906     2775     4062     5197     6173     6815     7006     7172 
    7368     6994     5989     5001     4255     3397     2365     1601 
    1521     2180     3519     5375     7141     8208     8563     8376 
    7689     6758     6046     5807     5985     6378     6670     6583 
    6191     5688     5161     4804     4693     4627     4488     4291 
    4176     4243     4417     4846     5738     6744     7322     7214 
    6628     6272     6564     7132     7310     6623     5286     4192 
    3997     4747     6052     7241     7771     7506     6647     5389 
    3969     2999     2822     3123     3511     3558     3140     2882 
    3260     4233     5645     6928     7435     7076     6234     5552 
    5471     5944     6640     6999     6762     6463     6567     6754 
    6667     6411     5964     5229     4450     3859     3501     3500 
    4008     4862     5427     5319     4922     4657     4556     4367 
    3894     3697     4295     5205     6129     7236     8082     8297 
    8007     6955     5147     3474     2529     2323     2915     3987 
    4833     5367     5923     6669     7873     9431    10484    10611 
   10173     9302     7863     6038     4199     2659     1688     1468 
    2060     3321     4680     5497     5691     5494     5042     4506 
    4117     4020     4174     4425     4652     4945     5674     6980 
    8319     9137     9414     9212     8575     7636     6465     5402 
    4855     4402     3538     2732     2394     2274     2479     3388 
    4645     5603     6207     6593     6739     6916     7296     7414 
    7061     6407     5364     4378     4324     5105     5940     6374 
    6278     5837     5456     5301     5086     4526     3802     3298 
    3172     3446     4170     5228     6172     6642     6673     6427 
    6093     5791     5429     5119     5124     5317     5375     5279 
    5368     5992     7098     8410     9632    10166     9321     7152 
    4541     2430     1378     1391     1962     2623     3186     3615 
    4078     4792     5783     6743     7317     7588     7643     7136 
    6069     5163     4876     4941     5105     5508     6293     7381 
    8406     8981     9155     9016     8083     6143     3963     2315 
    1328      989     1188     1787     2878     4233     5247     5649 
    5641     5607     5751     5984     6304     6708     6995     7105 
    7048     6748     6336     5968     5501     4941     4652     4761 
    4884     4783     4642     4509     4286     4126     4174     4549 
    5429     6480     7029     7061     6937     6625     6211     6135 
    6473     6839     6871     6400     5506     4683     4563     5077 
    5518     5574     5319     4945     4882     5220     5537     5613 
    5502     5368     5429     5706     6046     6281     6264     6087 
    5998     6030     5976     5659     5201     4788     4419     4220 
    4353     4664     4878     4807     4448     4121     4176     4730 
    5788     7137     8235     8662     8453     7773     6670     5304 
    4107     3447     3443     4122     5055     5389     4977     4504 
    4423     4739     5185     5205     4584     3817     3484     3747 
    4510     5529     6266     6356     6308     6727     7261     7391 
    7227     6881     6210     5458     5088     5019     4947     4938 
    4946     4746     4557     4691     4996     5251     5470     5748 
    6092     6367     6289     5705     4959     4660     5100     6043 
    6901     7234     7094     6905     7020     7269     7272     7079 
    6926     6727     6296     5738     5268     4884     4491     4107 
    3773     3516     3338     3190     3090     3017     2957     3284 
    4344     5925     7553     8808     9370     9235     8623     7628 
    6318     5140     4487     4167     4048     4252     4631     4981 
    5163     4911     4241     3566     3248     3334     3642     3947 
