Origin Time       2019/01/14 13:23:00
Lat.              36.162
Long.             139.810
Depth. (km)       53
Mag.              4.9
Station Code      CHB008
Station Lat.      35.6537
Station Long.     139.9023
Station Height(m) 4
Record Time       2019/01/14 13:23:55
Sampling Freq(Hz) 100Hz
Duration Time(s)  74
Dir.              N-S
Scale Factor      7845(gal)/8223790
Max. Acc. (gal)   6.730
Last Correction   2019/01/14 13:23:54
Memo.             
[...]
    5136     5733     6717     7385     7623     7522     7180     6889 
    6837     6856     6845     6858     6706     6442     6508     6793 
    6835     6777     6835     6716     6323     6066     6142     6289 
    6401     6628     6906     7071     7132     7175     7177     7037 
    6789     6612     6497     6409     6639     7188     7395     6956 
    6316     5868     5798     6186     6798     7275     7360     7072 
    6652     6262     6153     6616     7326     7651     7508     7150 
    6696     6334     6340     6583     6646     6524     6498     6505 
    6384     6230     6227     6505     6963     7257     7209     6976 
    6714     6400     6134     6148     6382     6555     6598     6564 
    6481     6531     6947     7546     7884     7796     7385     6678 
    5887     5595     6070     6839     7345     7510     7388     6905 
    6288     6114     6417     6617     6558     6583     6754     6797 
    6708     6822     7236     7541     7377     6901     6397     5930 
    5675     5879     6304     6534     6554     6475     6322     6266 
    6392     6563     6731     6817     6805     6997     7422     7651 
    7510     7173     6866     6720     6616     6389     6054     5722 
    5628     5933     6494     7123     7695     8016     8000     7715 
    7225     6743     6612     6878     7238     7435     7375     7005 
    6318     5544     5235     5732     6629     7310     7622     7596 
    7203     6683     6434     6525     6711     6798     6841     6951 
    6966     6732     6426     6214     6012     5788     5802     6242 
    6782     7040     7079     7071     6975     6697     6494     6898 
    7750     8186     7935     7497     7071     6459     5869     5702 
    5765     5609     5248     5128     5618     6417     6905     7140 
    7420     7616     7797     8128     8239     7835     7186     6543 
    5972     5607     5526     5645     5822     5894     5859     6026 
    6669     7614     8457     8830     8411     7272     6085     5451 
    5541     6278     7218     7711     7434     6608     5833     5602 
    5942     6527     6883     6820     6659     6673     6852     7134 
    7296     7034     6423     5961     6114     6806     7484     7731 
    7520     6914     5988     5140     5067     5973     7129     7723 
    7562     6736     5467     4442     4556     5891     7531     8626 
    8928     8479     7695     7142     6856     6673     6660     6685 
    6446     5968     5626     5697     5930     6075     6443     7215 
    8089     8807     9096     8669     7668     6511     5622     5382 
    5787     6361     6702     6794     6632     6165     5738     5890 
    6583     7215     7453     7537     7630     7480     6947     6292 
    5837     5710     5961     6582     7311     7727     7747     7627 
    7450     7184     6914     6536     5859     5167     4909     5139 
    5765     6590     7149     7218     6894     6308     5980     6346 
    6886     7190     7542     7715     7314     6764     6396     5983 
    5458     5157     5463     6247     6932     7295     7482     7508 
    7438     7465     7503     7429     7469     7652     7535     6897 
    6011     5324     5258     5871     6710     7323     7491     7169 
    6687     6409     6254     6207     6497     6987     7376     7638 
    7756     7652     7372     6929     6280     5643     5479     5940 
    6687     7408     7908     7885     7339     6600     5831     5243 
    5189     5626     6265     6975     7444     7298     6739     6354 
    6426     6853     7298     7443     7515     7936     8309     7893 
    6847     5898     5417     5401     5655     6066     6733     7395 
    7537     7168     6666     6393     6515     6683     6602     6609 
    6717     6474     6053     5815     5699     6004     7020     7998 
    8241     8056     7727     7150     6507     6030     5740     5790 
    6274     6926     7389     7338     6616     5702     5413     5933 
    6714     7326     7727     7796     7404     6874     6632     6671 
    6741     6791     6879     6845     6558     6204     5887     5541 
    5447     5872     6486     6837     6939     7086     7354     7569 
    7614     7392     6916     6583     6735     7156     7422     7258 
    6673     5933     5216     4758     5009     5760     6228     6521 
    7210     7917     8085     7870     7399     6697     6282     6623 
    7500     8360     8675     8182     7209     6274     5611     5360 
    5529     5906     6361     6744     6841     6700     6492     6354 
    6446     6656     6727     6659     6542     6363     6107     5787 
    5497     5459     5845     6529     7209     7736     8111     8248 
    8037     7519     6895     6451     6394     6617     6760     6654 
    6544     6538     6328     5964     6010     6643     7561     8454 
    8900     8625     7921     7150     6343     5497     4741     4357 
    4760     5952     7160     7641     7443     6995     6601     6534 
    6855     7337     7728     7751     7168     6147     5233     4958 
    5416     6242     7157     8056     8596     8461     7812     7076 
    6596     6399     6115     5547     5012     4855     5263     6320 
    7581     8309     8220     7553     6844     6605     6925     7357 
    7369     6885     6186     5524     5136     5339     6191     7225 
    7827     7847     7443     6832     6444     6528     6686     6605 
    6431     6143     5771     5776     6245     6686     6775     6654 
    6799     7506     8507     9269     9234     8243     6867     5682 
    4877     4768     5456     6234     6465     6330     6185     6285 
    6919     7923     8564     8299     7249     5967     5084     4904 
    5196     5692     6354     6822     6731     6471     6593     7091 
    7685     7966     7641     7155     7042     7022     6835     6696 
    6397     5643     4946     4974     5772     7002     8127     8623 
    8472     8097     8028     8540     9073     8711     7399     5753 
    4283     3357     3125     3528     4469     5572     6417     7177 
    8012     8492     8509     8527     8569     8260     7713     7329 
    7206     7263     7300     6990     6309     5610     5101     4757 
    4700     5026     5478     5818     6070     6290     6597     7190 
    8050     8900     9373     9252     8721     8044     7295     6559 
    5813     4994     4459     4518     4876     5290     5907     6677 
    7353     7987     8665     9053     8799     8113     7453     6772 
    5694     4352     3484     3562     4263     5057     5857     6693 
    7345     7574     7473     7501     7935     8434     8510     8055 
    7203     6183     5377     5123     5447     6118     6732     6936 
    6879     7029     7462     7797     7692     7146     6497     6122 
    6210     6809     7713     8347     8311     7815     7169     6523 
    6089     5987     6130     6373     6373     6053     6006     6423 
    6840     7229     7611     7495     6974     6633     6335     5845 
    5563     5587     5625     5877     6651     7701     8575     8985 
    8822     8214     7429     6696     6188     5833     5335     4704 
    4352     4598     5435     6631     7903     9004     9510     8972 
    7619     6309     5582     5390     5567     5760     5521     5058 
    5105     5821     6566     6687     6232     5900     6157     6737 
    7340     8094     8795     8611     7329     5980     5571     5946 
    6330     6455     6574     6782     7025     7258     7256     6914 
    6488     6141     5984     6191     6457     6369     6284     6670 
    7288     7769     7940     7751     7500     7420     7261     6967 
    6810     6706     6544     6694     7338     8078     8441     8147 
    7291     6363     5749     5535     5722     6142     6474     6644 
    6787     6924     7029     7098     7144     7338     7650     7693 
    7377     6820     6079     5694     6127     6880     7361     7466 
    7086     6290     5611     5320     5217     5385     5962     6542 
    6862     7188     7400     6971     5998     5200     5078     5637 
    6579     7399     7539     6979     6513     6669     6852     6480 
    5958     5872     6189     6666     7257     7855     8071     7696 
    7038     6648     6744     6926     6866     6880     7023     6881 
    6789     7329     8062     8344     8245     7906     7198     6197 
    5169     4459     4575     5653     6990     7804     7921     7238 
    5701     4126     3704     4564     5881     6956     7503     7360 
    6546     5517     4970     5181     5783     6463     7357     8463 
    9505    10320    10643    10207     9300     8185     6650     5039 
    4407     5040     5945     6131     5714     5575     6473     8619 
   11410    13500    13763    12060     9000     5589     2997     2043 
    2990     5476     8213     9593     9081     7364     5343     3661 
    2832     3098     3954     4531     4625     4702     5103     5782 
    6524     7140     7491     7399     6815     6019     5420     5491 
    6517     7931     8780     8694     7847     6797     6427     7037 
    8012     8838     9246     8649     6914     4996     3928     3987 
    4922     6280     7570     8309     8052     6710     4784     2994 
    1854     1787     3275     6224     9351    10937    10245     8012 
    5864     5120     5890     7339     8540     8814     7893     6178 
    4608     4132     4936     6164     6972     7492     8128     8586 
    8179     6939     5825     5525     5776     6278     7137     7809 
    7075     4928     3157     3361     5645     9003    11854    12898 
   11961     9768     7402     5768     4965     4646     4873     5724 
    6768     7731     8559     8594     7138     4704     2501     1343 
    1541     2848     4669     6949     9828    12444    13585    13066 
   11574     9622     7245     4703     2915     2577     3348     4286 
    4707     4780     5451     7236     9530    11485    12465    11618 
    8856     5836     4195     3906     4398     5476     6617     7068 
    6777     6394     6377     6374     5833     4977     4515     4779 
    5760     7291     8506     8176     6301     4495     4167     5088 
    6238     6905     6623     5551     4716     4855     5756     6858 
    7778     8499     9034     9043     8540     8189     8100     7472 
    5914     4035     2863     3300     5443     8341    10901    12514 
   12898    12224    10967     9252     7007     4598     2663     1811 
    2425     4085     5845     7277     8371     9005     8970     7942 
    5852     3446     1825     1572     2694     4882     7588    10096 
   11682    11816    10303     7378     4036     1850     1753     3327 
    5512     7447     8702     9331     9601     9382     8476     7338 
    6417     5466     4468     3991     4311     5323     6689     7794 
    8472     9000     9188     8664     7595     6546     6108     6266 
    6142     5283     4576     4968     6336     7951     8989     8970 
    8217     7342     6831     7275     8667     9863     9953     9100 
    7753     6438     5738     5613     5656     5821     6280     7119 
    8129     8884     9367     9954    10558    10370     8815     6529 
    4911     4737     5603     6502     6843     6848     6801     6671 
    6629     6729     6480     5519     4031     2428     1286     1094 
    1830     3063     4271     5044     5275     5031     4445     3775 
    3160     2465     1713     1219     1217     1982     3901     6875 
   10093    12456    13211    12393    10412     7690     5217     4271 
    4999     6305     7136     7210     6990     7127     7747     8546 
    9242     9633     9803    10068    10405    10594    10662    10589 
   10214     9609     8841     7728     6438     5594     5393     5371 
    5147     4912     5097     5796     6885     8220     9312     9575 
    9092     8395     7767     7296     7105     7159     7219     7118 
    6818     6393     6023     5826     5831     5895     5621     4800 
    3727     3009     3330     4916     6988     8247     8040     7010 
    6454     6906     7750     8326     8622     8658     8225     7438 
    6889     7149     8197     9283     9574     8700     6845     4645 
    2855     2019     2265     3148     4083     5009     6093     7034 
    7306     6878     6195     5672     5549     5872     6454     7029 
    7541     8159     8838     9124     8807     8298     8040     8027 
    7881     7264     6280     5273     4477     4023     3904     4016 
    4352     4750     4725     4066     3211     2811     3339     4857 
    6790     8388     9310     9508     9130     8650     8436     8263 
    7753     6914     6011     5309     5112     5659     6774     7879 
    8630     9207     9830    10458    10902    10788     9775     7981 
    5887     4124     3175     2857     2683     2758     3569     5301 
    7735    10370    12534    13610    13363    12066    10103     7693 
    5219     3287     2398     2602     3380     4191     4911     5462 
    5833     6318     7048     7894     8683     8988     8527     7618 
    6511     5227     4152     3677     3794     4530     5821     7231 
    8447     9324     9594     9239     8579     7801     7026     6658 
    7051     8118     9401    10314    10444     9575     7657     5147 
    2855     1239      475      777     2153     4307     6875     9388 
   11254    12078    11828    10523     8163     5053     1930     -149 
    -336     1256     3650     6124     8625    10974    12521    12938 
   12448    11151     9096     6729     4561     2902     1912     1362 
     780      245      499     2119     4954     8264    11007    12306 
   11940    10303     8128     6336     5595     5759     6162     6451 
    6689     6959     7275     7624     7893     7863     7496     7098 
    6864     6685     6646     7013     7688     8302     8556     8376 
    8010     7761     7638     7348     6594     5437     4359     3939 
    4557     6168     8166     9779    10594    10670    10342     9860 
    9196     8294     7169     5776     4215     2889     2180     2203 
    2874     4001     5324     6516     7223     7284     6677     5390 
    3800     2636     2245     2506     3279     4307     5337     6512 
    7966     9448    10685    11574    12071    12083    11400     9926 
    7966     5945     4185     3005     2582     2857     3716     4897 
    5948     6505     6474     6000     5346     4720     4422     4795 
    5713     6574     7067     7441     7983     8753     9796    11044 
   12073    12502    12334    11654    10523     9134     7634     6091 
    4649     3411     2423     1861     1922     2581     3663     5034 
    6519     7893     9128    10160    10632    10443    10039     9767 
    9526     9182     8793     8406     7879     7071     6107     5278 
    4903     5213     6018     6799     7264     7365     7041     6201 
    4839     3226     1903     1171      909     1023     1655     2792 
    4128     5485     6944     8406     9463     9809     9526     9023 
    8684     8509     8209     7771     7541     7709     8095     8406 
    8390     7761     6389     4639     3109     2195     2012     2424 
    3148     3998     4846     5508     6025     6755     7931     9340 
   10520    11109    11021    10461     9891     9742     9894     9764 
    8972     7541     5759     4225     3523     3708     4471     5541 
    6670     7672     8648     9846    11211    12243    12382    11499 
    9892     8085     6666     5985     5910     5983     5817     5319 
    4669     4126     3842     3924     4482     5454     6640     7924 
    9167    10048    10331    10099     9487     8477     7007     5233 
    3643     2716     2533     2895     3423     3626     3380     3056 
    3013     3384     4192     5267     6264     7032     7661     8226 
    8780     9359     9811     9913     9605     8849     7603     6107 
    4931     4558     5005     5805     6502     7026     7287     7068 
    6509     5881     5115     4086     3051     2587     3184     4754 
    6793     8915    10778    11862    11937    11358    10589     9844 
    9094     8195     7122     6065     5290     4974     5109     5641 
    6562     7717     8654     8961     8684     8081     7223     6131 
    4923     3738     2803     2407     2681     3597     4968     6393 
    7484     8117     8394     8391     8050     7335     6400     5529 
    5023     5027     5490     6273     7188     7969     8364     8251 
    7770     7231     6828     6567     6366     6057     5530     4947 
    4545     4326     4203     4266     4563     4977     5474     6181 
    7064     7838     8274     8382     8310     8298     8634     9355 
   10142    10600    10517     9981     9258     8480     7678     6948 
    6440     6282     6465     6845     7260     7531     7562     7426 
    7227     7026     6907     6916     7029     7253     7418     7137 
    6421     5821     5717     5994     6320     6420     6119     5464 
    4827     4579     4715     4947     4985     4742     4355     4093 
    4220     4710     5268     5634     5711     5547     5310     5223 
    5389     5717     6115     6633     7331     8158     8955     9479 
    9521     9084     8291     7257     6201     5467     5268     5634 
    6361     7034     7335     7214     6860     6711     7118     7974 
    8837     9351     9535     9536     9401     9251     9228     9209 
    8992     8611     8251     7997     7688     7098     6259     5412 
    4735     4278     4106     4344     4893     5391     5599     5584 
    5483     5402     5474     5724     5972     6015     5744     5194 
    4622     4429     4926     6022     7252     8133     8341     7776 
    6782     5915     5481     5535     5987     6534     6817     6754 
    6528     6411     6601     7044     7447     7611     7586     7526 
    7480     7437     7406     7352     7169     6924     6852     7099 
    7596     8098     8263     7952     7385     6791     6219     5741 
    5443     5395     5679     6268     6972     7542     7854     8078 
    8464     8912     9076     8781     8182     7535     6880     6023 
    4882     3828     3440     3960     5074     6323     7515     8517 
    9099     9207     8910     8260     7427     6693     6292     6312 
    6681     7217     7709     7954     7846     7489     7094     6782 
    6579     6467     6351     6065     5398     4291     3106     2432 
    2664     3790     5377     6772     7446     7229     6475     5831 
    5718     6145     6829     7296     7176     6513     5679     5101 
    5065     5524     6208     6886     7393     7596     7507     7365 
    7495     7981     8619     9143     9391     9306     8915     8293 
    7458     6351     5031     3863     3223     3138     3431     4024 
    4814     5563     6145     6754     7690     8924     9989    10349 
    9769     8467     6957     5755     5184     5293     5768     6176 
    6376     6571     6944     7403     7731     7736     7392     6918 
    6581     6424     6376     6459     6709     7086     7560     8048 
    8391     8557     8614     8546     8259     7732     7094     6543 
    6251     6355     6899     7677     8236     8259     7813     7127 
    6399     5795     5373     5089     4870     4603     4330     4310 
