Origin Time       2019/01/14 13:23:00
Lat.              36.162
Long.             139.810
Depth. (km)       53
Mag.              4.9
Station Code      CHB008
Station Lat.      35.6537
Station Long.     139.9023
Station Height(m) 4
Record Time       2019/01/14 13:23:55
Sampling Freq(Hz) 100Hz
Duration Time(s)  74
Dir.              E-W
Scale Factor      7845(gal)/8223790
Max. Acc. (gal)   7.562
Last Correction   2019/01/14 13:23:54
Memo.             
[...]
    8910     8885     8880     8896     8874     8834     8835     8850 
    8830     8812     8826     8856     8889     8911     8912     8923 
    8950     8959     8922     8858     8802     8768     8781     8869 
    9003     9165     9283     9236     9051     8757     8351     8055 
    8086     8361     8727     9099     9340     9322     9163     9054 
    8989     8965     9045     9146     9109     8916     8642     8411 
    8437     8721     9016     9197     9217     9013     8688     8499 
    8556     8696     8885     9198     9362     9167     8784     8370 
    8179     8357     8637     8885     9140     9302     9333     9289 
    9248     9254     9248     9194     9003     8610     8158     7799 
    7716     8054     8629     9136     9468     9662     9670     9421 
    9081     8873     8877     8923     8806     8667     8603     8533 
    8579     8698     8716     8757     8885     8972     8980     8978 
    8997     8982     9020     9165     9171     9042     8937     8706 
    8407     8337     8527     8862     9220     9435     9277     8823 
    8602     8770     9009     9128     9013     8756     8571     8454 
    8567     9153     9813     9917     9421     8604     7782     7438 
    7751     8387     9013     9412     9512     9347     8995     8803 
    8929     9093     9189     9263     9173     8927     8725     8533 
    8340     8421     8827     9212     9282     9040     8700     8490 
    8546     8806     9117     9351     9364     9161     8850     8560 
    8532     8812     9116     9082     8612     8135     8137     8567 
    9126     9544     9656     9475     8972     8318     7989     8085 
    8506     9201     9760     9826     9499     9093     8837     8608 
    8383     8371     8453     8494     8600     8799     9038     9178 
    9089     8814     8538     8482     8715     9185     9657     9759 
    9502     9144     8667     8163     8027     8398     9069     9699 
    9906     9686     9293     8715     8035     7533     7371     7645 
    8222     8830     9293     9514     9633     9775     9813     9709 
    9567     9420     9212     8803     8162     7634     7614     8047 
    8513     8760     8842     8824     8730     8658     8754     9150 
    9737    10216    10427    10249     9613     8764     8136     8000 
    8202     8404     8430     8236     7917     7716     7939     8816 
   10072    10929    10914    10204     9192     8186     7497     7406 
    7938     8829     9609     9949     9841     9189     8124     7340 
    7238     7697     8520     9440    10164    10477    10319     9683 
    8673     7776     7352     7484     8266     9319    10071    10278 
    9679     8477     7524     7165     7203     7639     8536     9593 
   10251    10207     9616     8856     8245     7959     8155     8957 
   10143    11160    11452    10681     8869     6751     5454     5562 
    6952     9008    10845    11796    11534    10233     8577     7221 
    6643     7082     8191     9459    10559    11094    10847    10014 
    8955     8097     7761     8024     8698     9335     9575     9293 
    8529     7624     7028     7072     7960     9452    10908    11713 
   11504    10458     9080     7728     6772     6353     6326     6768 
    7696     8854     9956    10536    10292     9505     8745     8576 
    9089     9626     9625     9162     8408     7635     7310     7605 
    8424     9491    10160    10081     9690     9350     8941     8546 
    8309     8066     7886     8063     8664     9459    10030    10226 
   10220     9945     9278     8542     8191     8453     9174     9713 
    9512     8635     7537     6733     6525     6941     7986     9474 
   10762    11190    10692     9640     8579     8132     8305     8545 
    8662     8652     8579     8748     9035     9147     9267     9364 
    9121     8772     8627     8552     8622     8908     9134     9127 
    8783     8235     7967     8156     8738     9525    10029     9941 
    9454     8934     8649     8762     9163     9413     9281     8845 
    8210     7736     7786     8214     8715     9116     9236     9108 
    9159     9566     9931     9940     9483     8641     8004     7920 
    8090     8444     9120     9804    10107     9946     9271     8152 
    7099     6687     7087     8098     9274    10029    10096     9849 
    9674     9560     9528     9629     9701     9509     8926     8055 
    7300     7127     7472     7778     7974     8334     8560     8441 
    8270     8005     7750     8208     9536    11010    11765    11377 
   10216     8866     7684     7152     7499     8276     8939     9215 
    8947     8303     7940     8176     8780     9661    10501    10795 
   10601    10052     9180     8548     8603     9026     9333     9266 
    8808     8195     7697     7647     8128     8712     9227     9737 
    9945     9718     9435     9385     9509     9491     9001     8139 
    7352     6987     7180     7831     8680     9467     9918     9934 
    9657     9147     8530     8257     8579     9182     9536     9416 
    9109     8835     8464     8019     7704     7682     7993     8474 
    8976     9463     9741     9641     9327     8870     8229     7827 
    8012     8494     9051     9575     9807     9795     9589     8964 
    8132     7646     7676     8193     9131     9987    10284    10100 
    9590     8949     8431     8095     8100     8500     8978     9379 
    9626     9562     9263     8685     7882     7443     7632     8245 
    9113     9890    10324    10457    10284     9792     8993     8131 
    7759     8162     8989     9560     9593     9316     8895     8421 
    8063     7839     7701     7747     8068     8556     9158     9810 
   10138     9913     9273     8513     8166     8506     9090     9337 
    9158     8754     8199     7700     7699     8222     8988     9714 
    9871     9220     8317     7869     8144     8827     9456     9886 
    9995     9682     9173     8733     8464     8421     8537     8688 
    8830     8885     8789     8648     8472     8202     8230     8919 
    9822    10399    10565    10349     9833     9224     8796     8603 
    8454     8324     8266     8275     8324     8298     8116     7823 
    7713     8009     8372     8668     9327    10305    10983    11024 
   10492     9589     8696     8113     7869     8077     8698     9285 
    9493     9211     8538     7704     6862     6473     6925     7759 
    8490     9209     9842    10033     9784     9421     9159     9285 
    9907    10577    10916    10750     9818     8397     7373     7198 
    7468     7817     8262     8503     8310     8054     8028     8364 
    9216    10247    10930    11295    11360    10854     9995     9140 
    8209     7250     6490     5898     5466     5545     6421     7862 
    9431    10705    11276    11020    10154     9107     8294     7973 
    8229     8772     9073     8923     8464     7928     7604     7746 
    8355     9271    10381    11476    12063    11695    10471     8997 
    7973     7716     7906     8267     8961     9818    10208     9837 
    9058     8391     7969     7711     7716     8106     8815     9501 
    9682     9336     8984     8981     9269     9586     9688     9628 
    9552     9333     8760     7792     6718     6195     6629     7678 
    8880    10060    10930    11169    10683     9614     8451     7674 
    7402     7560     8035     8768     9653    10335    10369     9659 
    8615     7723     7296     7466     7978     8426     8707     8715 
    8274     7673     7504     7851     8421     9054     9504     9570 
    9525     9567     9566     9435     8969     8098     7380     7219 
    7447     8044     9161    10443    11242    11308    10889    10377 
    9877     9234     8610     8202     7835     7662     7967     8477 
    9053     9729     9992     9595     9101     8845     8754     8907 
    9212     9433     9636     9973    10326    10354     9826     8834 
    7862     7519     7854     8406     8847     8999     8640     7784 
    6878     6455     6710     7507     8536     9485    10055    10034 
    9660     9327     8941     8401     8086     8257     8791     9387 
    9740     9921    10091     9983     9525     9213     9429     9922 
   10026     9404     8352     7454     7063     7092     7364     7749 
    8091     8477     9055     9767    10503    10848    10350     9390 
    8522     7776     7484     8025     8815     9077     8830     8502 
    8424     8608     8746     8870     9243     9489     9259     8984 
    8893     8802     8671     8444     8137     8021     8182     8430 
    8627     8775     8988     9432    10203    11117    11649    11491 
   10636     9111     7485     6559     6463     6926     7531     8129 
    9000     9764     9753     9251     8757     8259     7770     7577 
    7851     8486     9256     9826     9938     9730     9335     8912 
    8920     9378     9810    10006    10026     9857     9324     8467 
    7782     7495     7338     7314     7742     8600     9454     9944 
    9994     9732     9400     9212     9162     9000     8606     8202 
    8085     8471     9279    10039    10574    11037    11057    10334 
    9495     9132     9180     9344     9223     8631     7884     7279 
    6744     6231     6006     6200     6439     6507     6616     6910 
    7838    10081    13036    15128    15758    15439    14496    12816 
   10624     8494     6858     5967     5864     6451     7434     8263 
    8802     9000     8116     6160     4675     4768     6025     7524 
    8718     9216     8477     6709     5501     6366     9192    12464 
   14494    14378    12193     8642     4935     2632     2523     3932 
    5734     7110     7603     7457     7311     7381     7458     7461 
    7669     8471     9725    10481    10050     9139     9121    10301 
   11684    12413    12538    12590    13073    13961    14760    14889 
   13631    10741     7086     4029     2612     3210     5197     7196 
    8263     8721     9435    10693    12024    12476    11441     9602 
    8398     8756    10511    12413    12984    11931    10489    10015 
   10351    10272     9140     7168     4932     3199     2431     2855 
    4699     7414     9679    10849    11279    11512    11936    12262 
   11587     9941     8549     8271     9038    10368    11549    11692 
   10378     8158     5946     4450     3971     4372     5651     7751 
    9753    10544     9926     8509     7138     6343     6066     6234 
    7059     8610    10724    12976    14382    13915    11709     9113 
    7396     6912     7271     7855     8228     8068     7372     7033 
    8001     9837    11389    12144    12056    11152     9533     7340 
    5174     4054     4460     6210     8939    11929    14196    15121 
   14523    12712    10519     8604     7209     6450     6231     6222 
    6301     6764     7798     8934     9312     8545     7233     6308 
    6191     7034     8608     9814     9595     8109     6523     6135 
    7564    10392    13416    15217    14891    12622     9621     7264 
    6102     5854     6011     6114     5890     5495     5481     6250 
    7709     9440    10835    11502    11562    11391    11218    10812 
    9931     8901     8274     8318     8742     9012     8985     8626 
    7948     7558     8202     9826    11457    11790    10170     7504 
    5491     4965     5825     7692     9994    12205    13806    14218 
   13429    11921    10000     8023     6473     5607     5481     6027 
    7157     8743    10345    11394    11724    11610    11245    10397 
    8738     6517     4675     4148     5103     6702     7858     8306 
    8480     8811     9410     9864     9837     9640     9423     9035 
    8660     8384     8124     8031     7924     7519     7273     7647 
    8328     8753     8653     8208     8082     8787    10080    11519 
   12831    13406    12827    11553    10206     9035     8228     7958 
    8318     9319    10701    12031    13084    13581    12966    11103 
    8612     6343     4868     4386     4835     5931     7156     8010 
    8560     9490    11190    13120    14443    14611    13288    10596 
    7236     4324     3099     3929     5998     8228     9711     9832 
    8546     6312     3942     2377     2161     3298     5621     8669 
   11377    12745    12609    11539    10385     9774     9749     9967 
    9987     9292     7776     6142     5063     4743     5421     7160 
    9398    11157    11587    10642     9170     7956     7067     6515 
    6656     7588     8984    10329    11005    10812    10164     9512 
    9221     9568    10258    10779    11072    11300    11537    11746 
   11720    11325    10732    10187     9934    10003     9983     9670 
    9324     8995     8464     7657     6772     6336     6835     8225 
    9979    11475    12209    11961    10962     9632     8301     7411 
    7157     7240     7218     6592     5173     3440     2214     2313 
    4028     6581     8743     9872    10126    10077    10208    10512 
   10648    10451     9964     9252     8375     7376     6432     5814 
    5684     6174     7326     8912    10544    11755    12201    11973 
   11392    10613     9548     8222     7007     6345     6552     7652 
    9270    11114    13008    14466    15018    14588    13396    11898 
   10503     9267     8101     6968     6092     6034     7107     9077 
   11437    13543    14742    14562    12904    10234     7254     4487 
    2346     1155      946     1578     3163     5985     9856    13821 
   16425    16525    14297    11002     7982     6203     5838     6257 
    6789     7048     6866     6359     5856     5793     6473     7484 
    7867     7288     6361     5748     5686     6033     6403     6789 
    7657     9358    11728    13968    15140    14886    13404    11307 
    9374     8000     7211     6832     6562     6377     6434     6764 
    7519     8784    10139    11024    11191    10736    10295    10597 
   11472    12158    12287    11878    11321    11291    11867    12422 
   12439    11753    10562     9435     8733     8256     7619     6588 
    5175     3774     2928     2913     3906     6034     8849    11479 
   13213    13679    13027    11838    10559     9315     8163     7362 
    7307     8075     9306    10385    10623     9699     8005     6423 
    5787     6268     7092     7290     6639     5683     5275     6046 
    7847     9903    11426    11916    11288     9898     8449     7537 
    7169     7164     7477     8033     8795     9621    10277    10766 
   11025    10708     9736     8579     7798     7444     7163     6813 
    6701     7130     8000     8830     8989     8197     6949     6093 
    6093     6883     8025     9103    10099    11043    11808    12420 
   12819    12722    11862    10181     8220     6876     6442     6556 
    6921     7356     7655     7902     8390     9170    10060    10828 
   11360    11696    11820    11700    11399    10971    10467     9923 
    9371     9015     9139     9657    10149    10359    10160     9304 
    7925     6777     6608     7560     9146    10660    11577    11685 
   11064    10034     8970     8094     7619     7661     7852     7704 
    7171     6600     6543     7195     8062     8657     8877     8640 
    7964     7175     6652     6708     7419     8371     8884     8564 
    7526     6210     5166     4889     5559     6881     8395     9832 
   11002    11608    11564    11230    11129    11481    12071    12501 
   12421    11792    10983    10353     9965     9643     9051     8102 
    7013     5971     5231     5093     5653     6864     8561    10369 
   11695    11996    11358    10336     9229     8175     7500     7557 
    8490    10011    11458    12328    12573    12420    12010    11218 
    9771     7623     5246     3445     2752     3087     3975     5009 
    6142     7546     9277    11207    12987    13892    13281    11280 
    8608     6031     4112     3190     3501     5015     7127     8992 
   10133    10500    10268     9705     9034     8407     8040     8082 
    8379     8644     8819     9062     9483    10080    10767    11425 
   11929    12075    11638    10678     9620     8957     8899     9355 
   10012    10292     9774     8573     7155     6091     5859     6571 
    7947     9400    10361    10722    10696    10507    10454    10812 
   11518    12181    12345    11645    10071     8110     6304     5096 
    4963     5968     7608     9309    10632    11391    11678    11574 
   10993     9836     8185     6430     5147     4801     5525     7127 
    9139    10875    11847    12013    11538    10689     9796     8899 
    7769     6440     5359     4899     5051     5701     6651     7487 
    7927     8013     7870     7510     6978     6515     6285     6334 
    6810     7786     9077    10411    11568    12451    12966    12961 
   12390    11349    10106     9038     8181     7331     6631     6300 
    6210     6243     6511     7056     7792     8522     8919     8818 
    8398     7986     7943     8581     9883    11361    12453    13024 
   13335    13639    13977    14305    14528    14364    13495    11875 
    9722     7362     5182     3462     2398     2177     2833     4182 
    5938     7825     9594    10821    11043    10318     9213     8239 
    7761     8070     9139    10546    11793    12656    13047    12945 
   12487    11746    10682     9405     8104     6883     5864     5134 
    4531     3869     3238     2895     3078     3963     5559     7611 
    9551    10767    11088    10829    10542    10601    10875    11001 
   10845    10534    10201     9804     9180     8262     7221     6419 
    6255     6955     8418    10246    11790    12403    11951    10883 
    9796     9139     8941     8884     8827     8896     9211     9730 
   10372    11132    11974    12669    12995    12935    12484    11645 
   10562     9450     8635     8322     8225     7869     6993     5737 
    4735     4556     5205     6354     7439     7836     7444     6660 
    5848     5325     5377     5910     6662     7569     8533     9382 
   10014    10254     9961     9288     8538     7933     7611     7600 
    7707     7712     7662     7784     8224     8924     9703    10382 
   10825    11026    11048    10867    10497    10033     9468     8839 
    8298     7897     7597     7416     7468     7879     8590     9413 
   10241    10916    11221    11132    10840    10593    10580    10804 
   11010    10932    10517     9849     8991     8040     7245     6886 
    7065     7601     8144     8453     8559     8711     9108     9737 
   10504    11287    11956    12376    12289    11508    10160     8545 
    7033     5923     5427     5788     7034     8769    10494    11819 
   12352    11804    10351     8563     6926     5732     5108     4936 
    5039     5268     5413     5405     5395     5564     6065     6948 
    8020     8947     9512     9809    10127    10729    11706    12822 
   13643    13905    13497    12413    10910     9423     8257     7441 
    6763     6058     5414     4969     4745     4841     5364     6319 
    7699     9339    10833    11913    12590    13003    13350    13720 
   13968    13861    13270    12191    10810     9359     7915     6561 
    5474     4742     4425     4594     5202     6133     7184     8081 
