Origin Time       2016/04/16 01:25:00
Lat.              32.753
Long.             130.762
Depth. (km)       12
Mag.              7.3
Station Code      ISK014
Station Lat.      36.3028
Station Long.     136.3154
Station Height(m) 4
Record Time       2016/04/16 01:28:10
Sampling Freq(Hz) 100Hz
Duration Time(s)  87
Dir.              U-D
Scale Factor      7845(gal)/8223790
Max. Acc. (gal)   0.872
Last Correction   2016/04/16 01:28:11
Memo.             
[...]
   24288    24286    24285    24283    24281    24282    24282    24278 
   24278    24279    24277    24277    24278    24278    24282    24288 
   24293    24297    24302    24305    24311    24318    24321    24328 
   24334    24340    24349    24359    24364    24371    24382    24389 
   24391    24395    24400    24403    24403    24406    24409    24412 
   24413    24416    24422    24429    24430    24435    24443    24445 
   24448    24449    24445    24448    24448    24441    24441    24441 
   24436    24435    24430    24420    24418    24414    24403    24397 
   24394    24389    24383    24375    24368    24366    24364    24362 
   24359    24359    24354    24351    24348    24343    24336    24332 
   24325    24322    24317    24311    24306    24301    24295    24291 
   24287    24283    24278    24275    24274    24268    24267    24267 
   24267    24267    24268    24271    24278    24282    24285    24288 
   24293    24300    24308    24310    24311    24316    24322    24325 
   24325    24328    24332    24333    24336    24336    24339    24345 
   24349    24348    24354    24359    24359    24363    24370    24374 
   24383    24389    24390    24397    24408    24409    24413    24420 
   24426    24430    24435    24436    24437    24441    24443    24447 
   24451    24457    24463    24467    24472    24478    24483    24484 
   24486    24490    24494    24497    24502    24506    24507    24514 
   24518    24518    24521    24524    24528    24534    24538    24541 
   24547    24547    24548    24552    24552    24552    24556    24559 
   24560    24560    24563    24564    24560    24559    24560    24561 
   24563    24565    24567    24567    24567    24568    24571    24570 
   24568    24572    24574    24575    24579    24575    24574    24574 
   24571    24568    24570    24565    24561    24559    24552    24545 
   24537    24528    24520    24511    24502    24491    24484    24478 
   24467    24456    24445    24437    24433    24430    24424    24416 
   24412    24408    24403    24397    24390    24386    24382    24376 
   24371    24364    24358    24354    24349    24339    24332    24327 
   24320    24313    24309    24305    24301    24300    24300    24304 
   24304    24302    24305    24310    24316    24318    24322    24328 
   24328    24327    24328    24329    24331    24333    24331    24328 
   24329    24329    24325    24324    24325    24327    24327    24328 
   24332    24334    24333    24332    24337    24340    24339    24343 
   24347    24348    24349    24354    24354    24358    24359    24358 
   24356    24356    24358    24360    24360    24359    24359    24359 
   24358    24359    24363    24366    24370    24375    24377    24382 
   24389    24394    24397    24399    24403    24408    24408    24408 
   24408    24406    24405    24403    24399    24394    24391    24383 
   24377    24376    24371    24364    24360    24356    24354    24352 
   24348    24344    24344    24348    24347    24347    24349    24349 
   24351    24354    24351    24349    24351    24354    24356    24354 
   24354    24358    24362    24363    24364    24368    24371    24372 
   24376    24381    24382    24386    24389    24387    24389    24395 
   24397    24397    24400    24405    24405    24408    24409    24412 
   24417    24420    24420    24420    24425    24420    24420    24425 
   24426    24428    24430    24430    24432    24435    24433    24430 
   24432    24435    24433    24435    24436    24435    24433    24435 
   24433    24432    24435    24433    24432    24433    24435    24435 
   24433    24432    24435    24435    24436    24439    24437    24436 
   24436    24433    24430    24428    24424    24425    24425    24420 
   24422    24426    24426    24425    24426    24428    24428    24429 
   24435    24439    24441    24448    24449    24449    24455    24456 
   24456    24462    24466    24463    24462    24462    24460    24459 
   24455    24451    24448    24445    24441    24440    24439    24435 
   24433    24432    24432    24432    24432    24433    24436    24436 
   24437    24441    24440    24440    24443    24447    24448    24448 
   24445    24443    24443    24441    24437    24436    24437    24437 
   24437    24439    24437    24437    24440    24439    24440    24443 
   24443    24443    24443    24443    24447    24448    24445    24443 
   24443    24439    24435    24433    24430    24422    24418    24414 
   24408    24400    24394    24389    24383    24376    24371    24372 
   24371    24368    24370    24371    24367    24368    24367    24362 
   24359    24356    24351    24348    24348    24345    24343    24336 
   24324    24318    24316    24308    24301    24297    24288    24281 
   24277    24270    24263    24259    24256    24254    24248    24244 
   24241    24237    24233    24227    24220    24213    24208    24201 
   24196    24192    24186    24181    24178    24174    24171    24170 
   24167    24166    24166    24166    24163    24162    24163    24165 
   24162    24163    24170    24174    24177    24178    24179    24182 
   24186    24187    24190    24193    24192    24192    24194    24194 
   24193    24194    24194    24193    24194    24193    24192    24193 
   24192    24192    24192    24187    24185    24189    24187    24183 
   24183    24181    24178    24174    24167    24162    24159    24162 
   24159    24156    24158    24158    24158    24158    24158    24159 
   24163    24163    24165    24169    24173    24171    24173    24173 
   24173    24174    24177    24182    24186    24187    24193    24196 
   24196    24202    24210    24212    24213    24220    24225    24227 
   24231    24233    24237    24244    24250    24254    24260    24264 
   24268    24271    24274    24281    24281    24281    24288    24298 
   24300    24304    24310    24317    24322    24331    24337    24343 
   24351    24362    24370    24376    24383    24387    24391    24395 
   24397    24400    24403    24403    24405    24405    24403    24403 
   24403    24399    24400    24400    24397    24400    24402    24405 
   24409    24410    24410    24414    24418    24424    24429    24433 
   24435    24436    24437    24440    24441    24441    24445    24449 
   24451    24447    24448    24452    24453    24453    24459    24462 
   24466    24474    24482    24489    24495    24501    24511    24525 
   24534    24544    24556    24567    24575    24587    24595    24605 
   24618    24629    24638    24652    24663    24671    24682    24692 
   24707    24721    24730    24741    24753    24768    24784    24798 
   24813    24827    24841    24853    24869    24884    24895    24904 
   24918    24934    24942    24949    24960    24968    24975    24983 
   24988    24993    24999    25007    25011    25015    25016    25020 
   25027    25029    25031    25034    25037    25038    25042    25042 
   25037    25034    25031    25026    25020    25016    25015    25010 
   24999    24988    24979    24968    24956    24945    24943    24933 
   24916    24908    24899    24887    24879    24871    24858    24849 
   24841    24833    24823    24811    24799    24788    24775    24760 
   24749    24734    24718    24703    24691    24672    24655    24644 
   24630    24613    24597    24582    24568    24557    24540    24521 
   24506    24486    24463    24443    24425    24410    24394    24375 
   24358    24343    24321    24301    24287    24271    24256    24243 
   24227    24212    24200    24185    24171    24156    24140    24127 
   24117    24105    24092    24077    24065    24055    24044    24036 
   24027    24023    24020    24015    24011    24007    24004    24001 
   24000    24001    24004    24009    24013    24020    24025    24032 
   24039    24044    24054    24065    24070    24077    24084    24086 
   24093    24098    24100    24100    24104    24105    24106    24111 
   24113    24112    24115    24119    24120    24117    24119    24120 
   24121    24123    24124    24123    24121    24120    24119    24116 
   24116    24113    24111    24109    24102    24093    24092    24088 
   24081    24077    24075    24069    24062    24062    24065    24062 
   24058    24055    24054    24054    24050    24042    24039    24038 
   24031    24024    24019    24012    24004    23997    23986    23976 
   23969    23959    23946    23935    23926    23913    23907    23897 
   23885    23884    23881    23874    23874    23875    23875    23875 
   23878    23884    23886    23889    23895    23903    23909    23916 
   23924    23935    23946    23957    23966    23977    23994    24009 
   24020    24038    24055    24069    24088    24111    24131    24155 
   24179    24204    24228    24250    24273    24298    24324    24347 
   24370    24393    24416    24437    24457    24478    24497    24517 
   24534    24552    24574    24590    24606    24626    24645    24660 
   24673    24687    24702    24717    24730    24746    24761    24769 
   24777    24787    24799    24810    24813    24817    24825    24833 
   24834    24834    24836    24835    24831    24827    24823    24815 
   24807    24799    24788    24777    24763    24744    24729    24717 
   24702    24682    24665    24649    24632    24614    24594    24578 
   24560    24538    24522    24505    24479    24462    24447    24426 
   24410    24395    24376    24359    24345    24328    24310    24295 
   24282    24266    24248    24232    24221    24208    24190    24175 
   24162    24148    24136    24123    24112    24101    24090    24084 
   24075    24069    24062    24050    24046    24042    24035    24030 
   24027    24021    24017    24011    24008    24004    23996    23992 
   23994    23992    23988    23993    23998    24001    24004    24009 
   24012    24019    24023    24025    24032    24039    24039    24039 
   24042    24046    24047    24044    24043    24042    24038    24035 
   24031    24024    24020    24016    24009    24001    24001    23996 
   23988    23984    23984    23982    23981    23981    23978    23978 
   23982    23988    23992    23994    23998    24004    24011    24016 
   24024    24032    24038    24046    24055    24063    24070    24081 
   24092    24106    24119    24129    24146    24165    24178    24194 
   24213    24229    24248    24270    24286    24302    24320    24332 
   24348    24368    24383    24400    24420    24437    24453    24471 
   24486    24505    24522    24536    24551    24567    24582    24602 
   24621    24636    24652    24669    24686    24706    24722    24736 
   24752    24769    24783    24795    24806    24817    24829    24841 
   24852    24862    24875    24887    24898    24907    24921    24935 
   24949    24961    24972    24988    25006    25020    25034    25050 
   25068    25081    25089    25104    25119    25128    25139    25151 
   25162    25172    25178    25185    25192    25197    25204    25212 
   25218    25220    25224    25229    25232    25232    25229    25228 
   25227    25228    25227    25223    25219    25213    25205    25197 
   25188    25177    25168    25157    25142    25126    25112    25095 
   25074    25053    25031    25010    24988    24972    24954    24930 
   24908    24888    24867    24842    24815    24790    24763    24733 
   24709    24686    24663    24641    24614    24588    24565    24544 
   24521    24498    24478    24455    24432    24412    24393    24372 
   24352    24328    24306    24288    24268    24247    24229    24209 
   24187    24174    24158    24138    24125    24112    24090    24077 
   24067    24054    24042    24034    24024    24016    24011    24008 
   24004    24000    23996    23990    23984    23984    23986    23986 
   23986    23986    23989    23990    23993    23996    24000    24007 
   24012    24016    24023    24031    24039    24048    24055    24066 
   24074    24078    24086    24093    24096    24093    24097    24098 
   24096    24089    24084    24078    24070    24059    24050    24040 
   24025    24009    24000    23993    23981    23973    23971    23966 
   23961    23961    23963    23965    23966    23969    23974    23981 
   23984    23989    23996    24000    24004    24009    24016    24024 
   24030    24031    24032    24034    24031    24030    24027    24027 
   24025    24025    24025    24024    24024    24024    24023    24023 
   24025    24027    24027    24027    24027    24031    24031    24031 
   24034    24034    24038    24042    24040    24042    24047    24050 
   24052    24055    24061    24069    24074    24081    24092    24101 
   24109    24120    24128    24142    24155    24163    24170    24181 
   24190    24197    24205    24213    24220    24228    24235    24240 
   24243    24244    24245    24247    24247    24247    24250    24251 
   24250    24254    24259    24258    24260    24267    24273    24282 
   24291    24298    24306    24318    24332    24343    24358    24374 
   24389    24403    24418    24435    24455    24478    24501    24524 
   24547    24570    24592    24617    24640    24664    24687    24713 
   24738    24760    24781    24808    24834    24857    24881    24900 
   24919    24945    24970    24992    25016    25039    25060    25084 
   25107    25127    25150    25170    25191    25213    25234    25249 
   25262    25272    25278    25288    25295    25297    25300    25304 
   25304    25301    25295    25286    25276    25263    25251    25242 
   25227    25208    25191    25169    25145    25123    25099    25072 
   25041    25010    24977    24945    24908    24872    24840    24800 
   24757    24725    24694    24659    24628    24595    24560    24529 
   24501    24470    24443    24418    24390    24364    24343    24320 
   24298    24278    24255    24232    24209    24189    24167    24148 
   24129    24109    24088    24069    24050    24031    24011    23994 
   23981    23965    23953    23942    23928    23920    23915    23908 
   23907    23904    23901    23903    23903    23900    23901    23907 
   23908    23908    23913    23917    23923    23926    23927    23930 
   23935    23938    23943    23950    23958    23965    23971    23978 
   23988    23996    24004    24015    24023    24032    24039    24043 
   24048    24057    24065    24069    24078    24092    24098    24105 
   24115    24123    24132    24140    24148    24159    24174    24185 
   24200    24214    24228    24243    24258    24275    24293    24308 
   24324    24341    24354    24364    24377    24390    24399    24409 
   24418    24429    24437    24445    24452    24459    24463    24471 
   24476    24482    24490    24495    24499    24507    24514    24520 
   24524    24532    24540    24544    24549    24555    24559    24561 
   24565    24568    24574    24580    24580    24580    24580    24580 
   24583    24587    24587    24584    24584    24584    24583    24582 
   24580    24580    24579    24578    24575    24575    24567    24563 
   24559    24551    24545    24540    24532    24524    24520    24514 
   24505    24497    24489    24479    24470    24462    24453    24447 
   24439    24426    24417    24406    24397    24385    24371    24362 
   24349    24334    24321    24309    24294    24279    24266    24252 
   24236    24221    24208    24197    24185    24169    24155    24144 
   24131    24123    24117    24105    24096    24090    24082    24075 
   24069    24059    24052    24050    24043    24039    24039    24036 
   24032    24032    24034    24032    24032    24035    24038    24043 
   24050    24055    24062    24069    24074    24082    24090    24096 
   24106    24117    24123    24132    24142    24148    24155    24165 
   24177    24187    24196    24205    24214    24223    24232    24243 
   24254    24264    24277    24287    24297    24305    24314    24325 
   24334    24340    24351    24360    24363    24367    24374    24379 
   24383    24390    24390    24389    24394    24397    24397    24402 
   24408    24412    24416    24420    24425    24433    24439    24441 
   24449    24460    24467    24471    24476    24484    24491    24493 
   24497    24503    24507    24509    24514    24520    24524    24528 
   24528    24528    24534    24538    24537    24541    24545    24541 
   24540    24541    24538    24537    24536    24532    24529    24525 
   24520    24516    24511    24507    24505    24502    24495    24491 
   24491    24489    24483    24482    24478    24476    24476    24474 
   24474    24476    24479    24483    24486    24491    24495    24501 
   24503    24507    24511    24514    24516    24517    24517    24520 
   24522    24522    24526    24533    24532    24529    24532    24536 
   24540    24540    24543    24547    24552    24559    24561    24567 
   24571    24575    24582    24584    24591    24598    24605    24614 
   24621    24622    24630    24637    24640    24645    24653    24657 
   24661    24667    24669    24673    24679    24682    24687    24692 
   24695    24698    24700    24702    24706    24710    24709    24713 
   24718    24717    24718    24723    24727    24732    24734    24733 
   24734    24733    24730    24732    24730    24726    24723    24718 
   24713    24710    24704    24698    24695    24690    24680    24672 
   24664    24656    24651    24645    24634    24626    24622    24614 
   24603    24595    24588    24582    24572    24561    24555    24547 
   24537    24524    24513    24505    24494    24479    24467    24455 
   24443    24430    24418    24412    24402    24393    24385    24377 
   24374    24374    24372    24376    24381    24386    24397    24409 
   24417    24432    24448    24457    24474    24494    24513    24532 
   24551    24568    24590    24610    24624    24638    24655    24669 
   24686    24699    24711    24727    24744    24756    24769    24786 
   24800    24813    24829    24842    24853    24861    24871    24879 
   24889    24898    24904    24908    24914    24922    24930    24930 
   24930    24927    24926    24929    24922    24919    24918    24916 
   24910    24906    24900    24894    24889    24881    24875    24872 
   24865    24854    24848    24840    24827    24817    24807    24798 
   24790    24779    24768    24759    24747    24737    24727    24715 
   24707    24702    24690    24678    24671    24665    24655    24648 
   24641    24632    24625    24614    24602    24594    24586    24574 
   24560    24548    24537    24529    24517    24505    24493    24484 
   24476    24466    24455    24448    24443    24430    24420    24413 
   24405    24395    24389    24381    24371    24366    24358    24347 
   24340    24334    24325    24316    24305    24295    24293    24287 
   24277    24271    24264    24259    24259    24256    24248    24247 
   24244    24241    24237    24233    24232    24229    24225    24221 
   24221    24221    24219    24216    24216    24216    24213    24212 
   24209    24208    24208    24205    24204    24205    24204    24200 
   24198    24198    24196    24193    24190    24190    24186    24177 
   24171    24166    24156    24148    24142    24131    24121    24109 
   24093    24081    24070    24057    24040    24025    24008    23992 
