Origin Time       2011/11/06 13:57:00
Lat.              35.608
Long.             136.637
Depth. (km)       14
Mag.              2.9
Station Code      FKI011
Station Lat.      35.9053
Station Long.     136.6706
Station Height(m) 432
Record Time       2011/11/06 13:57:55
Sampling Freq(Hz) 100Hz
Duration Time(s)  60
Dir.              U-D
Scale Factor      3920(gal)/6182761
Max. Acc. (gal)   1.771
Last Correction   2011/11/06 13:57:55
Memo.             
[...]
  -15722   -15717   -15722   -15728   -15728   -15720   -15716   -15725 
  -15731   -15724   -15719   -15720   -15724   -15727   -15725   -15718 
  -15719   -15730   -15729   -15716   -15719   -15730   -15725   -15721 
  -15721   -15721   -15726   -15726   -15723   -15721   -15721   -15725 
  -15726   -15720   -15722   -15728   -15725   -15721   -15722   -15724 
  -15726   -15727   -15721   -15718   -15723   -15728   -15727   -15722 
  -15720   -15724   -15729   -15726   -15719   -15721   -15727   -15728 
  -15723   -15718   -15724   -15730   -15723   -15718   -15719   -15724 
  -15730   -15724   -15715   -15721   -15728   -15728   -15725   -15718 
  -15721   -15731   -15725   -15718   -15720   -15724   -15728   -15726 
  -15719   -15722   -15731   -15727   -15719   -15722   -15727   -15725 
  -15723   -15721   -15721   -15725   -15726   -15719   -15720   -15728 
  -15727   -15721   -15720   -15721   -15726   -15728   -15721   -15718 
  -15726   -15732   -15725   -15717   -15718   -15727   -15731   -15723 
  -15719   -15722   -15726   -15726   -15721   -15720   -15726   -15726 
  -15722   -15723   -15722   -15724   -15728   -15724   -15721   -15725 
  -15727   -15726   -15723   -15722   -15724   -15726   -15724   -15720 
  -15722   -15729   -15729   -15720   -15719   -15725   -15727   -15724 
  -15719   -15717   -15725   -15730   -15724   -15718   -15721   -15729 
  -15728   -15720   -15720   -15725   -15727   -15725   -15720   -15719 
  -15726   -15728   -15721   -15719   -15726   -15729   -15725   -15720 
  -15720   -15727   -15730   -15723   -15719   -15724   -15727   -15724 
  -15723   -15723   -15722   -15723   -15726   -15723   -15720   -15727 
  -15728   -15719   -15721   -15727   -15726   -15724   -15721   -15719 
  -15727   -15728   -15721   -15720   -15721   -15725   -15728   -15720 
  -15718   -15725   -15730   -15722   -15715   -15721   -15730   -15727 
  -15719   -15717   -15725   -15727   -15721   -15720   -15722   -15725 
  -15729   -15725   -15717   -15721   -15729   -15728   -15718   -15718 
  -15729   -15728   -15720   -15720   -15721   -15728   -15732   -15721 
  -15716   -15724   -15729   -15729   -15724   -15719   -15721   -15728 
  -15729   -15722   -15717   -15721   -15727   -15726   -15722   -15723 
  -15724   -15722   -15724   -15726   -15726   -15725   -15723   -15718 
  -15723   -15733   -15728   -15718   -15719   -15727   -15729   -15723 
  -15719   -15722   -15727   -15729   -15722   -15718   -15726   -15728 
  -15720   -15721   -15722   -15725   -15732   -15724   -15714   -15724 
  -15732   -15725   -15719   -15717   -15724   -15732   -15726   -15715 
  -15721   -15728   -15725   -15722   -15724   -15726   -15727   -15721 
  -15721   -15729   -15729   -15720   -15718   -15722   -15727   -15728 
  -15722   -15717   -15720   -15726   -15728   -15724   -15719   -15720 
  -15726   -15727   -15721   -15718   -15725   -15730   -15722   -15718 
  -15724   -15725   -15722   -15723   -15725   -15725   -15722   -15721 
  -15726   -15725   -15720   -15722   -15724   -15722   -15724   -15725 
  -15722   -15721   -15723   -15725   -15726   -15725   -15722   -15721 
  -15723   -15726   -15727   -15723   -15719   -15723   -15729   -15727 
  -15719   -15717   -15726   -15730   -15726   -15723   -15722   -15725 
  -15727   -15721   -15719   -15725   -15726   -15722   -15721   -15722 
  -15726   -15728   -15721   -15718   -15726   -15730   -15724   -15718 
  -15720   -15727   -15726   -15720   -15722   -15726   -15726   -15724 
  -15722   -15723   -15727   -15727   -15722   -15717   -15722   -15729 
  -15725   -15720   -15721   -15724   -15727   -15726   -15721   -15720 
  -15727   -15728   -15721   -15722   -15731   -15725   -15717   -15722 
  -15726   -15727   -15727   -15721   -15717   -15724   -15728   -15726 
  -15724   -15720   -15720   -15728   -15729   -15719   -15720   -15728 
  -15725   -15721   -15724   -15725   -15723   -15724   -15725   -15725 
  -15727   -15727   -15721   -15720   -15724   -15726   -15724   -15722 
  -15719   -15723   -15729   -15725   -15720   -15726   -15730   -15724 
  -15722   -15723   -15723   -15724   -15725   -15720   -15723   -15731 
  -15725   -15717   -15723   -15731   -15725   -15719   -15723   -15726 
  -15725   -15725   -15725   -15723   -15722   -15725   -15724   -15722 
  -15722   -15722   -15726   -15728   -15720   -15719   -15727   -15728 
  -15723   -15718   -15720   -15730   -15731   -15720   -15717   -15726 
  -15730   -15725   -15718   -15721   -15729   -15729   -15722   -15721 
  -15725   -15726   -15725   -15723   -15721   -15725   -15726   -15723 
  -15725   -15724   -15725   -15724   -15720   -15723   -15728   -15724 
  -15721   -15722   -15726   -15728   -15725   -15718   -15721   -15731 
  -15730   -15721   -15717   -15722   -15727   -15726   -15722   -15720 
  -15723   -15728   -15728   -15722   -15722   -15727   -15728   -15722 
  -15719   -15723   -15729   -15729   -15720   -15717   -15722   -15729 
  -15730   -15723   -15719   -15726   -15730   -15725   -15719   -15721 
  -15731   -15731   -15718   -15718   -15728   -15729   -15722   -15721 
  -15724   -15728   -15730   -15723   -15718   -15723   -15729   -15725 
  -15720   -15722   -15727   -15729   -15724   -15719   -15723   -15730 
  -15728   -15718   -15719   -15728   -15729   -15723   -15717   -15721 
  -15731   -15728   -15720   -15722   -15728   -15729   -15725   -15720 
  -15723   -15729   -15727   -15724   -15723   -15723   -15725   -15726 
  -15720   -15718   -15726   -15732   -15724   -15718   -15721   -15728 
  -15730   -15723   -15718   -15724   -15730   -15727   -15722   -15722 
  -15725   -15727   -15724   -15723   -15724   -15727   -15728   -15721 
  -15718   -15727   -15730   -15723   -15719   -15722   -15726   -15727 
  -15726   -15722   -15719   -15725   -15729   -15722   -15722   -15726 
  -15728   -15726   -15721   -15719   -15727   -15729   -15721   -15718 
  -15726   -15730   -15724   -15720   -15721   -15724   -15727   -15724 
  -15720   -15723   -15725   -15726   -15725   -15721   -15721   -15728 
  -15728   -15721   -15721   -15726   -15724   -15720   -15722   -15727 
  -15726   -15721   -15722   -15726   -15727   -15725   -15723   -15723 
  -15725   -15727   -15728   -15724   -15721   -15723   -15725   -15725 
  -15722   -15718   -15721   -15728   -15726   -15720   -15722   -15726 
  -15725   -15722   -15722   -15721   -15722   -15725   -15723   -15722 
  -15725   -15727   -15723   -15719   -15724   -15728   -15725   -15720 
  -15720   -15727   -15728   -15722   -15719   -15723   -15729   -15727 
  -15719   -15721   -15729   -15730   -15723   -15717   -15723   -15730 
  -15728   -15723   -15720   -15725   -15731   -15727   -15719   -15722 
  -15730   -15729   -15722   -15721   -15726   -15728   -15723   -15720 
  -15724   -15725   -15724   -15725   -15722   -15720   -15727   -15729 
  -15724   -15722   -15722   -15724   -15726   -15724   -15723   -15724 
  -15725   -15725   -15723   -15722   -15724   -15725   -15724   -15719 
  -15721   -15729   -15727   -15721   -15721   -15724   -15727   -15725 
  -15720   -15723   -15727   -15726   -15724   -15723   -15725   -15729 
  -15725   -15720   -15723   -15727   -15724   -15721   -15723   -15724 
  -15726   -15722   -15719   -15725   -15729   -15724   -15722   -15723 
  -15726   -15730   -15725   -15717   -15723   -15730   -15727   -15722 
  -15720   -15722   -15729   -15728   -15720   -15721   -15725   -15728 
  -15728   -15721   -15718   -15724   -15727   -15724   -15720   -15723 
  -15730   -15727   -15722   -15724   -15726   -15727   -15724   -15720 
  -15724   -15730   -15728   -15721   -15721   -15726   -15730   -15727 
  -15720   -15720   -15728   -15729   -15723   -15720   -15724   -15731 
  -15729   -15721   -15722   -15726   -15727   -15725   -15720   -15723 
  -15730   -15725   -15721   -15723   -15723   -15726   -15729   -15719 
  -15718   -15730   -15730   -15722   -15720   -15724   -15726   -15726 
  -15724   -15720   -15724   -15731   -15727   -15721   -15723   -15725 
  -15727   -15724   -15717   -15724   -15732   -15725   -15719   -15721 
  -15723   -15727   -15726   -15719   -15720   -15727   -15728   -15725 
  -15720   -15722   -15729   -15726   -15721   -15722   -15726   -15727 
  -15723   -15720   -15725   -15730   -15726   -15719   -15720   -15725 
  -15725   -15723   -15723   -15726   -15727   -15725   -15722   -15722 
  -15726   -15729   -15725   -15721   -15724   -15725   -15725   -15724 
  -15721   -15720   -15726   -15730   -15723   -15717   -15724   -15731 
  -15723   -15717   -15722   -15726   -15727   -15727   -15724   -15720 
  -15725   -15730   -15725   -15720   -15723   -15727   -15726   -15724 
  -15722   -15722   -15728   -15728   -15719   -15720   -15729   -15728 
  -15723   -15721   -15724   -15729   -15727   -15719   -15721   -15728 
  -15725   -15722   -15722   -15722   -15724   -15729   -15728   -15719 
  -15721   -15729   -15725   -15720   -15725   -15728   -15726   -15722 
  -15722   -15725   -15725   -15726   -15726   -15722   -15722   -15728 
  -15729   -15723   -15719   -15724   -15726   -15724   -15724   -15722 
  -15721   -15728   -15728   -15720   -15723   -15731   -15726   -15717 
  -15723   -15732   -15727   -15720   -15723   -15726   -15725   -15726 
  -15725   -15719   -15724   -15731   -15725   -15720   -15725   -15728 
  -15725   -15724   -15720   -15720   -15730   -15729   -15719   -15722 
  -15732   -15728   -15720   -15719   -15725   -15729   -15727   -15720 
  -15718   -15728   -15732   -15724   -15722   -15726   -15727   -15726 
  -15722   -15722   -15726   -15727   -15725   -15721   -15713   -15685 
  -15617   -15568   -15652   -15762   -15635   -15623   -16263   -16700 
  -15958   -15056   -15164   -15828   -15989   -15327   -15067   -15994 
  -16384   -15418   -15302   -16425   -16219   -14871   -15091   -16512 
  -16607   -15313   -14775   -15905   -16824   -15761   -14434   -15145 
  -16608   -16523   -15431   -15084   -15511   -15952   -16337   -16036 
  -14865   -14937   -16520   -16740   -15307   -14818   -15872   -16545 
  -15895   -15207   -15353   -15785   -15936   -15806   -15783   -15685 
  -15303   -15571   -16295   -15980   -15224   -15461   -16060   -15965 
  -15622   -15762   -15888   -15510   -15366   -15875   -16173   -15698 
  -15274   -15535   -15887   -15988   -15993   -15646   -15231   -15532 
  -16173   -16181   -15487   -15125   -15827   -16432   -15898   -15210 
  -15205   -15679   -16205   -16171   -15503   -15000   -15551   -16534 
  -16301   -15248   -15083   -15866   -16268   -15636   -15129   -15832 
  -16408   -15602   -15111   -15960   -16247   -15474   -15289   -15872 
  -16155   -15749   -15259   -15501   -15973   -15844   -15667   -15804 
  -15737   -15552   -15815   -16126   -15613   -15106   -15826   -16466 
  -15756   -15048   -15430   -16182   -16231   -15350   -14968   -15901 
  -16475   -15936   -15429   -15300   -15527   -16090   -16141   -15561 
  -15370   -15835   -16100   -15644   -15304   -15773   -16055   -15498 
  -15319   -16077   -16339   -15437   -14909   -15790   -16602   -15927 
  -14965   -15343   -16346   -16207   -15292   -15357   -15988   -15817 
  -15425   -15699   -16083   -15909   -15536   -15538   -15748   -15729 
  -15630   -15781   -15936   -15755   -15464   -15550   -15980   -16036 
  -15547   -15367   -15801   -16095   -15815   -15385   -15444   -15960 
  -16163   -15733   -15324   -15498   -15886   -16009   -15874   -15520 
  -15323   -15680   -16007   -15859   -15731   -15702   -15581   -15687 
  -15950   -15871   -15512   -15444   -15744   -15991   -15956   -15529 
  -15260   -15781   -16263   -15925   -15366   -15350   -15835   -16136 
  -15916   -15518   -15411   -15685   -15834   -15735   -15835   -15865 
  -15489   -15406   -15880   -16129   -15865   -15461   -15462   -15924 
  -15927   -15485   -15606   -15850   -15621   -15635   -15966   -15905 
  -15574   -15572   -15846   -15876   -15574   -15540   -15997   -15977 
  -15291   -15309   -16114   -16286   -15597   -15141   -15538   -16144 
  -16118   -15594   -15335   -15583   -15782   -15872   -16023   -15765 
  -15472   -15766   -15830   -15357   -15425   -16137   -16285   -15591 
  -15244   -15766   -16058   -15574   -15336   -15840   -16203   -15722 
  -15186   -15688   -16344   -15846   -15132   -15529   -16166   -15831 
  -15412   -15738   -15967   -15712   -15560   -15805   -15943   -15613 
  -15469   -15716   -15792   -15689   -15652   -15760   -15845   -15758 
  -15850   -15986   -15594   -15132   -15497   -16253   -16168   -15524 
  -15419   -15725   -15955   -15831   -15473   -15633   -15981   -15601 
  -15222   -15683   -16192   -16121   -15720   -15329   -15419   -15867 
  -16043   -15882   -15695   -15635   -15617   -15572   -15637   -15890 
  -15969   -15636   -15441   -15655   -15968   -16218   -15836   -14897 
  -15004   -16374   -16814   -15437   -14506   -15510   -16742   -16579 
  -15475   -14938   -15575   -15863   -15493   -16006   -16362   -15365 
  -14931   -15710   -16268   -16150   -15685   -15479   -15585   -15493 
  -15684   -16169   -16042   -15553   -15306   -15532   -16110   -15961 
  -15201   -15452   -16354   -16250   -15478   -15443   -15907   -15525 
  -14895   -15714   -16760   -16063   -14943   -15193   -16289   -16612 
  -15492   -14739   -15874   -16814   -15528   -14282   -15770   -17600 
  -16081   -13371   -14050   -17217   -18399   -16234   -13822   -14185 
  -15948   -16406   -16009   -16124   -15975   -15142   -15439   -17021 
  -17440   -16014   -14455   -13890   -14140   -14642   -15073   -16074 
  -17911   -18519   -16440   -14228   -14642   -16203   -16435   -15748 
  -14945   -14000   -14705   -17058   -17608   -16688   -15865   -14059 
  -13888   -16641   -17378   -15489   -15146   -16333   -16184   -14621 
  -14230   -15115   -15586   -16909   -18211   -16053   -13835   -15465 
  -16977   -16173   -15389   -14989   -14792   -15321   -16337   -16447 
  -14929   -14962   -17129   -16699   -14798   -15458   -16388   -15685 
  -14964   -15210   -16114   -16137   -15186   -15181   -16162   -16753 
  -16163   -14761   -14685   -16285   -16684   -15503   -15203   -15815 
  -15936   -15646   -15623   -16102   -16420   -15754   -14844   -14991 
  -15932   -16437   -16148   -15772   -15712   -15653   -15384   -15053 
  -15185   -15881   -16220   -15998   -15959   -15811   -15177   -15303 
  -16361   -16411   -15280   -14883   -15757   -16573   -16206   -15248 
  -15159   -15830   -16013   -15632   -15563   -15910   -15873   -15604 
  -15840   -15925   -15339   -15130   -15940   -16555   -15805   -14952 
  -15456   -16198   -15887   -15527   -15994   -16018   -15281   -15323 
  -16152   -16427   -15749   -14964   -15181   -16039   -16218   -15754 
  -15566   -15687   -15637   -15605   -15799   -15786   -15708   -15759 
  -15531   -15490   -16023   -16209   -15707   -15338   -15485   -15695 
  -15730   -15926   -16137   -15860   -15403   -15446   -15868   -15953 
  -15644   -15349   -15456   -16171   -16421   -15550   -15070   -15649 
  -16073   -15807   -15533   -15741   -15946   -15697   -15433   -15544 
  -15870   -16034   -15759   -15465   -15647   -15770   -15504   -15544 
  -16023   -16205   -15819   -15425   -15577   -16022   -15987   -15455 
  -15466   -16070   -16015   -15390   -15326   -15669   -15820   -15874 
  -15791   -15601   -15614   -15728   -15852   -15923   -15742   -15586 
  -15610   -15657   -15770   -15787   -15740   -15792   -15644   -15480 
  -15731   -16013   -15936   -15700   -15536   -15504   -15755   -16106 
  -15840   -15251   -15404   -15963   -16098   -15943   -15593   -15214 
  -15526   -16148   -16014   -15511   -15370   -15552   -15928   -16106 
  -15890   -15708   -15635   -15565   -15691   -15885   -15897   -15789 
  -15592   -15457   -15664   -15989   -15904   -15507   -15469   -15812 
  -15895   -15799   -15837   -15635   -15428   -15768   -16082   -15884 
  -15536   -15374   -15593   -15930   -15912   -15785   -15655   -15403 
  -15587   -16050   -15942   -15569   -15495   -15612   -15895   -16044 
  -15662   -15343   -15692   -16084   -15825   -15420   -15529   -15781 
  -15796   -15845   -15844   -15718   -15781   -15713   -15498   -15759 
  -16048   -15742   -15370   -15435   -15839   -16190   -15942   -15388 
  -15516   -15973   -15826   -15543   -15612   -15841   -15996   -15640 
  -15382   -15987   -16133   -15373   -15398   -16036   -15872   -15431 
  -15491   -15691   -15809   -15923   -15955   -15769   -15493   -15476 
  -15762   -15993   -15860   -15466   -15358   -15836   -16197   -15867 
  -15469   -15515   -15743   -15906   -15885   -15620   -15444   -15617 
  -15840   -15988   -15989   -15589   -15316   -15678   -16070   -15916 
  -15512   -15501   -15802   -15797   -15658   -15735   -15809   -15889 
  -15861   -15503   -15434   -15918   -16031   -15607   -15505   -15720 
  -15770   -15758   -15736   -15630   -15637   -15707   -15654   -15756 
  -15964   -15805   -15523   -15517   -15741   -16037   -15936   -15456 
  -15425   -15905   -16108   -15775   -15440   -15562   -15850   -15867 
  -15694   -15605   -15653   -15695   -15790   -15903   -15722   -15591 
  -15786   -15702   -15481   -15741   -15978   -15684   -15466   -15802 
  -16072   -15776   -15460   -15644   -15976   -15870   -15512   -15590 
  -15901   -15789   -15578   -15728   -15896   -15767   -15544   -15545 
  -15765   -15955   -15900   -15634   -15490   -15668   -15877   -15796 
  -15612   -15620   -15774   -15820   -15609   -15487   -15793   -16109 
  -15908   -15420   -15359   -15828   -16060   -15762   -15572   -15698 
  -15747   -15703   -15709   -15705   -15729   -15803   -15817   -15685 
  -15572   -15753   -15928   -15696   -15470   -15679   -15993   -15912 
  -15556   -15489   -15800   -15973   -15759   -15552   -15645   -15787 
  -15750   -15663   -15732   -15847   -15766   -15589   -15558   -15780 
  -15930   -15699   -15552   -15666   -15717   -15808   -15859   -15674 
  -15571   -15782   -15972   -15766   -15482   -15546   -15787   -15900 
  -15782   -15634   -15719   -15867   -15821   -15629   -15534   -15740 
  -15998   -15813   -15403   -15583   -16101   -15912   -15410   -15551 
  -15885   -15823   -15585   -15493   -15753   -16046   -15831   -15418 
  -15502   -15951   -15977   -15552   -15516   -15900   -15926   -15629 
  -15557   -15725   -15879   -15784   -15537   -15632   -15950   -15869 
  -15524   -15471   -15771   -16070   -15926   -15446   -15363   -15822 
  -16106   -15834   -15442   -15455   -15853   -16069   -15715   -15391 
  -15702   -15993   -15675   -15415   -15722   -16047   -15860   -15488 
  -15584   -15968   -15835   -15427   -15605   -15988   -15856   -15539 
  -15584   -15902   -15922   -15600   -15575   -15738   -15689   -15766 
  -15879   -15642   -15512   -15776   -15950   -15793   -15572   -15603 
  -15837   -15872   -15687   -15554   -15543   -15756   -15992   -15847 
  -15628   -15645   -15626   -15666   -15892   -15915   -15718   -15621 
  -15638   -15752   -15869   -15745   -15549   -15583   -15785   -15957 
  -15846   -15510   -15466   -15787   -15944   -15685   -15501   -15829 
  -16057   -15693   -15395   -15579   -15960   -16055   -15552   -15301 
  -15865   -16127   -15671   -15433   -15692   -15929   -15839   -15654 
  -15663   -15714   -15686   -15737   -15803   -15740   -15655   -15680 
  -15765   -15776   -15747   -15738   -15718   -15714   -15674   -15604 
  -15723   -15915   -15812   -15596   -15596   -15709   -15829   -15840 
