Origin Time       2011/11/06 13:57:00
Lat.              35.608
Long.             136.637
Depth. (km)       14
Mag.              2.9
Station Code      FKI011
Station Lat.      35.9053
Station Long.     136.6706
Station Height(m) 432
Record Time       2011/11/06 13:57:55
Sampling Freq(Hz) 100Hz
Duration Time(s)  60
Dir.              N-S
Scale Factor      3920(gal)/6182761
Max. Acc. (gal)   4.754
Last Correction   2011/11/06 13:57:55
Memo.             
[...]
  -47003   -46994   -47003   -47007   -46995   -46994   -47002   -47002 
  -47002   -47005   -47003   -46996   -46998   -47004   -47002   -47000 
  -47002   -47003   -47001   -46997   -46998   -47003   -47002   -47000 
  -47003   -47002   -47000   -47002   -46998   -46996   -47002   -47005 
  -46997   -46996   -47003   -47000   -46996   -47003   -47005   -46999 
  -47002   -47005   -46993   -46995   -47007   -47002   -46998   -47002 
  -46998   -46997   -47004   -47002   -46995   -47002   -47008   -47000 
  -46996   -47000   -47001   -47001   -47002   -47000   -46998   -47002 
  -47004   -46999   -46999   -47005   -47006   -47000   -46994   -46996 
  -47005   -47007   -47001   -47002   -47001   -46996   -46998   -46999 
  -46997   -47004   -47006   -46998   -46998   -46999   -46999   -47002 
  -47001   -47000   -47005   -47003   -46997   -46999   -47001   -47000 
  -47002   -46997   -46993   -47003   -47008   -46996   -46994   -47004 
  -47003   -46996   -46999   -47006   -47005   -47002   -47000   -46997 
  -46998   -47007   -47007   -47000   -47003   -47000   -46995   -47000 
  -47005   -47002   -47004   -47004   -47000   -46999   -47000   -47000 
  -47004   -47004   -46998   -47000   -47004   -47000   -47000   -47000 
  -46999   -47005   -47006   -46998   -46996   -47001   -47002   -47002 
  -47001   -46994   -46997   -47008   -47004   -46995   -46997   -47002 
  -47001   -47002   -46999   -46998   -47004   -46998   -46992   -47005 
  -47008   -46998   -46999   -47002   -47000   -46999   -47003   -47003 
  -46998   -47002   -47007   -46998   -46997   -47006   -47001   -46998 
  -47009   -47002   -46992   -47003   -47005   -46995   -47002   -47011 
  -46999   -46993   -47002   -47000   -46997   -47008   -47003   -46991 
  -47004   -47008   -46988   -46993   -47011   -47002   -46996   -47005 
  -47002   -46997   -47006   -47004   -46994   -46998   -47007   -47007 
  -47000   -46993   -46996   -47008   -47007   -46994   -46994   -47009 
  -47009   -46993   -46994   -47007   -47003   -46998   -47001   -46999 
  -47001   -47006   -47000   -46997   -47002   -47001   -47001   -47004 
  -47000   -46998   -47003   -47000   -46993   -46999   -47008   -47002 
  -46995   -46999   -47005   -47003   -46997   -46996   -47004   -47007 
  -46998   -46994   -47003   -47006   -46997   -46997   -47004   -47000 
  -46997   -47003   -47004   -47003   -47006   -46995   -46989   -47003 
  -47007   -47000   -47002   -47000   -46997   -47000   -47002   -47001 
  -46999   -46999   -47003   -47002   -46998   -46999   -47003   -47004 
  -47004   -47000   -46994   -46996   -47007   -47006   -46996   -46994 
  -47002   -47003   -46997   -46999   -47002   -47000   -47006   -47006 
  -46996   -46996   -47003   -47001   -47001   -47002   -46997   -47000 
  -47005   -46997   -46996   -47006   -47003   -46994   -46999   -47011 
  -47004   -46993   -47000   -47004   -46996   -47000   -47006   -47003 
  -47003   -47000   -46998   -47002   -46999   -46994   -47005   -47008 
  -46997   -46999   -47005   -46999   -46996   -46999   -47002   -47001 
  -46998   -47004   -47002   -46992   -47002   -47013   -46999   -46989 
  -46999   -47005   -47004   -47001   -46998   -46998   -47003   -47006 
  -46999   -46999   -47007   -47005   -46995   -46994   -47002   -47004 
  -47001   -46998   -46999   -47001   -47002   -46999   -46996   -47002 
  -47007   -46999   -46994   -47001   -47006   -47001   -46998   -47002 
  -47002   -47000   -47002   -47001   -46999   -47004   -47006   -46994 
  -46993   -47004   -47003   -47000   -47005   -47003   -46996   -47000 
  -47004   -47001   -47001   -47000   -46996   -47000   -47006   -47004 
  -46999   -46999   -47002   -47000   -47001   -47002   -47000   -47001 
  -47002   -46998   -47000   -47003   -46998   -46996   -47003   -47006 
  -47003   -46998   -46997   -47003   -47003   -46999   -47002   -47002 
  -46998   -47000   -47000   -47000   -47004   -47001   -46996   -47001 
  -47006   -47004   -47000   -46995   -46997   -47004   -47001   -46997 
  -47002   -47005   -46999   -46995   -46997   -47004   -47005   -46999 
  -46996   -47003   -47004   -46996   -46999   -47009   -47002   -46993 
  -47003   -47007   -46993   -46996   -47010   -47001   -46992   -47004 
  -47005   -46997   -47004   -47003   -46991   -46999   -47009   -46998 
  -46993   -47005   -47010   -46996   -46990   -47003   -47008   -46999 
  -46995   -47001   -47003   -46999   -46998   -46997   -46999   -47006 
  -47002   -46995   -47001   -47005   -46999   -46999   -47002   -46999 
  -47003   -47006   -46998   -46996   -47004   -47005   -47000   -46998 
  -47003   -47006   -47004   -47003   -46998   -46997   -47001   -47001 
  -46997   -46994   -47004   -47012   -47000   -46995   -47004   -47002 
  -46996   -47001   -47003   -46999   -47002   -47007   -47003   -46995 
  -46995   -47004   -47006   -47001   -46999   -47004   -47005   -46999 
  -46999   -47004   -47003   -46997   -46997   -47002   -47007   -47007 
  -47002   -46999   -46998   -47001   -47007   -47003   -46995   -47001 
  -47005   -46997   -46996   -47001   -47002   -47001   -46999   -46998 
  -47001   -47005   -47003   -46998   -47001   -47004   -46996   -46992 
  -47005   -47008   -47000   -47001   -47001   -46994   -46995   -47003 
  -47007   -47004   -46997   -46998   -47004   -47001   -46997   -47003 
  -47005   -47001   -47000   -46998   -46996   -47003   -47008   -46999 
  -46994   -47002   -47006   -47001   -46998   -47000   -47003   -47001 
  -46999   -47000   -47002   -47002   -47001   -46999   -46999   -47002 
  -47004   -47001   -46999   -47004   -47005   -46997   -46995   -46998 
  -47002   -47005   -47000   -46997   -47003   -47006   -47004   -46997 
  -46990   -47001   -47009   -47001   -46999   -47002   -47000   -47000 
  -47001   -47000   -47002   -47003   -47000   -46998   -47001   -47003 
  -46998   -46998   -47003   -46999   -47001   -47007   -47002   -46998 
  -47002   -47003   -46998   -46994   -46997   -47005   -47006   -47001 
  -46997   -46999   -47003   -47001   -47000   -47001   -47000   -46999 
  -47003   -47004   -46999   -47001   -47006   -46999   -46996   -47003 
  -47004   -47000   -47002   -47003   -47002   -46997   -46996   -47003 
  -47007   -47003   -47004   -47000   -46990   -46997   -47007   -47000 
  -46996   -47002   -47002   -47000   -47001   -47000   -47001   -47006 
  -47005   -46995   -46995   -47007   -47009   -46999   -46993   -46998 
  -47004   -47004   -47001   -47000   -47001   -47004   -47002   -46997 
  -46998   -47003   -47004   -46997   -46997   -47006   -47005   -46998 
  -47002   -47005   -46998   -46999   -47004   -46999   -47001   -47007 
  -47002   -46997   -47000   -47000   -46997   -47000   -47003   -47003 
  -47002   -47000   -47000   -46999   -46998   -47002   -47001   -46996 
  -47000   -47004   -47003   -47003   -47001   -46997   -46998   -47004 
  -47005   -47000   -46996   -47004   -47009   -46998   -46994   -47003 
  -47005   -47001   -47001   -47000   -47000   -47003   -47002   -46996 
  -46997   -47001   -47001   -47002   -47001   -47000   -47006   -47004 
  -46995   -47000   -47005   -47000   -47001   -47002   -47000   -47001 
  -47001   -46997   -47000   -47007   -47005   -46999   -47002   -47004 
  -46998   -46996   -47006   -47008   -46999   -46997   -47000   -46998 
  -47003   -47007   -46997   -46996   -47003   -47002   -47002   -47006 
  -46999   -46995   -47003   -47005   -46998   -46998   -47004   -47003 
  -46998   -47000   -47004   -47000   -46998   -47002   -47001   -47003 
  -47007   -47000   -46993   -46999   -47005   -47004   -47003   -47000 
  -46999   -47002   -47005   -47002   -46997   -46999   -47001   -47002 
  -47002   -46998   -47001   -47007   -47002   -46996   -47001   -47005 
  -47001   -46998   -46999   -47000   -47001   -47002   -47003   -46998 
  -46998   -47001   -47004   -47000   -46996   -47003   -47009   -47001 
  -46995   -46997   -47000   -47006   -47006   -47002   -47002   -46999 
  -46994   -46997   -47006   -47006   -47002   -46999   -46999   -47004 
  -47004   -46997   -46994   -47001   -47006   -47004   -47002   -47004 
  -47002   -46998   -46997   -46999   -47004   -47009   -47002   -46995 
  -46999   -47003   -47002   -46998   -46995   -47003   -47009   -47000 
  -46994   -47002   -47005   -47002   -47001   -47001   -47004   -47003 
  -46997   -47000   -47001   -46998   -47003   -47005   -47000   -47001 
  -47001   -47000   -47004   -47002   -46994   -46999   -47009   -47003 
  -46996   -47002   -47003   -46999   -47001   -47002   -47000   -47002 
  -47003   -47002   -47001   -47000   -47002   -47004   -46999   -46997 
  -47003   -47005   -47000   -47000   -47001   -46999   -47002   -47005 
  -47000   -46999   -47002   -47001   -46996   -46998   -47008   -47006 
  -46994   -47000   -47008   -47001   -46998   -47001   -46999   -47001 
  -47003   -47001   -46999   -47001   -47004   -47002   -46999   -47002 
  -47001   -46998   -47003   -47004   -46996   -46997   -47004   -47002 
  -46997   -47001   -47004   -47002   -47003   -47002   -46999   -47003 
  -47004   -46999   -47000   -47003   -47002   -47004   -47002   -46993 
  -46997   -47008   -47003   -46995   -47002   -47006   -47000   -46998 
  -47003   -47003   -47002   -47000   -46998   -47001   -47002   -47001 
  -47001   -47000   -47001   -47004   -47004   -46999   -46996   -47001 
  -47004   -47000   -47000   -47003   -47001   -46999   -47000   -46999 
  -47001   -47005   -47002   -46996   -47003   -47008   -46995   -46991 
  -47004   -47005   -46999   -47004   -47004   -46995   -46994   -47001 
  -46991   -46958   -46922   -46913   -46934   -46945   -46984   -47165 
  -47400   -47398   -47172   -47020   -46803   -46396   -46443   -46899 
  -46987   -47049   -47349   -47508   -47631   -47250   -46359   -46390 
  -46980   -46666   -46526   -47515   -47946   -47311   -46944   -46791 
  -46527   -46706   -46926   -46824   -47139   -47499   -47056   -46950 
  -47523   -47065   -46186   -46538   -47036   -46931   -47291   -47905 
  -47392   -46433   -46751   -47209   -46457   -46105   -47010   -47803 
  -47682   -47114   -46822   -47061   -47144   -46529   -46156   -46866 
  -47675   -47492   -47008   -46993   -47004   -46974   -47101   -46867 
  -46393   -46649   -47423   -47498   -47016   -46990   -47130   -46872 
  -46665   -46781   -47011   -47249   -47322   -47142   -46922   -46803 
  -46883   -47141   -47029   -46602   -46818   -47375   -47278   -46951 
  -46913   -46865   -46912   -47242   -47184   -46703   -46898   -47324 
  -47094   -46869   -46753   -46812   -47317   -47287   -46717   -46812 
  -47320   -47167   -46677   -46803   -47161   -47043   -46899   -47051 
  -47045   -46946   -47087   -47167   -47057   -46937   -46801   -46881 
  -47065   -46915   -47014   -47451   -47060   -46413   -46909   -47538 
  -47195   -46717   -46689   -46983   -47315   -47121   -46742   -46894 
  -47127   -47036   -46953   -46924   -46955   -47202   -47352   -46955 
  -46396   -46695   -47447   -47250   -46677   -47009   -47559   -47204 
  -46501   -46596   -47156   -47158   -46816   -46946   -47381   -47285 
  -46747   -46705   -47093   -47089   -46918   -47053   -47087   -46931 
  -46968   -47022   -46903   -46928   -47117   -47148   -47003   -46855 
  -46935   -47180   -47136   -46928   -46864   -46851   -47026   -47162 
  -46959   -46903   -47071   -47076   -47014   -46939   -46848   -46999 
  -47179   -47036   -46927   -47065   -47121   -46996   -46865   -46922 
  -47079   -47040   -46934   -47003   -47094   -47113   -47117   -46955 
  -46696   -46715   -46963   -47162   -47211   -47123   -47089   -47045 
  -46830   -46799   -47086   -47187   -46951   -46826   -46914   -47050 
  -47205   -47059   -46816   -47007   -47099   -46884   -46974   -47173 
  -47050   -46910   -46973   -46977   -46907   -46971   -47142   -47155 
  -46852   -46753   -47145   -47331   -46984   -46720   -46932   -47088 
  -46861   -46909   -47320   -47324   -46908   -46750   -47015   -47041 
  -46724   -46874   -47265   -47208   -46981   -46898   -46944   -47018 
  -47034   -47017   -47043   -47112   -46971   -46795   -46866   -46944 
  -47091   -47294   -47226   -46882   -46656   -46978   -47256   -46873 
  -46639   -47019   -47294   -47157   -47002   -47043   -47203   -47079 
  -46557   -46509   -47214   -47565   -47027   -46595   -46854   -47062 
  -47168   -47406   -47159   -46617   -46576   -46944   -47101   -47017 
  -47204   -47331   -46973   -46773   -46949   -47036   -46962   -46838 
  -46819   -47195   -47660   -47294   -46501   -46568   -46961   -46850 
  -46893   -47174   -47198   -47152   -47020   -46898   -47211   -47316 
  -46766   -46472   -46674   -46971   -47449   -47621   -47066   -46613 
  -46848   -47078   -46768   -46710   -47220   -47270   -46946   -47157 
  -47340   -46937   -46674   -46673   -46587   -47033   -47748   -47407 
  -46711   -46978   -47327   -46937   -46477   -46484   -46896   -47288 
  -47241   -47091   -47272   -47304   -46820   -46485   -46833   -47395 
  -47442   -46928   -46430   -46550   -47382   -47778   -46921   -46388 
  -46888   -46980   -46917   -47329   -47243   -46881   -47113   -47315 
  -46890   -46429   -46758   -47341   -46913   -46497   -47483   -47998 
  -46888   -46276   -46846   -47174   -46994   -46909   -47090   -47289 
  -47081   -46476   -46590   -47619   -47542   -46167   -46083   -47646 
  -48145   -46859   -46061   -46460   -46912   -47151   -47360   -47481 
  -47478   -47048   -46020   -45614   -46998   -49425   -51280   -50419 
  -45960   -40729   -39742   -45907   -53935   -54452   -48031   -42935 
  -41178   -40429   -42970   -49744   -54500   -54036   -51263   -47196 
  -42922   -41195   -42609   -46635   -50475   -49618   -45601   -45079 
  -48509   -49821   -47842   -46589   -47502   -48238   -46537   -44938 
  -44875   -43867   -44899   -48886   -49974   -49117   -49527   -48261 
  -44922   -43417   -45656   -48941   -48604   -46307   -46456   -46799 
  -46130   -47053   -48049   -47223   -46503   -47359   -48259   -47254 
  -45869   -46275   -46976   -46673   -46846   -47681   -47460   -46425 
  -46444   -47447   -48149   -48448   -47868   -45919   -44505   -45118 
  -46523   -47143   -47294   -48312   -49472   -48916   -47084   -45589 
  -45172   -45645   -46151   -46569   -47613   -48743   -48660   -47372 
  -46094   -45914   -46493   -46980   -47256   -47305   -47327   -47375 
  -46924   -46139   -46173   -47335   -48201   -47888   -47106   -46436 
  -45999   -46107   -46909   -47760   -48088   -47829   -46588   -45718 
  -47004   -48030   -46818   -45864   -46587   -47282   -46901   -46531 
  -47362   -48474   -48144   -46628   -45844   -46552   -47378   -47276 
  -46491   -45739   -46195   -47565   -48305   -48274   -47548   -46274 
  -45769   -46481   -47497   -47853   -47459   -47098   -46748   -46134 
  -46139   -47070   -47781   -47490   -46758   -46515   -46903   -47390 
  -47391   -46977   -46877   -47144   -47183   -46800   -46504   -46782 
  -47040   -47012   -47277   -47491   -47366   -47208   -46885   -46645 
  -46725   -46725   -46751   -47088   -47282   -46912   -46588   -46907 
  -47129   -47047   -47308   -47469   -47228   -46820   -46236   -46159 
  -46897   -47618   -47769   -47392   -46978   -46984   -46986   -46716 
  -46835   -47107   -46924   -47093   -47494   -47141   -46708   -46583 
  -46369   -46575   -47298   -47769   -47582   -47004   -46684   -46859 
  -47134   -47052   -46642   -46535   -46957   -47340   -47224   -46766 
  -46787   -47483   -47616   -46789   -46202   -46433   -47119   -47752 
  -47694   -47079   -46700   -46456   -46400   -47274   -47937   -47065 
  -46294   -46722   -46930   -46817   -47575   -48225   -47391   -46232 
  -46068   -46481   -46918   -47394   -47578   -47065   -46590   -46867 
  -47219   -47188   -47206   -47208   -46899   -46762   -47023   -46866 
  -46331   -46710   -47634   -47634   -47224   -47058   -46568   -46367 
  -47002   -47370   -47155   -46995   -46942   -46953   -47024   -46944 
  -46854   -47111   -47409   -47175   -46647   -46504   -46944   -47385 
  -47204   -46849   -46926   -47069   -46981   -46925   -46969   -47076 
  -47302   -47303   -46746   -46371   -46945   -47451   -47081   -46863 
  -46968   -46935   -47161   -47206   -46879   -46998   -47236   -47037 
  -46786   -46660   -46661   -46829   -46987   -47306   -47678   -47313 
  -46620   -46610   -46910   -47088   -47372   -47358   -46684   -46264 
  -46773   -47336   -47235   -47011   -47199   -47444   -47203   -46679 
  -46489   -46754   -47070   -47119   -47059   -47153   -47231   -47080 
  -46900   -46764   -46685   -47019   -47333   -46993   -46784   -47027 
  -47115   -47217   -47218   -46897   -46921   -47222   -47151   -46700 
  -46234   -46473   -47380   -47790   -47503   -47056   -46567   -46433 
  -46800   -47156   -47284   -47245   -47121   -47020   -46837   -46605 
  -46779   -47320   -47416   -47029   -46880   -46933   -46886   -46919 
  -47063   -47076   -46979   -46949   -46950   -47038   -47207   -47072 
  -46820   -46948   -47067   -46911   -46838   -46976   -47297   -47418 
  -46988   -46573   -46705   -47129   -47364   -47132   -46699   -46668 
  -47093   -47285   -46942   -46771   -47063   -47197   -46982   -46778 
  -46778   -46984   -47285   -47425   -47257   -46813   -46426   -46618 
  -47135   -47345   -47283   -47157   -46982   -46770   -46624   -46837 
  -47252   -47236   -47016   -47178   -47211   -46761   -46592   -46944 
  -47059   -46885   -47109   -47425   -47170   -46786   -46763   -46917 
  -47131   -47191   -46931   -46790   -46963   -47112   -47096   -46965 
  -46921   -47085   -47151   -46992   -46833   -46888   -47257   -47406 
  -46834   -46378   -46763   -47278   -47385   -47301   -47047   -46674 
  -46656   -47024   -47181   -47077   -46992   -46860   -46828   -46954 
  -47093   -47270   -47326   -47140   -46842   -46604   -46554   -46762 
  -47238   -47581   -47385   -46945   -46671   -46659   -46939   -47230 
  -47100   -46879   -46992   -46998   -46848   -47002   -47239   -47374 
  -47327   -46683   -46141   -46717   -47513   -47422   -46901   -46728 
  -47046   -47296   -47085   -46896   -46995   -47041   -46914   -46811 
  -46912   -47112   -47109   -46922   -46933   -47116   -47088   -46977 
  -47021   -47081   -47061   -46986   -46981   -46986   -46834   -46790 
  -46893   -46974   -47198   -47264   -46901   -46748   -47102   -47376 
  -47170   -46773   -46700   -46922   -47005   -46920   -46947   -47115 
  -47233   -47154   -46926   -46783   -46961   -47238   -47166   -46961 
  -47002   -47095   -46984   -46657   -46567   -47134   -47516   -47033 
  -46709   -47043   -47184   -47069   -47103   -47014   -46779   -46766 
  -47048   -47250   -46898   -46541   -46946   -47362   -47128   -47016 
  -47299   -47250   -46855   -46671   -46739   -46932   -47134   -47113 
  -47040   -47135   -47122   -46878   -46756   -46900   -46967   -46896 
  -47128   -47428   -47154   -46773   -46844   -46930   -46889   -47035 
  -47161   -46996   -46881   -47060   -47145   -47001   -46961   -47060 
  -47085   -46859   -46650   -46981   -47419   -47284   -46935   -46739 
  -46713   -47003   -47208   -46959   -46925   -47306   -47302   -46843 
  -46612   -46874   -47234   -47129   -46804   -46827   -47037   -47204 
  -47251   -47052   -46891   -46907   -46826   -46688   -46831   -47281 
  -47443   -47136   -46903   -46740   -46787   -47293   -47387   -46819 
  -46609   -46936   -47095   -47011   -47089   -47292   -47270   -46890 
