Origin Time       2011/11/06 13:57:00
Lat.              35.608
Long.             136.637
Depth. (km)       14
Mag.              2.9
Station Code      FKI011
Station Lat.      35.9053
Station Long.     136.6706
Station Height(m) 432
Record Time       2011/11/06 13:57:55
Sampling Freq(Hz) 100Hz
Duration Time(s)  60
Dir.              E-W
Scale Factor      3920(gal)/6182761
Max. Acc. (gal)   7.848
Last Correction   2011/11/06 13:57:55
Memo.             
[...]
  -31565   -31548   -31540   -31558   -31565   -31553   -31549   -31554 
  -31561   -31561   -31551   -31544   -31553   -31569   -31566   -31547 
  -31542   -31552   -31564   -31563   -31548   -31549   -31560   -31558 
  -31554   -31551   -31550   -31559   -31562   -31547   -31545   -31560 
  -31565   -31554   -31545   -31553   -31566   -31556   -31545   -31548 
  -31555   -31563   -31565   -31553   -31543   -31553   -31562   -31548 
  -31543   -31559   -31567   -31557   -31546   -31546   -31555   -31563 
  -31560   -31551   -31546   -31555   -31562   -31552   -31549   -31561 
  -31567   -31557   -31547   -31549   -31555   -31561   -31559   -31549 
  -31547   -31558   -31563   -31553   -31549   -31558   -31562   -31555 
  -31548   -31552   -31560   -31561   -31553   -31546   -31553   -31563 
  -31561   -31554   -31552   -31553   -31556   -31554   -31549   -31560 
  -31567   -31559   -31550   -31543   -31549   -31565   -31564   -31552 
  -31547   -31556   -31562   -31549   -31543   -31556   -31564   -31559 
  -31548   -31549   -31561   -31562   -31552   -31549   -31550   -31555 
  -31563   -31555   -31546   -31554   -31562   -31560   -31553   -31552 
  -31558   -31557   -31550   -31550   -31553   -31559   -31564   -31555 
  -31544   -31551   -31563   -31558   -31546   -31548   -31558   -31563 
  -31558   -31550   -31548   -31558   -31562   -31551   -31546   -31556 
  -31566   -31561   -31545   -31546   -31560   -31568   -31561   -31545 
  -31546   -31563   -31562   -31548   -31548   -31560   -31561   -31554 
  -31552   -31550   -31558   -31563   -31548   -31545   -31560   -31561 
  -31558   -31551   -31544   -31556   -31564   -31553   -31548   -31554 
  -31561   -31561   -31549   -31547   -31559   -31560   -31553   -31550 
  -31552   -31559   -31563   -31555   -31544   -31552   -31567   -31559 
  -31544   -31547   -31559   -31563   -31556   -31545   -31552   -31565 
  -31559   -31549   -31552   -31557   -31562   -31559   -31546   -31547 
  -31564   -31568   -31548   -31538   -31558   -31571   -31556   -31539 
  -31548   -31569   -31561   -31545   -31553   -31558   -31557   -31560 
  -31550   -31543   -31557   -31568   -31556   -31543   -31549   -31560 
  -31562   -31555   -31547   -31552   -31564   -31558   -31546   -31550 
  -31560   -31563   -31553   -31545   -31556   -31561   -31552   -31549 
  -31553   -31557   -31561   -31554   -31547   -31554   -31563   -31561 
  -31552   -31544   -31551   -31565   -31561   -31548   -31548   -31558 
  -31562   -31555   -31548   -31549   -31557   -31563   -31553   -31545 
  -31558   -31566   -31552   -31543   -31553   -31564   -31561   -31551 
  -31545   -31553   -31566   -31558   -31542   -31553   -31564   -31555 
  -31548   -31553   -31558   -31559   -31558   -31552   -31546   -31553 
  -31564   -31560   -31548   -31547   -31558   -31565   -31555   -31546 
  -31552   -31557   -31554   -31554   -31555   -31556   -31554   -31554 
  -31556   -31557   -31556   -31557   -31555   -31551   -31549   -31555 
  -31564   -31557   -31546   -31554   -31564   -31554   -31544   -31552 
  -31563   -31558   -31551   -31551   -31556   -31560   -31557   -31550 
  -31547   -31552   -31564   -31564   -31550   -31547   -31560   -31563 
  -31549   -31545   -31561   -31568   -31556   -31548   -31552   -31560 
  -31559   -31548   -31545   -31559   -31567   -31559   -31547   -31547 
  -31559   -31568   -31556   -31542   -31549   -31562   -31560   -31551 
  -31550   -31557   -31560   -31550   -31544   -31554   -31561   -31559 
  -31556   -31548   -31547   -31562   -31565   -31548   -31547   -31559 
  -31562   -31553   -31544   -31552   -31566   -31558   -31546   -31549 
  -31554   -31564   -31564   -31546   -31546   -31561   -31559   -31553 
  -31552   -31549   -31556   -31562   -31550   -31548   -31562   -31562 
  -31551   -31548   -31549   -31559   -31567   -31555   -31544   -31554 
  -31564   -31558   -31548   -31546   -31556   -31563   -31554   -31550 
  -31556   -31561   -31559   -31548   -31543   -31555   -31565   -31556 
  -31544   -31551   -31567   -31562   -31544   -31544   -31557   -31561 
  -31557   -31551   -31551   -31559   -31561   -31552   -31546   -31550 
  -31561   -31560   -31548   -31549   -31563   -31563   -31553   -31550 
  -31551   -31556   -31564   -31554   -31538   -31554   -31573   -31554 
  -31537   -31553   -31570   -31561   -31550   -31550   -31551   -31560 
  -31563   -31549   -31548   -31564   -31567   -31551   -31540   -31551 
  -31566   -31562   -31549   -31545   -31554   -31565   -31561   -31547 
  -31546   -31556   -31561   -31554   -31546   -31555   -31568   -31558 
  -31543   -31549   -31561   -31561   -31550   -31544   -31555   -31570 
  -31564   -31545   -31544   -31556   -31561   -31558   -31552   -31551 
  -31560   -31560   -31547   -31548   -31558   -31558   -31556   -31552 
  -31551   -31559   -31559   -31550   -31545   -31548   -31560   -31565 
  -31555   -31545   -31551   -31564   -31560   -31545   -31545   -31562 
  -31566   -31553   -31547   -31556   -31561   -31555   -31544   -31546 
  -31559   -31565   -31556   -31546   -31551   -31562   -31562   -31555 
  -31543   -31546   -31565   -31564   -31546   -31548   -31563   -31563 
  -31552   -31548   -31553   -31561   -31562   -31553   -31547   -31555 
  -31561   -31555   -31548   -31552   -31562   -31561   -31551   -31546 
  -31553   -31564   -31563   -31549   -31546   -31558   -31565   -31556 
  -31546   -31551   -31560   -31557   -31552   -31552   -31552   -31559 
  -31561   -31545   -31541   -31563   -31574   -31556   -31542   -31553 
  -31565   -31558   -31549   -31548   -31556   -31567   -31561   -31545 
  -31547   -31560   -31563   -31553   -31545   -31554   -31566   -31561 
  -31546   -31544   -31556   -31563   -31556   -31550   -31554   -31562 
  -31559   -31548   -31545   -31555   -31563   -31558   -31547   -31551 
  -31566   -31565   -31552   -31545   -31548   -31561   -31563   -31549 
  -31547   -31560   -31565   -31552   -31543   -31550   -31561   -31566 
  -31555   -31542   -31550   -31566   -31563   -31550   -31548   -31556 
  -31560   -31551   -31544   -31555   -31567   -31561   -31549   -31546 
  -31554   -31562   -31559   -31549   -31549   -31560   -31563   -31552 
  -31544   -31554   -31565   -31559   -31549   -31550   -31557   -31559 
  -31557   -31553   -31553   -31558   -31558   -31549   -31549   -31560 
  -31565   -31555   -31541   -31545   -31564   -31567   -31552   -31543 
  -31552   -31564   -31561   -31548   -31545   -31560   -31569   -31552 
  -31539   -31555   -31568   -31557   -31548   -31546   -31554   -31565 
  -31560   -31548   -31548   -31559   -31563   -31550   -31543   -31557 
  -31566   -31558   -31547   -31549   -31559   -31561   -31554   -31548 
  -31553   -31564   -31562   -31548   -31546   -31559   -31562   -31554 
  -31550   -31549   -31553   -31562   -31559   -31549   -31555   -31564 
  -31555   -31544   -31549   -31562   -31564   -31556   -31548   -31551 
  -31560   -31561   -31553   -31545   -31553   -31565   -31559   -31547 
  -31551   -31562   -31562   -31549   -31544   -31554   -31563   -31560 
  -31553   -31551   -31556   -31559   -31554   -31547   -31554   -31565 
  -31560   -31548   -31549   -31555   -31558   -31555   -31548   -31553 
  -31562   -31557   -31549   -31549   -31555   -31562   -31560   -31548 
  -31545   -31559   -31567   -31552   -31544   -31552   -31559   -31561 
  -31556   -31549   -31555   -31563   -31552   -31540   -31550   -31565 
  -31564   -31555   -31549   -31549   -31559   -31564   -31553   -31546 
  -31557   -31566   -31554   -31547   -31557   -31558   -31552   -31553 
  -31553   -31557   -31564   -31556   -31542   -31548   -31563   -31565 
  -31553   -31546   -31552   -31563   -31561   -31548   -31546   -31557 
  -31565   -31558   -31546   -31547   -31560   -31564   -31553   -31547 
  -31554   -31563   -31561   -31551   -31547   -31556   -31564   -31555 
  -31545   -31553   -31563   -31562   -31551   -31545   -31554   -31564 
  -31561   -31547   -31544   -31561   -31569   -31554   -31543   -31551 
  -31564   -31562   -31548   -31545   -31559   -31566   -31557   -31547 
  -31549   -31561   -31565   -31551   -31540   -31553   -31570   -31563 
  -31547   -31548   -31557   -31562   -31554   -31544   -31550   -31563 
  -31561   -31550   -31549   -31557   -31562   -31556   -31547   -31549 
  -31559   -31560   -31551   -31550   -31558   -31560   -31556   -31553 
  -31550   -31556   -31564   -31557   -31547   -31550   -31561   -31564 
  -31552   -31544   -31555   -31567   -31560   -31546   -31547   -31557 
  -31559   -31555   -31554   -31555   -31557   -31559   -31555   -31547 
  -31547   -31559   -31563   -31553   -31548   -31557   -31565   -31556 
  -31544   -31549   -31563   -31565   -31555   -31545   -31551   -31565 
  -31560   -31548   -31551   -31558   -31562   -31556   -31547   -31552 
  -31561   -31560   -31556   -31550   -31550   -31560   -31559   -31545 
  -31546   -31566   -31566   -31548   -31545   -31555   -31562   -31561 
  -31552   -31544   -31551   -31564   -31562   -31546   -31545   -31563 
  -31566   -31550   -31543   -31555   -31564   -31558   -31545   -31546 
  -31558   -31565   -31558   -31548   -31547   -31560   -31565   -31551 
  -31544   -31554   -31564   -31560   -31549   -31546   -31558   -31567 
  -31556   -31543   -31548   -31561   -31564   -31550   -31542   -31555 
  -31567   -31558   -31542   -31543   -31564   -31571   -31553   -31539 
  -31547   -31560   -31558   -31551   -31552   -31558   -31561   -31554 
  -31544   -31549   -31562   -31562   -31552   -31550   -31556   -31559 
  -31554   -31549   -31549   -31556   -31567   -31559   -31542   -31548 
  -31562   -31561   -31554   -31546   -31549   -31561   -31561   -31550 
  -31552   -31548   -31507   -31474   -31510   -31522   -31438   -31523 
  -31850   -31903   -31674   -31643   -31582   -31402   -31414   -31398 
  -31392   -31373   -31092   -31318   -32057   -32223   -31899   -31565 
  -31526   -31536   -30943   -31051   -32051   -31722   -31071   -31756 
  -32111   -31579   -31474   -31631   -31147   -30948   -31714   -31930 
  -31693   -32026   -31666   -30965   -31373   -31590   -31378   -31791 
  -31920   -31504   -31596   -31875   -31363   -30830   -31403   -31949 
  -31428   -31175   -31948   -32147   -31447   -31511   -31733   -31085 
  -31085   -31803   -31771   -31407   -31642   -32050   -31781   -31283 
  -31293   -31389   -31397   -31453   -31590   -31934   -31930   -31381 
  -31167   -31505   -31666   -31503   -31572   -31740   -31575   -31638 
  -31855   -31368   -30951   -31453   -31934   -31709   -31350   -31446 
  -31809   -31765   -31323   -31261   -31506   -31564   -31690   -31894 
  -31796   -31528   -31444   -31455   -31356   -31257   -31370   -31723 
  -31938   -31705   -31485   -31634   -31646   -31359   -31246   -31484 
  -31656   -31401   -31415   -32026   -32092   -31398   -31165   -31499 
  -31499   -31436   -31702   -31760   -31538   -31421   -31647   -31822 
  -31422   -31134   -31391   -31621   -31710   -31707   -31654   -31730 
  -31623   -31266   -31230   -31534   -31647   -31614   -31859   -31920 
  -31382   -31213   -31682   -31542   -30916   -31282   -32214   -32132 
  -31455   -31409   -31623   -31399   -31186   -31445   -31781   -31754 
  -31599   -31592   -31592   -31625   -31570   -31288   -31333   -31607 
  -31556   -31588   -31751   -31597   -31494   -31644   -31443   -31168 
  -31591   -31994   -31747   -31521   -31501   -31408   -31311   -31418 
  -31734   -31755   -31577   -31664   -31527   -31293   -31558   -31712 
  -31512   -31421   -31420   -31514   -31702   -31799   -31757   -31496 
  -31378   -31630   -31576   -31271   -31383   -31719   -31826   -31654 
  -31481   -31373   -31301   -31551   -31789   -31636   -31549   -31589 
  -31547   -31639   -31706   -31483   -31354   -31437   -31472   -31596 
  -31681   -31551   -31461   -31483   -31600   -31666   -31658   -31732 
  -31637   -31313   -31255   -31607   -31763   -31566   -31576   -31668 
  -31419   -31209   -31504   -31973   -31839   -31266   -31313   -31722 
  -31483   -31252   -31726   -31886   -31482   -31523   -31719   -31459 
  -31339   -31519   -31666   -31723   -31573   -31467   -31550   -31549 
  -31514   -31492   -31494   -31628   -31591   -31394   -31640   -31939 
  -31589   -31285   -31423   -31373   -31369   -31848   -32143   -31761 
  -31268   -31166   -31222   -31355   -31713   -31954   -31858   -31727 
  -31464   -31155   -31448   -31668   -31281   -31376   -31818   -31795 
  -31673   -31806   -31761   -31155   -31003   -31680   -31794   -31453 
  -31556   -31635   -31483   -31476   -31644   -31679   -31477   -31476 
  -31725   -31757   -31451   -31282   -31542   -31571   -31485   -31799 
  -31716   -31338   -31454   -31616   -31561   -31627   -31703   -31481 
  -31277   -31380   -31581   -31768   -31789   -31750   -31629   -31159 
  -31193   -31857   -31754   -31365   -31735   -31700   -31064   -31234 
  -31875   -31958   -31737   -31504   -31237   -31238   -31568   -31742 
  -31578   -31528   -31711   -31632   -31402   -31676   -31879   -31306 
  -31125   -31753   -31759   -31217   -31275   -31679   -31875   -31903 
  -31760   -31512   -31223   -31137   -31603   -31984   -31628   -31087 
  -31167   -31738   -31905   -31804   -31908   -31465   -30903   -31351 
  -31798   -31689   -31815   -31726   -31237   -31133   -31444   -31817 
  -31731   -31293   -31529   -31983   -31886   -31723   -31337   -31090 
  -31567   -31489   -30955   -31505   -32266   -32038   -31613   -31420 
  -31173   -31096   -31362   -32168   -33348   -34130   -34118   -32928 
  -30329   -26843   -23519   -22427   -26149   -34220   -41598   -43934 
  -41261   -35257   -28355   -23968   -23615   -25948   -28421   -30210 
  -32457   -34463   -37105   -40728   -38404   -30123   -23642   -20552 
  -23408   -32167   -39014   -40805   -37658   -31310   -27027   -26042 
  -27060   -29481   -31976   -34958   -37110   -35508   -32149   -29029 
  -26624   -27713   -31203   -33820   -35322   -33894   -30713   -29811 
  -29060   -28725   -31690   -34329   -35087   -34642   -31733   -28469 
  -27057   -28510   -32316   -34168   -34350   -35123   -33121   -29363 
  -28091   -28091   -29307   -32257   -34114   -33918   -32851   -32236 
  -32026   -31123   -30393   -30176   -30259   -31226   -31768   -31744 
  -32307   -32480   -32355   -32664   -32178   -30743   -29778   -29491 
  -30069   -32121   -33741   -33251   -32311   -31866   -31135   -30584 
  -30685   -30603   -30584   -31681   -32960   -33161   -32554   -31295 
  -30084   -30039   -30723   -31471   -32443   -33381   -33287   -31959 
  -30478   -30018   -30538   -31063   -31545   -32177   -32345   -31944 
  -31659   -31734   -31454   -30909   -31140   -31523   -31389   -31750 
  -32340   -32024   -31124   -30606   -30977   -32008   -32937   -32743 
  -31459   -30430   -30198   -30807   -31911   -32153   -31755   -31662 
  -31684   -32090   -32507   -32042   -31012   -30117   -30321   -31400 
  -31908   -31987   -32213   -32249   -31751   -31061   -30982   -31275 
  -31677   -32188   -31852   -31017   -30989   -31571   -31876   -31560 
  -31559   -32189   -32079   -31469   -31197   -30760   -30758   -31458 
  -31659   -31624   -32196   -32757   -32252   -31099   -30726   -31072 
  -31589   -32240   -32045   -30950   -30585   -31319   -31973   -31964 
  -31846   -31795   -31346   -30998   -31357   -31686   -31490   -31548 
  -32120   -32158   -31457   -31055   -31311   -31642   -31529   -31382 
  -31577   -31689   -31709   -31672   -31440   -31391   -31430   -31263 
  -31364   -31828   -32002   -31764   -31567   -31335   -31037   -31274 
  -31891   -32128   -31854   -31294   -31004   -31493   -32125   -32082 
  -31564   -30947   -30729   -31278   -31803   -31908   -32110   -32202 
  -31831   -31222   -30723   -30833   -31623   -32304   -32203   -31568 
  -31132   -31125   -31230   -31490   -31974   -32082   -31642   -31272 
  -31282   -31574   -31809   -31541   -31207   -31555   -31925   -31519 
  -31159   -31490   -31923   -31957   -31626   -31287   -31138   -31209 
  -31571   -31802   -31811   -31876   -31430   -30875   -31395   -31929 
  -31648   -31844   -32151   -31478   -31103   -31415   -31230   -31174 
  -31705   -31864   -31775   -31762   -31645   -31692   -31711   -31363 
  -31116   -31251   -31605   -31681   -31163   -31211   -32136   -32333 
  -31760   -31575   -31520   -31149   -31060   -31486   -31795   -31729 
  -31535   -31433   -31497   -31555   -31646   -31827   -31672   -31184 
  -31146   -31606   -31687   -31549   -31741   -31755   -31490   -31358 
  -31426   -31674   -31798   -31673   -31579   -31457   -31300   -31458 
  -31751   -31668   -31486   -31696   -31936   -31492   -30833   -31154 
  -31848   -31872   -31705   -31420   -31217   -31744   -32139   -31706 
  -31112   -30954   -31387   -31921   -32031   -31842   -31423   -31134 
  -31392   -31600   -31466   -31583   -31809   -31636   -31302   -31322 
  -31717   -31964   -31880   -31549   -31159   -31092   -31242   -31699 
  -32328   -32163   -31472   -31182   -31220   -31340   -31448   -31553 
  -31574   -31522   -31813   -31890   -31357   -31270   -31635   -31675 
  -31573   -31509   -31441   -31438   -31650   -31952   -31618   -31095 
  -31377   -31789   -31736   -31528   -31415   -31546   -31675   -31653 
  -31519   -31325   -31426   -31742   -31817   -31495   -31159   -31517 
  -32030   -31728   -31374   -31667   -31773   -31261   -31030   -31347 
  -31469   -31664   -32086   -32030   -31647   -31315   -31178   -31328 
  -31547   -31843   -31815   -31321   -31399   -31705   -31416   -31494 
  -31820   -31610   -31630   -31782   -31356   -31076   -31437   -31786 
  -31658   -31442   -31539   -31672   -31640   -31580   -31553   -31585 
  -31600   -31513   -31329   -31162   -31362   -31876   -32069   -31820 
  -31502   -31316   -31432   -31619   -31465   -31290   -31427   -31569 
  -31552   -31694   -31966   -31761   -31268   -31302   -31621   -31594 
  -31448   -31554   -31688   -31573   -31465   -31501   -31482   -31613 
  -31915   -31937   -31622   -31231   -30982   -31048   -31454   -31976 
  -32289   -32109   -31474   -31111   -31329   -31503   -31534   -31497 
  -31249   -31411   -31904   -31823   -31659   -31840   -31648   -31176 
  -31134   -31490   -31664   -31526   -31563   -31803   -31799   -31489 
  -31253   -31287   -31437   -31709   -31863   -31698   -31567   -31460 
  -31380   -31511   -31499   -31454   -31714   -31780   -31586   -31512 
  -31400   -31461   -31786   -31723   -31348   -31288   -31595   -31780 
  -31567   -31529   -31800   -31702   -31352   -31292   -31399   -31428 
  -31630   -32013   -31816   -31171   -31126   -31581   -31869   -31759 
  -31481   -31502   -31611   -31550   -31442   -31277   -31399   -31834 
  -31899   -31536   -31267   -31475   -31946   -31910   -31360   -31122 
  -31414   -31693   -31667   -31535   -31533   -31659   -31634   -31417 
  -31370   -31466   -31549   -31728   -31776   -31591   -31543   -31628 
  -31613   -31432   -31129   -31192   -31724   -32036   -31909   -31635 
  -31395   -31324   -31435   -31504   -31397   -31370   -31650   -32053 
  -31990   -31310   -30957   -31278   -31680   -31915   -31847   -31745 
  -31742   -31250   -30794   -31138   -31729   -32102   -32062   -31662 
  -31357   -31229   -31386   -31745   -31681   -31296   -31243   -31547 
  -31864   -31935   -31673   -31359   -31439   -31739   -31572   -31191 
  -31439   -31850   -31606   -31308   -31456   -31603   -31785   -31916 
