Origin Time       2011/03/11 14:46:00
Lat.              38.103
Long.             142.860
Depth. (km)       24
Mag.              9.0
Station Code      CHBH12
Station Lat.      35.3445
Station Long.     139.8554
Station Height(m) -1997
Record Time       2011/03/11 14:47:30
Sampling Freq(Hz) 100Hz
Duration Time(s)  300
Dir.              3
Scale Factor      2940(gal)/6170270
Max. Acc. (gal)   14.843
Last Correction   2011/03/11 14:47:15
Memo.             
[...]
  -21336   -21288   -21432   -20376   -18474   -16692   -14641   -12955 
  -12938   -13574   -13122   -12092   -11332   -10199    -8867    -8298 
   -8189    -8457    -9972   -12507   -14709   -15787   -16383   -17836 
  -20248   -21940   -21521   -20099   -19287   -18682   -18131   -18371 
  -19180   -20093   -20755   -20604   -19669   -18815   -19033   -19963 
  -20233   -20032   -20819   -22579   -23887   -24110   -23507   -22363 
  -21365   -21351   -22597   -24324   -24733   -23056   -20998   -20924 
  -23230   -25866   -26803   -26458   -26635   -27491   -27561   -26954 
  -27092   -27498   -26813   -25578   -24748   -23664   -21902   -20459 
  -19958   -20196   -21049   -21855   -21618   -20910   -21159   -22195 
  -22731   -22071   -20296   -18019   -16229   -15412   -14907   -14150 
  -13559   -13469   -13455   -13459   -14194   -15172   -14976   -14216 
  -14753   -16510   -17748   -17462   -16228   -15353   -15085   -14380 
  -13245   -12745   -12629   -12040   -10824    -9170    -7902    -7463 
   -7752    -9615   -12725   -14870   -15592   -16135   -17102   -18817 
  -21174   -23545   -25660   -26846   -26608   -25555   -23887   -22036 
  -21417   -21450   -20628   -20681   -22598   -23745   -23851   -24128 
  -23927   -23857   -24012   -23183   -22435   -22977   -24381   -25977 
  -26491   -24879   -22317   -21199   -22249   -23959   -24894   -25465 
  -27230   -30471   -32993   -32841   -31168   -30244   -30312   -30167 
  -29009   -27199   -25673   -24648   -24285   -24869   -25424   -25018 
  -24253   -24344   -25790   -27052   -26237   -24293   -22880   -21710 
  -21025   -21594   -22384   -22368   -21955   -21440   -20072   -18021 
  -17026   -16996   -16851   -16779   -16123   -14670   -13587   -13024 
  -12984   -13734   -14845   -16038   -17220   -17351   -15613   -13926 
  -14550   -16419   -17425   -17327   -16947   -16646   -16160   -15632 
  -15525   -15594   -15860   -17228   -19173   -19881   -19375   -19136 
  -19778   -20758   -20902   -19787   -18392   -16775   -14148   -11838 
  -11444   -12267   -13407   -14891   -16669   -18420   -19942   -21096 
  -21555   -21340   -20938   -20676   -20821   -21919   -24072   -26293 
  -27330   -26523   -24405   -22650   -22262   -22766   -23357   -23812 
  -24568   -25964   -27440   -27885   -26870   -25102   -23633   -22722 
  -21915   -21636   -22240   -23042   -24133   -24927   -24245   -23227 
  -22688   -22265   -22737   -24174   -24846   -23888   -22615   -21633 
  -20281   -19347   -19480   -20149   -21132   -21510   -20632   -19546 
  -18815   -18382   -18777   -19520   -19245   -17903   -16296   -14870 
  -13900   -13875   -14977   -15787   -14808   -12785   -10673    -8567 
   -7283    -7245    -7860    -9252   -11925   -14994   -17098   -18143 
  -18412   -18400   -19232   -20916   -22610   -23984   -24777   -25229 
  -25741   -26007   -26677   -28975   -31429   -31751   -31546   -32730 
  -33747   -34681   -36932   -38948   -39367   -38452   -36983   -35988 
  -34812   -32678   -30921   -30392   -29787   -28081   -26246   -25071 
  -24524   -24959   -25718   -26080   -26128   -25304   -24280   -24182 
  -24088   -22883   -20523   -17946   -16050   -13869   -10930    -9470 
   -9984   -10747   -12389   -14382   -14654   -15272   -17062   -17439 
  -17109   -17201   -17241   -18239   -20301   -22366   -24291   -25652 
  -25330   -23144   -20854   -20216   -21290   -23275   -24794   -25794 
  -27260   -27403   -25179   -22734   -21019   -20020   -19460   -18497 
  -17429   -16592   -15960   -15979   -16686   -17704   -18301   -18435 
  -19260   -20154   -20428   -21008   -20421   -18176   -16475   -15169 
  -14314   -15428   -18083   -20497   -21599   -22251   -23265   -24042 
  -25140   -26846   -27662   -27856   -28095   -26999   -24592   -22630 
  -21649   -21452   -22491   -24251   -24734   -23608   -22333   -21520 
  -20981   -20258   -19003   -17206   -15419   -16194   -19399   -20106 
  -18587   -18343   -17613   -16467   -17099   -17712   -17449   -17472 
  -17874   -18788   -20162   -20978   -20283   -18697   -17821   -17369 
  -16106   -15101   -15776   -17537   -19327   -20072   -19474   -19110 
  -19747   -20379   -20908   -21852   -22918   -24097   -25555   -26844 
  -28014   -29599   -31502   -33288   -34368   -34511   -34806   -36033 
  -37144   -37146   -36218   -34221   -31043   -27836   -25249   -22648 
  -20221   -19146   -19521   -19934   -19285   -18280   -18685   -20558 
  -21685   -21667   -22335   -22646   -21010   -19550   -19747   -21199 
  -23332   -24897   -25911   -27113   -27832   -27394   -26453   -25745 
  -24908   -23580   -22071   -21028   -20729   -20303   -18868   -16883 
  -16038   -16764   -16596   -15086   -15445   -18287   -21410   -23966 
  -25747   -26542   -27120   -28303   -30224   -32193   -32443   -30810 
  -29514   -28860   -27890   -27119   -26510   -25588   -24110   -21509 
  -18709   -17591   -18574   -20423   -21503   -21905   -23243   -25350 
  -26007   -25060   -24487   -24174   -23747   -24678   -26177   -26588 
  -26965   -27903   -28287   -27591   -26632   -26583   -27507   -28711 
  -29647   -30143   -30051   -28477   -25226   -21974   -20274   -19821 
  -18917   -16957   -14903   -12828   -11067   -11388   -13427   -15070 
  -16647   -18898   -19826   -19089   -18823   -18727   -18488   -19092 
  -19557   -19135   -18686   -18954   -19247   -18273   -16826   -15806 
  -15202   -16543   -19431   -20910   -20962   -20265   -18334   -16589 
  -15828   -15818   -16671   -16980   -16331   -15984   -15710   -15034 
  -15055   -16778   -18942   -19733   -19830   -20016   -19689   -20001 
  -22391   -25623   -27571   -27138   -25377   -24420   -24579   -25143 
  -25953   -27150   -28761   -29960   -30157   -30220   -30327   -29342 
  -27641   -26458   -25433   -24324   -23750   -23220   -21644   -19511 
  -18221   -17656   -16875   -15973   -15469   -15494   -16228   -17598 
  -19009   -20856   -22991   -23420   -22514   -21920   -21118   -20072 
  -19118   -17529   -15494   -14256   -13475   -12322   -12476   -14444 
  -16447   -17966   -18165   -16755   -15610   -15427   -15979   -17578 
  -20081   -22963   -25315   -26148   -25277   -23091   -20138   -17256 
  -15711   -16234   -17676   -18440   -18613   -18853   -19139   -18929 
  -18012   -17914   -19319   -19836   -18560   -17839   -18440   -18895 
  -19308   -20072   -19485   -17369   -15802   -15474   -16236   -17741 
  -18939   -19798   -20555   -20704   -20552   -20229   -19089   -18046 
  -18277   -18961   -19168   -19098   -19745   -21462   -22775   -23212 
  -23714   -24180   -24444   -24531   -24475   -24910   -25940   -27393 
  -29129   -30076   -29335   -27021   -24244   -23030   -22963   -21691 
  -20690   -21480   -21209   -19061   -17173   -16177   -15798   -15566 
  -15680   -16605   -16589   -14765   -13392   -13483   -14531   -16710 
  -19478   -21817   -23067   -22682   -21264   -20014   -19055   -17952 
  -16480   -15115   -15367   -17686   -20244   -21713   -23023   -25102 
  -27178   -28406   -28615   -27789   -26602   -25636   -24627   -23717 
  -23505   -23576   -22835   -21073   -18623   -16015   -14501   -14967 
  -16760   -18580   -20840   -23922   -24852   -22078   -18165   -15152 
  -13499   -12663   -11811   -10898    -9789    -8796    -8642    -9582 
  -11352   -12289   -11266   -10364   -11717   -14411   -16729   -18354 
  -19980   -22119   -24367   -26068   -26970   -26746   -24983   -22416 
  -21232   -22015   -22522   -21890   -21704   -21945   -21220   -20525 
  -21656   -23860   -24921   -23509   -20310   -17016   -14907   -14393 
  -14331   -13504   -12439   -11660   -11169   -11732   -12452   -11459 
  -10048    -9129    -7933    -7803    -9156   -10590   -12134   -13651 
  -14042   -13367   -12677   -12168   -11264   -10360   -10475   -11331 
  -11909   -11765   -11302   -11965   -13528   -13688   -13128   -14205 
  -15427   -13930   -10854    -9434    -9790   -10508   -11922   -13647 
  -14171   -13479   -12169   -10519    -9459    -9764   -10874   -12782 
  -16471   -20374   -22104   -22527   -22307   -20578   -18393   -17579 
  -18830   -21756   -24438   -25167   -24851   -25803   -28366   -30666 
  -31953   -32241   -30570   -28084   -26553   -25259   -24257   -23796 
  -23237   -23453   -24632   -24964   -23366   -20397   -17475   -16212 
  -17288   -19187   -20251   -21526   -23441   -24774   -26729   -29419 
  -30274   -30044   -30607   -30850   -30312   -30479   -31045   -30467 
  -28818   -26505   -24863   -25257   -25689   -24809   -23732   -22540 
  -21300   -20362   -19369   -18981   -19712   -20023   -19460   -20000 
  -21997   -23129   -22204   -19998   -17062   -14018   -11869   -11366 
  -13131   -16036   -17730   -17833   -17352   -16969   -17403   -18751 
  -19749   -19471   -18148   -16724   -16403   -16806   -16692   -16478 
  -16291   -14640   -12050   -10965   -11548   -12702   -14613   -16739 
  -17420   -16665   -15852   -15733   -16454   -17331   -16951   -15129 
  -13133   -11649   -10414    -9751   -10526   -13006   -16966   -20619 
  -21336   -20020   -19167   -18595   -17998   -17956   -18155   -18587 
  -19222   -18836   -17352   -16320   -16542   -17657   -19225   -21683 
  -24522   -25522   -24917   -24233   -22550   -19720   -17237   -15620 
  -15121   -16004   -17607   -18623   -18208   -17241   -17269   -18305 
  -19469   -20694   -22862   -26355   -30112   -33206   -35137   -34960 
  -32940   -30286   -26942   -23133   -20307   -18518   -16820   -15602 
  -15655   -16426   -17151   -18671   -20957   -22011   -21864   -22755 
  -25124   -26738   -26623   -25773   -23861   -22159   -23023   -24414 
  -24273   -24166   -25125   -26126   -25985   -25320   -25699   -27107 
  -28633   -29945   -30644   -30516   -30063   -29002   -26962   -24890 
  -23192   -22189   -22258   -22126   -21698   -22254   -23000   -23245 
  -23725   -23634   -22012   -19943   -18441   -17812   -18229   -18977 
  -19321   -19387   -18890   -18046   -18548   -20571   -22897   -24183 
  -22418   -18692   -17294   -19525   -22269   -22525   -20800   -18427 
  -15107   -11110    -8127    -7712    -9630   -12207   -14648   -16964 
  -18277   -17577   -15965   -15559   -16518   -17386   -16851   -15023 
  -13560   -13461   -14115   -14705   -14883   -14677   -14840   -16647 
  -20028   -23217   -25607   -27418   -27320   -24589   -20284   -15509 
  -11639    -9812    -8985    -8137    -8596    -9446    -8222    -6923 
   -6992    -7128    -8312   -10191   -10425    -9241    -7643    -6054 
   -5243    -5857    -8260   -12110   -16147   -19487   -22488   -25269 
  -26935   -27226   -26961   -27082   -27631   -27773   -27725   -28340 
  -29225   -30392   -32178   -32787   -30932   -28036   -25227   -21897 
  -17899   -15154   -14969   -16045   -17113   -17449   -15903   -13396 
  -12361   -12336   -12725   -15284   -17972   -17748   -16605   -15924 
  -15487   -16240   -17388   -17648   -17657   -17812   -18235   -20254 
  -23958   -27077   -28995   -31023   -32440   -32008   -31128   -30429 
  -27470   -22095   -17118   -12884    -9916   -10055   -11472   -12602 
  -14693   -16321   -15703   -15550   -16829   -16955   -17147   -18411 
  -17872   -15114   -12580   -12784   -15938   -19667   -22600   -24513 
  -25135   -24699   -24178   -24613   -25325   -24211   -21309   -19767 
  -20240   -20030   -19843   -21056   -21759   -22342   -23359   -22378 
  -19781   -18499   -19128   -19570   -18234   -15869   -13119   -10331 
   -9388   -11205   -14216   -17454   -20799   -22707   -22343   -21348 
  -21216   -21588   -21443   -20809   -20090   -18942   -17493   -16235 
  -14955   -13505   -11988   -10830   -11128   -12924   -14562   -14853 
  -14299   -14002   -13739   -11900    -8223    -5280    -4807    -4738 
   -3712    -3971    -6326    -8669   -10123   -11030   -11513   -12361 
  -13942   -15124   -15192   -15301   -15966   -15309   -13040   -11635 
  -12304   -13970   -14799   -14324   -14123   -15261   -17517   -20637 
  -23754   -25847   -26855   -26696   -26108   -26031   -25618   -25504 
  -27226   -29329   -30627   -31626   -32170   -32802   -34519   -37059 
  -39682   -41724   -42750   -42562   -42096   -42354   -41737   -39476 
  -37171   -34682   -31247   -27660   -24877   -23440   -22978   -22350 
  -20774   -18403   -16311   -14722   -12830   -11345   -11538   -12428 
  -12193   -12091   -14738   -18195   -19711   -20425   -20441   -20109 
  -21420   -22909   -22940   -22474   -21730   -20734   -20657   -22210 
  -23738   -23351   -22607   -22982   -22034   -19574   -18669   -18381 
  -17075   -16106   -15518   -14764   -13982   -12893   -11666   -11306 
  -12502   -14127   -15442   -17245   -18847   -19952   -21830   -24424 
  -27594   -30495   -30488   -28120   -26616   -25991   -24975   -23873 
  -22117   -19825   -19678   -22142   -24352   -25745   -27350   -28536 
  -29684   -30493   -29263   -27112   -25442   -24128   -23617   -23432 
  -21927   -19290   -17131   -15243   -13220   -12583   -13565   -14998 
  -16405   -16856   -16562   -17561   -20414   -24303   -27379   -27390 
  -25271   -23067   -20941   -19093   -17542   -16552   -17365   -18868 
  -18512   -17054   -16444   -16097   -14903   -12561    -9790    -8326 
   -8198    -7947    -7003    -5433    -3649    -2606    -3212    -5692 
  -10116   -15929   -20352   -21405   -21004   -21698   -24112   -27540 
  -30174   -30008   -27140   -24625   -23845   -23274   -23722   -25775 
  -28229   -31807   -35375   -37205   -38579   -39130   -37725   -35459 
  -33898   -33989   -35094   -35727   -35972   -36977   -38898   -41483 
  -45052   -48823   -51035   -51434   -50949   -50297   -49555   -48003 
  -45176   -41601   -38280   -35485   -32551   -29270   -26162   -24134 
  -23458   -22481   -20286   -18383   -17744   -18018   -18600   -18431 
  -17250   -16527   -16546   -15380   -14075   -15634   -18298   -20205 
  -21903   -20403   -15421   -11686    -9640    -8147    -8511   -10691 
  -13914   -17620   -20604   -22449   -23995   -25513   -25987   -24665 
  -22251   -20603   -21172   -23261   -25513   -27785   -29179   -28364 
  -26516   -25114   -24459   -25310   -26682   -27167   -27495   -27185 
  -25631   -24325   -24080   -24603   -25174   -24764   -23295   -21353 
  -19732   -19472   -20034   -20069   -20456   -22443   -24983   -26955 
  -28787   -30585   -30895   -29068   -27648   -28275   -29089   -29978 
  -31405   -30816   -28709   -28457   -29418   -29204   -27096   -23103 
  -18744   -15809   -14227   -13735   -13565   -12275   -11426   -13066 
  -14933   -15274   -15480   -15837   -16299   -17509   -19234   -20692 
  -20390   -18455   -18051   -20722   -24557   -27667   -29618   -30480 
  -30061   -27719   -24692   -23513   -23820   -24620   -26146   -26759 
  -25725   -24855   -24113   -22759   -21698   -20991   -20288   -20790 
  -22884   -24886   -25836   -26517   -27857   -29701   -31143   -32172 
  -33462   -34466   -34264   -33622   -33583   -33757   -33523   -32919 
  -31707   -29119   -25544   -22954   -22523   -22948   -22274   -20898 
  -20770   -21976   -22989   -23867   -25621   -27381   -27777   -27486 
  -28295   -30597   -32529   -32513   -31263   -29173   -25659   -22462 
  -21525   -20966   -19321   -18844   -19936   -20136   -19593   -19504 
  -19023   -18112   -18158   -19270   -20236   -20866   -22281   -24092 
  -25075   -25679   -25207   -22995   -21952   -22612   -22187   -20918 
  -20481   -21251   -23093   -24713   -24522   -22944   -21223   -19516 
  -18631   -19663   -21390   -22409   -23174   -24300   -25768   -27321 
  -29587   -33096   -35900   -36610   -36228   -35253   -33686   -32197 
  -31305   -30597   -29717   -28976   -28452   -27875   -27259   -27622 
  -29528   -30880   -29742   -27300   -25008   -22992   -21929   -22292 
  -23632   -25548   -26714   -25485   -22794   -20737   -19176   -17200 
  -15237   -13475   -11479    -9973    -9517    -8724    -6981    -4952 
   -2478     -503     -712    -3135    -7013   -10451   -12054   -12712 
  -13174   -14061   -15166   -15254   -15355   -16234   -16244   -15214 
  -14881   -16323   -18996   -21316   -22425   -22589   -21938   -20844 
  -20378   -21137   -23505   -26997   -29821   -31727   -33023   -33143 
  -33117   -33782   -33818   -32645   -30938   -29064   -27358   -25838 
  -23673   -20617   -17812   -16358   -16256   -17126   -18851   -21254 
  -24267   -27347   -28621   -27223   -24917   -23491   -22871   -22381 
  -22128   -22185   -22099   -22738   -24733   -26454   -28234   -31280 
  -32984   -32686   -32852   -32534   -30394   -27388   -24168   -21522 
  -20371   -21220   -23048   -24076   -25297   -27980   -30480   -31407 
  -31350   -31282   -31602   -32120   -32587   -32664   -31936   -30887 
  -30002   -28276   -25185   -21840   -18980   -16795   -15609   -15296 
  -15315   -15140   -14953   -15246   -15817   -16558   -16876   -16451 
  -17257   -19388   -19929   -18182   -16052   -15539   -17197   -20016 
  -22903   -25082   -25912   -25228   -23406   -21495   -20631   -21039 
  -22879   -24711   -23790   -21846   -21321   -20121   -17480   -15380 
  -14451   -13720   -12748   -11475    -9271    -7867    -8977   -10563 
  -11858   -13167   -13268   -12945   -12785   -11289    -9323    -8539 
   -8330    -8496    -8971    -8599    -8990   -12818   -18389   -23403 
  -27629   -29932   -29776   -28196   -26564   -25582   -24021   -22927 
  -24597   -25846   -24376   -23193   -22748   -21790   -21609   -21982 
  -21118   -19151   -17652   -17928   -19891   -21979   -22471   -22016 
  -22371   -22623   -22455   -23590   -25400   -27686   -31348   -33566 
  -32517   -30391   -27864   -24401   -21676   -21780   -23588   -24122 
  -23171   -22224   -21871   -22277   -21962   -19608   -16766   -14094 
  -11108    -9435    -9556    -9207    -7630    -7107    -9101   -10800 
  -10014    -8838    -8055    -7189    -7532    -8514    -8425    -8413 
   -9996   -12120   -13716   -15054   -15616   -15508   -16859   -20205 
  -23848   -25901   -25029   -22450   -20606   -19628   -18384   -16317 
  -13935   -12322   -11554   -11488   -12326   -13602   -15350   -17694 
  -19630   -21204   -23435   -26120   -28511   -30345   -31821   -32449 
  -31254   -29847   -29487   -28812   -28445   -28672   -28813   -30268 
  -31735   -30944   -29847   -29967   -30144   -29767   -28810   -27162 
  -24964   -22340   -19773   -17537   -15974   -16074   -17039   -16668 
  -15172   -14628   -13852   -10374    -7466    -7943    -8036    -6813 
   -7002    -8003    -8925    -9289    -8235    -7417    -7997    -8621 
   -8847    -8994    -8736    -8979   -10834   -13360   -15771   -18331 
  -21192   -23990   -25706   -26373   -26813   -26685   -25381   -23281 
  -21563   -20870   -20414   -19781   -20175   -21846   -23344   -24364 
  -24752   -24010   -23244   -22480   -20194   -16439   -12708   -11119 
  -13058   -17507   -21860   -24521   -27231   -31011   -33085   -33646 
  -34394   -33745   -32640   -31951   -29764   -27201   -25181   -22630 
  -19916   -16690   -12808   -10017    -8599    -8198    -8953    -9805 
  -11008   -13849   -16078   -15650   -15172   -16230   -17862   -19785 
  -21130   -21600   -22074   -22539   -22395   -20884   -17996   -14932 
  -13503   -15294   -18578   -19680   -19140   -19245   -19654   -20635 
  -22293   -23209   -23554   -23529   -22589   -21500   -21113   -21444 
  -21940   -21816   -20625   -18404   -15911   -14137   -13678   -14290 
  -14388   -13367   -13401   -15442   -17314   -18242   -19286   -20079 
