Origin Time       2011/03/11 14:46:00
Lat.              38.103
Long.             142.860
Depth. (km)       24
Mag.              9.0
Station Code      CHBH12
Station Lat.      35.3445
Station Long.     139.8554
Station Height(m) 3
Record Time       2011/03/11 14:47:30
Sampling Freq(Hz) 100Hz
Duration Time(s)  300
Dir.              4
Scale Factor      3920(gal)/6170801
Max. Acc. (gal)   91.702
Last Correction   2011/03/11 14:47:15
Memo.             
[...]
   -1155     1650     3337     2809      -45    -4809   -10942   -17713 
  -24120   -28976   -31509   -32245   -32513   -32426   -30816   -26907 
  -21097   -14762    -8944    -3754      399     2922     3960     3787 
    2760     1407     -580    -4008    -8969   -14448   -18944   -21884 
  -23476   -23564   -22275   -20708   -20186   -21263   -23321   -25326 
  -26554   -26365   -24306   -20803   -17267   -14837   -13339   -11840 
   -9723    -7330    -5230    -3084     -189     3584     7479    10586 
   13130    15828    18682    21011    21695    19985    16525    12420 
    7750     2369    -3092    -7818   -11397   -14207   -17367   -21770 
  -27654   -34875   -42962   -51304   -59109   -65449   -69875   -72354 
  -72259   -68099   -58957   -46016   -31830   -18049    -4860     7214 
   16723    22966    26812    29540    31825    33976    36292    38728 
   40577    41000    39409    35736    31068    26719    22829    18953 
   14793    10001     4661     -616    -5901   -11777   -17786   -22334 
  -24124   -23211   -20577   -17109   -13277    -9660    -7197    -6006 
   -5048    -3915    -3466    -4435    -6841   -10459   -14959   -19841 
  -24523   -28479   -31123   -32185   -32457   -32773   -32894   -32774 
  -33042   -33562   -33624   -33515   -34460   -37256   -41213   -44404 
  -45803   -46165   -46378   -46848   -47877   -49368   -50674   -50849 
  -49430   -46830   -43386   -38748   -32845   -26812   -21980   -18583 
  -16081   -13963   -12508   -12729   -15013   -18898   -23936   -29635 
  -35044   -38643   -39178   -37323   -34833   -32232   -29340   -26267 
  -22873   -19082   -15457   -12442    -9526    -5928    -1400     4162 
   10272    15272    17851    17618    13851     6051    -4748   -16710 
  -28231   -38272   -46567   -53109   -57777   -61389   -65556   -70448 
  -74535   -76589   -76331   -73621   -68642   -62475   -56211   -50159 
  -44067   -37478   -30283   -22718   -15116    -8508    -4450    -3366 
   -4160    -5910    -8584   -12230   -16578   -21197   -26075   -31691 
  -37819   -42974   -45627   -45542   -43626   -40718   -36929   -32419 
  -27942   -23425   -16930    -6653     6681    20548    32527    41070 
   46231    49267    50540    48998    43716    34918    23926    12755 
    3455    -2943    -7065   -10033   -11707   -11086    -7782    -1851 
    6061    13343    16955    16311    12332     5559    -3271   -12727 
  -20961   -25885   -26515   -23829   -19337   -13997    -8428    -2828 
    2902     8275    12285    14912    17401    20655    24646    29176 
   33532    36155    36003    33350    28784    22510    14992     7192 
      77    -5598    -9956   -14257   -19619   -26276   -33929   -41664 
  -48168   -52778   -55384   -55736   -54345   -52688   -51732   -50996 
  -48714   -43123   -33856   -22048    -9579     1721    10636    16412 
   18435    17042    13627     9255     4533      213    -2933    -4096 
   -2456     2478    10284    18959    25635    28390    26645    20900 
   13196     5857     -329    -5402    -9179   -11854   -14866   -19862 
  -26807   -34306   -41219   -47530   -53832   -59921   -65013   -68747 
  -70652   -69351   -62865   -50381   -33461   -14854     2977    18159 
   29379    36421    40676    43740    45932    46883    45987    42801 
   37326    29456    19612     8760    -2644   -13848   -23565   -31356 
  -37816   -43339   -47443   -49915   -51299   -51458   -49579   -45580 
  -39899   -32374   -22381   -10415     1320    10358    15413    16219 
   12847     6602      604    -2498    -2299      787     6504    13277 
   18490    20746    20580    19955    20335    20986    20545    18140 
   12418     2757    -9062   -20387   -29363   -35070   -37603   -37621 
  -35653   -32094   -27327   -21568   -15023    -8606    -3821    -1364 
    -647     -876    -1501    -1584      150     4162     9044    12603 
   14032    13633    11547     8269     4963     2337       86    -2425 
   -5273    -7639    -8985    -9550    -8972    -6432    -1823     4096 
   10040    14840    17653    18053    16633    14907    13912    13298 
   11697     7026    -2223   -14563   -25953   -33283   -36230   -35914 
  -33437   -29436   -23838   -16602    -8425     -216     7406    14340 
   20761    26551    31698    36578    41091    44733    47260    48394 
   48168    47367    46654    46008    44765    41841    36167    26760 
   13248    -3149   -19719   -33604   -42950   -46886   -45387   -39256 
  -29858   -19077    -8624      683     8475    14413    18191    19597 
   18387    14344     8005     1088    -4150    -6316    -5921    -5081 
   -6023    -9809   -16467   -25517   -35864   -46064   -55214   -62784 
  -68113   -71200   -72693   -72912   -71867   -69297   -64503   -56954 
  -46878   -34971   -22078    -9321     2230    11663    18006    21017 
   21258    18982    14230     7540     -158    -7826   -14691   -20604 
  -25795   -30153   -32920   -33324   -30972   -25850   -18735   -10971 
   -3676     2370     6789     9699    11309    12192    13122    13933 
   14141    13901    13440    12718    11487     9563     7263     5088 
    3039      787    -1634    -3762    -5031    -5132    -4531    -4123 
   -4128    -4244    -4426    -4969    -6177    -7664    -8355    -7386 
   -4311      941     7705    15207    23129    30782    37302    42559 
   46525    48526    47768    44168    38332    30944    22554    13717 
    4709    -4362   -12955   -20681   -27927   -35191   -42510   -49500 
  -55468   -59455   -60309   -57425   -51489   -43825   -35376   -26726 
  -18764   -12620    -8860    -7052    -5869    -4201    -2055      -92 
     784     -197    -2990    -6777   -10228   -11627    -9876    -4909 
    3124    13351    23627    32113    38382    42251    42952    40284 
   34773    26303    15210     3692    -6528   -15577   -23347   -29206 
  -33369   -36420   -38304   -38596   -37104   -33501   -27477   -19555 
  -10501     -805     8765    17312    24466    30187    34636    38643 
   43055    48002    53167    57880    61302    62452    60140    53712 
   43703    31395    18230     5540    -6212   -17213   -27296   -36404 
  -44702   -51707   -56367   -57695   -55244   -49213   -40324   -30141 
  -20867   -13860    -9049    -5835    -3662    -2330    -1755    -1455 
   -1239    -1558    -2622    -3714    -3497    -1547      884     2563 
    3579     4254     4685     5846     8685    12169    14433    14719 
   12761     8717     4060      371    -1689    -2067    -1736    -2465 
   -5565   -11421   -19705   -29667   -40515   -51525   -61651   -70022 
  -76707   -81977   -85717   -87696   -87489   -84553   -78815   -71157 
  -62963   -55130   -47796   -41096   -35481   -30933   -27039   -23729 
  -20819   -17829   -14745   -11851    -9134    -6494    -3997    -1807 
    -483     -815    -2762    -5197    -6463    -4902      499     9925 
   22513    36287    49161    59002    63577    62259    55934    45264 
   31351    16760     3974    -6267   -14305   -19904   -22004   -20122 
  -15394   -10014    -5663    -2542     -428      104    -1509    -4931 
   -8887   -10993    -8615     -961    10091    21256    29969    35377 
   37268    35917    32596    28041    22249    16391    11970     8888 
    6629     5063     3735     2862     3679     6507     9642    10651 
    8059     1375    -8812   -20593   -31869   -41359   -48365   -52402 
  -53633   -53231   -52966   -54335   -57863   -63432   -70375   -77059 
  -81713   -83077   -80239   -73366   -63777   -52763   -41029   -28787 
  -16278    -3920     8232    20050    30781    39622    46417    51930 
   57015    61597    65053    66470    64482    57896    46253    30404 
   12442    -5842   -23388   -39271   -53395   -66536   -78480   -87695 
  -93230   -95277   -94407   -91342   -86496   -79723   -70717   -58928 
  -43748   -25597    -6251    12673    30439    46103    58610    67430 
   72093    72064    67093    57255    43557    28274    13115    -1611 
  -15381   -27370   -37478   -45870   -52416   -56862   -58830   -58047 
  -54477   -47929   -38665   -27946   -16956    -6118     4117    12602 
   18295    20752    19386    13935     5110    -5967   -17785   -28687 
  -37614   -43945   -47765   -50256   -52706   -55632   -58793   -61684 
  -63928   -65224   -65592   -65687   -66151   -66985   -67777   -67854 
  -66954   -65726   -64883   -65188   -67385   -71127   -75529   -80139 
  -84359   -87368   -88798   -88514   -86538   -83319   -79094   -73720 
  -67334   -60151   -52102   -43085   -33164   -22487   -10962     1764 
   15477    28760    39727    47068    50016    48087    41128    29586 
   15053       57   -13136   -23202   -29482   -32016   -31371   -27592 
  -20275    -9400     4596    20573    36942    52522    66377    77784 
   86749    93490    97741    99173    98256    96397    94885    93884 
   92807    90956    87569    82153    74758    65806    56017    46039 
   36143    26502    17359     9290     3078     -981    -3065    -3624 
   -3351    -2372      134     4985    12166    20856    29756    37561 
   43715    48332    51517    53515    54738    55470    55851    55717 
   55040    53869    51520    47446    41945    35393    28186    20762 
   13324     6131     -338    -5474    -8832   -10302    -9976    -8389 
   -6453    -4712    -2998     -734     2731     7891    14627    21916 
   28452    33483    37074    39949    42756    45323    46812    46664 
   44777    40794    34547    26545    17178     6623    -4501   -15060 
  -23804   -29972   -33641   -35699   -37471   -39730   -42305   -44765 
  -46815   -48048   -47766   -45449   -41107   -34821   -26754   -17526 
   -7907     1475    10313    18871    27411    35424    42070    46841 
   49404    49286    45865    38804    28568    16481     4289    -6809 
  -16763   -26127   -35313   -44115   -51796   -57672   -61372   -63106 
  -63445   -62242   -58922   -53595   -46755   -38941   -30845   -22425 
  -13105    -3208     6428    15011    21595    25995    29013    31443 
   33607    35305    36484    37655    38957    40263    41940    44084 
   45924    46439    44977    41357    35474    27297    17477     7015 
   -3598   -13893   -22947   -30179   -34940   -36281   -34492   -30399 
  -24092   -16083    -7439     1056     8849    15788    22062    27755 
   32797    36808    39110    39243    37443    34272    29773    24028 
   18002    12759     8435     4329     -366    -6520   -14792   -24847 
  -36029   -47530   -57263   -63071   -64777   -63234   -58801   -51844 
  -42866   -31954   -19340    -5556     8931    23349    36748    48583 
   58654    67031    73924    79384    83528    86375    87364    85959 
   82408    77605    72426    67292    62294    57289    51943    45848 
   38624    30273    21678    14604    10692    10353    12449    14993 
   16518    16482    14596    10870     6012     1059    -3478    -8133 
  -13882   -21066   -29116   -37105   -44271   -50123   -54458   -57601 
  -60352   -62923   -64350   -63623   -60449   -55435   -49753   -43832 
  -37580   -31645   -27187   -24977   -25075   -27103   -30618   -35274 
  -40542   -45625   -50054   -54028   -58212   -62825   -67076   -69986 
  -70818   -68990   -64379   -57103   -47264   -35710   -24362   -14881 
   -7731    -2462     1975     6562    11497    16393    20740    24089 
   26339    27699    27981    26465    22694    16714     9117     1355 
   -5351   -11157   -16487   -21086   -24820   -28127   -31235   -33605 
  -34421   -33341   -30585   -26925   -23424   -20550   -18482   -17995 
  -20082   -25555   -34340   -45008   -56091   -66429   -74523   -79307 
  -80885   -80042   -77530   -73837   -69044   -63372   -57621   -51923 
  -45401   -37458   -28123   -17450    -5338     7824    20919    33012 
   43925    53787    62605    69964    74852    76104    72450    62667 
   46918    27077     5458   -16161   -36587   -54866   -70179   -81422 
  -87409   -87943   -82981   -72395   -57599   -40745   -23270    -6477 
    8064    19408    27875    34203    39070    42963    45712    46820 
   45776    42680    38786    35126    31335    26838    22006    17172 
   12319     7936     4443     1684     -310    -1356    -2052    -3268 
   -4744    -5608    -5582    -4864    -3843    -2929    -2239    -1589 
    -790      -89      -91    -1026    -2240    -2637    -1638      340 
    2146     2804     2352     1639     1329     1364     1305      881 
     -82    -1602    -3373    -5210    -6813    -7772    -8243    -8166 
   -6522    -2624     2912     8883    13853    16704    17416    16209 
   13161     8561     2640    -4229   -11223   -17289   -21529   -23487 
  -23013   -19789   -13691    -5496     3925    14063    23889    32007 
   37557    40474    41140    39718    36065    30072    21687    11036 
   -1369   -14446   -26644   -36665   -43976   -48744   -51519   -52928 
  -53686   -54514   -55751   -56995   -57055   -54950   -50772   -45174 
  -38846   -32441   -26686   -22748   -21565   -22369   -23129   -22277 
  -19046   -13064    -4563     5478    16087    26728    36404    44029 
   49774    54145    57072    58839    59984    60309    58966    55669 
   51874    49790    50501    53820    58522    62599    64544    63731 
   59762    53103    45114    36695    28299    20164    12164     4543 
   -2249    -8060   -12345   -14693   -15833   -16678   -17875   -20146 
  -23446   -26948   -30195   -33275   -36161   -38408   -39706   -40380 
  -41111   -42498   -45050   -49267   -55436   -63349   -72389   -82084 
  -92158  -102078  -111241  -119474  -126925  -133648  -139566  -144550 
 -148403  -150769  -150862  -147720  -140994  -131413  -120522  -109681 
  -99163   -88455   -77074   -64358   -49313   -31614   -11918     8939 
   30056    50226    68243    83144    94529   102822   108656   112166 
  113183   111502   106814    99067    88647    75854    60981    44512 
   26954     9385    -6658   -20198   -30727   -38128   -43078   -46501 
  -49133   -51721   -54562   -57093   -58351   -57362   -53276   -45602 
  -34699   -21945    -9064     2422    11752    18981    23971    26563 
   27133    26525    25967    26162    26843    27636    28729    30453 
   32438    34077    34974    34375    31744    27521    22408    16895 
   11224     5693     1007    -2672    -5820    -8673   -11288   -13523 
  -15525   -18074   -21427   -24858   -27612   -29360   -29700   -28454 
  -26285   -24238   -23337   -24300   -27017   -30450   -33544   -35739 
  -36242   -34726   -31911   -28258   -23966   -19337   -14383    -9206 
   -3948     1509     7130    12665    18070    23600    29460    35621 
   41670    46640    49394    49201    45816    39436    31145    22662 
   15007     8040      962    -6862   -14960   -21995   -26907   -29182 
  -28661   -25747   -21487   -17248   -14231   -13136   -14012   -16240 
  -18907   -21089   -22115   -22035   -21489   -20915   -19702   -16205 
   -9387      194    11305    22454    32036    38882    42170    41773 
   38411    32588    24792    16400     8697     2032    -3597    -8388 
  -12658   -16176   -18367   -19098   -18862   -18870   -20572   -24583 
  -30623   -37882   -45175   -51492   -56718   -61579   -66528   -70940 
  -73662   -74136   -72733   -70009   -66376   -62295   -58226   -54504 
  -51282   -48766   -47236   -46808   -47264   -48092   -49096   -49950 
  -49540   -47051   -42647   -36947   -30531   -23696   -16665    -9893 
   -3705     2073     7506    12162    15689    18112    19518    19918 
   19410    18304    17099    16548    17575    20649    25713    32406 
   39503    45640    50682    55179    59635    64257    68681    72159 
   73777    72746    68850    62781    55670    47962    39482    30320 
   20898    11457     1850    -7893   -16991   -24747   -31502   -37792 
  -43660   -49053   -53474   -55554   -53678   -46597   -34210   -18195 
   -1042    15299    29464    40402    47729    51735    52791    51510 
   49120    47031    46250    47091    49305    52398    56035    60128 
   64333    68021    70592    71425    70096    66432    60224    51556 
   41456    31776    24014    19026    17932    21324    27998    35902 
   43646    50604    56271    60393    63074    64190    63661    61938 
   59397    55868    51087    44836    37100    28802    21083    14176 
    7985     2615    -1891    -5616    -8584   -10648   -11813   -12215 
  -11699   -10317    -8774    -7796    -7815    -8794    -9790    -9426 
   -6722    -1617     4666    10306    14124    16031    16663    16404 
   15186    13515    12214    11211     9766     7277     3599     -911 
   -5927   -11557   -17889   -24661   -31428   -37690   -42930   -46808 
  -49481   -51427   -53087   -54764   -56491   -58125   -59141   -58330 
  -54700   -48169   -39220   -28791   -18042    -7849     1202     8766 
   14938    20019    23982    26460    27075    25741    22691    18164 
   12449     6112     -237    -6263   -11905   -17222   -22160   -26263 
  -29066   -30476   -30310   -28515   -25548   -21920   -18189   -14939 
  -12506   -10929    -9652    -7933    -5808    -3720    -1696      395 
    2640     5414     9179    14022    19346    23981    27053    28236 
   27277    24225    19746    14670     9586     4846      559    -3362 
   -7190   -11359   -16263   -21935   -27848   -33476   -38841   -44215 
  -49873   -55835   -61794   -67463   -72444   -76294   -78960   -80272 
  -79457   -76090   -70986   -65782   -62014   -60195   -59827   -60518 
  -62127   -64103   -65715   -66730   -67232   -67112   -66410   -65520 
  -64738   -64000   -62844   -60592   -56759   -51264   -44356   -36486 
  -28010   -19146   -10160    -1216     7593    16142    24379    32242 
   39536    46123    52022    57241    61625    64874    66905    68056 
   68611    68443    67263    64827    60765    55090    48684    42224 
   36044    30641    25717    20671    15521     9913     2981    -5685 
  -15539   -25466   -34156   -40668   -45364   -48614   -50245   -50958 
  -51211   -50695   -49533   -47813   -45413   -42442   -39423   -37340 
  -36493   -36240   -36228   -36226   -35728   -34819   -34212   -34315 
  -35041   -36160   -37890   -41093   -46223   -52872   -60315   -67458 
  -73720   -79645   -85046   -88814   -90807   -91399   -90629   -88969 
  -86873   -84414   -82077   -79961   -77363   -73709   -68515   -61540 
  -53137   -43708   -33756   -24243   -15824    -8276    -1114     5853 
   12478    18351    23181    26894    29332    30285    29599    27284 
   23530    18531    12947     7951     4269     2006     1019      591 
    -487    -3049    -7345   -13017   -18781   -23177   -25510   -25640 
  -23674   -19846   -14573    -8789    -3296     1765     6279    10078 
   13093    15182    16267    16445    15945    14945    13612    12312 
   11335    10559     9539     8117     6890     6458     6607     6689 
    6310     5508     4571     3724     3200     3659     5703     9322 
   14240    20118    26810    34370    42588    51213    60014    68201 
   74759    79263    81580    81442    78804    74145    68522    62855 
   56889    49611    40339    29294    17337     5032    -7169   -18340 
  -27795   -35480   -41707   -46917   -51233   -54463   -56581   -57573 
  -56911   -54442   -50862   -46646   -42091   -37505   -32826   -27783 
  -22206   -16550   -11586    -7709    -5367    -4934    -6118    -8335 
  -11030   -13586   -15600   -16714   -16301   -14283   -11297    -7811 
   -3913      658     6088    11925    17475    22256    25995    28545 
