Origin Time       2014/11/22 22:08:00
Lat.              36.692
Long.             137.890
Depth. (km)       5
Mag.              6.7
Station Code      GIFH10
Station Lat.      36.3779
Station Long.     137.3716
Station Height(m) 810
Record Time       2014/11/22 22:08:30
Sampling Freq(Hz) 100Hz
Duration Time(s)  120
Dir.              1
Scale Factor      2940(gal)/6170270
Max. Acc. (gal)   1.359
Last Correction   2014/11/22 22:08:15
Memo.             
[...]
   38685    38679    38675    38678    38686    38690    38685    38673 
   38660    38654    38652    38656    38666    38671    38672    38679 
   38691    38699    38700    38697    38698    38708    38716    38713 
   38701    38688    38673    38656    38650    38659    38663    38655 
   38651    38654    38659    38666    38675    38682    38678    38669 
   38661    38656    38655    38658    38657    38647    38633    38624 
   38621    38619    38610    38596    38586    38589    38598    38599 
   38595    38596    38600    38598    38593    38593    38598    38602 
   38607    38615    38617    38615    38616    38615    38606    38599 
   38598    38600    38597    38593    38594    38599    38606    38611 
   38615    38620    38619    38616    38626    38630    38615    38611 
   38629    38644    38644    38639    38640    38646    38644    38634 
   38632    38635    38640    38645    38648    38647    38642    38636 
   38637    38647    38667    38686    38699    38711    38724    38740 
   38750    38740    38714    38694    38687    38684    38680    38687 
   38701    38698    38671    38648    38652    38677    38697    38701 
   38699    38690    38681    38685    38706    38729    38737    38729 
   38714    38690    38662    38654    38675    38702    38702    38672 
   38634    38613    38602    38597    38609    38634    38650    38653 
   38656    38663    38672    38676    38668    38647    38614    38594 
   38599    38616    38632    38622    38577    38552    38573    38607 
   38624    38624    38629    38644    38636    38617    38623    38647 
   38668    38673    38660    38657    38677    38685    38669    38655 
   38665    38688    38699    38696    38692    38692    38697    38702 
   38697    38699    38726    38736    38708    38693    38711    38736 
   38751    38751    38752    38767    38766    38738    38707    38695 
   38700    38710    38728    38754    38752    38701    38635    38614 
   38630    38606    38537    38509    38531    38535    38522    38521 
   38515    38497    38472    38434    38389    38369    38379    38402 
   38436    38472    38465    38418    38398    38427    38462    38470 
   38469    38458    38406    38344    38331    38348    38358    38361 
   38360    38365    38389    38420    38451    38479    38508    38550 
   38580    38573    38552    38548    38554    38560    38565    38572 
   38582    38568    38517    38502    38557    38616    38654    38696 
   38761    38833    38867    38869    38882    38897    38874    38835 
   38840    38885    38910    38906    38900    38891    38865    38854 
   38862    38838    38780    38742    38758    38822    38891    38928 
   38923    38879    38808    38729    38665    38638    38637    38628 
   38603    38585    38593    38620    38665    38720    38754    38759 
   38774    38817    38862    38882    38866    38821    38767    38716 
   38655    38577    38535    38552    38582    38615    38661    38693 
   38715    38771    38861    38937    38941    38889    38863    38884 
   38874    38808    38762    38766    38753    38708    38691    38695 
   38695    38708    38700    38649    38633    38714    38876    39066 
   39200    39220    39160    39096    39063    39058    39094    39167 
   39241    39253    39162    39037    38987    39023    39089    39143 
   39183    39233    39312    39382    39406    39390    39342    39274 
   39221    39201    39213    39202    39108    38975    38883    38835 
   38784    38736    38704    38654    38610    38660    38765    38808 
   38758    38649    38530    38477    38525    38617    38664    38640 
   38626    38698    38823    38917    38913    38778    38575    38425 
   38366    38359    38396    38466    38516    38513    38490    38500 
   38543    38560    38542    38552    38613    38698    38796    38852 
   38809    38721    38675    38691    38707    38670    38621    38626 
   38657    38660    38685    38798    38924    38975    38980    38978 
   38979    39003    39031    39055    39102    39153    39136    39036 
   38920    38832    38793    38844    38963    39080    39168    39190 
   39131    39062    39047    39071    39095    39113    39093    39012 
   38968    39022    39076    39074    39047    38997    38926    38879 
   38882    38896    38861    38794    38739    38678    38599    38546 
   38556    38603    38617    38571    38542    38571    38595    38605 
   38619    38602    38563    38530    38514    38544    38626    38739 
   38864    38971    39010    38953    38851    38766    38699    38674 
   38728    38815    38875    38898    38870    38802    38750    38757 
   38810    38869    38923    38982    39034    39092    39178    39233 
   39197    39101    38981    38877    38849    38882    38937    39013 
   39097    39148    39146    39122    39075    38995    38892    38773 
   38693    38702    38755    38800    38816    38792    38752    38686 
   38590    38523    38498    38504    38553    38588    38571    38530 
   38475    38413    38357    38297    38263    38275    38264    38195 
   38124    38059    37974    37898    37869    37893    37963    38043 
   38075    38040    37975    37944    37971    38002    38037    38129 
   38220    38213    38118    38008    37932    37889    37910    38035 
   38196    38300    38319    38284    38278    38305    38284    38224 
   38176    38152    38189    38299    38391    38357    38215    38092 
   38061    38088    38116    38126    38137    38150    38138    38113 
   38131    38198    38284    38399    38512    38545    38486    38379 
   38259    38141    38073    38108    38181    38193    38145    38095 
   38101    38190    38307    38366    38313    38172    38048    37987 
   37937    37881    37880    37968    38096    38216    38268    38222 
   38165    38147    38110    38072    38132    38290    38442    38507 
   38475    38404    38369    38382    38385    38356    38337    38329 
   38315    38322    38343    38375    38434    38504    38564    38592 
   38581    38550    38504    38446    38359    38261    38255    38341 
   38401    38424    38478    38577    38693    38810    38902    38942 
   38925    38855    38749    38650    38610    38636    38683    38706 
   38696    38683    38685    38673    38652    38642    38601    38536 
   38522    38559    38594    38580    38499    38380    38279    38250 
   38311    38391    38414    38397    38391    38416    38433    38394 
   38314    38221    38117    37994    37856    37745    37694    37672 
   37643    37610    37587    37633    37797    37990    38107    38183 
   38256    38302    38345    38432    38468    38342    38163    38051 
   37970    37943    37973    37987    38008    38078    38189    38366 
   38596    38792    38908    38986    39095    39246    39345    39330 
   39274    39244    39217    39200    39222    39279    39366    39440 
   39421    39317    39219    39155    39066    38893    38669    38496 
   38418    38377    38289    38142    37994    37897    37845    37776 
   37645    37512    37419    37315    37219    37191    37214    37252 
   37246    37136    36956    36797    36743    36802    36882    36936 
   36993    37054    37101    37133    37169    37192    37182    37198 
   37289    37420    37551    37661    37719    37735    37773    37876 
   38024    38144    38227    38342    38521    38731    38904    38949 
   38849    38709    38670    38762    38880    38927    38894    38823 
   38764    38758    38827    38939    39009    38980    38884    38794 
   38745    38730    38680    38567    38487    38510    38591    38696 
   38800    38855    38864    38862    38889    38999    39126    39136 
   39056    38982    38902    38834    38857    38928    38930    38883 
   38852    38816    38827    38992    39210    39362    39501    39615 
   39613    39512    39362    39209    39100    39007    38917    38887 
   38916    38954    38963    38926    38837    38737    38752    38895 
   38966    38879    38762    38722    38754    38728    38552    38360 
   38290    38273    38230    38216    38255    38311    38399    38536 
   38663    38699    38661    38652    38715    38784    38813    38841 
   38926    39021    39060    39141    39296    39337    39210    39122 
   39217    39411    39557    39683    39823    39816    39622    39506 
   39628    39858    40012    40012    39920    39840    39805    39806 
   39826    39826    39785    39722    39690    39712    39714    39668 
   39628    39599    39570    39567    39555    39471    39383    39408 
   39504    39579    39596    39562    39628    39841    39921    39753 
   39555    39427    39313    39244    39243    39186    38941    38620 
   38495    38594    38690    38639    38433    38156    37951    37828 
   37722    37677    37739    37858    37969    38046    38093    38166 
   38312    38491    38618    38673    38690    38699    38691    38690 
   38739    38805    38831    38770    38557    38287    38183    38240 
   38258    38191    38147    38183    38318    38505    38620    38640 
   38670    38762    38880    38955    38927    38794    38660    38644 
   38675    38651    38635    38629    38584    38596    38736    38923 
   39067    39145    39162    39135    39129    39165    39150    39068 
   39027    39070    39144    39160    39122    39114    39135    39164 
   39191    39174    39146    39183    39254    39318    39379    39394 
   39309    39176    39094    39104    39126    39018    38786    38555 
   38370    38215    38073    37934    37854    37897    38004    38018 
   37878    37704    37643    37710    37784    37794    37810    37865 
   37901    37951    38077    38223    38348    38503    38735    38972 
   39083    39058    39018    39053    39147    39212    39198    39155 
   39136    39088    38973    38908    38992    39106    39080    38920 
   38780    38768    38820    38795    38658    38533    38523    38572 
   38627    38672    38665    38652    38688    38687    38619    38585 
   38592    38560    38502    38503    38583    38669    38682    38654 
   38656    38679    38697    38769    38901    38993    39030    39055 
   39048    39049    39163    39345    39462    39515    39563    39621 
   39711    39809    39880    39982    40135    40247    40239    40158 
   40102    40046    39951    39917    40009    40104    40080    39998 
   39973    40004    40036    40037    39988    39877    39731    39602 
   39499    39409    39370    39410    39475    39453    39333    39265 
   39327    39439    39537    39620    39721    39885    40064    40142 
   40117    40082    40028    39949    39937    39954    39909    39870 
   39866    39840    39848    39919    40010    40109    40164    40113 
   40048    40063    40064    39977    39887    39820    39743    39685 
   39597    39390    39165    39085    39143    39228    39288    39316 
   39320    39326    39334    39311    39278    39293    39342    39365 
   39344    39329    39386    39500    39588    39641    39705    39785 
   39907    40062    40157    40176    40162    40144    40154    40155 
   40122    40115    40138    40115    40004    39874    39807    39785 
   39760    39709    39636    39568    39491    39383    39278    39200 
   39146    39091    39030    39006    39034    39055    39022    38969 
   38939    38906    38818    38696    38600    38500    38343    38172 
   38047    37971    37918    37895    37951    38082    38224    38348 
   38442    38501    38544    38579    38585    38532    38456    38445 
   38503    38554    38566    38564    38563    38573    38639    38753 
   38835    38828    38722    38553    38405    38328    38295    38246 
   38152    38031    37887    37726    37608    37560    37499    37380 
   37305    37393    37597    37774    37869    37893    37818    37666 
   37540    37480    37455    37433    37362    37234    37081    36887 
   36652    36466    36428    36545    36676    36719    36750    36831 
   36937    37092    37306    37510    37670    37825    37981    38087 
   38115    38088    38009    37910    37882    37916    37923    37920 
   37986    38130    38283    38350    38293    38213    38247    38371 
   38485    38567    38608    38620    38674    38759    38799    38785 
   38753    38730    38715    38691    38659    38657    38691    38698 
   38652    38584    38511    38453    38435    38453    38500    38575 
   38660    38715    38687    38591    38530    38575    38690    38804 
   38866    38874    38894    38956    39028    39073    39046    38949 
   38872    38888    38967    39019    39011    38986    38979    38945 
   38814    38581    38343    38221    38212    38213    38145    38012 
   37886    37834    37856    37862    37807    37807    37925    38060 
   38152    38218    38288    38416    38614    38769    38776    38665 
   38550    38527    38576    38590    38521    38434    38380    38329 
   38256    38200    38207    38236    38224    38214    38230    38206 
   38157    38136    38071    37937    37822    37743    37684    37700 
   37769    37774    37667    37514    37428    37476    37618    37776 
   37903    37951    37895    37771    37671    37681    37764    37802 
   37776    37738    37682    37615    37582    37556    37461    37278 
   37066    36889    36765    36707    36737    36808    36853    36860 
   36837    36794    36752    36685    36577    36482    36475    36578 
   36688    36700    36612    36427    36227    36158    36195    36195 
   36129    36069    36052    36031    35958    35861    35807    35807 
   35844    35921    36012    36090    36171    36239    36289    36339 
   36361    36388    36470    36566    36658    36770    36870    36935 
   37002    37128    37340    37593    37811    37969    38079    38151 
   38202    38287    38456    38696    38946    39159    39326    39456 
   39540    39582    39619    39659    39652    39614    39630    39680 
   39663    39581    39522    39497    39463    39406    39336    39273 
   39243    39248    39273    39313    39355    39362    39330    39299 
   39315    39372    39415    39415    39379    39314    39235    39166 
   39141    39160    39182    39188    39206    39271    39378    39469 
   39509    39539    39610    39724    39827    39880    39921    39962 
   39977    39977    39969    39951    39941    39916    39861    39826 
   39841    39852    39821    39778    39727    39652    39588    39529 
   39469    39464    39485    39465    39446    39476    39515    39507 
   39480    39512    39587    39605    39548    39471    39385    39308 
   39255    39204    39154    39123    39102    39051    38967    38896 
   38842    38767    38689    38643    38628    38643    38687    38704 
   38678    38649    38625    38604    38589    38555    38506    38481 
   38510    38589    38652    38644    38631    38681    38758    38807 
   38830    38866    38938    39018    39099    39217    39348    39441 
   39519    39628    39715    39709    39663    39667    39727    39796 
   39820    39795    39763    39725    39672    39619    39563    39496 
   39422    39332    39253    39216    39181    39113    39039    38982 
   38947    38927    38920    38934    38968    39020    39067    39101 
   39159    39208    39190    39156    39138    39113    39105    39118 
   39117    39102    39104    39136    39175    39206    39238    39244 
   39245    39296    39354    39382    39397    39354    39248    39148 
   39070    39001    38932    38858    38790    38738    38738    38803 
   38882    38955    39048    39133    39185    39233    39290    39328 
   39315    39286    39314    39372    39395    39421    39500    39590 
   39637    39643    39646    39688    39761    39814    39839    39855 
   39859    39840    39776    39698    39654    39627    39614    39634 
   39649    39630    39618    39651    39687    39700    39700    39663 
   39599    39580    39594    39582    39547    39491    39407    39309 
   39217    39147    39088    39002    38899    38811    38743    38683 
   38613    38520    38411    38324    38288    38288    38295    38288 
   38238    38147    38067    38033    38026    38006    37963    37923 
   37917    37967    38059    38143    38199    38230    38227    38189 
   38125    38062    38015    37944    37830    37708    37609    37530 
   37461    37401    37369    37364    37379    37427    37502    37556 
   37557    37534    37524    37509    37487    37489    37486    37424 
   37311    37206    37157    37133    37107    37106    37110    37090 
   37075    37072    37061    37049    37041    37040    37068    37145 
   37281    37435    37539    37601    37691    37811    37920    38022 
   38113    38156    38177    38228    38289    38329    38361    38401 
   38441    38460    38464    38496    38553    38591    38606    38618 
   38626    38635    38649    38643    38646    38692    38743    38776 
   38799    38802    38817    38880    38955    39010    39070    39139 
   39182    39189    39179    39161    39154    39180    39201    39173 
   39107    39031    38974    38940    38878    38793    38761    38776 
   38767    38729    38682    38635    38611    38613    38616    38626 
   38660    38692    38702    38719    38761    38793    38803    38817 
   38822    38794    38772    38783    38804    38831    38864    38855 
   38803    38802    38873    38931    38931    38873    38789    38742 
   38731    38731    38747    38779    38825    38857    38828    38766 
   38729    38700    38647    38584    38536    38501    38462    38416 
   38379    38373    38388    38396    38398    38398    38391    38387 
   38402    38425    38430    38418    38424    38461    38519    38581 
   38621    38633    38664    38720    38752    38752    38753    38755 
   38749    38738    38723    38697    38668    38665    38669    38641 
   38607    38619    38656    38656    38617    38588    38591    38590 
   38581    38610    38656    38672    38684    38715    38755    38805 
   38862    38910    38952    39013    39097    39167    39199    39210 
   39216    39239    39278    39306    39326    39353    39381    39420 
   39457    39467    39497    39569    39631    39680    39733    39770 
   39811    39893    39990    40060    40108    40155    40214    40300 
   40379    40397    40374    40352    40333    40308    40268    40214 
   40160    40105    40060    40045    40056    40077    40086    40077 
   40066    40057    40049    40045    40034    40016    40026    40057 
   40054    40015    39972    39909    39817    39742    39699    39658 
   39615    39565    39487    39398    39318    39227    39129    39063 
   39027    39000    38994    39012    39023    39022    39034    39051 
   39049    39027    39006    39003    39015    39010    38988    38964 
   38923    38881    38869    38866    38845    38808    38783    38806 
   38867    38926    38973    38997    38992    38979    38961    38913 
   38840    38774    38712    38635    38566    38526    38508    38511 
   38515    38503    38469    38391    38270    38149    38035    37918 
   37816    37741    37680    37612    37530    37452    37400    37364 
   37324    37297    37288    37272    37246    37231    37236    37250 
   37268    37313    37372    37404    37396    37371    37378    37441 
   37527    37603    37665    37698    37678    37614    37563    37570 
