Origin Time       2014/11/22 22:08:00
Lat.              36.692
Long.             137.890
Depth. (km)       5
Mag.              6.7
Station Code      GIFH10
Station Lat.      36.3779
Station Long.     137.3716
Station Height(m) 910
Record Time       2014/11/22 22:08:30
Sampling Freq(Hz) 100Hz
Duration Time(s)  120
Dir.              6
Scale Factor      3920(gal)/6170801
Max. Acc. (gal)   1.780
Last Correction   2014/11/22 22:08:15
Memo.             
[...]
  -17866   -18087   -18155   -18162   -18229   -18241   -18065   -17870 
  -17901   -18126   -18320   -18310   -18128   -18010   -18104   -18268 
  -18372   -18498   -18557   -18284   -17884   -17812   -17955   -18000 
  -18126   -18433   -18498   -18141   -17792   -17713   -17648   -17499 
  -17515   -17705   -17863   -17976   -18055   -18036   -18016   -18028 
  -17977   -17970   -18066   -18072   -18029   -18176   -18422   -18459 
  -18212   -17863   -17578   -17363   -17270   -17383   -17506   -17367 
  -17150   -17309   -17910   -18455   -18503   -18257   -18217   -18409 
  -18405   -18102   -17906   -18010   -18108   -17941   -17615   -17373 
  -17387   -17611   -17758   -17616   -17315   -17236   -17645   -18379 
  -19031   -19398   -19516   -19366   -18860   -18173   -17798   -18043 
  -18615   -18908   -18609   -17951   -17475   -17545   -18014   -18387 
  -18410   -18323   -18412   -18639   -18859   -19031   -19071   -18866 
  -18557   -18381   -18277   -18065   -17780   -17519   -17285   -17073 
  -16899   -16735   -16521   -16359   -16538   -17149   -18018   -18934 
  -19468   -19197   -18474   -18036   -17966   -17859   -17500   -17019 
  -16691   -16769   -17463   -18584   -19274   -18977   -18293   -17981 
  -17961   -18004   -18234   -18514   -18413   -17993   -17811   -17965 
  -17876   -17290   -16656   -16325   -16354   -16823   -17534   -18035 
  -18234   -18425   -18811   -19151   -18900   -18030   -17286   -17133 
  -17178   -17041   -16927   -17069   -17350   -17623   -17867   -18067 
  -18205   -18268   -18199   -18130   -18452   -19123   -19467   -19163 
  -18554   -17803   -16927   -16363   -16443   -16964   -17574   -17993 
  -18203   -18542   -19026   -19205   -19114   -19133   -19064   -18644 
  -18188   -17921   -17808   -17897   -18001   -17802   -17474   -17403 
  -17575   -17728   -17835   -18122   -18549   -18634   -18142   -17470 
  -17104   -17114   -17203   -17190   -17343   -17846   -18329   -18460 
  -18471   -18595   -18559   -18131   -17623   -17348   -17272   -17466 
  -17991   -18483   -18656   -18663   -18486   -17880   -17049   -16525 
  -16493   -16792   -17284   -17793   -18068   -18112   -18106   -17965 
  -17606   -17351   -17493   -17831   -18087   -18291   -18497   -18645 
  -18758   -18716   -18233   -17445   -17009   -17264   -17796   -18107 
  -18177   -18193   -18220   -18235   -18210   -18076   -17775   -17458 
  -17417   -17712   -17995   -17930   -17737   -17801   -17897   -17608 
  -17121   -16815   -16759   -16962   -17397   -17888   -18291   -18549 
  -18692   -18726   -18525   -18181   -17971   -17845   -17521   -17029 
  -16777   -17053   -17457   -17380   -17090   -17266   -17801   -18261 
  -18668   -18949   -18760   -18179   -17581   -17051   -16657   -16702 
  -17229   -17877   -18363   -18581   -18426   -17904   -17283   -16944 
  -17059   -17464   -17947   -18382   -18577   -18486   -18241   -17830 
  -17314   -16948   -16919   -17327   -17952   -18262   -18239   -18284 
  -18349   -18233   -18051   -17905   -17853   -17999   -18155   -18006 
  -17641   -17394   -17403   -17583   -17836   -18090   -18201   -18056 
  -17729   -17415   -17358   -17716   -18334   -18808   -18837   -18415 
  -17896   -17822   -18336   -18893   -18988   -18839   -18787   -18593 
  -17973   -17205   -16679   -16547   -16975   -17891   -18690   -18879 
  -18637   -18263   -17682   -16933   -16486   -16664   -17269   -17866 
  -18176   -18227   -18254   -18462   -18835   -19122   -19158   -19089 
  -19008   -18742   -18271   -17840   -17580   -17461   -17478   -17661 
  -18052   -18602   -19025   -19005   -18572   -18211   -18416   -18978 
  -19251   -19175   -19136   -19174   -19154   -19046   -18711   -18181 
  -17888   -17954   -17904   -17516   -17211   -17253   -17371   -17460 
  -17803   -18276   -18393   -18256   -18285   -18299   -17996   -17666 
  -17528   -17422   -17476   -17841   -18147   -18127   -17975   -17845 
  -17715   -17481   -17050   -16626   -16570   -16865   -17104   -17117 
  -17175   -17475   -17953   -18461   -18711   -18504   -18099   -17849 
  -17742   -17598   -17369   -17225   -17410   -17885   -18308   -18397 
  -18136   -17822   -17887   -18306   -18570   -18445   -18163   -17913 
  -17676   -17433   -17278   -17405   -17869   -18429   -18843   -19087 
  -19183   -19085   -18764   -18234   -17630   -17203   -17024   -16955 
  -17030   -17420   -17891   -17988   -17832   -17939   -18294   -18450 
  -18287   -17987   -17832   -18132   -18698   -18923   -18761   -18623 
  -18522   -18272   -17977   -17767   -17678   -17792   -17995   -17994 
  -17727   -17358   -17092   -17049   -17105   -17143   -17235   -17273 
  -17102   -16914   -16818   -16717   -16728   -16923   -17166   -17440 
  -17704   -17817   -17822   -17766   -17534   -17183   -16934   -16824 
  -16829   -17089   -17665   -18409   -19079   -19393   -19308   -19055 
  -18678   -18201   -17968   -18070   -18167   -18192   -18287   -18384 
  -18399   -18335   -18153   -17914   -17790   -17861   -18135   -18616 
  -19118   -19326   -19283   -19340   -19456   -19222   -18628   -18195 
  -18323   -18800   -19137   -19258   -19392   -19563   -19613   -19351 
  -18677   -17901   -17469   -17408   -17513   -17643   -17680   -17653 
  -17685   -17704   -17586   -17422   -17366   -17475   -17754   -18067 
  -18124   -17847   -17564   -17619   -17944   -18248   -18505   -18834 
  -19022   -18809   -18412   -18111   -17754   -17274   -17040   -17208 
  -17560   -18040   -18629   -19024   -19063   -18942   -18722   -18287 
  -17817   -17601   -17645   -17859   -18081   -17966   -17594   -17554 
  -17819   -17758   -17438   -17373   -17542   -17764   -17993   -17983 
  -17640   -17337   -17187   -16821   -16417   -16768   -17828   -18623 
  -18755   -18620   -18502   -18404   -18266   -18045   -17754   -17454 
  -17407   -17929   -18761   -19249   -19247   -19092   -18884   -18349 
  -17373   -16326   -15647   -15489   -15925   -16913   -18018   -18709 
  -18863   -18764   -18718   -18661   -18230   -17338   -16416   -15941 
  -16036   -16646   -17622   -18533   -18905   -18737   -18436   -18281 
  -18272   -18287   -18228   -18165   -18226   -18365   -18363   -18050 
  -17627   -17549   -17876   -18224   -18399   -18491   -18499   -18453 
  -18568   -18810   -18764   -18226   -17419   -16636   -16111   -15970 
  -16125   -16425   -16799   -17210   -17534   -17489   -16903   -16154 
  -15916   -16347   -16792   -16638   -16213   -16172   -16447   -16658 
  -16816   -17086   -17468   -17779   -17863   -17831   -17785   -17655 
  -17551   -17533   -17331   -16976   -16896   -17089   -17094   -16808 
  -16647   -16883   -17274   -17520   -17663   -17758   -17716   -17603 
  -17553   -17507   -17382   -17345   -17591   -18022   -18439   -18747 
  -18825   -18616   -18357   -18324   -18430   -18355   -17999   -17569 
  -17416   -17771   -18393   -18753   -18743   -18814   -19221   -19660 
  -19762   -19501   -19082   -18654   -18190   -17660   -17177   -16872 
  -16703   -16577   -16608   -16950   -17433   -17709   -17754   -17849 
  -18042   -18128   -18048   -17903   -17803   -17870   -18155   -18545 
  -18877   -19098   -19169   -18984   -18597   -18219   -17911   -17597 
  -17347   -17241   -17148   -17051   -17181   -17486   -17584   -17403 
  -17252   -17217   -17173   -17249   -17583   -17903   -17967   -17941 
  -17967   -17952   -17897   -17909   -17987   -18096   -18248   -18435 
  -18660   -18890   -18947   -18688   -18277   -18058   -18121   -18108 
  -17637   -16898   -16446   -16481   -16733   -16951   -17158   -17420 
  -17644   -17790   -17958   -18104   -18101   -18051   -18101   -18138 
  -17978   -17655   -17376   -17247   -17223   -17409   -17957   -18566 
  -18777   -18604   -18357   -18213   -18134   -17970   -17763   -17771 
  -17997   -18133   -18041   -17852   -17762   -17870   -18029   -18049 
  -17956   -17909   -18083   -18461   -18810   -19132   -19639   -20154 
  -20300   -20078   -19609   -18934   -18296   -17913   -17735   -17799 
  -18178   -18646   -18990   -19304   -19553   -19400   -18770   -17988 
  -17350   -17035   -17028   -17019   -16949   -17155   -17708   -18282 
  -18609   -18628   -18497   -18468   -18503   -18331   -17955   -17670 
  -17743   -18179   -18650   -18885   -19043   -19334   -19568   -19445 
  -18929   -18116   -17225   -16654   -16504   -16478   -16513   -16800 
  -17195   -17375   -17493   -17915   -18495   -18833   -18914   -18925 
  -18912   -18868   -18808   -18730   -18633   -18491   -18361   -18406 
  -18662   -19010   -19355   -19613   -19733   -19841   -20078   -20360 
  -20439   -20219   -19965   -19925   -19921   -19754   -19593   -19560 
  -19455   -19176   -18895   -18743   -18694   -18702   -18714   -18734 
  -18820   -18963   -19140   -19286   -19187   -18805   -18456   -18371 
  -18468   -18558   -18438   -18087   -17879   -18049   -18171   -17898 
  -17655   -17813   -17983   -17842   -17688   -17674   -17596   -17575 
  -17788   -17867   -17563   -17308   -17469   -17840   -18160   -18406 
  -18557   -18612   -18653   -18680   -18584   -18299   -17901   -17605 
  -17552   -17676   -17856   -18035   -18222   -18458   -18672   -18718 
  -18630   -18582   -18572   -18425   -18077   -17688   -17435   -17382 
  -17569   -17932   -18140   -17956   -17599   -17378   -17361   -17518 
  -17798   -18118   -18416   -18571   -18436   -18036   -17555   -17121 
  -16654   -16093   -15745   -15987   -16684   -17359   -17757   -17909 
  -17902   -17828   -17749   -17678   -17696   -17791   -17735   -17491 
  -17241   -16921   -16430   -16043   -16003   -16145   -16301   -16488 
  -16645   -16657   -16573   -16629   -16985   -17448   -17729   -17792 
  -17715   -17623   -17749   -18072   -18170   -17924   -17768   -17974 
  -18309   -18448   -18403   -18485   -18724   -18754   -18440   -18069 
  -17921   -17988   -18093   -18171   -18312   -18521   -18682   -18800 
  -18930   -18945   -18723   -18390   -18138   -17981   -17885   -17900 
  -17957   -17879   -17767   -17870   -18161   -18487   -18837   -19145 
  -19224   -19128   -19118   -19205   -19207   -19013   -18637   -18265 
  -18121   -18179   -18250   -18256   -18247   -18336   -18664   -19201 
  -19577   -19437   -18984   -18739   -18826   -19002   -19211   -19523 
  -19833   -19956   -19758   -19307   -18849   -18549   -18444   -18498 
  -18566   -18588   -18617   -18587   -18449   -18375   -18470   -18583 
  -18516   -18208   -17843   -17784   -18227   -19022   -19751   -20046 
  -19942   -19717   -19426   -19017   -18653   -18465   -18374   -18381 
  -18505   -18508   -18205   -17843   -17702   -17627   -17425   -17327 
  -17592   -18028   -18285   -18337   -18330   -18218   -17924   -17603 
  -17411   -17298   -17201   -17151   -17118   -17070   -17132   -17345 
  -17492   -17390   -17151   -17025   -17080   -17195   -17309   -17460 
  -17612   -17686   -17693   -17687   -17606   -17306   -16846   -16498 
  -16414   -16487   -16513   -16367   -16145   -16115   -16368   -16640 
  -16746   -16826   -16925   -16862   -16654   -16529   -16563   -16622 
  -16589   -16538   -16634   -16819   -16880   -16849   -16944   -17169 
  -17349   -17392   -17293   -17100   -16917   -16830   -16818   -16780 
  -16683   -16588   -16543   -16543   -16528   -16448   -16399   -16509 
  -16712   -16853   -16898   -16877   -16825   -16829   -16938   -17085 
  -17180   -17191   -17165   -17191   -17297   -17399   -17425   -17394 
  -17274   -16973   -16563   -16255   -16129   -16094   -16094   -16178 
  -16345   -16494   -16559   -16618   -16743   -16826   -16774   -16709 
  -16716   -16718   -16694   -16673   -16599   -16376   -16063   -15885 
  -15920   -15965   -15886   -15793   -15784   -15887   -16077   -16144 
  -15986   -15809   -15726   -15642   -15536   -15460   -15388   -15318 
  -15336   -15486   -15747   -16083   -16393   -16544   -16493   -16381 
  -16397   -16474   -16425   -16345   -16459   -16763   -17063   -17154 
  -17065   -17059   -17133   -17079   -17033   -17143   -17188   -17081 
  -17048   -17204   -17453   -17667   -17798   -17881   -17868   -17652 
  -17362   -17222   -17153   -16993   -16822   -16787   -16919   -17149 
  -17330   -17371   -17316   -17183   -16952   -16703   -16502   -16303 
  -16176   -16264   -16506   -16839   -17309   -17727   -17844   -17767 
  -17654   -17456   -17232   -17142   -17129   -17062   -16992   -17083 
  -17442   -17972   -18434   -18740   -18984   -19134   -19052   -18804 
  -18588   -18505   -18547   -18648   -18758   -18880   -18986   -19062 
  -19196   -19420   -19605   -19608   -19432   -19175   -18906   -18647 
  -18481   -18467   -18457   -18355   -18373   -18663   -19045   -19305 
  -19404   -19418   -19397   -19309   -19157   -19044   -19030   -19095 
  -19273   -19505   -19572   -19423   -19281   -19250   -19210   -19136 
  -19111   -19128   -19151   -19123   -18953   -18756   -18768   -18954 
  -19105   -19175   -19253   -19406   -19578   -19573   -19294   -18909 
  -18623   -18487   -18492   -18581   -18633   -18667   -18825   -19080 
  -19260   -19362   -19521   -19691   -19692   -19560   -19460   -19327 
  -19035   -18762   -18707   -18755   -18767   -18805   -18878   -18898 
  -18853   -18795   -18796   -18931   -19130   -19162   -18955   -18795 
  -18913   -19124   -19197   -19190   -19183   -19195   -19306   -19497 
  -19581   -19440   -19201   -19164   -19413   -19649   -19657   -19653 
  -19862   -20176   -20450   -20650   -20675   -20514   -20394   -20459 
  -20535   -20415   -20199   -20112   -20130   -20080   -19956   -19864 
  -19819   -19828   -19971   -20193   -20330   -20421   -20601   -20734 
  -20576   -20260   -20128   -20157   -20084   -19857   -19626   -19514 
  -19486   -19429   -19341   -19303   -19342   -19421   -19448   -19352 
  -19169   -18981   -18852   -18817   -18798   -18712   -18643   -18580 
  -18348   -18032   -17929   -18100   -18376   -18621   -18786   -18830 
  -18711   -18384   -17839   -17272   -16989   -17030   -17197   -17408 
  -17705   -18023   -18212   -18222   -18137   -18027   -17827   -17500 
  -17173   -16931   -16707   -16497   -16416   -16516   -16742   -17006 
  -17226   -17355   -17455   -17612   -17763   -17699   -17358   -17029 
  -16967   -16990   -16868   -16759   -16848   -17000   -17092   -17251 
  -17478   -17568   -17561   -17676   -17839   -17828   -17683   -17570 
  -17471   -17302   -17113   -17008   -17001   -17108   -17341   -17538 
  -17593   -17620   -17599   -17385   -17041   -16717   -16512   -16468 
  -16451   -16310   -16111   -15972   -15947   -16046   -16152   -16112 
  -15994   -16029   -16227   -16339   -16280   -16271   -16427   -16561 
  -16544   -16522   -16616   -16657   -16472   -16284   -16368   -16566 
  -16623   -16573   -16469   -16277   -16061   -15878   -15687   -15503 
  -15411   -15449   -15571   -15724   -15857   -15908   -15920   -15992 
  -16070   -16048   -15968   -15910   -15900   -15926   -15897   -15764 
  -15640   -15595   -15556   -15560   -15720   -15987   -16194   -16261 
  -16206   -16078   -15943   -15907   -16014   -16134   -16133   -16100 
  -16164   -16277   -16334   -16328   -16339   -16459   -16656   -16751 
  -16679   -16593   -16647   -16790   -16828   -16721   -16690   -16845 
  -16974   -16930   -16883   -17017   -17255   -17467   -17680   -17887 
  -17944   -17804   -17640   -17577   -17521   -17402   -17338   -17397 
  -17477   -17535   -17600   -17624   -17634   -17743   -17878   -17871 
  -17765   -17699   -17675   -17626   -17551   -17557   -17714   -17911 
  -18028   -18110   -18212   -18271   -18259   -18232   -18203   -18133 
  -18025   -17939   -17953   -18101   -18280   -18313   -18223   -18219 
  -18333   -18374   -18254   -18086   -17993   -17996   -18033   -18047 
  -18066   -18150   -18300   -18462   -18606   -18705   -18698   -18576 
  -18418   -18288   -18226   -18246   -18283   -18311   -18388   -18484 
  -18509   -18522   -18605   -18649   -18519   -18277   -18097   -18042 
  -18052   -18101   -18207   -18304   -18317   -18271   -18220   -18225 
  -18321   -18419   -18430   -18408   -18419   -18457   -18506   -18514 
  -18401   -18197   -18071   -18166   -18384   -18483   -18468   -18576 
  -18820   -18978   -19019   -19099   -19197   -19129   -18880   -18658 
  -18577   -18546   -18496   -18452   -18456   -18562   -18778   -18994 
  -19064   -18961   -18850   -18923   -19157   -19353   -19406   -19356 
  -19282   -19264   -19311   -19331   -19288   -19247   -19213   -19111 
  -18985   -18933   -18928   -18985   -19167   -19327   -19346   -19357 
  -19371   -19253   -19067   -18949   -18875   -18782   -18662   -18559 
  -18570   -18727   -18909   -19017   -19110   -19269   -19434   -19461 
  -19352   -19301   -19361   -19322   -19093   -18904   -18920   -19007 
  -19043   -19087   -19137   -19090   -18974   -18924   -18902   -18736 
  -18455   -18265   -18211   -18166   -18042   -17858   -17729   -17727 
  -17775   -17836   -17942   -18000   -17912   -17747   -17605   -17537 
  -17557   -17641   -17780   -17955   -18046   -17955   -17792   -17748 
  -17825   -17879   -17872   -17856   -17848   -17866   -17911   -17902 
  -17827   -17799   -17854   -17920   -17949   -17910   -17778   -17626 
  -17606   -17793   -18054   -18146   -18033   -17958   -18023   -18038 
  -17940   -17897   -17948   -18010   -18120   -18279   -18358   -18365 
  -18403   -18406   -18302   -18199   -18200   -18277   -18329   -18306 
  -18262   -18236   -18216   -18246   -18339   -18369   -18228   -17982 
  -17793   -17773   -17867   -17897   -17791   -17674   -17667   -17729 
  -17762   -17738   -17697   -17687   -17701   -17709   -17726   -17758 
  -17797   -17868   -17993   -18094   -18098   -18106   -18217   -18328 
  -18337   -18311   -18298   -18225   -18082   -17940   -17802   -17696 
  -17757   -17992   -18172   -18195   -18258   -18458   -18600   -18540 
  -18367   -18198   -18052   -17980   -18051   -18211   -18366   -18503 
  -18596   -18597   -18480   -18243   -17964   -17794   -17784   -17826 
  -17837   -17853   -17943   -18059   -18084   -18054   -18082   -18151 
  -18212   -18254   -18230   -18125   -18038   -18079   -18251   -18429 
  -18465   -18392   -18419   -18576   -18640   -18479   -18252   -18155 
  -18171   -18226   -18330   -18430   -18442   -18423   -18425   -18398 
  -18343   -18270   -18115   -17939   -17892   -17957   -17995   -17920 
  -17754   -17561   -17349   -17145   -17043   -17037   -17070   -17230 
  -17568   -17936   -18178   -18213   -18018   -17717   -17480   -17338 
  -17234   -17129   -17035   -16983   -16977   -17035   -17099   -17016 
  -16810   -16629   -16456   -16275   -16191   -16230   -16360   -16565 
  -16784   -16965   -17142   -17318   -17454   -17506   -17442   -17350 
  -17357   -17437   -17500   -17537   -17596   -17705   -17778   -17671 
  -17400   -17143   -17019   -17019   -17072   -17109   -17145   -17256 
  -17458   -17683   -17841   -17883   -17818   -17672   -17523   -17498 
  -17634   -17825   -17918   -17839   -17708   -17737   -17914   -18061 
  -18173   -18349   -18528   -18611   -18616   -18544   -18379   -18194 
  -18052   -17936   -17835   -17785   -17806   -17858   -17920   -18033 
  -18160   -18193   -18130   -18049   -17973   -17891   -17842   -17889 
  -17981   -17995   -17943   -17946   -18023   -18093   -18125   -18184 
  -18326   -18488   -18569   -18610   -18670   -18628   -18429   -18281 
  -18329   -18432   -18405   -18284   -18256   -18372   -18508   -18604 
