Origin Time       2014/11/22 22:08:00
Lat.              36.692
Long.             137.890
Depth. (km)       5
Mag.              6.7
Station Code      GIFH10
Station Lat.      36.3779
Station Long.     137.3716
Station Height(m) 810
Record Time       2014/11/22 22:08:30
Sampling Freq(Hz) 100Hz
Duration Time(s)  120
Dir.              2
Scale Factor      2940(gal)/6170270
Max. Acc. (gal)   1.131
Last Correction   2014/11/22 22:08:15
Memo.             
[...]
  110950   111033   111108   111114   111060   110976   110860   110751 
  110699   110692   110696   110680   110656   110682   110754   110800 
  110798   110796   110858   110942   110921   110859   110895   110941 
  110905   110838   110764   110708   110714   110767   110831   110851 
  110808   110788   110850   110982   111165   111343   111431   111410 
  111322   111219   111194   111307   111481   111573   111509   111356 
  111236   111181   111168   111211   111290   111336   111347   111404 
  111526   111679   111843   111936   111894   111793   111698   111577 
  111413   111272   111191   111064   110851   110672   110563   110504 
  110514   110571   110667   110809   110917   110949   110943   110908 
  110843   110765   110661   110533   110373   110203   110175   110353 
  110560   110666   110704   110691   110628   110627   110790   111031 
  111151   111118   111096   111140   111138   111084   111013   110884 
  110740   110666   110679   110772   110875   110954   111071   111190 
  111200   111114   111043   111015   110927   110777   110737   110833 
  110875   110824   110820   110857   110849   110829   110823   110849 
  110992   111186   111290   111317   111276   111104   110873   110714 
  110643   110659   110760   110854   110904   111003   111139   111211 
  111257   111287   111192   111043   110998   111005   111013   111082 
  111168   111185   111171   111204   111258   111249   111197   111195 
  111209   111140   110991   110832   110742   110737   110702   110613 
  110571   110552   110484   110430   110475   110578   110600   110523 
  110459   110427   110359   110277   110291   110409   110531   110632 
  110703   110649   110474   110316   110247   110245   110286   110361 
  110408   110404   110433   110471   110433   110406   110496   110619 
  110675   110737   110875   111047   111199   111316   111355   111287 
  111201   111194   111220   111240   111270   111278   111262   111257 
  111246   111182   111084   110994   110896   110758   110571   110396 
  110325   110343   110362   110355   110314   110230   110155   110148 
  110193   110274   110431   110661   110888   110998   110966   110896 
  110829   110705   110519   110323   110167   110081   110029   109965 
  109950   110040   110157   110249   110363   110498   110603   110665 
  110653   110559   110508   110618   110788   110875   110939   111015 
  111031   111006   110957   110888   110842   110819   110826   110865 
  110877   110820   110687   110497   110282   110037   109860   109869 
  109924   109917   109990   110160   110288   110338   110354   110401 
  110490   110541   110526   110484   110428   110356   110287   110256 
  110267   110320   110439   110566   110580   110467   110328   110271 
  110291   110265   110151   110043   110030   110138   110351   110612 
  110844   111035   111172   111174   111033   110849   110666   110497 
  110434   110531   110693   110771   110717   110584   110401   110220 
  110138   110166   110257   110396   110539   110619   110622   110580 
  110550   110589   110718   110888   110970   110929   110899   110927 
  110923   110877   110839   110829   110827   110826   110827   110783 
  110662   110553   110549   110568   110538   110608   110833   110994 
  111039   111124   111252   111325   111377   111439   111377   111165 
  111016   110992   110950   110883   110895   110952   110972   110994 
  111012   110925   110739   110564   110500   110596   110783   110952 
  111039   111024   110950   110864   110777   110686   110602   110582 
  110651   110693   110619   110526   110515   110553   110640   110770 
  110817   110749   110671   110627   110584   110497   110379   110335 
  110381   110411   110414   110473   110547   110568   110585   110589 
  110552   110552   110615   110673   110704   110756   110889   111088 
  111262   111357   111386   111372   111352   111339   111296   111186 
  111032   110908   110840   110800   110810   110819   110725   110582 
  110502   110480   110477   110505   110560   110586   110631   110730 
  110740   110623   110549   110608   110717   110751   110691   110605 
  110534   110490   110500   110567   110607   110536   110437   110383 
  110314   110270   110282   110297   110387   110526   110545   110513 
  110562   110630   110676   110739   110833   110930   110984   111039 
  111125   111129   111002   110834   110698   110629   110659   110803 
  110973   111069   111114   111102   110979   110834   110736   110597 
  110387   110171   110005   109953   109986   109991   109972   109963 
  109956   109977   110025   110079   110172   110305   110475   110660 
  110785   110833   110852   110919   111107   111368   111600   111820 
  112066   112255   112314   112309   112343   112414   112458   112472 
  112464   112408   112367   112397   112414   112335   112193   112061 
  111975   111924   111902   111930   112012   112097   112137   112149 
  112154   112132   112082   112021   111969   111906   111761   111539 
  111332   111180   111086   111044   111015   111002   111036   111050 
  110982   110875   110769   110658   110533   110420   110400   110488 
  110547   110501   110509   110668   110788   110775   110775   110815 
  110818   110804   110809   110809   110823   110899   110956   110872 
  110678   110466   110275   110173   110221   110323   110347   110312 
  110297   110323   110372   110428   110425   110337   110278   110343 
  110505   110690   110791   110796   110837   110925   110910   110759 
  110592   110487   110461   110538   110720   110924   111043   111081 
  111134   111254   111403   111506   111538   111539   111487   111337 
  111159   111044   111023   111093   111188   111215   111123   110970 
  110915   111010   111157   111286   111349   111288   111124   110909 
  110696   110632   110739   110832   110898   111062   111247   111339 
  111421   111578   111694   111630   111443   111253   111075   110884 
  110721   110700   110800   110830   110745   110670   110644   110609 
  110562   110525   110473   110402   110365   110380   110433   110486 
  110512   110557   110598   110573   110598   110759   110893   110899 
  110867   110855   110853   110844   110766   110626   110553   110599 
  110685   110758   110813   110863   110919   110957   111003   111107 
  111219   111285   111311   111305   111278   111224   111120   110978 
  110815   110651   110509   110384   110301   110253   110187   110128 
  110092   110053   110061   110172   110344   110457   110464   110471 
  110523   110545   110567   110711   111003   111312   111496   111551 
  111538   111461   111349   111306   111382   111505   111542   111442 
  111315   111286   111296   111261   111270   111359   111388   111303 
  111192   111139   111155   111166   111141   111100   111009   110880 
  110766   110639   110492   110368   110252   110141   110105   110173 
  110226   110145   110025   109962   109833   109622   109519   109552 
  109596   109614   109633   109670   109722   109766   109815   109889 
  109947   109947   109909   109880   109901   109980   110103   110268 
  110404   110424   110441   110586   110749   110786   110763   110814 
  110949   111076   111151   111209   111271   111382   111581   111764 
  111792   111745   111797   111906   111913   111842   111789   111731 
  111676   111705   111803   111925   112032   112016   111859   111755 
  111817   111910   111922   111880   111806   111715   111648   111594 
  111518   111455   111450   111461   111449   111441   111412   111350 
  111318   111330   111322   111244   111092   110967   110954   110943 
  110807   110643   110613   110699   110752   110747   110773   110835 
  110879   110890   110829   110679   110531   110483   110497   110483 
  110432   110389   110380   110375   110338   110306   110324   110435 
  110682   110941   111062   111128   111206   111208   111139   111119 
  111192   111294   111400   111562   111737   111819   111853   111938 
  112062   112171   112248   112295   112336   112379   112402   112398 
  112370   112330   112353   112461   112529   112465   112345   112282 
  112300   112362   112426   112491   112551   112561   112515   112463 
  112453   112505   112564   112531   112380   112169   112005   111936 
  111868   111721   111513   111264   111007   110782   110591   110434 
  110324   110260   110227   110163   110040   109946   109927   109907 
  109859   109807   109721   109616   109560   109535   109496   109463 
  109480   109559   109623   109624   109649   109702   109690   109662 
  109697   109767   109855   109933   109930   109884   109881   109890 
  109882   109874   109875   109884   109867   109816   109832   109942 
  110025   110022   110025   110083   110127   110130   110108   110031 
  109893   109757   109666   109632   109664   109707   109704   109661 
  109583   109466   109346   109258   109222   109251   109331   109451 
  109607   109746   109802   109777   109727   109688   109685   109757 
  109859   109890   109862   109848   109872   109916   109940   109959 
  110011   110057   110067   110083   110139   110242   110354   110403 
  110410   110463   110571   110666   110718   110765   110819   110853 
  110892   110972   111085   111223   111362   111489   111631   111744 
  111779   111760   111690   111556   111396   111248   111124   111032 
  110980   110966   110971   110976   110977   110974   110967   110989 
  111060   111116   111087   111009   110960   110916   110815   110714 
  110694   110724   110753   110772   110787   110805   110811   110804 
  110820   110864   110861   110757   110618   110516   110404   110242 
  110109   110078   110113   110122   110050   109935   109858   109828 
  109787   109702   109627   109602   109571   109469   109337   109262 
  109263   109277   109265   109265   109327   109433   109524   109561 
  109544   109531   109569   109607   109593   109549   109496   109436 
  109394   109385   109402   109381   109277   109190   109206   109248 
  109269   109343   109488   109649   109822   110004   110123   110150 
  110164   110194   110214   110267   110353   110408   110447   110477 
  110451   110362   110237   110159   110216   110338   110401   110410 
  110457   110553   110634   110686   110721   110747   110773   110743 
  110641   110594   110695   110886   111042   111108   111120   111110 
  111073   111010   110937   110873   110803   110694   110577   110546 
  110625   110720   110769   110833   110935   111008   111033   111080 
  111162   111239   111323   111412   111470   111521   111575   111564 
  111496   111454   111456   111486   111554   111640   111701   111731 
  111765   111831   111910   111958   111989   112051   112115   112115 
  112038   111958   111985   112127   112268   112327   112305   112206 
  112052   111919   111842   111785   111717   111632   111547   111453 
  111302   111115   110935   110798   110760   110798   110838   110846 
  110833   110813   110764   110674   110568   110444   110341   110317 
  110345   110388   110438   110462   110473   110501   110555   110674 
  110836   110940   110985   111038   111083   111100   111099   111086 
  111105   111174   111253   111333   111402   111449   111516   111615 
  111711   111777   111807   111799   111765   111756   111799   111840 
  111828   111792   111776   111768   111753   111752   111764   111756 
  111720   111675   111640   111626   111630   111640   111658   111712 
  111774   111793   111806   111851   111907   111971   112027   112036 
  112008   111973   111947   111934   111916   111892   111871   111833 
  111802   111799   111763   111671   111596   111586   111635   111700 
  111706   111663   111663   111713   111728   111698   111667   111622 
  111564   111526   111492   111434   111383   111362   111330   111273 
  111229   111209   111192   111168   111149   111138   111108   111064 
  111048   111056   111026   110947   110882   110858   110846   110827 
  110811   110803   110777   110715   110664   110647   110645   110659 
  110694   110739   110786   110814   110796   110737   110682   110648 
  110629   110642   110671   110669   110631   110590   110589   110631 
  110678   110722   110786   110864   110945   111049   111165   111242 
  111287   111360   111445   111517   111602   111689   111747   111776 
  111798   111830   111855   111856   111870   111905   111934   111952 
  111961   111949   111915   111878   111855   111847   111869   111924 
  111972   111982   111975   111972   111957   111929   111913   111905 
  111859   111781   111692   111576   111438   111345   111315   111258 
  111141   111050   110995   110918   110834   110786   110782   110779 
  110762   110757   110733   110676   110659   110680   110664   110602 
  110532   110467   110409   110364   110325   110279   110214   110154 
  110139   110142   110130   110132   110149   110157   110144   110105 
  110077   110073   110059   110049   110064   110075   110069   110059 
  110040   110004   109959   109923   109905   109893   109905   109978 
  110086   110164   110193   110186   110178   110191   110208   110230 
  110258   110246   110184   110081   109948   109859   109833   109799 
  109753   109719   109656   109568   109514   109489   109457   109411 
  109371   109334   109272   109179   109060   108943   108872   108851 
  108848   108832   108806   108797   108787   108758   108726   108694 
  108656   108615   108606   108672   108756   108763   108705   108623 
  108536   108475   108443   108434   108473   108543   108565   108520 
  108469   108446   108437   108460   108539   108613   108632   108643 
  108689   108749   108803   108865   108939   109015   109100   109200 
  109285   109344   109406   109479   109549   109596   109639   109742 
  109912   110078   110193   110276   110352   110421   110482   110527 
  110555   110601   110681   110773   110857   110920   110979   111047 
  111109   111169   111240   111309   111369   111407   111417   111435 
  111467   111486   111470   111423   111379   111335   111271   111224 
  111193   111138   111097   111093   111077   111059   111064   111054 
  111014   110984   110978   110982   111014   111083   111133   111152 
  111159   111169   111193   111219   111238   111251   111248   111240 
  111254   111288   111316   111308   111258   111202   111150   111089 
  111041   111004   110951   110885   110839   110828   110828   110810 
  110804   110840   110872   110864   110838   110828   110831   110837 
  110848   110858   110871   110912   110962   110987   110995   111021 
  111080   111151   111212   111262   111291   111303   111326   111355 
  111380   111430   111501   111557   111603   111642   111668   111701 
  111748   111783   111803   111816   111812   111770   111718   111706 
  111727   111727   111695   111649   111589   111521   111471   111441 
  111421   111417   111446   111500   111533   111548   111603   111693 
  111743   111733   111718   111719   111704   111666   111623   111573 
  111520   111466   111400   111332   111295   111295   111314   111322 
  111293   111249   111233   111237   111226   111181   111114   111052 
  111005   110977   110963   110958   110954   110952   110962   110983 
  111004   111003   110985   110972   110960   110941   110949   110995 
  111064   111146   111213   111261   111302   111327   111352   111401 
  111441   111427   111387   111376   111399   111424   111443   111470 
  111496   111499   111477   111447   111414   111375   111345   111348 
  111376   111391   111383   111385   111398   111392   111364   111327 
  111292   111256   111196   111101   111008   110958   110933   110898 
  110871   110853   110792   110702   110615   110527   110445   110361 
  110248   110133   110051   110020   110038   110062   110059   110045 
  110046   110057   110049   110005   109960   109967   110015   110048 
  110057   110079   110126   110190   110260   110335   110415   110481 
  110528   110589   110667   110730   110778   110835   110892   110921 
  110930   110950   110979   111006   111020   111019   111025   111042 
  111056   111063   111055   111038   111021   110997   110977   110975 
  110961   110919   110906   110961   111030   111051   111047   111049 
  111060   111080   111080   111032   110972   110925   110869   110816 
  110776   110727   110666   110626   110664   110764   110850   110903 
  110959   111010   111030   111060   111131   111198   111226   111227 
  111207   111179   111183   111220   111253   111274   111288   111295 
  111298   111311   111351   111403   111423   111399   111362   111339 
  111312   111275   111230   111157   111071   111014   110972   110919 
  110865   110826   110799   110748   110682   110664   110703   110758 
  110833   110926   110988   111016   111059   111111   111132   111147 
  111177   111192   111196   111216   111236   111248   111274   111310 
  111338   111347   111335   111319   111315   111319   111312   111274 
  111218   111174   111145   111110   111040   110951   110899   110874 
  110807   110726   110705   110716   110685   110623   110564   110519 
  110475   110420   110374   110361   110336   110271   110216   110170 
  110079   109976   109920   109891   109881   109919   109998   110106 
  110240   110370   110472   110533   110544   110521   110515   110553 
  110626   110717   110801   110857   110912   110970   110986   110957 
  110929   110905   110870   110863   110902   110942   110959   110967 
  110973   110981   110977   110950   110946   110991   111028   111010 
  110960   110934   110955   111005   111053   111084   111134   111218 
  111287   111311   111309   111312   111313   111280   111209   111129 
  111062   111006   110961   110933   110917   110899   110883   110893 
  110937   111008   111101   111191   111250   111283   111304   111335 
  111377   111421   111471   111535   111578   111578   111570   111585 
  111596   111585   111566   111540   111513   111481   111416   111341 
  111307   111296   111303   111335   111347   111324   111295   111256 
  111206   111167   111153   111161   111168   111159   111145   111137 
  111127   111113   111098   111096   111115   111140   111162   111172 
  111165   111148   111116   111067   111011   110935   110853   110803 
  110769   110719   110665   110624   110596   110585   110590   110599 
  110613   110644   110683   110721   110758   110801   110842   110830 
  110743   110653   110611   110609   110625   110632   110606   110591 
  110642   110729   110793   110825   110833   110831   110835   110841 
  110824   110793   110771   110733   110672   110602   110519   110442 
  110408   110393   110361   110328   110321   110338   110362   110375 
  110372   110352   110322   110296   110269   110223   110178   110177 
  110201   110203   110177   110163   110190   110239   110273   110294 
  110317   110329   110318   110297   110280   110250   110197   110149 
  110129   110127   110115   110098   110102   110133   110170   110196 
  110214   110229   110246   110262   110278   110278   110253   110210 
  110163   110126   110081   109998   109914   109858   109805   109753 
  109715   109701   109726   109764   109770   109756   109758   109789 
  109837   109864   109852   109838   109835   109822   109810   109821 
  109835   109841   109858   109911   109995   110065   110095   110095 
