Origin Time       2014/11/22 22:08:00
Lat.              36.692
Long.             137.890
Depth. (km)       5
Mag.              6.7
Station Code      GIFH10
Station Lat.      36.3779
Station Long.     137.3716
Station Height(m) 910
Record Time       2014/11/22 22:08:30
Sampling Freq(Hz) 100Hz
Duration Time(s)  120
Dir.              5
Scale Factor      3920(gal)/6170801
Max. Acc. (gal)   3.008
Last Correction   2014/11/22 22:08:15
Memo.             
[...]
    9061     9063     9062     9063     9065     9063     9061     9062 
    9064     9064     9063     9063     9065     9064     9064     9065 
    9064     9063     9064     9064     9064     9066     9065     9063 
    9063     9063     9064     9064     9062     9064     9067     9066 
    9065     9065     9065     9065     9065     9064     9065     9063 
    9062     9063     9062     9063     9064     9063     9063     9062 
    9063     9063     9063     9064     9065     9065     9064     9063 
    9063     9062     9063     9065     9064     9064     9065     9064 
    9063     9066     9065     9063     9064     9066     9064     9063 
    9063     9064     9065     9066     9065     9063     9062     9064 
    9064     9063     9063     9064     9062     9063     9065     9064 
    9064     9063     9062     9064     9065     9064     9065     9065 
    9064     9064     9064     9065     9066     9064     9063     9064 
    9064     9063     9064     9064     9063     9064     9063     9063 
    9064     9064     9064     9064     9063     9065     9066     9065 
    9064     9063     9063     9063     9063     9063     9063     9062 
    9063     9063     9063     9064     9064     9063     9063     9063 
    9065     9064     9062     9062     9064     9065     9062     9062 
    9064     9064     9063     9062     9061     9062     9063     9063 
    9062     9062     9062     9063     9064     9062     9062     9064 
    9064     9064     9064     9063     9061     9061     9064     9065 
    9065     9064     9064     9064     9062     9061     9063     9064 
    9064     9063     9063     9064     9063     9064     9064     9062 
    9063     9063     9063     9065     9064     9062     9063     9065 
    9063     9061     9062     9063     9064     9064     9062     9064 
    9064     9062     9061     9062     9065     9064     9062     9064 
    9065     9064     9064     9063     9063     9064     9062     9062 
    9064     9063     9061     9061     9062     9063     9063     9062 
    9062     9064     9063     9062     9062     9063     9063     9063 
    9063     9062     9061     9063     9065     9064     9062     9063 
    9064     9065     9063     9062     9062     9063     9063     9064 
    9064     9064     9063     9063     9063     9063     9062     9063 
    9064     9062     9062     9062     9063     9064     9063     9063 
    9065     9066     9066     9066     9065     9065     9064     9063 
    9064     9065     9064     9063     9061     9062     9065     9064 
    9063     9062     9062     9064     9062     9060     9064     9065 
    9063     9064     9063     9062     9063     9062     9063     9065 
    9064     9063     9063     9062     9063     9064     9062     9062 
    9062     9063     9064     9062     9061     9063     9064     9063 
    9063     9062     9062     9063     9063     9063     9063     9063 
    9062     9062     9063     9065     9064     9063     9065     9064 
    9065     9065     9062     9063     9065     9064     9063     9063 
    9063     9063     9062     9062     9063     9064     9065     9065 
    9063     9064     9065     9065     9064     9064     9063     9063 
    9065     9063     9063     9063     9063     9064     9065     9066 
    9065     9063     9063     9064     9063     9063     9062     9061 
    9062     9063     9061     9062     9063     9063     9064     9065 
    9063     9063     9065     9066     9065     9065     9065     9064 
    9063     9065     9065     9062     9062     9063     9064     9065 
    9065     9064     9064     9063     9063     9064     9064     9061 
    9060     9063     9064     9063     9062     9063     9065     9065 
    9063     9063     9062     9061     9062     9063     9063     9061 
    9064     9065     9062     9062     9065     9064     9063     9063 
    9065     9064     9063     9064     9066     9064     9063     9063 
    9063     9065     9065     9062     9062     9063     9064     9064 
    9063     9063     9065     9065     9064     9064     9063     9065 
    9066     9064     9064     9064     9062     9063     9064     9063 
    9063     9065     9065     9065     9063     9063     9064     9063 
    9063     9065     9064     9063     9064     9064     9062     9062 
    9065     9066     9064     9064     9065     9063     9064     9064 
    9062     9062     9064     9064     9064     9064     9063     9063 
    9064     9063     9064     9065     9065     9064     9063     9063 
    9064     9064     9064     9064     9064     9062     9062     9063 
    9063     9063     9064     9065     9064     9065     9064     9064 
    9064     9063     9063     9064     9065     9065     9063     9063 
    9064     9064     9064     9065     9066     9065     9064     9063 
    9064     9064     9064     9063     9064     9063     9061     9062 
    9063     9064     9063     9061     9064     9067     9065     9063 
    9064     9063     9064     9063     9062     9064     9065     9064 
    9065     9065     9064     9064     9064     9065     9064     9062 
    9062     9064     9064     9064     9064     9064     9064     9064 
    9063     9063     9064     9065     9066     9064     9062     9063 
    9063     9064     9065     9063     9061     9063     9064     9062 
    9062     9065     9064     9063     9064     9065     9064     9064 
    9064     9063     9062     9062     9062     9062     9060     9057 
    9058     9060     9059     9056     9048     9038     9034     9034 
    9034     9028     9018     9012     9015     9027     9040     9046 
    9045     9040     9031     9018     9006     8997     8993     8989 
    8982     8979     8991     9021     9058     9088     9101     9111 
    9133     9169     9198     9192     9156     9114     9083     9058 
    9028     8999     8980     8970     8971     8992     9032     9076 
    9109     9121     9139     9186     9237     9257     9226     9161 
    9108     9093     9105     9120     9118     9087     9043     9006 
    8986     8989     9010     9025     9034     9065     9107     9127 
    9119     9100     9097     9125     9171     9191     9162     9098 
    9018     8963     8959     8980     9000     9009     8991     8963 
    8960     8991     9056     9148     9220     9222     9171     9099 
    9035     9019     9039     9017     8938     8859     8812     8791 
    8802     8850     8918     8985     9024     9029     9038     9084 
    9145     9168     9128     9054     8988     8954     8946     8936 
    8906     8880     8871     8879     8913     8971     9020     9029 
    9011     9001     9015     9045     9072     9065     9031     9014 
    9032     9066     9087     9054     8987     8970     9021     9075 
    9095     9094     9096     9119     9152     9175     9192     9204 
    9210     9222     9218     9169     9109     9081     9062     9024 
    8997     8989     8984     8986     8988     9002     9083     9222 
    9341     9376     9312     9208     9165     9199     9219     9134 
    8950     8785     8746     8798     8859     8919     8984     9034 
    9053     9044     9047     9106     9233     9375     9428     9324 
    9125     8959     8924     9021     9147     9187     9108     8948 
    8786     8715     8781     8924     9009     8958     8833     8742 
    8752     8889     9083     9171     9089     8968     8948     9051 
    9188     9208     9067     8915     8887     8961     9055     9110 
    9124     9115     9100     9130     9220     9276     9217     9080 
    8953     8936     9054     9141     9055     8911     8877     8980 
    9159     9295     9273     9147     9065     9061     9128     9269 
    9366     9312     9205     9154     9143     9174     9225     9201 
    9152     9173     9166     9062     8937     8778     8598     8592 
    8797     8962     8921     8755     8600     8577     8710     8826 
    8818     8790     8745     8604     8485     8505     8608     8781 
    8988     9071     9016     8958     8900     8823     8804     8851 
    8893     8855     8705     8559     8603     8824     8990     8946 
    8777     8668     8691     8794     8889     8888     8822     8817 
    8836     8746     8619     8605     8739     9003     9282     9392 
    9358     9333     9338     9392     9576     9763     9736     9519 
    9273     9113     9087     9126     9124     9095     9087     9073 
    9044     9031     9025     8980     8889     8818     8870     9051 
    9236     9323     9330     9333     9398     9581     9842     9976 
    9855     9620     9445     9344     9341     9461     9553     9424 
    9099     8780     8669     8809     9029     9079     8916     8709 
    8548     8420     8411     8563     8764     9001     9290     9477 
    9508     9515     9589     9749     9912     9935     9784     9475 
    9070     8761     8700     8793     8767     8462     8136     8175 
    8545     8860     8890     8774     8818     9110     9408     9487 
    9421     9400     9449     9426     9224     8974     8955     9220 
    9481     9454     9219     9128     9371     9763    10028    10083 
    9965     9688     9320     9093     9296     9950    10612    10687 
   10003     9029     8470     8638     9186     9526     9443     9177 
    9042     9201     9643    10175    10560    10692    10581    10329 
   10064     9774     9321     8658     7989     7593     7490     7453 
    7316     7155     7270     7954     9057     9928    10017     9395 
    8696     8589     9180     9941    10245     9802     8861     8165 
    8238     8816     9279     9274     8889     8557     8669     9222 
    9891    10229     9998     9483     9218     9415     9799     9874 
    9454     8886     8621     8807     9185     9249     8850     8498 
    8654     9109     9375     9279     8990     8779     8769     8836 
    8892     9010     9173     9240     9203     9256     9491     9714 
    9752     9671     9568     9519     9532     9400     9005     8604 
    8463     8643     9063     9364     9212     8841     8673     8758 
    9055     9566    10025    10125     9844     9317     8836     8806 
    9290     9895    10166     9956     9576     9466     9666     9848 
    9760     9441     9069     8690     8238     7805     7585     7607 
    7773     8033     8312     8458     8423     8356     8453     8812 
    9354     9770     9780     9491     9195     8943     8679     8480 
    8419     8528     8794     8965     8782     8418     8274     8460 
    8667     8614     8379     8148     8002     8016     8276     8821 
    9552    10189    10408    10180     9931    10077    10538    10889 
   10796    10357     9997     9933     9973     9874     9658     9485 
    9385     9252     9004     8635     8226     7955     7907     7892 
    7676     7301     6936     6708     6790     7252     7907     8502 
    8856     8931     8895     8932     9132     9544    10044    10416 
   10627    10748    10739    10438     9710     8756     7998     7563 
    7309     7160     7091     7145     7463     7995     8533     8991 
    9310     9385     9287     9236     9384     9772    10273    10595 
   10573    10295     9926     9643     9578     9706     9894     9970 
    9748     9189     8475     7826     7365     7047     6742     6584 
    6856     7441     7912     8012     7815     7643     7800     8239 
    8649     8857     8968     9137     9392     9620     9704     9669 
    9665     9796    10016    10199    10239    10039     9580     9009 
    8482     8046     7708     7385     6942     6519     6548     7268 
    8456     9688    10618    11069    11082    10882    10643    10437 
   10309    10182     9884     9393     8882     8445     7951     7272 
    6548     6162     6451     7308     8156     8505     8417     8364 
    8726     9344     9710     9662     9548     9701    10094    10470 
   10691    10868    11048    11011    10518     9677     8933     8645 
    8664     8507     8025     7565     7458     7692     7984     8108 
    8266     8824     9660    10226    10262    10014     9786     9608 
    9307     8866     8609     8858     9570    10355    10765    10712 
   10463    10180     9797     9226     8408     7475     6876     6937 
    7504     8243     8788     8851     8666     8735     9061     9258 
    9172     9010     9070     9386     9637     9446     8859     8422 
    8570     9133     9608     9690     9522     9408     9305     8891 
    8187     7691     7792     8330     8790     8870     8776     8847 
    9076     9191     9015     8695     8609     8934     9453     9940 
   10417    10926    11300    11240    10652     9888     9377     9139 
    8981     8864     8841     8833     8663     8326     8104     8162 
    8258     8097     7723     7441     7522     7849     8024     8020 
    8255     8903     9647     9996     9687     9121     9082     9731 
   10473    10743    10424     9807     9288     8932     8582     8251 
    8029     7908     7883     7895     7843     7796     7857     8036 
    8381     8865     9354     9809    10137    10135     9850     9528 
    9291     9292     9680    10198    10374    10065     9518     9156 
    9232     9529     9626     9328     8743     8222     8112     8376 
    8667     8726     8471     7899     7185     6708     6728     7174 
    7782     8242     8370     8272     8148     8075     8112     8403 
    9051     9924    10624    10832    10726    10857    11540    12545 
   13382    13767    13798    13665    13304    12582    11640    10808 
   10269     9835     9100     7999     7071     6898     7453     8154 
    8416     8180     7961     8233     8871     9346     9416     9456 
   10002    11029    11947    12267    11986    11461    11132    11146 
   11154    10749     9926     8943     8064     7508     7306     7238 
    7089     6856     6625     6480     6540     6796     7109     7563 
    8328     9113     9494     9594     9798    10247    10870    11400 
   11504    11159    10588     9898     9187     8690     8462     8286 
    8084     7992     8044     8156     8223     7992     7368     6855 
    7004     7622     8029     7863     7427     7404     8126     9106 
    9573     9443     9386     9979    11045    11849    11908    11498 
   11310    11566    11622    10705     8876     7049     6290     6965 
    8329     9223     9215     8791     8688     9229    10058    10511 
   10278     9567     8807     8336     8277     8577     9037     9433 
    9632     9552     9233     8872     8617     8606     8908     9263 
    9354     9065     8375     7606     7421     8069     9110    10011 
   10616    11074    11536    11921    11952    11417    10398     9352 
    8772     8619     8353     7733     7234     7462     8344     9083 
    8942     7997     7065     6918     7469     7886     7674     7237 
    7235     7835     8627     9180     9562    10008    10473    10830 
   11019    11014    10878    10623    10169     9620     9212     8951 
    8661     8301     8089     8310     8955     9653    10034    10049 
    9923     9882     9951     9985     9838     9486     9044     8629 
    8271     8010     7888     7834     7823     7938     8173     8325 
    8195     7893     7724     7810     7995     8044     7964     8072 
    8521     9015     9231     9187     9163     9443    10140    11151 
   12153    12679    12434    11501    10267     9277     9027     9578 
   10356    10674    10358     9736     9259     9105     9095     9022 
    8818     8475     8069     7768     7698     7826     8029     8227 
    8359     8341     8138     7814     7495     7301     7298     7509 
    7883     8291     8641     8883     8966     8890     8722     8527 
    8453     8726     9256     9547     9326     8853     8468     8242 
    8088     7943     7808     7668     7433     7047     6652     6589 
    7156     8215     9196     9648     9689     9891    10638    11591 
   12061    11796    11183    10835    11012    11342    11248    10635 
   10009     9929    10361    10635    10297     9643     9151     9021 
    9187     9281     9007     8613     8603     9204    10137    10692 
   10348     9405     8704     8844     9642    10250    10079     9460 
    9145     9488    10140    10438    10204     9945    10086    10342 
   10177     9554     8928     8740     8964     9034     8505     7685 
    7221     7276     7491     7458     7145     7064     7612     8403 
    8841     8906     9008     9445    10009    10076     9358     8429 
    8092     8514     9235     9696     9747     9707     9765     9672 
    9240     8730     8651     9223    10030    10424    10174     9623 
    9285     9328     9589     9873    10056    10154    10285    10459 
   10579    10609    10610    10660    10836    11109    11348    11460 
   11450    11386    11347    11299    11224    11225    11324    11339 
   10963    10034     8922     8310     8449     8933     9219     9195 
    9140     9252     9459     9651     9883    10329    10917    11155 
   10733     9993     9468     9292     9100     8456     7477     6767 
    6612     6665     6551     6367     6487     7081     7803     8015 
    7588     7141     7164     7417     7450     7210     6966     6991 
    7332     7752     8030     8301     8783     9383     9881    10191 
   10271    10162    10072    10071    10022     9883     9647     9218 
    8585     7894     7340     7040     6972     7104     7449     7882 
    8162     8194     8095     8034     8033     8007     7988     8050 
    8151     8224     8213     8086     7952     8025     8352     8699 
    8775     8535     8203     7979     7790     7446     6984     6685 
    6767     7204     7800     8337     8708     8906     8973     9027 
    9208     9523     9819     9850     9495     8981     8649     8600 
    8703     8733     8536     8220     8088     8266     8503     8503 
    8220     7833     7623     7767     8262     8920     9418     9608 
    9631     9702     9966    10441    11015    11511    11877    12224 
   12534    12618    12333    11735    11112    10622    10059     9237 
    8270     7456     6993     6823     6806     6878     6998     7102 
    7192     7399     7818     8394     8940     9194     9062     8796 
    8766     9152     9849    10586    11133    11384    11333    11081 
   10757    10390     9998     9602     9129     8545     7916     7332 
    6905     6598     6259     6000     6172     6865     7692     8168 
    8152     7859     7628     7695     7976     8117     7973     7842 
    7968     8255     8533     8730     8889     9025     8957     8579 
    8146     7962     8010     8079     8024     7937     8057     8338 
    8385     7953     7235     6765     6923     7421     7596     7213 
    6676     6515     6740     6890     6791     6883     7622     8891 
   10152    10944    11249    11430    11726    11924    11686    11027 
   10348     9983     9806     9460     8796     7976     7315     7013 
    6943     6872     6783     6856     7233     7856     8485     8904 
    9087     9179     9335     9612    10013    10522    11022    11339 
   11366    11084    10606    10115     9653     9151     8582     8016 
    7600     7394     7325     7330     7413     7621     7976     8381 
    8682     8867     9073     9421     9949    10616    11300    11861 
