Origin Time       2014/11/22 22:08:00
Lat.              36.692
Long.             137.890
Depth. (km)       5
Mag.              6.7
Station Code      GIFH10
Station Lat.      36.3779
Station Long.     137.3716
Station Height(m) 810
Record Time       2014/11/22 22:08:30
Sampling Freq(Hz) 100Hz
Duration Time(s)  120
Dir.              3
Scale Factor      2940(gal)/6170270
Max. Acc. (gal)   1.582
Last Correction   2014/11/22 22:08:15
Memo.             
[...]
   86507    86411    86329    86224    86128    86112    86137    86125 
   86104    86147    86230    86269    86257    86255    86264    86231 
   86171    86151    86165    86164    86141    86119    86106    86108 
   86128    86127    86064    85980    85917    85857    85824    85869 
   85936    85962    85979    86003    86017    86035    86080    86151 
   86205    86219    86241    86287    86341    86404    86439    86442 
   86467    86489    86466    86446    86424    86347    86271    86233 
   86176    86084    85995    85951    85973    86040    86152    86300 
   86424    86521    86645    86805    86925    86918    86804    86684 
   86585    86477    86358    86233    86151    86135    86113    86077 
   86095    86174    86275    86360    86407    86435    86477    86567 
   86676    86691    86577    86407    86210    85991    85824    85747 
   85707    85663    85592    85471    85345    85323    85456    85672 
   85826    85853    85832    85872    85964    86008    85978    85897 
   85757    85584    85456    85421    85435    85447    85481    85560 
   85719    85968    86227    86472    86742    87009    87234    87381 
   87404    87305    87070    86746    86518    86436    86372    86277 
   86182    86135    86205    86369    86545    86646    86559    86322 
   86165    86172    86215    86212    86168    86069    85935    85849 
   85888    86027    86131    86167    86250    86403    86590    86804 
   86933    86913    86867    86871    86893    86863    86714    86523 
   86426    86405    86392    86406    86483    86617    86758    86840 
   86854    86841    86804    86740    86650    86531    86430    86327 
   86131    85903    85771    85738    85779    85915    86101    86265 
   86392    86469    86513    86579    86613    86512    86299    86056 
   85789    85536    85420    85424    85442    85486    85559    85628 
   85742    85920    86133    86306    86385    86431    86447    86362 
   86255    86248    86329    86432    86523    86608    86708    86774 
   86746    86670    86620    86584    86521    86443    86415    86429 
   86423    86437    86469    86437    86360    86273    86146    86038 
   86032    86134    86306    86466    86552    86575    86570    86583 
   86631    86681    86718    86751    86748    86689    86606    86519 
   86442    86382    86315    86207    86077    86002    86031    86148 
   86270    86303    86292    86314    86344    86357    86338    86268 
   86202    86212    86296    86392    86429    86409    86440    86573 
   86713    86825    86968    87085    87102    87078    87033    86934 
   86796    86643    86520    86435    86302    86162    86095    86013 
   85899    85861    85925    86054    86195    86324    86511    86747 
   86899    86914    86846    86740    86621    86534    86527    86587 
   86671    86749    86805    86808    86746    86680    86626    86560 
   86566    86686    86812    86866    86888    86884    86771    86575 
   86428    86327    86269    86314    86427    86576    86708    86706 
   86657    86688    86700    86622    86533    86461    86381    86306 
   86242    86178    86141    86153    86195    86265    86366    86431 
   86402    86327    86267    86222    86211    86241    86258    86231 
   86189    86192    86285    86435    86530    86479    86283    86033 
   85820    85686    85632    85651    85768    85996    86275    86513 
   86665    86749    86750    86651    86522    86444    86454    86534 
   86590    86580    86567    86581    86596    86595    86545    86395 
   86184    86009    85865    85685    85529    85459    85400    85346 
   85390    85559    85807    86033    86129    86100    86028    85976 
   85950    85883    85728    85566    85489    85470    85449    85401 
   85315    85231    85225    85282    85335    85382    85480    85652 
   85850    86032    86212    86349    86384    86376    86384    86336 
   86232    86199    86239    86299    86410    86538    86613    86641 
   86619    86572    86569    86578    86567    86619    86784    86988 
   87108    87140    87173    87190    87138    87075    86994    86839 
   86687    86597    86510    86408    86341    86351    86435    86537 
   86594    86613    86634    86646    86619    86545    86403    86230 
   86110    86083    86136    86231    86329    86424    86479    86458 
   86409    86330    86163    85961    85797    85683    85666    85737 
   85832    85925    86020    86152    86274    86304    86348    86502 
   86617    86587    86518    86483    86463    86473    86452    86286 
   86090    86028    86030    86003    85962    85956    86013    86059 
   86031    85996    86010    86045    86127    86310    86515    86667 
   86815    86956    87082    87256    87433    87557    87665    87706 
   87610    87453    87310    87190    87089    87000    86952    86953 
   86955    86943    86945    86973    86999    86972    86871    86698 
   86490    86324    86203    86109    86047    85975    85898    85884 
   85904    85913    85963    86056    86110    86113    86101    86070 
   86004    85924    85857    85794    85744    85732    85681    85525 
   85351    85247    85178    85075    84927    84807    84763    84750 
   84745    84752    84784    84880    85035    85217    85426    85603 
   85697    85792    85946    86094    86225    86396    86592    86751 
   86842    86854    86795    86727    86692    86652    86570    86441 
   86308    86235    86179    86078    85994    85932    85846    85805 
   85865    85967    86076    86199    86270    86236    86183    86190 
   86214    86193    86138    86086    86068    86098    86105    86048 
   86028    86119    86213    86215    86211    86288    86381    86428 
   86456    86472    86459    86461    86518    86602    86717    86865 
   86917    86823    86709    86622    86555    86566    86590    86501 
   86340    86210    86168    86183    86139    86015    85942    85970 
   86002    85995    86020    86132    86323    86554    86776    86926 
   86939    86825    86695    86671    86761    86857    86873    86841 
   86813    86809    86844    86918    86969    86910    86751    86601 
   86490    86386    86329    86348    86358    86275    86095    85893 
   85751    85673    85690    85862    86039    86034    85922    85812 
   85722    85724    85811    85847    85840    85923    86092    86227 
   86317    86429    86539    86610    86731    86954    87159    87297 
   87519    87883    88221    88376    88369    88306    88271    88279 
   88284    88205    88029    87863    87780    87693    87556    87466 
   87439    87355    87182    87009    86930    86943    86951    86907 
   86863    86863    86960    87170    87371    87469    87552    87676 
   87730    87658    87572    87491    87324    87119    86952    86785 
   86617    86493    86398    86308    86218    86146    86117    86093 
   86037    85992    85982    85970    85890    85751    85679    85713 
   85697    85532    85327    85213    85206    85243    85256    85261 
   85333    85476    85634    85819    86091    86378    86556    86639 
   86689    86702    86686    86710    86822    86960    87009    86972 
   86896    86744    86500    86243    86051    85934    85860    85827 
   85853    85908    85952    86017    86153    86337    86487    86540 
   86520    86501    86512    86530    86537    86588    86706    86771 
   86738    86724    86739    86688    86612    86600    86612    86565 
   86450    86338    86293    86256    86144    86032    86053    86181 
   86297    86358    86371    86402    86539    86749    86928    87033 
   87082    87113    87145    87142    87037    86829    86661    86621 
   86578    86441    86287    86161    86086    86112    86200    86265 
   86286    86289    86323    86364    86357    86363    86411    86426 
   86430    86470    86504    86497    86447    86375    86311    86259 
   86219    86214    86217    86169    86106    86055    85945    85788 
   85647    85494    85303    85091    84873    84708    84675    84742 
   84812    84892    85020    85149    85265    85419    85557    85575 
   85565    85648    85748    85799    85807    85782    85806    85875 
   85883    85843    85786    85734    85800    85959    86042    86054 
   86094    86140    86126    86035    85894    85773    85724    85723 
   85720    85702    85682    85661    85660    85733    85900    86129 
   86375    86622    86876    87109    87272    87352    87308    87112 
   86885    86761    86664    86482    86276    86093    85879    85632 
   85392    85187    85059    84998    84901    84728    84557    84431 
   84332    84237    84113    83955    83829    83753    83655    83544 
   83516    83556    83592    83646    83744    83876    84048    84231 
   84385    84521    84626    84706    84799    84864    84870    84908 
   85036    85191    85318    85397    85402    85372    85403    85502 
   85588    85643    85747    85904    86009    86039    86081    86128 
   86134    86177    86289    86383    86456    86555    86629    86636 
   86614    86578    86504    86405    86310    86206    86073    85946 
   85890    85931    86014    86076    86110    86116    86119    86149 
   86155    86106    86063    86032    85970    85879    85796    85756 
   85788    85884    86014    86140    86209    86238    86317    86459 
   86579    86624    86612    86582    86536    86447    86363    86374 
   86455    86524    86591    86693    86826    86973    87133    87290 
   87387    87398    87376    87377    87383    87329    87228    87165 
   87152    87169    87201    87194    87190    87287    87428    87518 
   87586    87668    87732    87763    87795    87870    87969    88022 
   88004    87938    87838    87717    87600    87458    87239    87006 
   86860    86763    86645    86513    86413    86379    86372    86331 
   86280    86260    86259    86236    86159    86038    85945    85924 
   85921    85858    85727    85572    85450    85381    85347    85343 
   85374    85432    85496    85570    85664    85744    85752    85696 
   85637    85573    85492    85460    85471    85441    85376    85325 
   85310    85369    85486    85554    85521    85469    85467    85483 
   85494    85528    85547    85513    85476    85448    85361    85231 
   85143    85076    84981    84889    84825    84785    84757    84721 
   84705    84723    84736    84768    84852    84916    84952    85027 
   85105    85137    85168    85190    85195    85236    85300    85338 
   85334    85276    85195    85153    85145    85140    85133    85105 
   85056    85039    85080    85137    85205    85352    85575    85781 
   85939    86077    86196    86288    86381    86499    86609    86665 
   86710    86788    86849    86858    86842    86824    86805    86813 
   86880    86974    87048    87114    87170    87188    87173    87151 
   87124    87069    86993    86959    86970    86959    86951    87007 
   87120    87265    87425    87559    87630    87651    87682    87746 
   87815    87873    87940    88029    88128    88234    88330    88357 
   88306    88239    88190    88159    88151    88139    88099    88064 
   88060    88077    88085    88065    88038    88017    87991    87952 
   87862    87732    87662    87687    87719    87703    87668    87666 
   87733    87840    87936    88014    88071    88070    87997    87901 
   87786    87598    87385    87248    87199    87220    87292    87381 
   87465    87531    87576    87603    87618    87676    87801    87930 
   88023    88110    88203    88280    88324    88344    88369    88410 
   88439    88420    88364    88323    88311    88281    88221    88180 
   88203    88297    88431    88559    88662    88750    88832    88908 
   88961    88958    88907    88866    88855    88868    88914    88982 
   89037    89074    89133    89222    89284    89278    89220    89140 
   89038    88928    88862    88827    88763    88691    88646    88603 
   88521    88380    88232    88138    88039    87897    87786    87710 
   87610    87523    87489    87470    87451    87439    87417    87379 
   87317    87235    87163    87094    87014    86945    86927    86951 
   86994    87040    87058    87057    87094    87179    87276    87376 
   87463    87521    87576    87628    87618    87561    87516    87445 
   87342    87282    87267    87269    87301    87338    87338    87311 
   87305    87313    87287    87216    87111    86980    86824    86638 
   86447    86294    86169    86038    85874    85678    85488    85337 
   85225    85131    85040    84946    84850    84760    84685    84638 
   84640    84681    84736    84802    84841    84846    84878    84943 
   84984    84983    84965    84945    84920    84911    84930    84931 
   84876    84804    84753    84704    84649    84604    84591    84607 
   84633    84674    84710    84725    84754    84779    84778    84802 
   84842    84830    84778    84728    84684    84640    84593    84542 
   84500    84489    84525    84592    84683    84779    84839    84865 
   84900    84946    84962    84921    84846    84765    84679    84610 
   84568    84516    84457    84435    84459    84520    84608    84695 
   84746    84757    84756    84788    84850    84919    84981    85018 
   85040    85070    85087    85071    85027    84948    84840    84736 
   84658    84584    84500    84411    84337    84308    84311    84288 
   84239    84209    84186    84119    84004    83868    83705    83539 
   83428    83355    83264    83154    83066    83024    83010    83009 
   83030    83065    83108    83169    83231    83253    83235    83217 
   83229    83246    83236    83229    83263    83313    83357    83409 
   83473    83554    83641    83711    83772    83846    83915    83961 
   84000    84046    84118    84214    84312    84398    84468    84550 
   84660    84764    84854    84971    85122    85274    85410    85537 
   85662    85780    85890    85989    86090    86237    86430    86594 
   86693    86761    86810    86830    86820    86782    86736    86695 
   86664    86663    86714    86804    86899    86995    87107    87225 
   87332    87425    87496    87535    87559    87564    87522    87449 
   87392    87366    87370    87372    87347    87336    87376    87432 
   87465    87474    87434    87345    87273    87253    87234    87179 
   87121    87083    87051    87037    87051    87061    87061    87076 
   87091    87080    87080    87112    87133    87141    87180    87246 
   87334    87443    87533    87609    87709    87830    87967    88108 
   88214    88292    88391    88525    88661    88742    88752    88719 
   88659    88600    88569    88547    88502    88435    88382    88376 
   88392    88396    88405    88438    88483    88538    88603    88661 
   88715    88778    88833    88866    88891    88927    88970    89004 
   89033    89075    89108    89117    89102    89068    89045    89035 
   89006    88984    89010    89067    89116    89157    89203    89240 
   89256    89251    89221    89183    89155    89132    89112    89083 
   89047    89040    89058    89044    88979    88904    88845    88791 
   88730    88652    88555    88465    88395    88309    88181    88049 
   87958    87887    87799    87711    87648    87591    87513    87441 
   87390    87318    87224    87147    87090    87031    86957    86889 
   86870    86876    86862    86855    86861    86837    86798    86774 
   86747    86700    86658    86635    86622    86604    86575    86553 
   86555    86563    86558    86555    86545    86514    86481    86444 
   86399    86352    86303    86260    86225    86194    86159    86083 
   85995    85952    85918    85858    85802    85776    85783    85799 
   85799    85780    85767    85774    85784    85776    85754    85729 
   85707    85697    85705    85723    85748    85778    85788    85784 
   85806    85840    85855    85867    85875    85854    85806    85779 
   85806    85856    85889    85912    85937    85949    85945    85941 
   85934    85925    85922    85908    85871    85838    85835    85844 
   85843    85821    85778    85732    85705    85691    85655    85594 
   85545    85517    85469    85397    85339    85302    85258    85205 
   85147    85096    85082    85097    85113    85142    85194    85261 
   85328    85372    85390    85397    85395    85367    85286    85157 
   85008    84859    84731    84635    84566    84524    84508    84521 
   84541    84536    84519    84512    84490    84473    84490    84498 
   84492    84518    84552    84574    84606    84642    84676    84732 
   84788    84819    84860    84919    84960    84989    85016    85016 
   84989    84956    84920    84875    84824    84764    84706    84673 
   84668    84671    84680    84705    84738    84775    84821    84885 
   84951    84987    85005    85041    85095    85166    85251    85334 
   85436    85563    85675    85783    85914    86021    86095    86182 
   86276    86357    86437    86504    86545    86571    86585    86582 
   86589    86628    86671    86682    86681    86695    86711    86727 
   86748    86746    86726    86717    86707    86685    86656    86613 
   86557    86513    86490    86480    86460    86407    86347    86330 
   86336    86297    86220    86155    86110    86061    86010    85967 
   85933    85917    85918    85913    85910    85921    85946    85972 
   85972    85949    85949    85977    85997    85993    85972    85948 
   85935    85936    85962    86024    86102    86162    86212    86294 
   86394    86465    86516    86568    86608    86633    86645    86639 
   86613    86564    86507    86465    86427    86379    86318    86251 
   86195    86143    86074    85998    85947    85944    85976    86019 
   86053    86084    86126    86148    86112    86052    86018    85995 
   85959    85928    85925    85951    85989    86025    86059    86091 
   86122    86145    86144    86135    86130    86126    86146    86185 
   86208    86213    86228    86260    86287    86303    86304    86280 
   86241    86194    86140    86080    86008    85948    85923    85902 
   85855    85796    85725    85651    85611    85593    85558    85524 
   85537    85588    85640    85697    85762    85808    85836    85853 
   85855    85855    85860    85853    85830    85828    85863    85900 
   85930    85988    86084    86212    86366    86521    86653    86763 
   86857    86943    87009    87046    87062    87049    87016    86998 
   87010    87038    87062    87080    87110    87160    87229    87294 
   87315    87311    87360    87462    87565    87663    87764    87836 
   87868    87879    87869    87831    87781    87720    87640    87542 
   87431    87339    87293    87254    87205    87169    87152    87148 
   87150    87152    87175    87219    87258    87303    87353    87375 
   87375    87389    87396    87361    87300    87240    87167    87068 
   86972    86908    86851    86770    86691    86637    86594    86553 
   86520    86498    86464    86405    86341    86287    86227    86158 
   86107    86078    86046    86012    86005    86015    86022    86032 
   86044    86048    86044    86038    86040    86042    86025    86012 
   86036    86070    86079    86082    86108    86145    86171    86183 
   86185    86172    86145    86112    86065    86005    85947    85898 
