Origin Time       2014/11/22 22:08:00
Lat.              36.692
Long.             137.890
Depth. (km)       5
Mag.              6.7
Station Code      GIFH10
Station Lat.      36.3779
Station Long.     137.3716
Station Height(m) 910
Record Time       2014/11/22 22:08:30
Sampling Freq(Hz) 100Hz
Duration Time(s)  120
Dir.              4
Scale Factor      3920(gal)/6170801
Max. Acc. (gal)   4.132
Last Correction   2014/11/22 22:08:15
Memo.             
[...]
  -24633   -24634   -24634   -24634   -24633   -24635   -24635   -24633 
  -24633   -24635   -24634   -24633   -24633   -24633   -24632   -24631 
  -24634   -24635   -24633   -24632   -24633   -24632   -24633   -24634 
  -24633   -24631   -24633   -24634   -24633   -24633   -24633   -24634 
  -24634   -24634   -24633   -24632   -24633   -24633   -24632   -24632 
  -24632   -24633   -24633   -24632   -24631   -24633   -24634   -24633 
  -24633   -24633   -24633   -24633   -24634   -24635   -24633   -24632 
  -24633   -24633   -24632   -24634   -24634   -24635   -24634   -24632 
  -24633   -24634   -24633   -24632   -24630   -24631   -24633   -24632 
  -24632   -24633   -24630   -24630   -24635   -24635   -24632   -24632 
  -24633   -24633   -24631   -24631   -24633   -24633   -24632   -24634 
  -24633   -24633   -24633   -24632   -24631   -24633   -24632   -24632 
  -24633   -24633   -24634   -24636   -24633   -24631   -24632   -24631 
  -24632   -24633   -24632   -24634   -24634   -24632   -24632   -24632 
  -24631   -24632   -24633   -24632   -24632   -24633   -24634   -24633 
  -24632   -24633   -24632   -24632   -24634   -24633   -24631   -24632 
  -24632   -24633   -24634   -24632   -24632   -24634   -24634   -24632 
  -24630   -24632   -24633   -24633   -24633   -24633   -24633   -24634 
  -24634   -24634   -24634   -24633   -24632   -24634   -24634   -24632 
  -24632   -24633   -24631   -24631   -24632   -24633   -24635   -24634 
  -24632   -24632   -24632   -24633   -24632   -24632   -24634   -24633 
  -24630   -24631   -24633   -24632   -24632   -24632   -24631   -24633 
  -24633   -24632   -24632   -24632   -24631   -24631   -24631   -24634 
  -24635   -24633   -24633   -24633   -24635   -24636   -24631   -24630 
  -24632   -24631   -24633   -24633   -24630   -24631   -24633   -24634 
  -24633   -24633   -24633   -24632   -24631   -24633   -24635   -24633 
  -24631   -24632   -24632   -24631   -24632   -24633   -24633   -24632 
  -24633   -24633   -24632   -24633   -24635   -24635   -24634   -24634 
  -24632   -24632   -24635   -24634   -24633   -24632   -24632   -24633 
  -24634   -24630   -24631   -24634   -24634   -24634   -24634   -24633 
  -24633   -24633   -24632   -24632   -24632   -24632   -24633   -24632 
  -24632   -24632   -24632   -24633   -24634   -24633   -24632   -24632 
  -24633   -24634   -24632   -24631   -24634   -24638   -24639   -24637 
  -24637   -24638   -24636   -24633   -24634   -24637   -24638   -24638 
  -24638   -24645   -24656   -24664   -24674   -24688   -24692   -24682 
  -24665   -24644   -24623   -24606   -24600   -24611   -24636   -24671 
  -24708   -24734   -24745   -24740   -24718   -24691   -24667   -24642 
  -24611   -24582   -24562   -24545   -24524   -24505   -24505   -24532 
  -24579   -24632   -24688   -24746   -24779   -24763   -24717   -24677 
  -24646   -24615   -24580   -24547   -24517   -24487   -24463   -24467 
  -24507   -24578   -24651   -24707   -24738   -24729   -24673   -24601 
  -24552   -24552   -24606   -24684   -24734   -24736   -24701   -24641 
  -24576   -24538   -24547   -24574   -24583   -24568   -24540   -24513 
  -24505   -24524   -24579   -24660   -24729   -24756   -24739   -24694 
  -24654   -24650   -24671   -24701   -24734   -24734   -24675   -24588 
  -24513   -24481   -24510   -24588   -24661   -24706   -24747   -24790 
  -24805   -24794   -24780   -24770   -24751   -24736   -24736   -24729 
  -24701   -24661   -24611   -24561   -24544   -24573   -24639   -24715 
  -24762   -24761   -24722   -24674   -24642   -24632   -24650   -24679 
  -24679   -24654   -24631   -24603   -24595   -24652   -24747   -24811 
  -24816   -24775   -24712   -24639   -24546   -24470   -24472   -24552 
  -24658   -24739   -24767   -24744   -24694   -24640   -24614   -24629 
  -24653   -24653   -24636   -24599   -24545   -24512   -24523   -24546 
  -24574   -24616   -24639   -24633   -24639   -24653   -24614   -24528 
  -24468   -24455   -24456   -24465   -24486   -24513   -24538   -24569 
  -24619   -24683   -24757   -24856   -24931   -24912   -24813   -24673 
  -24520   -24425   -24473   -24629   -24759   -24783   -24698   -24523 
  -24337   -24248   -24315   -24516   -24744   -24862   -24815   -24681 
  -24580   -24562   -24616   -24731   -24863   -24905   -24832   -24728 
  -24638   -24560   -24524   -24558   -24625   -24676   -24697   -24701 
  -24714   -24741   -24736   -24689   -24670   -24742   -24831   -24836 
  -24807   -24800   -24730   -24567   -24417   -24365   -24398   -24479 
  -24556   -24568   -24534   -24509   -24465   -24417   -24477   -24642 
  -24764   -24800   -24800   -24761   -24694   -24647   -24614   -24602 
  -24634   -24612   -24460   -24320   -24299   -24323   -24402   -24578 
  -24731   -24748   -24644   -24436   -24231   -24222   -24370   -24502 
  -24667   -24912   -25039   -24947   -24791   -24700   -24706   -24758 
  -24751   -24722   -24772   -24842   -24871   -24947   -25119   -25253 
  -25224   -25071   -24892   -24764   -24749   -24832   -24950   -25095 
  -25239   -25272   -25150   -24959   -24785   -24646   -24539   -24451 
  -24370   -24311   -24284   -24325   -24539   -24896   -25161   -25211 
  -25167   -25113   -25053   -25046   -25088   -25074   -24961   -24757 
  -24512   -24401   -24510   -24645   -24613   -24479   -24347   -24144 
  -23881   -23805   -24082   -24571   -24997   -25230   -25286   -25148 
  -24804   -24374   -24041   -23905   -23920   -23969   -23958   -23915 
  -23959   -24105   -24324   -24687   -25114   -25315   -25193   -24897 
  -24522   -24142   -23949   -24091   -24458   -24807   -25011   -25003 
  -24734   -24318   -23979   -23864   -24038   -24424   -24804   -25067 
  -25242   -25294   -25221   -25180   -25255   -25305   -25187   -24955 
  -24713   -24468   -24242   -24062   -23864   -23646   -23535   -23576 
  -23700   -23852   -24010   -24227   -24587   -25013   -25359   -25614 
  -25838   -25949   -25712   -25080   -24350   -23814   -23523   -23440 
  -23573   -23950   -24466   -24896   -25083   -25000   -24734   -24458 
  -24293   -24255   -24369   -24633   -24958   -25222   -25296   -25058 
  -24515   -23855   -23333   -23089   -23077   -23224   -23501   -23808 
  -24024   -24114   -24123   -24193   -24419   -24633   -24594   -24334 
  -24020   -23724   -23610   -23858   -24325   -24670   -24646   -24257 
  -23737   -23352   -23316   -23707   -24326   -24903   -25273   -25408 
  -25496   -25755   -26082   -26198   -26018   -25651   -25202   -24652 
  -24021   -23538   -23385   -23520   -23908   -24566   -25265   -25652 
  -25666   -25472   -25132   -24637   -24101   -23673   -23393   -23308 
  -23567   -24180   -24919   -25497   -25735   -25674   -25514   -25370 
  -25280   -25227   -25030   -24669   -24447   -24501   -24671   -24796 
  -24834   -24767   -24451   -23822   -23149   -22771   -22879   -23516 
  -24455   -25339   -25973   -26233   -25908   -25077   -24257   -23776 
  -23506   -23344   -23334   -23375   -23338   -23295   -23412   -23773 
  -24301   -24787   -25125   -25370   -25464   -25286   -25054   -25078 
  -25220   -25188   -24930   -24455   -23780   -23077   -22620   -22631 
  -23202   -24217   -25269   -25806   -25635   -25096   -24570   -24162 
  -23875   -23745   -23788   -23898   -23959   -24066   -24425   -25122 
  -25929   -26398   -26375   -26024   -25407   -24676   -24201   -24105 
  -24249   -24550   -24850   -24978   -25029   -25109   -25125   -24979 
  -24646   -24120   -23500   -23059   -23053   -23419   -23932   -24544 
  -25188   -25542   -25406   -24970   -24534   -24249   -24144   -24198 
  -24351   -24532   -24668   -24669   -24557   -24516   -24636   -24725 
  -24524   -23990   -23368   -23038   -23245   -23963   -24944   -25791 
  -26089   -25601   -24493   -23289   -22368   -21764   -21500   -21699 
  -22376   -23421   -24670   -25912   -26940   -27596   -27797   -27582 
  -27101   -26554   -26040   -25497   -24997   -24783   -24878   -25053 
  -25086   -24888   -24521   -24123   -23787   -23615   -23739   -24183 
  -24793   -25381   -25918   -26381   -26539   -26223   -25506   -24573 
  -23793   -23557   -23925   -24787   -26006   -27175   -27765   -27561 
  -26735   -25607   -24382   -23297   -22817   -23172   -24003   -24814 
  -25355   -25494   -25112   -24243   -23300   -22805   -22818   -23072 
  -23460   -24076   -24955   -25908   -26721   -27330   -27633   -27518 
  -27041   -26332   -25525   -24790   -24244   -23959   -24056   -24610 
  -25455   -26220   -26572   -26298   -25374   -24126   -23108   -22701 
  -22931   -23523   -24124   -24604   -25065   -25485   -25703   -25797 
  -25949   -26020   -25721   -25017   -24089   -23220   -22765   -22983 
  -23961   -25522   -27107   -28068   -28114   -27374   -26188   -24980 
  -24175   -23988   -24294   -24722   -24931   -24899   -24820   -24779 
  -24798   -24954   -25070   -24796   -24097   -23224   -22452   -22034 
  -22147   -22849   -24059   -25461   -26603   -27196   -27175   -26665 
  -25933   -25172   -24526   -24220   -24307   -24593   -24941   -25312 
  -25606   -25660   -25463   -25137   -24688   -24123   -23604   -23168 
  -22673   -22197   -22110   -22610   -23529   -24575   -25402   -25719 
  -25524   -25019   -24451   -24110   -24163   -24497   -24912   -25306 
  -25633   -25898   -26145   -26250   -26041   -25725   -25699   -25911 
  -25996   -25895   -25724   -25396   -24943   -24597   -24374   -24157 
  -23932   -23716   -23507   -23279   -23141   -23380   -24092   -25061 
  -26042   -26914   -27630   -28052   -27998   -27549   -26973   -26341 
  -25548   -24616   -23739   -23052   -22580   -22357   -22441   -22909 
  -23808   -24985   -26059   -26691   -26715   -26143   -25308   -24701 
  -24485   -24460   -24408   -24232   -23852   -23266   -22759   -22664 
  -22906   -23126   -23166   -23143   -23216   -23417   -23643   -23811 
  -23974   -24204   -24453   -24659   -24882   -25119   -25231   -25293 
  -25614   -26284   -26979   -27261   -27050   -26608   -26197   -25959 
  -25926   -26026   -26160   -26181   -26005   -25844   -26032   -26624 
  -27364   -27896   -27991   -27707   -27263   -26810   -26404   -26067 
  -25712   -25190   -24585   -24145   -23945   -23940   -24072   -24257 
  -24437   -24514   -24434   -24347   -24334   -24270   -24150   -24128 
  -24246   -24396   -24469   -24455   -24411   -24466   -24775   -25216 
  -25373   -25024   -24297   -23488   -22985   -23021   -23514   -24214 
  -24734   -24861   -24830   -24889   -25003   -25047   -24920   -24665 
  -24476   -24476   -24661   -24952   -25180   -25260   -25324   -25515 
  -25809   -26014   -25785   -24881   -23574   -22554   -22306   -22725 
  -23349   -23761   -23838   -23775   -23866   -24255   -24799   -25138 
  -25048   -24626   -24127   -23809   -23833   -24031   -23953   -23456 
  -22891   -22537   -22436   -22656   -23180   -23849   -24581   -25302 
  -25835   -26104   -26193   -26088   -25772   -25442   -25192   -24881 
  -24632   -24676   -24743   -24525   -24255   -24233   -24431   -24683 
  -24941   -25246   -25590   -25967   -26337   -26565   -26581   -26306 
  -25647   -24785   -23991   -23296   -22758   -22517   -22514   -22643 
  -22945   -23496   -24129   -24406   -24162   -23691   -23250   -22891 
  -22654   -22628   -22920   -23422   -23841   -24116   -24358   -24509 
  -24546   -24786   -25398   -25834   -25368   -24033   -22612   -21926 
  -22271   -23272   -24187   -24465   -24035   -23372   -23229   -23892 
  -24828   -25276   -24906   -23925   -22911   -22497   -22864   -23552 
  -23927   -23811   -23517   -23423   -23642   -24046   -24527   -24882 
  -24718   -24085   -23554   -23366   -23454   -23954   -24848   -25759 
  -26404   -26742   -26895   -27001   -26985   -26654   -25970   -25145 
  -24521   -24292   -24449   -24873   -25393   -25831   -26004   -25852 
  -25574   -25329   -25077   -24899   -24956   -25096   -25020   -24641 
  -23922   -22953   -22202   -22067   -22454   -23005   -23498   -24067 
  -24923   -25859   -26422   -26460   -26201   -25908   -25660   -25358 
  -24872   -24309   -23951   -23905   -24146   -24658   -25261   -25652 
  -25720   -25666   -25777   -26023   -25970   -25246   -23900   -22364 
  -21205   -20735   -20766   -20857   -20894   -21206   -22038   -23307 
  -24689   -25750   -26256   -26299   -26119   -25996   -26103   -26358 
  -26584   -26700   -26573   -26128   -25632   -25343   -25126   -24792 
  -24292   -23505   -22419   -21323   -20594   -20502   -21028   -21912 
  -22964   -24001   -24817   -25481   -26276   -27251   -28033   -28269 
  -28037   -27513   -26825   -26316   -26314   -26770   -27314   -27603 
  -27562   -27198   -26469   -25442   -24390   -23575   -22986   -22480 
  -22065   -21762   -21436   -21001   -20640   -20713   -21341   -22118 
  -22564   -22724   -22969   -23421   -23984   -24712   -25591   -26192 
  -26177   -25817   -25698   -26068   -26628   -26973   -27024   -27010 
  -27224   -27688   -28057   -27994   -27365   -26216   -24877   -23758 
  -22994   -22584   -22499   -22579   -22713   -22918   -23093   -22991 
  -22549   -22088   -21921   -21986   -22187   -22662   -23396   -24021 
  -24330   -24615   -25191   -25873   -26235   -26174   -25977   -25860 
  -25710   -25393   -25000   -24711   -24505   -24051   -23033   -21543 
  -20073   -19197   -19134   -19614   -20269   -20929   -21551   -22006 
  -22123   -22113   -22501   -23357   -24226   -24819   -25173   -25472 
  -25980   -26723   -27419   -27922   -28269   -28394   -28148   -27485 
  -26628   -26004   -25746   -25457   -24721   -23588   -22357   -21149 
  -19943   -18825   -18128   -18211   -18932   -19793   -20653   -21626 
  -22625   -23530   -24324   -24945   -25310   -25328   -24971   -24363 
  -23807   -23762   -24458   -25552   -26439   -26820   -26777   -26449 
  -25946   -25447   -25007   -24490   -23896   -23427   -23214   -23276 
  -23505   -23529   -23060   -22320   -21785   -21764   -22236   -22858 
  -23272   -23441   -23508   -23640   -24034   -24606   -24930   -24762 
  -24273   -23781   -23472   -23293   -23088   -22834   -22646   -22621 
  -22762   -23006   -23240   -23391   -23397   -23200   -22966   -22995 
  -23297   -23592   -23731   -23905   -24344   -24975   -25617   -26158 
  -26399   -26253   -25978   -25808   -25710   -25643   -25606   -25475 
  -25115   -24640   -24365   -24441   -24766   -25163   -25470   -25623 
  -25701   -25794   -25972   -26270   -26494   -26343   -25808   -25047 
  -24197   -23452   -22939   -22636   -22501   -22526   -22798   -23411 
  -24303   -25247   -25910   -26025   -25669   -25149   -24666   -24317 
  -24126   -23977   -23815   -23792   -24093   -24791   -25756   -26684 
  -27243   -27237   -26811   -26390   -26288   -26510   -26827   -26942 
  -26745   -26392   -26093   -25917   -25725   -25306   -24586   -23730 
  -23111   -23106   -23803   -24935   -26054   -26784   -27036   -26934 
  -26667   -26470   -26566   -26969   -27485   -27989   -28406   -28581 
  -28460   -28075   -27376   -26354   -25139   -23910   -22792   -21945 
  -21635   -21935   -22547   -23203   -23896   -24556   -24949   -24960 
  -24698   -24407   -24189   -23867   -23342   -22846   -22651   -22860 
  -23430   -24236   -25160   -26000   -26457   -26474   -26310   -26203 
  -26174   -26145   -26129   -26121   -25974   -25641   -25231   -24835 
  -24455   -23990   -23511   -23351   -23662   -24213   -24681   -24958 
  -25110   -25084   -24745   -24147   -23475   -22927   -22713   -22918 
  -23406   -23905   -24141   -24113   -24199   -24708   -25440   -25904 
  -25902   -25654   -25327   -24893   -24460   -24167   -23859   -23311 
  -22584   -21998   -21959   -22669   -23932   -25329   -26521   -27346 
  -27776   -27864   -27719   -27466   -27191   -26876   -26512   -26199 
  -25949   -25657   -25345   -25113   -24925   -24634   -24119   -23368 
  -22540   -21921   -21722   -21951   -22394   -22769   -23050   -23423 
  -23946   -24592   -25407   -26313   -26986   -27138   -26826   -26428 
  -26263   -26349   -26515   -26536   -26253   -25734   -25279   -25206 
  -25533   -25944   -26153   -26108   -25892   -25625   -25401   -25232 
  -25083   -24900   -24605   -24205   -23919   -24014   -24497   -25079 
  -25422   -25412   -25191   -24959   -24833   -24919   -25292   -25808 
  -26246   -26587   -26963   -27527   -28342   -29210   -29814   -29997 
  -29697   -28878   -27734   -26687   -26013   -25665   -25464   -25282 
  -25102   -24883   -24466   -23862   -23419   -23484   -24141   -25188 
  -26252   -27011   -27349   -27329   -27148   -27082   -27323   -27830 
  -28383   -28742   -28774   -28525   -28191   -27915   -27650   -27275 
  -26760   -26190   -25641   -25165   -24847   -24733   -24764   -24844 
  -24880   -24803   -24577   -24251   -23892   -23448   -22844   -22219 
  -21882   -22055   -22686   -23472   -24146   -24599   -24749   -24525 
  -24031   -23560   -23338   -23312   -23314   -23355   -23620   -24216 
  -24952   -25423   -25426   -25156   -24830   -24471   -24120   -23854 
  -23697   -23597   -23465   -23386   -23517   -23732   -23783   -23692 
  -23676   -23903   -24399   -25014   -25451   -25486   -25168   -24734 
  -24449   -24495   -24756   -24877   -24666   -24254   -23942   -23949 
  -24120   -24073   -23697   -23191   -22726   -22394   -22275   -22409 
  -22703   -22953   -23100   -23288   -23595   -23936   -24164   -24185 
  -24035   -23838   -23634   -23334   -22901   -22514   -22444   -22803 
  -23490   -24278   -24951   -25368   -25439   -25233   -25005   -24888 
  -24812   -24703   -24490   -24127   -23712   -23334   -23031   -22919 
  -23043   -23375   -23955   -24758   -25617   -26314   -26646   -26551 
  -26159   -25660   -25143   -24601   -24152   -23963   -24003   -24208 
  -24547   -24817   -24878   -24844   -24804   -24717   -24589   -24486 
  -24432   -24342   -24097   -23705   -23304   -23075   -23145   -23450 
  -23781   -23939   -23862   -23692   -23617   -23648   -23707   -23746 
  -23650   -23337   -22969   -22818   -22994   -23375   -23760   -24074 
  -24304   -24406   -24391   -24315   -24188   -24023   -23874   -23809 
  -23898   -24176   -24538   -24840   -25053   -25206   -25336   -25417 
  -25349   -25151   -24912   -24693   -24551   -24353   -23917   -23419 
  -23107   -22992   -23061   -23265   -23466   -23652   -23874   -24017 
  -24009   -24032   -24191   -24345   -24445   -24566   -24698   -24763 
  -24709   -24589   -24537   -24590   -24663   -24636   -24435   -24116 
  -23832   -23659   -23591   -23660   -23904   -24252   -24642   -25106 
  -25622   -25991   -25963   -25464   -24622   -23664   -22870   -22414 
  -22263   -22334   -22561   -22929   -23491   -24169   -24726   -25007 
  -24971   -24653   -24229   -23811   -23417   -23198   -23255   -23371 
  -23352   -23348   -23521   -23759   -23925   -24021   -24061   -24038 
  -24006   -23996   -23930   -23789   -23757   -23926   -24099   -24088 
  -23932   -23797   -23853   -24140   -24496   -24729   -24744   -24543 
  -24274   -24103   -24042   -24094   -24247   -24353   -24348   -24398 
  -24682   -25182   -25667   -25942   -26058   -26173   -26355   -26552 
  -26632   -26507   -26172   -25718   -25366   -25250   -25251   -25252 
  -25293   -25375   -25412   -25333   -25104   -24730   -24282   -23877 
  -23621   -23574   -23761   -24111   -24433   -24683   -25036   -25590 
  -26306   -27112   -27832   -28246   -28248   -27877   -27327   -26800 
  -26306   -25784   -25322   -25050   -24935   -24908   -25068   -25490 
