Origin Time       2014/07/12 04:22:00
Lat.              37.050
Long.             142.320
Depth. (km)       33
Mag.              7.0
Station Code      MYGH08
Station Lat.      38.1133
Station Long.     140.8441
Station Height(m) 10
Record Time       2014/07/12 04:22:29
Sampling Freq(Hz) 100Hz
Duration Time(s)  238
Dir.              4
Scale Factor      3920(gal)/6170801
Max. Acc. (gal)   10.456
Last Correction   2014/07/12 04:22:14
Memo.             
[...]
   17350    16299    15696    15591    15822    16236    16673    17116 
   17671    18174    18419    18580    18798    18970    19089    19318 
   19859    20722    21460    21571    21175    20896    21017    21192 
   21115    20953    20901    20775    20399    19943    19513    18992 
   18424    17990    17674    17315    16896    16688    17053    17897 
   18476    18168    17197    16358    16285    16956    17872    18661 
   19263    19684    19895    19958    20098    20428    20766    20919 
   20879    20695    20410    20132    19920    19616    19039    18186 
   17299    16944    17408    18033    17971    17350    17017    17439 
   18297    18995    19277    19217    18863    18251    17569    17148 
   17225    17577    17776    17831    17950    18053    18004    17767 
   17312    16771    16572    17089    18234    19483    20180    19958 
   18986    17833    17145    17156    17574    18129    18704    19009 
   18859    18587    18592    18683    18327    17357    16196    15413 
   15220    15375    15465    15272    14907    14662    14750    15160 
   15727    16220    16417    16360    16327    16539    17091    17932 
   18772    19221    19194    19044    18995    18942    18997    19378 
   19879    20183    20288    20397    20703    21143    21283    20779 
   19928    19339    19182    19218    19307    19371    19245    19016 
   18965    18921    18511    17867    17407    17374    17778    18324 
   18493    18083    17593    17625    18182    18900    19465    19638 
   19311    18596    17814    17346    17263    17262    17164    17043 
   16976    17113    17668    18636    19667    20297    20393    20192 
   19881    19550    19303    18949    18182    17144    16255    15634 
   15066    14567    14489    14885    15330    15397    15062    14768 
   14894    15351    15959    16724    17545    18184    18665    19242 
   19870    20310    20649    20994    20955    20337    19858    20229 
   21054    21496    21427    21210    20969    20632    20253    19866 
   19321    18582    17832    17207    16863    17016    17548    18015 
   18051    17645    17173    17028    17213    17447    17624    17943 
   18508    19104    19501    19645    19506    19047    18514    18394 
   18747    19015    18731    17998    17174    16439    15870    15644 
   15911    16569    17263    17746    18092    18455    18846    19159 
   19292    19265    19380    19987    20886    21556    21838    21841 
   21606    21101    20349    19642    19451    19770    19846    19079 
   17886    17219    17559    18708    20243    21678    22398    22097 
   21183    20271    19678    19437    19411    19443    19364    18959 
   18177    17285    16654    16351    16102    15817    15814    16264 
   16734    16664    16099    15554    15235    14998    14970    15620 
   17080    18605    19201    18765    18124    18074    18623    19196 
   19410    19360    19320    19290    19028    18732    18925    19548 
   20045    20119    19825    19253    18551    18047    17929    18070 
   18440    19066    19640    19888    19933    19807    19189    17996 
   16807    16324    16600    17224    18020    18910    19489    19504 
   19332    19454    19815    20002    19792    19370    19104    19053 
   18822    18146    17480    17383    17548    17384    17080    17217 
   17793    18139    17677    16620    15832    16007    17095    18444 
   19274    19154    18281    17189    16367    16110    16358    16760 
   17055    17188    17123    16867    16646    16727    17079    17486 
   17937    18442    18679    18419    17926    17586    17549    17637 
   17541    17350    17491    18130    19042    19906    20578    21090 
   21466    21717    21806    21451    20509    19465    18901    18784 
   18706    18389    17740    16867    16103    15655    15418    15329 
   15599    16365    17352    18023    18089    17911    18153    18951 
   19857    20474    20724    20627    20145    19364    18637    18277 
   18156    17880    17444    17311    17730    18331    18503    18072 
   17445    17073    17025    17114    17237    17282    16962    16391 
   16315    17087    18109    18645    18641    18574    18775    19220 
   19717    20026    20053    19916    19751    19659    19747    20088 
   20575    20944    20904    20245    19231    18643    18873    19365 
   19415    19069    18766    18636    18631    18723    18804    18847 
   19014    19400    19814    19852    19290    18326    17313    16479 
   15995    16005    16331    16425    16025    15519    15396    15760 
   16350    16754    16763    16615    16725    17144    17581    17855 
   17963    18046    18349    18867    19292    19373    19064    18542 
   18091    17798    17538    17346    17500    18057    18730    19301 
   19661    19685    19407    19012    18680    18590    18955    19864 
   21016    21856    22059    21649    20844    20012    19498    19247 
   18766    17747    16449    15304    14590    14468    14877    15531 
   16259    17131    18108    18925    19421    19687    19781    19615 
   19289    19189    19576    20261    20789    20785    19997    18483 
   16978    16403    16962    18138    19308    19995    19926    19230 
   18337    17590    17212    17364    17857    18143    17896    17265 
   16598    16214    16308    16854    17560    18052    18159    17956 
   17602    17187    16790    16622    16809    17107    17223    17292 
   17669    18407    19212    19714    19737    19408    18989    18734 
   18895    19589    20517    21199    21532    21623    21395    20741 
   19821    19047    18647    18375    17999    17647    17299    16649 
   15813    15483    16000    16863    17493    17931    18451    18843 
   18676    18146    17941    18427    19372    20179    20432    20200 
   19707    19114    18603    18225    17777    17216    16904    17050 
   17408    17725    17957    18100    18159    18153    18062    17935 
   17977    18406    19205    20026    20490    20492    20056    19296 
   18634    18415    18512    18688    18802    18707    18387    17923 
   17425    17160    17452    18324    19371    20031    20087    19770 
   19316    18742    17988    17104    16448    16470    17157    18072 
   18778    19062    19013    18983    19266    19647    19550    18863 
   18075    17505    17194    17227    17526    17758    17767    17820 
   18210    18770    19223    19671    20102    20057    19462    18987 
   19161    19750    20063    19551    18410    17559    17592    18110 
   18477    18595    18549    18230    17730    17504    17742    18013 
   17796    17181    16794    16978    17514    18114    18550    18521 
   17901    16998    16353    16305    16775    17453    18061    18423 
   18479    18305    18008    17768    17880    18432    19174    19835 
   20333    20755    21137    21322    21221    20916    20551    20356 
   20390    20306    19747    18828    18061    17855    18075    18339 
   18494    18519    18544    18901    19506    19799    19599    19200 
   18768    18319    18029    17993    17995    17886    17708    17405 
   17094    17190    17828    18683    19379    19708    19591    19221 
   19154    19770    20639    20904    20363    19703    19398    19090 
   18465    17769    17176    16582    16107    15986    16008    15716 
   15104    14576    14427    14820    15880    17420    18802    19291 
   18702    17694    17081    16985    16972    16700    16196    15795 
   15833    16406    17417    18486    19026    18835    18402    18353 
   18741    19154    19338    19235    18770    18018    17356    17227 
   17583    17907    18082    18478    19189    19920    20414    20634 
   20615    20265    19561    18753    18197    18065    18172    18159 
   17847    17427    17349    17753    18165    18046    17412    16717 
   16380    16607    17247    17838    18083    18057    17950    17872 
   17889    18045    18229    18318    18590    19381    20275    20513 
   19964    19036    18109    17379    16939    16858    17179    17733 
   18020    17645    16849    16135    15674    15457    15574    16062 
   16721    17195    17267    17057    16751    16364    16043    16144 
   16771    17686    18493    18766    18473    18120    18075    18139 
   18013    17774    17568    17233    16593    15864    15557    15858 
   16318    16433    16263    16300    16965    18128    19252    20042 
   20446    20344    19864    19501    19543    19839    20126    20312 
   20376    20282    20089    19943    19979    20153    20204    20051 
   19957    20107    20323    20391    20442    20788    21473    22086 
   22206    21828    21143    20384    19866    19746    19896    20050 
   19923    19400    18736    18278    18153    18331    18677    19053 
   19475    19894    20048    19845    19515    19227    19021    19029 
   19363    19966    20631    21025    20908    20373    19774    19399 
   19233    19138    19048    18857    18579    18515    18838    19347 
   19661    19479    18910    18438    18329    18347    18082    17356 
   16308    15261    14524    14258    14359    14428    14042    13212 
   12369    11842    11638    11699    12042    12616    13261    13906 
   14637    15424    16067    16435    16594    16822    17450    18523 
   19744    20750    21350    21628    21785    21828    21662    21412 
   21251    21132    20696    19494    17710    16086    14975    14208 
   13511    12770    12163    11883    11868    12009    12284    12590 
   12884    13547    15004    16988    18682    19557    19763    19745 
   19769    19863    19997    20171    20325    20194    19559    18697 
   18078    17722    17415    17200    17173    17316    17720    18501 
   19511    20413    20999    21343    21581    21764    22033    22521 
   23067    23396    23367    23023    22616    22300    21907    21316 
   20630    19966    19484    19477    20112    21191    22330    23266 
   23836    23922    23649    23288    22825    22042    21078    20395 
   20165    20083    19809    19394    19131    19188    19544    20132 
   21043    22354    23628    24125    23500    22039    20336    18718 
   17084    15349    13679    12259    11143    10312     9692     9250 
    9119     9524    10684    12659    15216    18000    20657    22736 
   23952    24454    24491    24124    23339    22078    20246    17989 
   15749    13718    11773    10094     9117     9048     9730    10760 
   11715    12282    12425    12439    12540    12872    13791    15320 
   16715    17018    15963    14542    14145    14984    16109    16673 
   16601    16265    15991    16006    16412    17087    17918    18948 
   20115    21128    21743    22116    22649    23487    24366    24895 
   24895    24569    24244    23976    23602    23181    23010    23215 
   23662    24194    24816    25616    26580    27452    27741    27142 
   25924    24668    23700    22755    21236    18849    15842    12763 
   10252     9019     9632    11943    14962    17681    19879    21935 
   23917    25264    25474    24572    22925    21134    19989    20070 
   21131    22159    22361    21715    20592    19436    18617    18263 
   18242    18329    18448    18578    18498    17989    17057    15843 
   14762    14404    14829    15569    16322    16932    17060    16496 
   15479    14411    13564    12992    12432    11504    10133     8694 
    7786     7815     8662     9898    11250    12577    13692    14406 
   14534    14151    13773    13903    14578    15423    15993    16093 
   15799    15221    14409    13510    12948    13275    14566    16139 
   17299    17995    18331    18066    17014    15506    14190    13451 
   13075    12776    12731    13227    14281    15690    17244    18959 
   20887    22934    25115    27424    29415    30438    30333    29510 
   28292    26775    25310    24361    23954    23671    23185    22660 
   22439    22584    22864    22992    22915    22775    22625    22567 
   22766    22957    22637    21812    21035    20847    21331    22010 
   22104    21111    19269    17155    15068    13131    11691    11155 
   11470    12249    13339    14736    16144    17040    16990    15963 
   14623    13936    14203    14975    15774    16305    16447    16363 
   16137    15692    15111    14428    13573    12677    12039    11903 
   12129    12268    12176    12068    12226    12958    14409    16265 
   17918    18957    19362    19338    19324    19903    21265    23020 
   24443    24803    23995    22667    21448    20592    20284    20733 
   21824    22843    22907    21704    19677    17559    15817    14645 
   14264    14855    16206    17560    18149    17956    17522    17293 
   17417    17849    18569    19640    20922    21963    22322    21837 
   20702    19477    18716    18510    18633    18855    18989    18849 
   18362    17832    17964    19259    21469    23742    25268    25847 
   25805    25392    24807    24570    25179    26511    27690    27541 
   25471    21957    18207    15381    14023    14141    15349    16828 
   17796    17991    17488    16510    15546    15310    16243    18113 
   20292    22157    22965    22094    20046    18486    18684    20514 
   23019    25249    26649    27143    26916    26166    25032    23512 
   21507    19080    16533    14221    12456    11529    11580    12337 
   13297    14262    15154    15663    15567    14976    14211    13617 
   13267    12848    11933    10345     8335     6311     4429     2832 
    1911     1873     2522     3504     4548     5743     7433     9763 
   12411    14714    16259    17351    18620    20363    22456    24624 
   26637    28294    29270    29238    28111    26044    23489    21076 
   19175    17747    16545    15432    14507    13885    13458    12950 
   12273    11838    12237    13721    16148    19078    21863    23919 
   25018    25410    25632    26104    26870    27764    28754    29888 
   31138    32536    33948    34782    34477    33202    31706    30523 
   29604    28745    28051    27634    27189    26400    25372    24316 
   23145    21644    19940    18569    18017    18281    19014    19863 
   20331    19998    19122    18362    18047    17960    17768    17490 
   17179    16438    14992    13350    12148    11363    10655     9925 
    9340     9171     9569    10451    11473    12203    12474    12479 
   12547    12877    13323    13589    13674    13748    13845    14005 
   14134    13746    12425    10385     8325     6760     5761     5338 
    5440     5798     6173     6610     7594     9759    13113    16755 
   19621    21489    22953    24357    25442    26147    26814    27411 
   27299    25925    23366    20158    16978    14577    13517    13833 
   15163    17068    19079    20504    20728    19997    19344    19583 
   20585    21604    22242    22728    23447    24417    25040    24673 
   23478    22320    21901    22300    23298    24574    25627    26052 
   25732    24720    23191    21403    19519    17567    15632    13994 
   13020    12849    13072    12928    12000    10710    10036    10448 
   11413    12209    12614    12713    12653    12752    13372    14590 
   16067    17191    17570    17513    17714    18354    18957    19207 
   19296    19625    20566    22174    24131    26007    27286    27579 
   27066    26304    25662    25325    25624    26857    28815    30752 
   31750    31302    29847    28276    26995    25909    24854    23731 
   22527    21232    19723    17937    16098    14521    13273    12346 
   11894    11999    12490    13116    13597    13614    13144    12714 
   12832    13330    13833    14229    14341    14026    13502    13074 
   12822    12687    12745    13076    13391    13179    12241    11031 
   10330    10421    10967    11841    13383    15649    18088    20042 
   21346    22369    23431    24450    25146    25323    25038    24569 
   24103    23431    22322    21135    20423    20200    20108    20073 
   20550    21957    23968    25798    26952    27315    26987    26179 
   25056    23705    22072    20016    17675    15599    14342    13927 
   13890    13884    13957    14185    14336    13919    12653    10992 
    9921    10083    11297    12881    14205    14921    14918    14350 
   13701    13532    13917    14404    14705    15086    15951    17291 
   18703    19844    20628    21171    21741    22542    23503    24326 
   24669    24401    23687    22837    22184    21901    21828    21612 
   21112    20579    20378    20702    21472    22392    23114    23467 
   23645    23937    24226    24127    23312    21469    18478    14772 
   11160     8381     6842     6587     7303     8362     9225     9849 
   10500    11345    12383    13413    13878    13201    11383     8962 
    6720     5372     5049     5361     6060     7375     9681    12930 
   16670    20471    23834    26230    27648    28600    29392    29815 
   29603    28829    27863    27172    26940    26913    26832    26719 
   26580    26201    25462    24741    24616    25189    26082    26866 
   27275    27213    26731    26071    25453    24761    23923    23232 
   22826    22401    21796    21244    20762    20120    19494    19212 
   19051    18599    18069    17946    18026    17766    17096    16138 
   14904    13535    12217    10873     9204     7217     5517     4789 
    5361     7129     9416    11250    12035    11880    11256    10516 
    9960     9922    10360    10914    11456    12021    12496    12903 
   13582    14744    16120    17320    18414    19815    21555    23121 
   24077    24469    24571    24496    24209    23784    23473    23460 
   23573    23277    22260    20967    20043    19519    18991    18194 
   17277    16609    16255    15869    15267    14823    15106    16334 
   18290    20497    22292    23017    22408    20887    19446    18914 
   19163    19310    18787    17799    16597    15175    13806    12981 
   12928    13629    14844    16042    16633    16316    15254    13955 
   13014    12781    13239    14277    15695    17159    18663    20454 
   22322    23731    24485    24749    24842    25108    25642    26120 
   25987    25018    23626    22334    21451    21432    22518    24090 
   25292    26035    26750    27515    28028    28162    28072    27996 
   28140    28597    29248    29646    29281    28179    26815    25639 
   24929    24471    23676    22292    20342    17907    15454    13616 
   12727    12677    12897    12747    12145    11575    11365    11315 
   11231    11350    12087    13463    14912    15869    16196    15939 
   15238    14279    13067    11626    10280     9413     9097     9303 
   10125    11312    12215    12506    12397    12160    11751    11047 
   10341    10210    10989    12739    15312    18179    20617    22029 
   22099    21169    20170    19738    19782    19998    20393    21036 
   21607    21744    21496    21136    20855    20583    20145    19657 
   19290    18924    18538    18467    19079    20414    22153    23859 
   25113    25666    25780    25886    25795    25089    23952    22789 
   21628    20318    18714    16764    14699    12823    11269    10233 
   10012    10495    11118    11563    11989    12486    12949    13480 
   14335    15398    16226    16801    17557    18539    19366    19877 
   20105    19995    19524    18862    18292    17875    17350    16522 
