Origin Time       2014/07/12 04:22:00
Lat.              37.050
Long.             142.320
Depth. (km)       33
Mag.              7.0
Station Code      MYGH08
Station Lat.      38.1133
Station Long.     140.8441
Station Height(m) 10
Record Time       2014/07/12 04:22:29
Sampling Freq(Hz) 100Hz
Duration Time(s)  238
Dir.              5
Scale Factor      3920(gal)/6170801
Max. Acc. (gal)   9.389
Last Correction   2014/07/12 04:22:14
Memo.             
[...]
    2034      870       57      -74      -22     -275     -637     -715 
    -605     -706    -1174    -1710    -1762    -1131     -285      239 
     428      546      721      879      852      561      155     -237 
    -756    -1462    -2055    -2227    -2032    -1859    -2000    -2380 
   -2695    -2648    -2182    -1534     -888     -104      964     1963 
    2300     2030     1894     2411     3334     3874     3419     2276 
    1449     1592     2456     3240     3397     3078     2780     2780 
    2923     2996     3196     3652     3991     3929     3581     3150 
    2714     2210     1805     1944     2652     3269     3113     2165 
    1085      543      519      576      549      500      427      188 
    -522    -1739    -2811    -2914    -1980     -894     -604    -1015 
   -1104     -299      659      759      135     -404     -518     -291 
       6      -51     -474     -730     -539     -140      254      638 
    1033     1474     1894     2100     2130     2262     2511     2556 
    2211     1686     1279      860       29    -1164    -2094    -2179 
   -1417     -278      651      930      710      637      985     1453 
    1738     1805     1742     1709     1745     1498      778       84 
      34      739     1833     2777     3199     3117     2752     2104 
    1104      100     -348       31      880     1297      749     -283 
    -869     -622       38      485      541      546      837     1255 
    1500     1585     1592     1546     1522     1521     1529     1543 
    1426     1059      504       68      111      443      457       15 
    -355     -163      479     1061     1170      797      450      577 
     986     1323     1582     1856     2100     2072     1375       57 
    -965     -930     -272      162      155     -123     -594    -1253 
   -1961    -2418    -2355    -1688     -598      557     1510     2192 
    2577     2628     2450     2235     1968     1446      560     -526 
   -1381    -1570    -1035     -170      564      890      740      444 
     314      151     -119     -162      128      488      498      -66 
    -770     -899     -253      703     1457     1982     2614     3522 
    4243     4030     2888     1685     1116     1148     1338     1140 
     319     -667    -1220    -1377    -1480    -1548    -1383     -922 
    -315      143      193     -139     -572     -906    -1183    -1386 
   -1364    -1127     -815     -507     -229       57      472     1002 
    1349     1303     1056      878      738      542      408      426 
     526      522      234      -95       72      871     1997     3076 
    3740     3740     3121     2171     1268      717      635     1016 
    1598     1735      957     -291    -1033     -886     -187      697 
    1536     2166     2484     2439     2197     2156     2496     2882 
    2852     2377     1901     1891     2328     2666     2397     1629 
    1033     1128     1671     1935     1530      813      433      540 
     669      424      -94     -541     -710     -661     -599     -566 
    -411     -114      224      606     1002     1231     1121      724 
     347      229      343      632     1115     1675     1941     1472 
     269    -1066    -1863    -1845    -1228     -596     -454     -825 
   -1383    -1862    -2156    -2147    -1815    -1392    -1151    -1170 
   -1309    -1283     -967     -635     -675    -1046    -1219     -817 
     -96      486      811      991     1143     1368     1661     1948 
    2266     2609     2706     2324     1589      744      -12     -312 
     118      877     1229     1071      955     1181     1382     1034 
     260     -282     -395     -538    -1004    -1487    -1572    -1203 
    -652     -343     -493     -739     -496      332     1243     1687 
    1657     1601     1675     1420      458     -738    -1161     -397 
     942     1791     1522      438     -659    -1276    -1365    -1072 
    -625     -142      438     1024     1339     1330     1235     1213 
    1290     1584     2010     2102     1742     1426     1443     1392 
     799      -57     -498     -460     -342     -245       24      610 
    1348     1773     1525      726      -87     -384       31      880 
    1433     1173      392     -287     -622     -726     -780     -892 
   -1067    -1324    -1672    -1955    -1977    -1681    -1129     -455 
     104      287      140      165      824     1937     2849     3150 
    3045     2939     2888     2662     2181     1622     1179      875 
     626      353       92      185     1015     2341     3421     3705 
    3247     2690     2633     3013     3432     3723     3977     4310 
    4703     4972     4921     4658     4496     4375     3839     2744 
    1589     1035     1143     1319     1109      561      -18     -245 
     -57       77     -147     -434     -524     -541     -691    -1135 
   -1728    -1863    -1163       23     1049     1571     1599     1248 
     816      816     1344     1732     1367      399     -635    -1273 
   -1342    -1075     -694      -83      819     1780     2515     2769 
    2453     1967     1888     2237     2552     2645     2735     2902 
    2965     2738     2186     1508      929      472      132     -106 
    -437     -905    -1191    -1112     -911     -937    -1345    -1879 
   -2008    -1664    -1339    -1225    -1168    -1162     -969      -89 
    1297     2428     2955     3042     3002     3140     3345     3096 
    2257     1384     1011     1098     1382     1720     1857     1577 
    1170     1038     1175     1438     1682     1737     1504      841 
    -252    -1233    -1417     -837     -285     -419    -1078    -1549 
   -1385     -831     -437     -494     -866    -1160    -1124     -943 
    -906     -810     -227      688     1366     1570     1552     1753 
    2236     2507     2350     2305     2732     3238     3342     2898 
    2225     2034     2591     3407     3875     3688     3125     2758 
    2559     2088     1409     1060     1328     1882     2134     1932 
    1727     1926     2262     2006      941     -198     -654     -547 
    -427     -530     -846    -1314    -1749    -1951    -1968    -2066 
   -2319    -2350    -1896    -1323    -1063     -985     -739     -344 
     -71      -30      -95     -117      -74      -54     -156     -419 
    -680     -630      -88      771     1374     1322     1030     1127 
    1464     1379      692     -133     -810    -1379    -1684    -1616 
   -1407    -1216     -908     -232      965     2563     4146     5266 
    5860     6049     5756     5085     4545     4484     4765     5029 
    5020     4833     4841     5157     5499     5546     5140     4422 
    3852     3764     3915     3872     3623     3528     3886     4695 
    5707     6556     6866     6469     5527     4441     3649     3384 
    3408     3089     2182     1174      541      137     -495    -1511 
   -2664    -3630    -4225    -4584    -5041    -5554    -5630    -5052 
   -4255    -3806    -3718    -3605    -3183    -2358    -1344     -652 
    -538     -715     -843     -881     -697      -80      684     1139 
    1218      927      179     -938    -2130    -3190    -4229    -5384 
   -6540    -7472    -7839    -7351    -6159    -4622    -2964    -1400 
    -291       61     -175     -429     -246      545     1824     3149 
    4037     4344     4401     4624     4928     4976     4789     4520 
    4158     3832     3795     4010     4336     4784     5234     5636 
    6227     6999     7698     8148     8187     7878     7519     7094 
    6346     5290     4077     2635      887     -803    -1809    -2003 
   -1913    -1910    -1827    -1510    -1099     -876    -1155    -1977 
   -3043    -4079    -5030    -6147    -7772    -9734   -11415   -12429 
  -12767   -12534   -11883   -10971    -9898    -8847    -7981    -7140 
   -6030    -4451    -2323      164     2500     4150     5035     5497 
    5859     6295     6818     7422     8165     8793     8864     8241 
    7078     5751     4719     3992     3088     1754      229    -1165 
   -2264    -2975    -3368    -3786    -4395    -4921    -5271    -5664 
   -5991    -5824    -4935    -3375    -1531     -138      386      326 
     291      799     1797     2709     3397     4304     5496     6430 
    6578     5731     4250     3043     2564     2252     1321     -347 
   -2137    -3540    -4749    -6132    -7502    -8055    -7109    -4874 
   -2232      103     2023     3654     4780     5176     5266     5733 
    6751     7967     8903     9300     9295     9184     8855     7802 
    6043     4354     3412     3198     3054     2259      918       -6 
     115      763     1079     1102     1532     2534     3452     3544 
    2794     2091     2536     4408     6873     8864    10042    10662 
   11002    11169    11078    10638    10048     9469     8551     6876 
    4656     2468      542    -1393    -3815    -6819    -9718   -11671 
  -12554   -12828   -12965   -13039   -12623   -11380    -9560    -7680 
   -6094    -4941    -4182    -3706    -3443    -3388    -3521    -3760 
   -3993    -4121    -4045    -3441    -1865      479     2705     4256 
    5132     5444     5416     5348     5282     5040     4576     4083 
    3694     3298     2834     2507     2403     2184     1510      435 
    -552     -740       -6      817      981      750      946     2032 
    3789     5536     6653     7119     7163     6690     5630     4304 
    3172     2509     2264     2061     1440      376     -582     -938 
    -655      151     1272     2293     2982     3458     3890     4337 
    4779     5211     5657     6097     6452     6511     6070     5111 
    3808     2508     1510      854      514      469      584      793 
    1350     2536     4147     5445     5630     4471     2488      419 
   -1305    -2703    -4022    -5267    -6215    -6908    -7622    -8230 
   -8017    -6508    -4145    -1855     -203      817     1293     1000 
    -393    -2807    -5437    -7263    -8061    -8592    -9596   -10912 
  -11785   -11756   -11008    -9876    -8280    -6113    -3907    -2534 
   -2330    -2699    -2593    -1599     -249      662      701      165 
    -213     -229     -235     -216      288     1450     2822     3692 
    3831     3715     3785     3829     3353     2265      904     -405 
   -1473    -2148    -2366    -2164    -1671    -1143     -700     -217 
     247      448      508      853     1686     2862     4049     5062 
    6132     7678     9654    11261    11812    11590    11298    11254 
   11379    11328    10725     9564     8098     6431     4559     2610 
     848     -495    -1270    -1516    -1565    -1634    -1548    -1300 
   -1243    -1454    -1664    -1962    -2762    -3977    -4997    -5507 
   -5671    -5729    -5773    -5600    -4760    -3134    -1315       32 
     868     1522     2142     2513     2286     1551     1050     1540 
    2995     4484     4854     3779     2184     1225     1099     1391 
    1779     2022     2062     1971     1694     1190      560       39 
    -204     -402     -798    -1026     -507      848     2619     4080 
    4479     3618     2193     1331     1592     2458     3000     2780 
    1899      668     -611    -1787    -2750    -3154    -2732    -1932 
   -1526    -1687    -1950    -1809    -1182     -406      280      906 
    1440     1783     1898     1685     1088      293     -456    -1166 
   -1941    -2412    -1868      -84     2415     4821     6694     8294 
    9975    11485    12392    12813    13253    13925    14471    14263 
   12824    10403     8183     7183     7127     6927     5906     4295 
    2746     1485       45    -1953    -4077    -5643    -6514    -7030 
   -7677    -8714    -9787   -10264   -10033    -9562    -9192    -8776 
   -7875    -6206    -4110    -2277    -1123     -744     -995    -1519 
   -1966    -2076    -1768    -1228     -720     -394     -132      337 
     920     1115      612     -343    -1199    -1525    -1222     -519 
     231      829     1317     1791     2424     3567     5261     6922 
    7914     8007     7317     6161     4891     3604     2068      276 
   -1189    -1698    -1219     -303      398      499     -104    -1242 
   -2423    -2922    -2281     -810      651     1434     1469     1207 
    1158     1277      947     -111    -1266    -1693    -1346     -948 
   -1139    -1794    -2184    -1840    -1142     -744     -649     -343 
     353     1039     1246      944      608      676      866      552 
    -244     -735     -216     1069     2012     1867     1084      623 
     955     1956     3041     3570     3658     3979     4632     5086 
    5269     5716     6610     7558     8181     8434     8533     8535 
    8101     6972     5167     2639     -470    -3463    -5658    -7007 
   -7826    -8240    -8102    -7454    -6815    -6760    -7325    -8014 
   -8246    -7772    -6823    -5884    -5244    -4760    -4081    -3010 
   -1668     -400      564     1385     2257     2977     3345     3663 
    4381     5591     6961     7917     8230     8222     7986     7146 
    5526     3419     1477      330      -25     -137     -428     -761 
    -651       84     1029     1489     1179      785     1200     2127 
    2399     1565      260     -630     -639       17      672      787 
     331     -248     -516     -464     -203      371     1278     2079 
    2103     1171     -163    -1238    -1906    -2478    -3350    -4679 
   -6173    -7301    -7722    -7448    -6758    -5823    -4467    -2638 
    -611     1476     3828     6646     9788    12733    14790    15486 
   14878    13508    12094    11051    10361     9834     9042     7281 
    4246      634    -2130    -2875    -1743     -130      659      425 
    -125     -227      198      695     1103     1711     2529     3026 
    2757     1850      820      180      148      397      160    -1014 
   -2883    -5064    -7229    -8904    -9872   -10288   -10354   -10297 
  -10202    -9900    -9266    -8360    -7471    -6982    -6842    -6559 
   -5775    -4450    -2728     -903      729     1933     2496     2500 
    2303     2077     1795     1416      858      268      146      856 
    2262     3886     5179     5704     5506     5160     5047     5087 
    5203     5419     5601     5380     4524     3382     2470     1887 
    1548     1404     1374     1478     1793     2173     2313     2068 
    1603     1409     2054     3653     5655     7115     7191     5808 
    3844     2308     1612     1654     2016     2172     1886     1231 
     194    -1321    -3039    -4179    -4066    -2957    -1894    -1559 
   -1749    -2032    -2102    -1583     -356     1102     2203     2597 
    2090      912     -126     -237      565     1477     1785     1502 
    1232     1564     2370     3012     3419     4081     4888     5059 
    4146     2376      377    -1185    -2055    -2504    -2999    -3632 
   -3966    -3597    -2601    -1496     -772     -332      315     1389 
    2671     3675     3908     3192     1717     -169    -2039    -3258 
   -3229    -2117     -971     -825    -1828    -3132    -3647    -3104 
   -2126    -1256     -553      -51       72     -313    -1145    -2017 
   -2319    -1886    -1215     -829     -665     -165     1008     2415 
    3211     3025     2284     1769     1930     2639     3511     4057 
    3671     2290      805      146      426     1098     1498     1483 
    1569     2143     3030     4058     5364     7076     9103    10997 
   12023    12013    11709    11587    11154     9796     7664     5617 
    4392     3910     3463     2353      500    -1494    -2981    -3797 
   -4120    -4066    -3738    -3490    -3737    -4463    -5015    -4658 
   -3446    -2153    -1395    -1302    -1656    -1919    -1717    -1158 
    -285      882     1883     2302     2175     1653      967      516 
     451      391      -40     -593     -774     -564     -407     -592 
    -842     -781     -496      -89      546     1256     1794     2088 
    1982     1317      177    -1190    -2435    -3243    -3573    -3527 
   -3046    -2217    -1776    -2461    -3981    -5336    -5991    -6240 
   -6540    -6939    -7170    -6826    -5587    -3536    -1156      957 
    2384     2972     2730     1881      949      566     1048     2109 
    3211     4227     5251     5936     5777     4812     3539     2446 
    1786     1534     1478     1437     1471     1736     2092     2253 
    2331     2719     3528     4423     4904     4670     3772     2604 
    1828     1853     2439     3038     3313     3285     3162     2997 
    2659     2249     2180     2642     3279     3533     3147     2330 
    1496      882      444       66     -218     -289     -211     -193 
    -284     -310     -112      181      254       51     -146      -67 
     362     1008     1488     1516     1393     1554     1830     1879 
    1857     2128     2693     3148     3042     2435     2024     2339 
    3025     3277     2665     1459      460      326      973     1778 
    2132     1743      831      -19     -462     -548     -291      364 
    1126     1344      534    -1215    -3362    -5194    -6243    -6676 
   -6921    -7073    -7063    -6956    -6892    -6909    -6663    -5579 
   -3472     -800     1656     3206     3572     3128     2598     2397 
    2489     2704     2928     3092     3168     3247     3461     3765 
    3947     3822     3380     2721     1943     1173      585      389 
     765     1588     2422     2737     2143      842     -455    -1238 
   -1483    -1295     -649      295     1024     1117      643      208 
     556     1733     2926     3348     2854     1771      610     -316 
   -1194    -2193    -2896    -2888    -2424    -2102    -2103    -1855 
    -704     1093     2495     2905     2780     2803     3053     3136 
    2675     1776      967      427     -324    -1699    -3433    -4831 
   -5426    -5391    -5336    -5566    -5663    -5155    -4240    -3447 
   -3024    -2735    -2065     -889      220      676      565      424 
     686     1452     2540     3780     5160     6620     8033     9203 
    9823     9765     9116     7950     6452     4998     3920     3291 
    2928     2578     2128     1684     1545     1915     2561     3011 
    3055     2798     2363     1674      597     -780    -2157    -3232 
   -3872    -4115    -3977    -3426    -2764    -2574    -3022    -3772 
   -4428    -4679    -4452    -3907    -3191    -2562    -2352    -2552 
   -2766    -2519    -1567      -98     1430     2604     3198     3204 
    2739     1940     1068      531      555      961     1351     1362 
     926      492      613     1251     1923     2410     2945     3684 
    4324     4439     3932     3082     2252     1650     1402     1434 
    1337      882      436      538     1331     2493     3485     3749 
    2933     1232     -547    -1551    -1521     -768      144      606 
     477      295      397      380      -14     -423     -534     -350 
      88      813     1816     2892     3767     4299     4463     4372 
    4271     4327     4498     4540     4100     2987     1371     -341 
   -1637    -2031    -1464     -501      195      444      442      242 
    -369    -1428    -2482    -2919    -2668    -2317    -2444    -2929 
   -3082    -2461    -1348     -390       12        8       73      530 
    1378     2364     3232     3976     4629     5060     5219     5186 
