Origin Time       2014/07/12 04:22:00
Lat.              37.050
Long.             142.320
Depth. (km)       33
Mag.              7.0
Station Code      MYGH08
Station Lat.      38.1133
Station Long.     140.8441
Station Height(m) -90
Record Time       2014/07/12 04:22:29
Sampling Freq(Hz) 100Hz
Duration Time(s)  238
Dir.              1
Scale Factor      3920(gal)/6170801
Max. Acc. (gal)   6.691
Last Correction   2014/07/12 04:22:14
Memo.             
[...]
   -9086    -9071    -8985    -8916    -8930    -8942    -8861    -8672 
   -8468    -8388    -8425    -8483    -8611    -8900    -9244    -9545 
   -9895   -10347   -10790   -11125   -11324   -11381   -11339   -11252 
  -11125   -10946   -10744   -10581   -10494   -10519   -10727   -10986 
  -10924   -10472   -10004    -9789    -9738    -9731    -9768    -9852 
  -10010   -10217   -10256   -10026    -9771    -9697    -9775    -9983 
  -10332   -10718   -10986   -11122   -11187   -11186   -11152   -11121 
  -11100   -11144   -11211   -11149   -11052   -11175   -11440   -11560 
  -11537   -11538   -11523   -11408   -11241   -11040   -10778   -10535 
  -10397   -10389   -10579   -10967   -11344   -11515   -11505   -11420 
  -11305   -11204   -11116   -10971   -10803   -10803   -10996   -11073 
  -10826   -10539   -10572   -10791   -10845   -10688   -10560   -10737 
  -11267   -11812   -11986   -11819   -11583   -11353   -11074   -10821 
  -10713   -10756   -10774   -10504    -9995    -9676    -9733    -9811 
   -9611    -9348    -9313    -9404    -9329    -9052    -8888    -9116 
   -9608    -9993   -10135   -10229   -10435   -10622   -10667   -10684 
  -10798   -10991   -11082   -10858   -10398   -10028    -9890    -9812 
   -9676    -9653    -9868   -10210   -10545   -10775   -10897   -11057 
  -11275   -11386   -11372   -11324   -11137   -10757   -10508   -10672 
  -11074   -11443   -11708   -11822   -11750   -11579   -11391   -11185 
  -10994   -10802   -10471    -9988    -9547    -9314    -9260    -9225 
   -9149    -9222    -9619   -10156   -10486   -10584   -10736   -11075 
  -11453   -11663   -11638   -11591   -11771   -11968   -11715   -11010 
  -10393   -10227   -10311   -10336   -10274   -10351   -10775   -11267 
  -11259   -10768   -10396   -10315   -10056    -9424    -8815    -8557 
   -8600    -8747    -8866    -9055    -9460    -9848    -9900    -9847 
  -10144   -10709   -11100   -11218   -11271   -11287   -11152   -10862 
  -10499   -10187   -10009    -9831    -9516    -9199    -9059    -9071 
   -9144    -9264    -9500    -9948   -10513   -10848   -10891   -11130 
  -11769   -12208   -11901   -11117   -10455   -10090    -9804    -9444 
   -9133    -9121    -9379    -9437    -8983    -8423    -8327    -8575 
   -8685    -8648    -8852    -9376    -9822    -9803    -9338    -8824 
   -8642    -8786    -9061    -9500   -10267   -11288   -12206   -12666 
  -12566   -12097   -11577   -11166   -10789   -10338    -9833    -9418 
   -9235    -9301    -9544    -9918   -10397   -10852   -11114   -11177 
  -11191   -11242   -11267   -11224   -11211   -11321   -11537   -11746 
  -11737   -11353   -10736   -10174    -9733    -9361    -9214    -9500 
  -10091   -10610   -10831   -10746   -10446   -10148   -10058   -10104 
  -10077    -9986    -9963    -9982    -9966    -9949    -9903    -9687 
   -9366    -9190    -9201    -9288    -9489    -9846   -10250   -10612 
  -10939   -11199   -11409   -11731   -12093   -12071   -11508   -10736 
  -10140    -9872    -9875   -10029   -10233   -10406   -10449   -10317 
  -10183   -10287   -10580   -10894   -11229   -11594   -11847   -11813 
  -11453   -10939   -10598   -10650   -10943   -11127   -11107   -11061 
  -11147   -11384   -11666   -11804   -11710   -11528   -11368   -11054 
  -10449    -9776    -9339    -9234    -9414    -9733   -10002   -10141 
  -10191   -10244   -10439   -10887   -11441   -11744   -11708   -11593 
  -11535   -11434   -11204   -10888   -10608   -10445   -10357   -10190 
   -9835    -9427    -9191    -9157    -9220    -9302    -9411    -9552 
   -9623    -9601    -9641    -9790    -9924   -10032   -10218   -10532 
  -10941   -11304   -11459   -11457   -11512   -11618   -11579   -11410 
  -11237   -11032   -10804   -10710   -10799   -10930   -10946   -10765 
  -10489   -10430   -10668   -10767   -10428   -10007    -9947   -10181 
  -10397   -10416   -10244   -10099   -10176   -10250    -9950    -9366 
   -8975    -8984    -9187    -9399    -9619    -9851   -10050   -10132 
  -10018    -9776    -9581    -9521    -9551    -9600    -9685    -9861 
  -10082   -10232   -10288   -10388   -10639   -10944   -11157   -11213 
  -11078   -10845   -10715   -10750   -10832   -10854   -10838   -10842 
  -10843   -10777   -10562   -10190    -9835    -9714    -9898   -10278 
  -10620   -10755   -10813   -11106   -11631   -11935   -11696   -11142 
  -10706   -10600   -10796   -11098   -11268   -11273   -11232   -11093 
  -10718   -10244    -9955    -9896    -9970   -10183   -10438   -10530 
  -10511   -10558   -10605   -10569   -10595   -10736   -10809   -10747 
  -10627   -10446   -10283   -10278   -10250    -9968    -9621    -9480 
   -9454    -9313    -9006    -8649    -8511    -8800    -9296    -9635 
   -9870   -10206   -10472   -10399   -10082    -9817    -9800   -10077 
  -10512   -10899   -11221   -11564   -11826   -11867   -11831   -11905 
  -11973   -11862   -11646   -11441   -11237   -11044   -10869   -10673 
  -10524   -10462   -10302    -9935    -9565    -9413    -9438    -9556 
   -9770    -9993   -10072   -10008    -9922    -9921   -10028   -10167 
  -10292   -10475   -10795   -11184   -11471   -11535   -11387   -11155 
  -10973   -10819   -10588   -10372   -10407   -10701   -11019   -11228 
  -11385   -11498   -11424   -11104   -10730   -10461   -10189    -9783 
   -9367    -9192    -9303    -9412    -9212    -8810    -8602    -8744 
   -9049    -9333    -9572    -9807   -10058   -10279   -10394   -10445 
  -10581   -10819   -11028   -11127   -11130   -11075   -11008   -10969 
  -10974   -11021   -11004   -10775   -10363    -9949    -9692    -9646 
   -9711    -9722    -9695    -9813   -10065   -10177   -10031    -9865 
   -9952   -10269   -10543   -10553   -10402   -10432   -10752   -11019 
  -10943   -10694   -10619   -10808   -10999   -10845   -10350    -9951 
   -9950   -10145   -10227   -10129    -9844    -9449    -9237    -9392 
   -9740   -10080   -10394   -10616   -10633   -10556   -10503   -10289 
   -9765    -9206    -9063    -9451    -9992   -10211   -10047    -9917 
  -10165   -10565   -10731   -10818   -11167   -11582   -11645   -11365 
  -11058   -10888   -10753   -10498   -10179   -10044   -10163   -10282 
  -10268   -10306   -10485   -10637   -10598   -10348    -9999    -9809 
   -9970   -10263   -10382   -10456   -10678   -10876   -10857   -10722 
  -10641   -10680   -10861   -11051   -11032   -10878   -10769   -10566 
  -10126    -9634    -9268    -9008    -8892    -8993    -9201    -9374 
   -9504    -9571    -9563    -9620    -9856   -10184   -10512   -10873 
  -11193   -11286   -11149   -10939   -10766   -10678   -10662   -10694 
  -10768   -10785   -10611   -10344   -10248   -10338   -10347   -10151 
   -9865    -9554    -9230    -8972    -8827    -8762    -8778    -8887 
   -8989    -8934    -8759    -8667    -8725    -8793    -8782    -8832 
   -9155    -9742   -10399   -11020   -11561   -11923   -12099   -12233 
  -12384   -12495   -12579   -12670   -12620   -12256   -11710   -11315 
  -11172   -11126   -11086   -11064   -11065   -11099   -11171   -11187 
  -10998   -10627   -10290   -10098    -9942    -9709    -9446    -9296 
   -9357    -9587    -9831    -9988   -10168   -10489   -10833   -11091 
  -11377   -11746   -12018   -12019   -11744   -11319   -10984   -10939 
  -11070   -11146   -11283   -11690   -12110   -12110   -11731   -11357 
  -11206   -11187   -11013   -10501    -9869    -9530    -9590    -9800 
   -9990   -10271   -10690   -10987   -10872   -10390    -9867    -9629 
   -9729    -9868    -9817    -9711    -9659    -9415    -8850    -8394 
   -8546    -9272   -10178   -10903   -11306   -11542   -11747   -11767 
  -11491   -11204   -11247   -11518   -11746   -11898   -12000   -12002 
  -11928   -11847   -11775   -11741   -11834   -12081   -12361   -12518 
  -12440   -12097   -11594   -11101   -10724   -10455   -10223   -10015 
   -9827    -9679    -9739   -10118   -10651   -11117   -11469   -11669 
  -11659   -11630   -11813   -12033   -12022   -11827   -11582   -11334 
  -11155   -11086   -11041   -11003   -11034   -11009   -10745   -10419 
  -10376   -10582   -10734   -10705   -10530   -10223    -9877    -9666 
   -9665    -9821    -9995   -10042    -9964    -9820    -9531    -9036 
   -8562    -8410    -8576    -8854    -9107    -9260    -9244    -9072 
   -8865    -8775    -8851    -8976    -9022    -8993    -8944    -8856 
   -8648    -8371    -8262    -8485    -8970    -9531   -10036   -10419 
  -10620   -10573   -10275    -9823    -9334    -8882    -8501    -8175 
   -7913    -7801    -7878    -8055    -8211    -8306    -8420    -8631 
   -8888    -9091    -9254    -9473    -9773   -10084   -10393   -10800 
  -11317   -11741   -11867   -11762   -11713   -11914   -12264   -12550 
  -12726   -12841   -12851   -12666   -12346   -12073   -11908   -11785 
  -11629   -11389   -11134   -11046   -11167   -11310   -11330   -11238 
  -11040   -10710   -10330   -10027    -9845    -9800    -9867    -9916 
   -9893    -9904   -10038   -10365   -11060   -12204   -13468   -14412 
  -15054   -15693   -16323   -16620   -16422   -15967   -15572   -15183 
  -14472   -13398   -12254   -11244   -10426    -9814    -9385    -9119 
   -8951    -8716    -8353    -8078    -8146    -8557    -9095    -9627 
  -10159   -10638   -11017   -11298   -11389   -11371   -11504   -11818 
  -12194   -12525   -12657   -12607   -12613   -12737   -12702   -12327 
  -11808   -11379   -10985   -10450    -9766    -9075    -8512    -8130 
   -7833    -7495    -7214    -7116    -7074    -6947    -6746    -6492 
   -6310    -6430    -6859    -7371    -7821    -8212    -8516    -8651 
   -8607    -8487    -8466    -8652    -8937    -9037    -8811    -8472 
   -8234    -7919    -7375    -6831    -6561    -6679    -7170    -7879 
   -8692    -9648   -10664   -11427   -11752   -11728   -11509   -11239 
  -11045   -10916   -10779   -10642   -10459   -10131    -9630    -9060 
   -8615    -8418    -8452    -8620    -8822    -9080    -9497   -10040 
  -10559   -11040   -11590   -12180   -12684   -13048   -13349   -13829 
  -14625   -15476   -16042   -16257   -16303   -16283   -16001   -15319 
  -14429   -13663   -13255   -13041   -12499   -11444   -10261    -9397 
   -9012    -8976    -9005    -9072    -9511   -10393   -11245   -11651 
  -11725   -11879   -12245   -12572   -12568   -12119   -11459   -10959 
  -10681   -10516   -10429   -10385   -10336   -10281   -10308   -10471 
  -10760   -11169   -11476   -11342   -10827   -10213    -9568    -8812 
   -7963    -7249    -6841    -6684    -6718    -6975    -7533    -8438 
   -9530   -10463   -10910   -10856   -10527   -10058    -9461    -8634 
   -7607    -6713    -6186    -6040    -6137    -6216    -6168    -5940 
   -5468    -4969    -4703    -4685    -4885    -5344    -6065    -6959 
   -7939    -8914    -9636    -9982   -10243   -10761   -11559   -12437 
  -13251   -13853   -14041   -13939   -13820   -13655   -13214   -12443 
  -11675   -11176   -10875   -10658   -10447   -10362   -10581   -10997 
  -11373   -11448   -11148   -10673   -10160    -9715    -9500    -9628 
  -10179   -11057   -11867   -12210   -12098   -11905   -11881   -12059 
  -12465   -13105   -14012   -15088   -16009   -16583   -16814   -16841 
  -16896   -16996   -16980   -16934   -17169   -17749   -18374   -18819 
  -19097   -19109   -18637   -17599   -16088   -14502   -13256   -12250 
  -11203   -10098    -9005    -7912    -6857    -5948    -5256    -4941 
   -5218    -5979    -6842    -7548    -8040    -8359    -8550    -8536 
   -8330    -8118    -8099    -8384    -8857    -9355    -9879   -10389 
  -10783   -11041   -11211   -11344   -11373   -11042   -10229    -9186 
   -8186    -7287    -6554    -6123    -6092    -6410    -6827    -7176 
   -7527    -7844    -7965    -7868    -7578    -7226    -7118    -7390 
   -7785    -7939    -7875    -7936    -8289    -8760    -9108    -9395 
   -9894   -10695   -11660   -12585   -13305   -13747   -13912   -13867 
  -13741   -13769   -14183   -14906   -15582   -15949   -15976   -15803 
  -15580   -15275   -14838   -14401   -14096   -13921   -13699   -13156 
  -12308   -11507   -11035   -10792   -10380    -9582    -8590    -7660 
   -6891    -6360    -6289    -6846    -7916    -9264   -10605   -11589 
  -12006   -11780   -11091   -10423   -10037    -9870    -9851    -9931 
  -10171   -10745   -11575   -12246   -12403   -12078   -11585   -11145 
  -10824   -10639   -10400    -9958    -9561    -9402    -9287    -9051 
   -8786    -8531    -8150    -7663    -7276    -7085    -7162    -7636 
   -8383    -9068    -9624   -10127   -10309    -9930    -9328    -9004 
   -9110    -9592   -10284   -10907   -11421   -11878   -11942   -11294 
  -10142    -9024    -8359    -8194    -8335    -8466    -8280    -7755 
   -7068    -6322    -5713    -5532    -5719    -5790    -5368    -4556 
   -3733    -3168    -2879    -2737    -2843    -3535    -4744    -6088 
   -7456    -8888   -10338   -11719   -12982   -14100   -14960   -15456 
  -15577   -15357   -14980   -14732   -14699   -14777   -14854   -14775 
  -14423   -13868   -13221   -12574   -12086   -11887   -12001   -12342 
  -12643   -12651   -12530   -12635   -12990   -13375   -13669   -13899 
  -14087   -14204   -14290   -14356   -14251   -13917   -13506   -13043 
  -12458   -11875   -11312   -10673   -10209   -10234   -10766   -11765 
  -13042   -14253   -15201   -15832   -16256   -16583   -16723   -16752 
  -16959   -17264   -17217   -16548   -15225   -13422   -11545    -9804 
   -8175    -6754    -5649    -4808    -4153    -3645    -3204    -2690 
   -1982    -1096     -254       94     -415    -1562    -2824    -4067 
   -5461    -7010    -8409    -9291    -9618    -9660    -9727   -10038 
  -10585   -11288   -12136   -12837   -12830   -11942   -10587    -9285 
   -8236    -7361    -6538    -5706    -4982    -4593    -4406    -3993 
   -3307    -2692    -2352    -2239    -2289    -2464    -2794    -3458 
   -4500    -5630    -6540    -7220    -7850    -8573    -9542   -10772 
  -11902   -12752   -13549   -14269   -14818   -15257   -15358   -14923 
  -14218   -13741   -13960   -14884   -16032   -16925   -17310   -17283 
  -17194   -17250   -17433   -17604   -17622   -17457   -17074   -16568 
  -16117   -15594   -14776   -13646   -12440   -11533   -10887   -10205 
   -9648    -9701   -10667   -12248   -13630   -14351   -14610   -14752 
  -14745   -14292   -13535   -13075   -13265   -13875   -14262   -13995 
  -13294   -12603   -11989   -11220   -10296    -9550    -9241    -9392 
   -9833   -10104    -9801    -9051    -8267    -7688    -7179    -6477 
   -5728    -5427    -5913    -7144    -8720   -10116   -11115   -11798 
  -12071   -11714   -10791    -9652    -8755    -8323    -8008    -7513 
   -7101    -7084    -7505    -8095    -8505    -8837    -9361    -9931 
  -10244   -10280   -10429   -11039   -11775   -12081   -11927   -11626 
  -11459   -11435   -11253   -10781   -10291    -9982    -9804    -9804 
  -10213   -11089   -12090   -12881   -13331   -13113   -11924   -10036 
   -8135    -6781    -6044    -5694    -5515    -5329    -5124    -5063 
   -5127    -5033    -4845    -5044    -5739    -6632    -7587    -8726 
  -10111   -11461   -12441   -12955   -12886   -12187   -11168   -10260 
   -9598    -9017    -8390    -7716    -7037    -6559    -6499    -6792 
   -7263    -7812    -8344    -8877    -9698   -11053   -12803   -14710 
  -16569   -17926   -18401   -18065   -17092   -15646   -14146   -12972 
  -12175   -11678   -11236   -10607    -9931    -9499    -9413    -9485 
   -9391    -9126    -9025    -9264    -9704   -10187   -10715   -11306 
  -11701   -11445   -10517    -9518    -9071    -9339    -9973   -10427 
  -10598   -10780   -11026   -11205   -11337   -11402   -11208   -10631 
   -9763    -8849    -8251    -8192    -8481    -8892    -9526   -10412 
  -11286   -11891   -12049   -11803   -11577   -11566   -11498   -11186 
  -10643    -9991    -9397    -8975    -8855    -9055    -9320    -9432 
   -9522    -9891   -10517   -10877   -10572    -9900    -9497    -9688 
  -10225   -10535   -10461   -10468   -10984   -11888   -12729   -13283 
  -13601   -13670   -13400   -12687   -11556   -10382    -9560    -9101 
   -8850    -8818    -9081    -9466    -9646    -9540    -9418    -9701 
  -10529   -11413   -11667   -11188   -10498   -10120   -10124   -10307 
  -10519   -10656   -10712   -10855   -11143   -11458   -11763   -12162 
  -12713   -13270   -13695   -14030   -14214   -14043   -13489   -12681 
  -11761   -10919   -10228    -9694    -9493    -9749   -10236   -10663 
  -11069   -11574   -11978   -12042   -11771   -11409   -11213   -11148 
  -11064   -10925   -10801   -10791   -10905   -11079   -11250   -11417 
  -11625   -11755   -11627   -11212   -10543    -9661    -8558    -7178 
   -5709    -4550    -3851    -3424    -3110    -3034    -3228    -3373 
   -3429    -3654    -3978    -4318    -4776    -5361    -6103    -7011 
   -7911    -8576    -8935    -9219    -9691   -10334   -10996   -11479 
  -11528   -11125   -10703   -10690   -11076   -11710   -12485   -13337 
  -14340   -15366   -16052   -16283   -16120   -15725   -15382   -15084 
  -14577   -13792   -12958   -12433   -12216   -11884   -11324   -10893 
  -10776   -10793   -10868   -11148   -11595   -12005   -12272   -12240 
  -11737   -11096   -10883   -11077   -11350   -11659   -12119   -12832 
  -13703   -14367   -14639   -14745   -14915   -14999   -14577   -13531 
  -12309   -11267   -10388    -9762    -9516    -9528    -9588    -9451 
   -8919    -8211    -7807    -7804    -7897    -7943    -8136    -8609 
   -9182    -9548    -9505    -9223    -9255    -9838   -10660   -11476 
  -12314   -13181   -13877   -14058   -13584   -12673   -11689   -10808 
   -9977    -9335    -9093    -9137    -9271    -9258    -8924    -8602 
   -8737    -9258    -9714    -9855    -9880    -9869    -9521    -8712 
   -7696    -6782    -6169    -5825    -5523    -5242    -5329    -5911 
   -6489    -6648    -6628    -6636    -6554    -6300    -5770    -4987 
   -4213    -3626    -3243    -3142    -3568    -4653    -6179    -7754 
   -8944    -9515    -9728    -9917   -10086   -10232   -10449   -10698 
  -10888   -10977   -10861   -10513   -10182   -10023    -9812    -9415 
   -9076    -9009    -9189    -9457    -9605    -9630    -9791   -10166 
  -10490   -10598   -10719   -11170   -11954   -12879   -13815   -14717 
  -15558   -16233   -16508   -16169   -15274   -14227   -13461   -13076 
  -12973   -13128   -13466   -13790   -13987   -14102   -14108   -13864 
  -13493   -13243   -13064   -12899   -12710   -12349   -11888   -11468 
  -11104   -10914   -11010   -11285   -11529   -11595   -11394   -10932 
  -10409   -10017    -9656    -9140    -8615    -8325    -8124    -7841 
   -7668    -7770    -8176    -8951    -9928   -10731   -11240   -11564 
  -11651   -11394   -10977   -10712   -10761   -11079   -11428   -11658 
  -11839   -11987   -12007   -11880   -11694   -11482   -11148   -10659 
  -10145    -9835    -9873   -10133   -10413   -10690   -10994   -11304 
  -11626   -11972   -12383   -12900   -13415   -13724   -13745   -13636 
  -13642   -13775   -13748   -13352   -12728   -12103   -11458   -10615 
   -9559    -8642    -8247    -8276    -8259    -7920    -7500    -7447 
   -7883    -8585    -9277    -9778   -10104   -10440   -10796   -10932 
  -10771   -10566   -10530   -10651   -10898   -11240   -11633   -12135 
  -12722   -13107   -13059   -12624   -11893   -10803    -9424    -8130 
