Origin Time       2014/07/12 04:22:00
Lat.              37.050
Long.             142.320
Depth. (km)       33
Mag.              7.0
Station Code      MYGH08
Station Lat.      38.1133
Station Long.     140.8441
Station Height(m) 10
Record Time       2014/07/12 04:22:29
Sampling Freq(Hz) 100Hz
Duration Time(s)  238
Dir.              6
Scale Factor      3920(gal)/6170801
Max. Acc. (gal)   8.240
Last Correction   2014/07/12 04:22:14
Memo.             
[...]
  -20459   -20427   -20127   -19835   -20159   -20981   -21686   -21926 
  -21736   -21535   -21718   -22034   -22101   -22073   -22100   -21883 
  -21337   -20767   -20387   -20425   -20768   -20789   -20513   -20363 
  -20217   -20189   -20525   -21031   -21629   -22117   -22335   -22767 
  -23411   -23818   -24365   -25220   -25832   -26176   -26256   -25666 
  -24790   -24420   -24516   -24636   -24531   -24191   -23956   -23933 
  -23565   -22645   -21801   -21354   -20858   -20057   -19468   -19508 
  -19524   -19004   -18691   -19088   -19801   -20387   -20553   -20475 
  -20489   -20607   -21087   -21877   -22358   -22403   -22275   -22259 
  -22410   -22423   -22224   -21763   -21058   -20627   -20594   -20562 
  -20466   -20614   -21344   -22452   -23159   -23134   -22699   -22156 
  -21780   -21760   -21867   -21881   -21763   -21459   -21163   -21182 
  -21537   -21786   -21506   -21050   -20837   -20803   -20980   -21311 
  -21539   -21720   -21976   -22152   -22158   -22094   -21972   -21749 
  -21384   -20984   -20955   -21281   -21596   -21997   -22320   -22271 
  -22259   -22285   -22032   -21951   -22310   -22761   -23096   -23275 
  -23161   -22728   -22217   -21711   -21196   -20913   -20834   -20710 
  -20652   -20757   -20911   -21051   -21077   -21039   -21067   -20960 
  -20794   -20950   -21211   -21394   -21747   -22209   -22671   -22948 
  -22639   -21933   -21388   -21171   -21088   -20961   -20909   -20911 
  -20818   -20802   -20855   -20847   -20900   -20893   -20702   -20508 
  -20302   -20027   -19773   -19737   -20191   -20893   -21244   -21167 
  -20977   -20937   -21260   -21967   -22660   -23034   -23424   -24032 
  -24445   -24387   -24085   -23938   -23866   -23495   -23001   -22378 
  -21277   -20281   -19817   -19436   -19418   -20067   -20789   -21404 
  -21913   -22041   -21989   -22025   -22070   -22047   -21986   -22067 
  -22337   -22439   -22147   -21655   -21093   -20622   -20610   -20962 
  -21194   -21243   -21401   -21793   -22067   -21844   -21509   -21615 
  -21964   -22015   -21485   -20664   -20224   -20299   -20343   -20175 
  -20213   -20601   -21065   -21556   -22191   -22647   -22587   -22478 
  -22623   -22526   -22066   -21425   -20739   -20571   -20988   -21263 
  -21024   -20421   -19803   -19502   -19778   -20628   -21518   -22162 
  -22822   -23439   -23780   -24146   -24798   -25226   -24987   -24395 
  -23736   -23089   -22687   -22471   -22199   -22004   -22004   -21977 
  -21703   -21130   -20426   -19849   -19530   -19474   -19505   -19533 
  -19771   -20309   -21080   -21899   -22275   -22149   -22167   -22511 
  -22718   -22725   -22873   -23116   -23131   -22845   -22473   -22353 
  -22474   -22484   -22203   -21582   -21025   -20944   -20838   -20508 
  -20486   -20823   -21257   -21677   -21996   -22241   -22515   -22734 
  -22770   -22616   -22208   -21731   -21556   -21598   -21582   -21395 
  -21037   -20531   -19754   -18899   -18497   -18490   -18682   -19425 
  -20613   -21596   -22303   -22876   -23167   -23259   -23329   -23232 
  -22927   -22665   -22460   -22145   -21799   -21496   -21288   -21309 
  -21329   -21237   -21419   -21784   -21845   -21536   -21087   -20905 
  -21142   -21389   -21425   -21349   -21267   -21302   -21266   -20982 
  -20795   -20849   -20812   -20579   -20307   -20244   -20498   -20744 
  -20726   -20607   -20675   -21121   -21877   -22789   -23620   -24013 
  -24085   -24057   -23905   -23815   -23679   -23412   -23363   -23171 
  -22348   -21196   -20042   -19358   -19397   -19503   -19378   -19211 
  -18931   -18884   -19257   -19559   -19940   -20626   -21176   -21778 
  -22771   -23686   -24156   -24229   -24055   -23819   -23639   -23562 
  -23332   -22902   -22718   -22550   -21950   -21386   -21271   -21403 
  -21444   -21284   -21271   -21635   -22151   -22640   -22929   -22981 
  -22969   -22692   -22076   -21626   -21566   -21573   -21214   -20605 
  -20489   -20984   -21284   -21092   -20932   -21075   -21427   -21801 
  -21864   -21785   -22006   -22280   -22421   -22608   -22710   -22646 
  -22417   -22041   -21881   -21975   -22053   -22152   -22113   -21572 
  -20694   -19869   -19165   -18733   -18846   -19335   -19828   -20157 
  -20345   -20628   -21097   -21454   -21681   -22070   -22526   -22836 
  -23110   -23268   -23058   -22672   -22492   -22707   -23495   -24661 
  -25452   -25538   -25335   -25198   -25157   -25164   -25105   -24737 
  -23839   -22639   -21700   -21197   -20888   -20537   -19941   -19135 
  -18621   -18719   -18885   -18672   -18533   -18782   -19231   -19758 
  -20277   -20771   -21230   -21591   -21924   -22175   -22242   -22192 
  -22138   -22352   -22806   -23009   -22865   -22741   -22887   -23146 
  -23073   -22486   -21702   -21311   -21536   -21917   -22059   -21891 
  -21390   -20824   -20463   -20224   -20109   -20223   -20596   -21314 
  -22151   -22684   -22937   -22973   -22804   -22638   -22283   -21589 
  -21038   -20808   -20825   -21206   -21713   -22084   -22417   -22692 
  -22822   -22833   -22617   -22027   -21205   -20443   -19957   -19823 
  -19915   -20033   -20060   -19979   -19819   -19556   -19145   -18810 
  -19037   -19901   -20964   -21860   -22365   -22376   -21908   -21014 
  -20162   -19993   -20416   -21048   -21888   -22654   -22765   -22200 
  -21469   -21072   -21003   -20986   -21105   -21466   -21925   -22401 
  -22840   -23195   -23386   -23278   -22915   -22467   -21954   -21347 
  -20847   -20733   -20865   -20731   -20341   -20219   -20435   -20718 
  -21022   -21418   -21871   -22166   -22142   -21956   -21884   -22112 
  -22597   -23088   -23419   -23431   -22889   -22000   -21394   -21338 
  -21593   -21949   -22379   -22710   -22722   -22583   -22514   -22415 
  -22186   -21810   -21313   -20975   -21037   -21446   -22003   -22348 
  -22335   -22386   -22700   -22833   -22519   -21903   -21124   -20501 
  -20419   -20696   -20844   -20588   -19940   -19310   -19054   -19070 
  -19270   -19628   -20043   -20499   -20868   -21049   -21141   -21015 
  -20490   -19795   -19335   -19474   -20230   -21120   -21860   -22505 
  -22852   -22667   -22215   -21936   -21909   -22059   -22389   -22779 
  -23037   -23151   -23274   -23602   -24163   -24692   -24996   -25211 
  -25338   -25103   -24518   -23867   -23344   -23002   -22714   -22374 
  -22063   -21790   -21363   -20837   -20676   -21074   -21578   -21709 
  -21575   -21665   -22144   -22594   -22496   -21911   -21428   -21285 
  -21253   -21237   -21269   -21298   -21208   -21002   -20856   -20911 
  -21278   -21831   -22273   -22623   -22856   -22793   -22597   -22289 
  -21583   -20580   -19686   -19134   -18979   -19045   -19090   -19393 
  -20160   -20768   -21007   -21434   -21885   -21872   -21741   -21961 
  -22353   -22468   -22238   -22039   -22109   -22217   -22099   -21832 
  -21488   -21211   -21331   -21631   -21608   -21162   -20507   -20231 
  -20593   -21132   -21667   -22185   -22493   -22572   -22301   -21781 
  -21563   -21645   -21633   -21548   -21538   -21612   -21756   -21938 
  -22143   -22334   -22453   -22568   -22666   -22516   -22066   -21505 
  -21101   -21022   -21071   -21105   -21172   -21074   -20833   -20750 
  -20709   -20539   -20386   -20281   -20023   -19515   -19107   -19204 
  -19608   -20128   -20879   -21576   -21915   -22151   -22584   -23077 
  -23188   -22844   -22510   -22499   -22786   -23177   -23431   -23455 
  -23171   -22565   -21750   -20856   -20224   -20049   -19999   -19894 
  -19969   -20383   -20965   -21377   -21367   -20857   -20145   -19682 
  -19436   -19213   -19136   -19259   -19491   -19919   -20628   -21335 
  -21662   -21703   -21844   -22207   -22548   -22758   -23074   -23420 
  -23470   -23116   -22413   -21817   -21802   -22232   -22814   -23286 
  -23438   -23487   -23534   -23347   -23143   -23164   -23128   -22863 
  -22491   -22211   -22176   -22124   -21627   -20918   -20589   -20516 
  -20230   -19795   -19554   -19824   -20643   -21635   -22495   -23021 
  -22945   -22274   -21516   -21276   -21518   -21661   -21494   -21228 
  -21010   -20777   -20409   -20068   -19940   -19915   -19931   -20102 
  -20600   -21390   -22077   -22474   -22673   -22694   -22810   -23113 
  -23021   -22496   -22125   -21880   -21707   -21736   -21614   -21442 
  -21522   -21454   -21247   -21344   -21722   -22221   -22556   -22564 
  -22613   -22715   -22533   -22318   -22449   -22980   -23630   -23810 
  -23443   -22791   -21908   -21083   -20656   -20778   -21367   -21824 
  -21746   -21463   -21517   -22088   -22695   -22802   -22571   -22419 
  -22466   -22555   -22387   -21860   -21219   -20640   -20273   -20421 
  -20876   -21090   -21155   -21395   -21598   -21649   -21850   -22130 
  -22309   -22431   -22151   -21538   -21315   -21342   -21152   -20866 
  -20554   -20484   -20821   -21089   -21285   -21688   -22121   -22580 
  -22957   -22981   -22907   -22967   -23081   -23209   -23244   -23199 
  -23115   -22875   -22682   -22697   -22556   -22086   -21549   -21095 
  -20612   -20090   -19686   -19363   -18996   -18675   -18520   -18530 
  -18776   -19355   -20144   -21016   -21937   -22724   -23156   -23200 
  -23094   -23134   -23319   -23632   -23962   -23920   -23555   -23125 
  -22593   -22181   -22123   -22214   -22317   -22676   -23410   -23963 
  -23899   -23526   -23101   -22611   -22029   -21450   -21206   -21469 
  -22004   -22270   -22037   -21714   -21521   -21459   -21719   -22133 
  -22398   -22586   -22678   -22654   -22802   -23007   -22862   -22566 
  -22315   -21902   -21553   -21586   -21910   -22421   -22843   -22839 
  -22576   -22260   -21776   -21303   -21197   -21373   -21635   -22179 
  -23182   -24251   -24929   -25248   -25276   -24974   -24547   -24249 
  -24121   -23942   -23507   -23029   -22673   -22305   -22147   -22392 
  -22594   -22527   -22405   -22230   -22022   -21963   -21906   -21661 
  -21372   -21061   -20750   -20780   -21286   -22012   -22568   -22741 
  -22641   -22399   -22048   -21572   -21068   -20672   -20219   -19835 
  -19812   -19877   -20049   -20379   -20279   -19859   -19584   -19207 
  -18694   -18169   -17660   -17395   -17143   -16729   -16455   -16306 
  -16286   -16388   -16340   -16298   -16577   -17446   -18981   -20582 
  -21898   -23023   -23869   -24661   -25671   -26529   -26888   -27021 
  -27115   -26893   -26500   -26281   -26048   -25725   -25255   -24415 
  -23530   -22817   -22063   -21506   -21261   -21107   -21246   -21729 
  -22290   -22881   -23214   -22904   -22298   -21967   -21857   -21551 
  -20843   -19991   -19375   -18749   -17869   -17293   -17313   -17590 
  -17937   -18207   -18357   -18618   -19020   -19367   -19542   -19599 
  -19739   -20211   -21026   -21922   -22702   -23189   -23269   -23119 
  -23003   -23065   -23052   -22626   -21895   -20978   -20242   -20248 
  -20472   -20307   -20288   -20487   -20365   -20204   -20392   -20664 
  -20723   -20454   -19976   -19592   -19394   -19232   -19026   -18971 
  -19369   -20194   -21220   -22329   -23272   -23915   -24589   -25228 
  -25373   -25099   -24437   -23302   -22257   -21580   -20848   -20086 
  -19771   -20062   -20709   -21167   -21015   -20384   -19500   -18504 
  -17873   -17961   -18557   -19311   -20036   -20743   -21354   -21490 
  -21071   -20413   -19730   -19306   -19239   -19297   -19552   -20067 
  -20634   -21188   -21577   -21597   -21276   -20766   -20392   -20406 
  -20706   -21149   -21586   -21882   -22202   -22587   -22717   -22374 
  -21709   -21158   -21044   -21466   -22247   -22964   -23761   -24754 
  -25224   -25003   -24533   -23900   -23201   -22489   -21746   -21183 
  -20917   -21017   -21488   -22203   -23138   -24076   -24715   -25092 
  -25178   -24858   -24391   -24123   -24064   -24153   -24414   -24726 
  -25049   -25366   -25543   -25672   -25806   -25808   -25804   -25893 
  -25683   -24770   -23276   -21624   -20179   -19056   -18086   -17223 
  -16640   -16324   -16083   -15894   -15874   -16030   -16391   -17028 
  -17741   -18253   -18461   -18577   -19227   -20528   -21807   -22714 
  -23276   -23543   -23725   -23823   -23713   -23594   -23813   -24332 
  -24727   -24909   -24865   -24397   -23810   -23454   -23246   -23037 
  -22701   -22491   -22756   -23234   -23557   -23773   -24090   -24501 
  -24792   -24940   -24928   -24745   -24620   -24315   -23561   -22968 
  -22746   -22344   -21630   -20709   -19766   -19059   -18577   -18361 
  -18335   -18329   -18520   -18920   -19430   -20230   -21359   -22599 
  -23591   -24060   -24128   -23997   -23737   -23487   -23265   -22907 
  -22487   -22144   -21797   -21485   -21305   -21286   -21406   -21604 
  -22056   -22699   -23168   -23518   -23712   -23589   -23395   -23158 
  -22598   -21582   -20267   -19216   -18806   -18833   -18999   -19195 
  -19410   -19582   -19764   -20115   -20427   -20331   -19911   -19511 
  -19213   -19048   -19191   -19501   -19772   -20081   -20178   -19731 
  -19014   -18417   -18092   -18110   -18367   -18670   -18871   -18971 
  -19204   -19560   -19787   -20040   -20587   -21534   -22674   -23096 
  -22474   -21513   -20370   -18921   -17550   -16726   -16763   -17525 
  -18641   -19908   -21147   -22403   -23628   -24433   -24789   -24898 
  -24855   -24991   -25551   -26336   -27188   -27997   -28389   -28258 
  -27766   -26913   -25822   -24706   -23814   -23287   -22823   -22306 
  -21868   -21427   -21073   -20718   -19929   -18855   -17950   -17244 
  -16693   -16242   -15730   -15075   -14071   -12645   -11137    -9808 
   -8893    -8699    -9253   -10509   -12406   -14652   -16857   -18667 
  -20001   -21206   -22540   -23722   -24605   -25554   -26591   -27620 
  -28918   -30274   -31349   -32196   -32478   -32086   -31394   -30207 
  -28544   -27156   -26395   -26017   -25726   -25313   -24727   -24163 
  -23802   -23684   -23829   -24055   -24105   -23854   -23224   -22424 
  -21714   -20928   -19899   -18732   -17500   -16295   -15244   -14348 
  -13776   -13650   -13735   -14217   -15295   -16441   -17522   -18699 
  -19635   -20364   -21195   -22079   -23040   -23983   -24471   -24346 
  -23836   -23309   -23232   -23898   -25214   -26749   -27985   -28838 
  -29527   -29983   -29995   -29576   -28861   -27977   -27011   -25921 
  -24604   -23161   -21764   -20511   -19684   -19379   -19357   -19476 
  -19532   -19443   -19375   -19238   -18997   -18794   -18500   -18104 
  -17973   -18361   -19145   -19878   -20323   -20802   -21374   -21746 
  -22049   -22523   -23133   -23864   -24799   -25967   -27237   -28267 
  -28504   -27655   -26145   -24647   -23530   -22806   -22455   -22492 
  -22518   -22183   -21704   -21261   -20815   -20374   -20124   -20285 
  -20586   -20531   -19953   -19037   -18159   -17464   -17026   -17046 
  -17436   -18167   -19314   -20483   -21366   -22094   -22719   -23269 
  -23832   -24412   -25011   -25350   -25144   -24785   -24670   -24682 
  -24652   -24422   -23978   -23522   -23081   -22642   -22453   -22790 
  -23455   -23860   -23843   -23550   -22920   -21963   -20840   -20006 
  -19983   -20529   -21085   -21583   -22144   -22656   -22827   -22485 
  -21735   -20843   -20011   -19378   -19134   -19323   -19768   -20299 
  -20768   -20995   -20943   -20849   -20925   -21267   -22007   -22887 
  -23262   -23075   -22826   -22699   -22470   -21797   -20763   -19967 
  -19517   -19046   -18694   -18790   -19302   -20086   -20850   -21193 
  -21067   -20721   -20438   -20386   -20386   -20155   -19825   -19806 
  -20191   -20641   -20936   -21171   -21377   -21496   -21616   -21751 
  -21891   -22163   -22471   -22601   -22581   -22501   -22532   -23038 
  -24048   -25011   -25619   -25962   -25924   -25463   -24623   -23322 
  -21903   -20812   -19943   -19154   -18576   -18169   -17716   -17230 
  -16838   -16467   -16012   -15621   -15621   -16018   -16516   -17126 
  -18041   -19205   -20306   -20932   -21004   -20724   -20168   -19641 
  -19583   -20064   -20982   -21795   -21782   -21262   -20959   -20815 
  -20537   -20351   -20714   -21450   -21992   -22313   -22525   -22526 
  -22413   -22136   -21622   -21380   -21656   -22196   -23028   -23930 
  -24512   -24999   -25452   -25610   -25499   -25095   -24489   -23995 
  -23609   -23361   -23417   -23644   -23876   -24048   -24253   -24694 
  -25126   -25237   -25239   -25270   -25209   -25161   -25111   -24724 
  -24089   -23523   -23092   -22969   -23091   -23071   -22836   -22428 
  -21923   -21529   -21275   -21083   -20766   -20104   -19123   -17872 
  -16486   -15306   -14585   -14502   -14992   -15619   -16107   -16516 
  -16943   -17501   -18317   -19362   -20435   -21300   -21810   -22038 
  -22139   -22113   -22017   -22103   -22610   -23552   -24675   -25887 
  -27316   -28744   -29708   -30019   -29806   -29376   -28794   -27775 
  -26407   -25253   -24599   -24277   -24062   -23875   -23639   -23189 
  -22533   -21889   -21295   -20667   -20235   -20116   -19812   -19157 
  -18568   -18110   -17847   -17912   -18030   -18297   -18944   -19580 
  -20063   -20659   -21456   -22336   -23009   -23372   -23606   -23841 
  -24137   -24481   -24717   -24467   -23470   -22076   -20791   -19882 
  -19467   -19224   -18763   -18314   -17950   -17292   -16459   -15870 
  -15585   -15646   -16121   -16870   -17752   -18533   -19064   -19645 
  -20280   -20595   -20846   -21489   -22301   -23093   -24047   -24933 
  -25457   -25808   -25971   -25634   -24804   -23771   -22866   -22378 
  -22424   -22754   -22994   -23041   -22885   -22616   -22435   -22151 
  -21506   -20678   -19913   -19477   -19557   -20065   -20903   -21816 
  -22523   -23060   -23344   -23335   -23336   -23417   -23508   -23692 
  -23769   -23422   -22804   -22119   -21330   -20717   -20669   -21225 
  -22128   -22695   -22454   -21703   -20742   -19794   -19213   -19039 
  -19135   -19368   -19551   -19700   -19913   -20087   -20125   -20195 
  -20412   -20601   -20705   -20723   -20515   -20197   -19958   -19895 
  -20224   -20895   -21620   -22383   -23097   -23482   -23658   -23970 
  -24361   -24606   -24708   -24738   -24742   -24767   -24701   -24406 
  -23877   -23082   -22242   -21873   -21987   -22319   -23012   -24058 
  -24888   -25054   -24705   -24107   -23401   -22742   -22213   -21987 
  -22102   -22209   -22238   -22167   -21647   -20868   -20257   -19950 
  -20115   -20519   -20652   -20503   -20417   -20562   -20634   -20348 
  -19841   -19253   -18646   -18052   -17392   -16734   -16369   -16614 
  -17517   -18717   -19858   -20878   -21751   -22348   -22693   -22945 
  -23175   -23533   -24034   -24248   -23994   -23473   -22599   -21405 
  -20323   -19389   -18488   -17912   -17712   -17664   -17741   -17950 
  -18374   -19163   -20309   -21691   -22937   -23647   -23985   -24361 
  -24856   -25325   -25723   -26202   -26736   -27076   -27210   -27119 
  -26546   -25559   -24519   -23539   -22645   -21998   -21633   -21453 
  -21431   -21529   -21669   -21652   -21264   -20733   -20339   -20063 
  -20128   -20549   -20735   -20679   -20819   -20945   -20899   -20827 
  -20589   -20308   -20360   -20665   -21042   -21412   -21598   -21600 
  -21493   -21208   -20804   -20480   -20404   -20645   -21007   -21298 
  -21790   -22822   -24224   -25622   -26718   -27282   -27421   -27375 
  -27108   -26662   -26217   -25715   -25144   -24675   -24273   -23804 
  -23214   -22554   -22146   -22231   -22632   -23114   -23490   -23518 
