Origin Time       2014/07/12 04:22:00
Lat.              37.050
Long.             142.320
Depth. (km)       33
Mag.              7.0
Station Code      MYGH08
Station Lat.      38.1133
Station Long.     140.8441
Station Height(m) -90
Record Time       2014/07/12 04:22:29
Sampling Freq(Hz) 100Hz
Duration Time(s)  238
Dir.              2
Scale Factor      3920(gal)/6170801
Max. Acc. (gal)   5.475
Last Correction   2014/07/12 04:22:14
Memo.             
[...]
  -12359   -12395   -12290   -12297   -12587   -12975   -13081   -12915 
  -12920   -13197   -13327   -13179   -13151   -13429   -13715   -13738 
  -13479   -13087   -12792   -12674   -12588   -12432   -12258   -12100 
  -11981   -11974   -12039   -12069   -12111   -12177   -12102   -11900 
  -11826   -11979   -12215   -12360   -12316   -12193   -12328   -12761 
  -13025   -12905   -12737   -12675   -12496   -12207   -12113   -12270 
  -12394   -12353   -12289   -12295   -12456   -12851   -13144   -12995 
  -12732   -12751   -12917   -13024   -13032   -12876   -12602   -12433 
  -12357   -12104   -11798   -11858   -12171   -12294   -12258   -12313 
  -12426   -12470   -12430   -12303   -12141   -12136   -12411   -12780 
  -13023   -13202   -13359   -13378   -13400   -13634   -13832   -13745 
  -13638   -13702   -13696   -13503   -13217   -12764   -12219   -11988 
  -12108   -12168   -12053   -11997   -12071   -12179   -12316   -12526 
  -12801   -13130   -13450   -13635   -13675   -13721   -13870   -14045 
  -14137   -14087   -13852   -13498   -13233   -13186   -13345   -13687 
  -14066   -14236   -14241   -14349   -14583   -14756   -14805   -14677 
  -14208   -13426   -12666   -12247   -12230   -12457   -12640   -12609 
  -12530   -12673   -12929   -12911   -12612   -12445   -12506   -12481 
  -12306   -12171   -12148   -12245   -12404   -12458   -12449   -12640 
  -13053   -13331   -13276   -13159   -13198   -13217   -13047   -12774 
  -12557   -12445   -12301   -11973   -11583   -11387   -11455   -11707 
  -12048   -12325   -12461   -12558   -12585   -12301   -11836   -11713 
  -12019   -12303   -12369   -12405   -12497   -12545   -12492   -12375 
  -12288   -12340   -12508   -12591   -12532   -12566   -12805   -13040 
  -13111   -13059   -12983   -12964   -12956   -12767   -12388   -12192 
  -12458   -12907   -13149   -13188   -13167   -13078   -12883   -12544 
  -12038   -11572   -11475   -11668   -11700   -11438   -11226   -11305 
  -11555   -11774   -11892   -12004   -12261   -12652   -13068   -13526 
  -14004   -14342   -14475   -14475   -14442   -14437   -14394   -14206 
  -13868   -13527   -13378   -13306   -12954   -12331   -11821   -11632 
  -11632   -11674   -11798   -12080   -12480   -12744   -12552   -12047 
  -11687   -11574   -11636   -11953   -12397   -12655   -12742   -12882 
  -12998   -12922   -12799   -12842   -13059   -13324   -13484   -13438 
  -13150   -12713   -12262   -11841   -11621   -11822   -12191   -12299 
  -12261   -12500   -13027   -13509   -13778   -13801   -13551   -13254 
  -13140   -12975   -12524   -11982   -11545   -11199   -10975   -10881 
  -10774   -10678   -10897   -11607   -12614   -13543   -14121   -14355 
  -14413   -14381   -14284   -14220   -14251   -14265   -14166   -13997 
  -13800   -13621   -13575   -13771   -14135   -14307   -14112   -13923 
  -14052   -14340   -14534   -14505   -14233   -13861   -13528   -13198 
  -12878   -12688   -12588   -12497   -12563   -12878   -13289   -13616 
  -13752   -13656   -13403   -13148   -12969   -12837   -12824   -13075 
  -13534   -14016   -14351   -14455   -14501   -14648   -14723   -14600 
  -14443   -14322   -14098   -13679   -13086   -12390   -11758   -11391 
  -11296   -11309   -11362   -11525   -11821   -12149   -12429   -12707 
  -13022   -13297   -13479   -13549   -13494   -13408   -13368   -13271 
  -13112   -13054   -13032   -12862   -12677   -12600   -12517   -12463 
  -12471   -12300   -11927   -11690   -11781   -12089   -12351   -12347 
  -12106   -11921   -11922   -11870   -11717   -11803   -12150   -12436 
  -12603   -12688   -12536   -12193   -11956   -11882   -11819   -11789 
  -11918   -12184   -12476   -12683   -12674   -12487   -12331   -12235 
  -12097   -12011   -12168   -12500   -12729   -12772   -12826   -12968 
  -13084   -13186   -13345   -13507   -13649   -13815   -13857   -13574 
  -13148   -12923   -12883   -12797   -12600   -12386   -12293   -12381 
  -12514   -12569   -12660   -12801   -12730   -12393   -12075   -11972 
  -12053   -12180   -12213   -12147   -12114   -12188   -12267   -12237 
  -12149   -12104   -12062   -11914   -11689   -11595   -11803   -12226 
  -12581   -12820   -13217   -13792   -14177   -14167   -13866   -13498 
  -13278   -13168   -12970   -12718   -12576   -12462   -12225   -11985 
  -11902   -11890   -11864   -11845   -11768   -11660   -11740   -11973 
  -12058   -12003   -12076   -12322   -12614   -12860   -12974   -12950 
  -12894   -12816   -12646   -12455   -12388   -12449   -12548   -12591 
  -12540   -12494   -12558   -12670   -12808   -13110   -13522   -13742 
  -13724   -13746   -13881   -13945   -13958   -14089   -14293   -14359 
  -14139   -13674   -13206   -12928   -12691   -12243   -11830   -11894 
  -12203   -12219   -11973   -11772   -11705   -11801   -12018   -12179 
  -12265   -12441   -12686   -12825   -12898   -13011   -13095   -13186 
  -13475   -13893   -14251   -14561   -14719   -14473   -13959   -13621 
  -13576   -13555   -13382   -13108   -12816   -12545   -12257   -12022 
  -12184   -12830   -13482   -13773   -13825   -13799   -13650   -13410 
  -13263   -13264   -13368   -13520   -13474   -13050   -12564   -12434 
  -12574   -12709   -12912   -13362   -13909   -14212   -14142   -13863 
  -13678   -13771   -13944   -13837   -13526   -13410   -13485   -13390 
  -13057   -12801   -12875   -13221   -13561   -13704   -13742   -13805 
  -13797   -13538   -13031   -12435   -11880   -11409   -11088   -10999 
  -11114   -11273   -11350   -11373   -11475   -11709   -11957   -12108 
  -12192   -12286   -12447   -12692   -12996   -13297   -13551   -13769 
  -13894   -13804   -13582   -13509   -13650   -13751   -13664   -13487 
  -13276   -13050   -12912   -12849   -12692   -12460   -12384   -12519 
  -12727   -12998   -13362   -13686   -13935   -14232   -14468   -14440 
  -14310   -14313   -14310   -14152   -14039   -14033   -13842   -13393 
  -12944   -12633   -12460   -12428   -12388   -12106   -11729   -11681 
  -11950   -12143   -12138   -12069   -12086   -12328   -12710   -12965 
  -13049   -13106   -13087   -12875   -12608   -12444   -12351   -12379 
  -12632   -12986   -13215   -13228   -12980   -12495   -12059   -11944 
  -12027   -12095   -12192   -12314   -12291   -12104   -11882   -11668 
  -11510   -11515   -11610   -11638   -11664   -11819   -12019   -12135 
  -12158   -12117   -12035   -11960   -11942   -11948   -11915   -11894 
  -11971   -12169   -12527   -12954   -13194   -13172   -13067   -13033 
  -13057   -13059   -13118   -13349   -13632   -13778   -13713   -13488 
  -13276   -13228   -13362   -13560   -13699   -13845   -14056   -14123 
  -13915   -13548   -13101   -12669   -12450   -12429   -12378   -12233 
  -12094   -11984   -11907   -11904   -11915   -11927   -12157   -12624 
  -12973   -13076   -13115   -13109   -13031   -13024   -13075   -13073 
  -13158   -13481   -13818   -13854   -13615   -13315   -13058   -12894 
  -12791   -12573   -12217   -11975   -11946   -11937   -11864   -11873 
  -11949   -11864   -11620   -11516   -11714   -12004   -12064   -11903 
  -11850   -12076   -12421   -12643   -12667   -12665   -12837   -13166 
  -13450   -13563   -13602   -13658   -13626   -13462   -13297   -13159 
  -12952   -12709   -12531   -12422   -12362   -12323   -12255   -12239 
  -12389   -12542   -12434   -12117   -11862   -11795   -11970   -12484 
  -13193   -13719   -13939   -13959   -13746   -13285   -12788   -12429 
  -12255   -12382   -12777   -13070   -13074   -13078   -13298   -13586 
  -13810   -13945   -13900   -13685   -13476   -13300   -13099   -13063 
  -13345   -13689   -13847   -13931   -13963   -13763   -13430   -13224 
  -13195   -13312   -13461   -13343   -12918   -12494   -12120   -11554 
  -10922   -10661   -10860   -11301   -11851   -12358   -12670   -12922 
  -13294   -13671   -13939   -14184   -14354   -14279   -14060   -13865 
  -13604   -13236   -12924   -12748   -12670   -12683   -12749   -12749 
  -12694   -12734   -12893   -13062   -13209   -13318   -13314   -13182 
  -13000   -12807   -12601   -12430   -12358   -12390   -12499   -12650 
  -12800   -12959   -13165   -13422   -13713   -13989   -14157   -14130 
  -13927   -13675   -13471   -13362   -13395   -13537   -13646   -13632 
  -13506   -13315   -13126   -13014   -12987   -12990   -12941   -12816 
  -12692   -12614   -12523   -12376   -12210   -12109   -12092   -12050 
  -11934   -11875   -11917   -11907   -11762   -11564   -11410   -11336 
  -11255   -11025   -10710   -10588   -10814   -11278   -11766   -12167 
  -12536   -12904   -13139   -13144   -13044   -13056   -13221   -13386 
  -13405   -13241   -12955   -12639   -12348   -12149   -12141   -12311 
  -12484   -12546   -12593   -12710   -12775   -12630   -12319   -12104 
  -12254   -12731   -13212   -13518   -13735   -13905   -13994   -14040 
  -14020   -13863   -13698   -13701   -13744   -13635   -13553   -13664 
  -13723   -13598   -13525   -13577   -13598   -13597   -13656   -13694 
  -13646   -13512   -13197   -12736   -12451   -12477   -12591   -12633 
  -12638   -12662   -12785   -13066   -13368   -13487   -13506   -13705 
  -14065   -14309   -14379   -14408   -14401   -14295   -14136   -14044 
  -14106   -14229   -14161   -13929   -13942   -14287   -14461   -14186 
  -13785   -13515   -13255   -12954   -12673   -12350   -12065   -12018 
  -12075   -12006   -11890   -11857   -11910   -12093   -12379   -12502 
  -12347   -12174   -12115   -12041   -12034   -12291   -12709   -13112 
  -13540   -13938   -14101   -14068   -14057   -14112   -14175   -14230 
  -14167   -13879   -13508   -13311   -13308   -13310   -13173   -12949 
  -12867   -13013   -13188   -13276   -13361   -13427   -13365   -13190 
  -13039   -12966   -12892   -12809   -12749   -12662   -12525   -12348 
  -12126   -11964   -12012   -12237   -12447   -12470   -12345   -12325 
  -12535   -12791   -12913   -12976   -13140   -13388   -13581   -13681 
  -13720   -13721   -13810   -14076   -14272   -14075   -13604   -13237 
  -13045   -12807   -12452   -12140   -12030   -12154   -12438   -12721 
  -12892   -12991   -13124   -13299   -13411   -13399   -13262   -12970 
  -12615   -12410   -12364   -12302   -12216   -12125   -11879   -11465 
  -11127   -10946   -10768   -10604   -10548   -10505   -10496   -10795 
  -11385   -11866   -12122   -12424   -12801   -13016   -13047   -13000 
  -12834   -12605   -12515   -12570   -12607   -12570   -12472   -12301 
  -12060   -11798   -11566   -11347   -11085   -10766   -10407   -10120 
  -10068   -10150   -10104   -10023   -10196   -10602   -11104   -11731 
  -12431   -12982   -13306   -13502   -13588   -13530   -13393   -13235 
  -13137   -13290   -13695   -14069   -14271   -14456   -14632   -14555 
  -14175   -13704   -13286   -12962   -12758   -12645   -12609   -12644 
  -12692   -12757   -12911   -13089   -13105   -12903   -12658   -12596 
  -12692   -12695   -12566   -12496   -12538   -12649   -12772   -12700 
  -12339   -11942   -11710   -11472   -11070   -10724   -10653   -10818 
  -11226   -11793   -12141   -12212   -12409   -12826   -13179   -13397 
  -13535   -13504   -13357   -13291   -13310   -13346   -13460   -13656 
  -13859   -14071   -14246   -14204   -13945   -13703   -13564   -13436 
  -13302   -13176   -13047   -12962   -12956   -12989   -13053   -13213 
  -13453   -13570   -13406   -13060   -12762   -12645   -12576   -12325 
  -11984   -11857   -12008   -12253   -12394   -12383   -12363   -12434 
  -12443   -12247   -11956   -11685   -11419   -11210   -11147   -11233 
  -11449   -11733   -11979   -12186   -12392   -12511   -12499   -12474 
  -12542   -12654   -12663   -12543   -12458   -12520   -12666   -12830 
  -13018   -13163   -13152   -13045   -13038   -13159   -13259   -13295 
  -13364   -13491   -13570   -13541   -13467   -13372   -13191   -12937 
  -12756   -12750   -12866   -12993   -13054   -12971   -12750   -12540 
  -12444   -12419   -12385   -12270   -12112   -12138   -12502   -12986 
  -13269   -13384   -13552   -13800   -14047   -14264   -14449   -14564 
  -14559   -14450   -14250   -13863   -13197   -12382   -11767   -11562 
  -11584   -11554   -11430   -11333   -11393   -11618   -11811   -11817 
  -11758   -11762   -11784   -11800   -11792   -11692   -11522   -11395 
  -11356   -11388   -11541   -11796   -11962   -11997   -11946   -11673 
  -11153   -10590   -10068    -9555    -9207    -9214    -9428    -9589 
   -9708    -9909   -10171   -10420   -10640   -10816   -10969   -11212 
  -11577   -12007   -12548   -13203   -13754   -14055   -14133   -13889 
  -13229   -12392   -11731   -11317   -11022   -10751   -10458   -10189 
  -10123   -10308   -10543   -10724   -10958   -11263   -11546   -11842 
  -12221   -12599   -12997   -13660   -14585   -15536   -16487   -17451 
  -18317   -19085   -19689   -19858   -19531   -18888   -18053   -17192 
  -16591   -16336   -16236   -16051   -15651   -15091   -14546   -14061 
  -13525   -12885   -12244   -11715   -11271   -10791   -10227    -9655 
   -9218    -9062    -9183    -9380    -9587    -9962   -10563   -11293 
  -12023   -12554   -12757   -12705   -12577   -12498   -12458   -12510 
  -12818   -13337   -13880   -14356   -14733   -15066   -15348   -15378 
  -15154   -14969   -14880   -14642   -14226   -13840   -13586   -13522 
  -13636   -13706   -13559   -13295   -13079   -12880   -12610   -12289 
  -11915   -11510   -11205   -11036   -10978   -11102   -11437   -11917 
  -12452   -12892   -13037   -12735   -12060   -11343   -10818   -10482 
  -10391   -10655   -11224   -11925   -12616   -13267   -13923   -14714 
  -15760   -16952   -18120   -19261   -20310   -21066   -21412   -21368 
  -21003   -20320   -19326   -18225   -17185   -16214   -15360   -14640 
  -14060   -13712   -13484   -13043   -12341   -11667   -11173   -10799 
  -10550   -10357   -10041    -9641    -9333    -9117    -8878    -8682 
   -8801    -9334   -10097   -10946   -11791   -12514   -13128   -13781 
  -14535   -15236   -15823   -16432   -17074   -17665   -18059   -18069 
  -17705   -17008   -16020   -14914   -13813   -12832   -12068   -11360 
  -10519    -9619    -8808    -8056    -7301    -6677    -6384    -6537 
   -7179    -8160    -9195   -10144   -11062   -12024   -12907   -13481 
  -13693   -13670   -13585   -13573   -13598   -13524   -13350   -13244 
  -13294   -13307   -13086   -12697   -12173   -11474   -10688    -9843 
   -9013    -8396    -7911    -7367    -6911    -6808    -7027    -7465 
   -8241    -9301   -10233   -10805   -11116   -11347   -11684   -12109 
  -12405   -12464   -12401   -12399   -12480   -12562   -12543   -12349 
  -12165   -12234   -12520   -12836   -12980   -12878   -12737   -12801 
  -13046   -13284   -13487   -13791   -14168   -14458   -14611   -14671 
  -14738   -14857   -14969   -15079   -15179   -15231   -15306   -15392 
  -15375   -15235   -14962   -14533   -14078   -13771   -13705   -13975 
  -14563   -15132   -15382   -15440   -15528   -15592   -15416   -14879 
  -14137   -13454   -12848   -12200   -11539   -11053   -10847   -10768 
  -10666   -10586   -10549   -10536   -10553   -10565   -10630   -10768 
  -10774   -10571   -10337   -10245   -10364   -10607   -10809   -10901 
  -10891   -10864   -10961   -11161   -11256   -11119   -10843   -10690 
  -10813   -11069   -11322   -11591   -11842   -11992   -11946   -11604 
  -10977   -10205    -9474    -8935    -8707    -8915    -9441    -9911 
  -10304   -10948   -11700   -12064   -11994   -11787   -11672   -11855 
  -12407   -13005   -13205   -13020   -12823   -12739   -12745   -13111 
  -14044   -15378   -16978   -18685   -20001   -20598   -20638   -20307 
  -19670   -18893   -18153   -17423   -16607   -15757   -15073   -14820 
  -15121   -15693   -16003   -15842   -15495   -15161   -14729   -14227 
  -13840   -13562   -13339   -13288   -13359   -13278   -13064   -13055 
  -13367   -13821   -14242   -14518   -14711   -15069   -15641   -16278 
  -16927   -17486   -17743   -17640   -17398   -17198   -16890   -16291 
  -15518   -14761   -14106   -13541   -12911   -12241   -11818   -11656 
  -11579   -11544   -11515   -11596   -11841   -12012   -12042   -12042 
  -11981   -11842   -11685   -11601   -11606   -11603   -11668   -11967 
  -12369   -12667   -12796   -12573   -11758   -10487    -9263    -8410 
   -7897    -7710    -7806    -8025    -8467    -9227    -9965   -10424 
  -10712   -10957   -11277   -11656   -11836   -11782   -11764   -11953 
  -12297   -12506   -12365   -12120   -11973   -11801   -11502   -10995 
  -10367    -9935    -9841   -10100   -10746   -11636   -12493   -13132 
  -13559   -13859   -14059   -14169   -14232   -14358   -14659   -15129 
  -15681   -16117   -16303   -16422   -16582   -16618   -16412   -16040 
  -15765   -15810   -16047   -16068   -15500   -14361   -12980   -11572 
  -10270    -9390    -9177    -9500   -10062   -10693   -11220   -11446 
  -11502   -11681   -11886   -11823   -11501   -11060   -10532   -10010 
   -9635    -9446    -9468    -9680    -9890   -10036   -10313   -10745 
  -11221   -11914   -12885   -13727   -14167   -14379   -14452   -14278 
  -13937   -13587   -13291   -13098   -12883   -12491   -12058   -11752 
  -11682   -11941   -12360   -12723   -13055   -13366   -13511   -13379 
  -12996   -12428   -11751   -11119   -10605   -10206    -9968    -9814 
   -9692    -9690    -9723    -9762    -9954   -10238   -10525   -10809 
  -10989   -11025   -10876   -10444    -9780    -9157    -8950    -9257 
   -9766   -10266   -10864   -11674   -12662   -13677   -14521   -15100 
  -15570   -16170   -16865   -17453   -17822   -17867   -17575   -17096 
  -16489   -15730   -14917   -14285   -13978   -13744   -13300   -12765 
  -12352   -12164   -12259   -12629   -13182   -13759   -14287   -14860 
  -15391   -15589   -15457   -15232   -15019   -14889   -14914   -15062 
  -15316   -15622   -15775   -15575   -14943   -14039   -13099   -12084 
  -10954    -9972    -9344    -9043    -9085    -9407    -9654    -9650 
   -9676    -9941   -10261   -10515   -10941   -11685   -12488   -13046 
  -13353   -13563   -13775   -14019   -14282   -14476   -14536   -14565 
  -14665   -14672   -14469   -14228   -13994   -13668   -13386   -13412 
  -13721   -13963   -14010   -14145   -14456   -14635   -14532   -14263 
  -13836   -13201   -12494   -11919   -11582   -11381   -11061   -10589 
  -10295   -10374   -10579   -10625   -10719   -11201   -11872   -12383 
  -12796   -13199   -13503   -13649   -13570   -13235   -12904   -12868 
  -12999   -12991   -12722   -12297   -11910   -11651   -11526   -11471 
  -11380   -11248   -11116   -11007   -11021   -11245   -11623   -11987 
  -12163   -12134   -12047   -12051   -12285   -12778   -13399   -14074 
  -14794   -15426   -15716   -15657   -15588   -15682   -15779   -15857 
  -16007   -16118   -16088   -15959   -15757   -15508   -15292   -15094 
  -14881   -14831   -14980   -14982   -14669   -14180   -13540   -12813 
  -12236   -11865   -11588   -11385   -11241   -11081   -10809   -10265 
   -9481    -8905    -8863    -9161    -9539    -9929   -10287   -10655 
  -11196   -11980   -12835   -13540   -14037   -14378   -14725   -15209 
  -15647   -15759   -15524   -14999   -14127   -13004   -11954   -11117 
  -10495   -10220   -10245   -10264   -10076    -9646    -9102    -8863 
   -9395   -10737   -12428   -13935   -14992   -15581   -15795   -15759 
  -15496   -14899   -13993   -13070   -12290   -11519   -10725   -10064 
   -9555    -9104    -8811    -8871    -9182    -9457    -9646    -9924 
