Origin Time       2014/07/12 04:22:00
Lat.              37.050
Long.             142.320
Depth. (km)       33
Mag.              7.0
Station Code      MYGH08
Station Lat.      38.1133
Station Long.     140.8441
Station Height(m) -90
Record Time       2014/07/12 04:22:29
Sampling Freq(Hz) 100Hz
Duration Time(s)  238
Dir.              3
Scale Factor      3920(gal)/6170801
Max. Acc. (gal)   5.941
Last Correction   2014/07/12 04:22:14
Memo.             
[...]
    1482     1016      666      387      265      400      588      558 
     317      -13     -320     -537     -710     -845     -866     -774 
    -653     -526     -393     -296     -200      -59       24       10 
     -13      -62     -156     -215     -172      -98     -198     -511 
    -860    -1178    -1421    -1446    -1351    -1398    -1537    -1593 
   -1625    -1661    -1590    -1552    -1829    -2332    -2739    -2952 
   -3118    -3397    -3692    -3677    -3253    -2674    -2183    -1814 
   -1539    -1439    -1508    -1528    -1398    -1183     -896     -574 
    -255       78      378      516      365       63      -19      190 
     458      573      484      380      428      594      829      999 
     911      607      381      376      371      137     -262     -616 
    -754     -645     -472     -447     -514     -498     -436     -490 
    -720     -987    -1171    -1297    -1219     -839     -446     -303 
    -376     -482     -469     -375     -349     -436     -559     -642 
    -639     -521     -310      -85       30      -56     -252     -478 
    -746     -977    -1167    -1407    -1552    -1454    -1316    -1365 
   -1524    -1700    -1901    -2002    -1965    -1889    -1637    -1117 
    -561     -153       65       86        4      -70      -99     -101 
    -147     -248     -314     -307     -261     -207     -220     -374 
    -621     -819     -841     -690     -497     -377     -279     -100 
      68      105       87      102      178      361      633      899 
    1026      943      723      435       78     -257     -458     -537 
    -517     -384     -181       -5       74       13     -145     -233 
    -250     -420     -774    -1102    -1314    -1550    -1840    -1972 
   -1929    -1911    -1822    -1522    -1223     -995     -688     -414 
    -348     -404     -464     -507     -492     -369     -195      -78 
     -51      -86     -145     -271     -508     -720     -720     -486 
    -193      -48      -20       31        9     -285     -754    -1053 
   -1030     -904     -954    -1201    -1382    -1252     -888     -539 
    -304     -156      -82     -109     -219     -314     -359     -329 
     -65      363      570      521      451      361      237      145 
      10     -249     -495     -476     -221      -32     -122     -497 
    -905    -1052    -1037    -1120    -1262    -1328    -1451    -1680 
   -1748    -1619    -1566    -1615    -1621    -1634    -1689    -1681 
   -1638    -1702    -1781    -1628    -1206     -642      -56      398 
     630      650      424      -36     -599    -1116    -1327     -974 
    -240      356      562      500      229     -279     -847    -1205 
   -1292    -1229    -1118    -1027    -1035    -1052     -971     -998 
   -1233    -1354    -1135     -798     -644     -676     -755     -816 
    -870     -944     -985     -945     -824     -598     -337     -177 
    -120      -81      -97     -237     -340     -237     -107      -87 
     -11      110       31     -218     -396     -453     -424     -201 
     212      568      765      844      739      440       39     -375 
    -674     -836     -923     -913     -896     -979    -1012     -851 
    -584     -374     -304     -324     -347     -305     -173      -95 
    -210     -352     -330     -284     -395     -537     -487     -297 
    -158      -87      -19       31       28      -99     -364     -685 
    -992    -1174    -1210    -1218    -1207    -1163    -1119    -1081 
   -1123    -1208    -1168     -966     -632     -287     -145     -152 
    -124      -88      -91     -156     -351     -526     -450     -205 
      21      189      236       57     -250     -454     -517     -484 
    -346     -234     -231     -203     -255     -582     -949    -1103 
   -1174    -1303    -1425    -1467    -1442    -1415    -1452    -1608 
   -1844    -1930    -1726    -1395    -1054     -715     -524     -558 
    -621     -574     -580     -819    -1147    -1237    -1020     -726 
    -561     -621     -775     -774     -687     -735     -886    -1012 
   -1070    -1070     -982     -724     -376     -110        2      -55 
    -198     -222      -46      180      374      575      692      596 
     328       -2     -323     -572     -672     -527     -184      106 
     171       44     -271     -730    -1100    -1218    -1184    -1141 
   -1168    -1408    -1878    -2304    -2494    -2548    -2575    -2551 
   -2469    -2367    -2214    -1991    -1842    -1870    -1944    -1875 
   -1627    -1277     -944     -784     -771     -571      -46      493 
     728      622      378      261      310      316      166       37 
     110      342      615      736      542      161     -178     -420 
    -670     -984    -1209    -1189     -981     -759     -680     -768 
    -908     -942     -837     -783     -890    -1012    -1024     -944 
    -844     -798     -836     -920     -980     -959     -896     -911 
    -991     -920     -637     -338     -199     -271     -473     -640 
    -693     -712     -806     -930     -937     -752     -414      -43 
     250      416      435      332      222      176      131      110 
     249      513      691      665      491      245      -22     -239 
    -323     -182      203      630      817      678      278     -276 
    -757     -928     -768     -397       92      577      828      683 
     190     -459    -1004    -1237    -1123     -762     -333        5 
     212      299      251       75     -178     -402     -556     -747 
    -969    -1109    -1145    -1090     -984     -896     -852     -837 
    -768     -640     -634     -837    -1100    -1262    -1265    -1021 
    -570     -191      -42      -58     -230     -549     -872    -1087 
   -1184    -1170    -1076     -975     -887     -795     -768     -923 
   -1233    -1503    -1568    -1457    -1363    -1389    -1428    -1340 
   -1066     -694     -508     -603     -713     -621     -351      -55 
     118      191      313      495      610      606      526      463 
     554      883     1398     1958     2358     2421     2068     1349 
     484     -263     -769    -1005    -1005     -896     -769     -642 
    -602     -690     -811     -913    -1039    -1167    -1194    -1137 
   -1127    -1258    -1576    -2028    -2484    -2880    -3167    -3307 
   -3372    -3401    -3296    -3014    -2660    -2271    -1817    -1411 
   -1202    -1098     -868     -531     -359     -459     -603     -524 
    -240      -37     -143     -485     -797     -957    -1040    -1057 
    -968     -836     -722     -653     -660     -733     -830     -913 
    -927     -863     -706     -408     -108        9       30       83 
     181      306      367      361      412      440      329      253 
     339      419      401      422      514      497      255     -120 
    -426     -518     -390     -130       40      -83     -406     -637 
    -667     -719     -982    -1329    -1594    -1734    -1720    -1607 
   -1477    -1282     -980     -689     -539     -501     -488     -502 
    -595     -718     -718     -523     -208       77      173       40 
    -170     -278     -267     -219     -157      -84      -26       18 
      34      -37     -192     -306     -283     -217     -149       46 
     306      395      312      223      142       48       62      214 
     244      -41     -381     -437     -318     -312     -495     -793 
   -1110    -1364    -1504    -1512    -1353     -960     -396      160 
     574      739      626      296     -164     -565     -701     -490 
      29      643     1109     1332     1276      978      562       99 
    -383     -791     -942     -718     -255      166      403      465 
     351       66     -370     -939    -1449    -1674    -1680    -1632 
   -1558    -1443    -1275    -1048     -830     -701     -649     -645 
    -727     -926    -1238    -1634    -1978    -2091    -1882    -1348 
    -730     -429     -486     -601     -624     -665     -829    -1041 
   -1139    -1053     -862     -702     -624     -612     -640     -603 
    -469     -375     -414     -519     -585     -537     -336      -44 
     225      416      474      351      132      -68     -197     -179 
     -64      -67     -118       31      219       94     -387    -1017 
   -1462    -1506    -1299    -1080     -920     -789     -683     -701 
    -918    -1244    -1574    -1876    -2004    -1814    -1444    -1178 
   -1139    -1243    -1367    -1419    -1319    -1072     -800     -634 
    -633     -797    -1056    -1218    -1142     -947     -799     -628 
    -298       44       69     -274     -717    -1007    -1042     -858 
    -604     -496     -629     -817     -938    -1095    -1264    -1283 
   -1165     -967     -640     -284     -100      -67      -70      -60 
     -10       57      143      242      215        4     -280     -533 
    -733     -915    -1095    -1248    -1337    -1313    -1232    -1222 
   -1256    -1243    -1160    -1009     -846     -755     -728     -704 
    -671     -673     -745     -871     -996    -1002     -816     -555 
    -347     -132      183      499      683      765      783      740 
     686      735      897      960      795      521      219     -103 
    -450     -832    -1193    -1511    -1829    -2152    -2426    -2637 
   -2889    -3142    -3183    -3011    -2720    -2290    -1773    -1320 
   -1031     -950    -1171    -1642    -1992    -2034    -1948    -1830 
   -1688    -1576    -1459    -1327    -1289    -1346    -1350    -1253 
   -1100     -853     -543     -330     -252     -263     -376     -619 
    -978    -1329    -1497    -1420    -1180     -913     -727     -681 
    -781    -1038    -1549    -2257    -2868    -3237    -3415    -3364 
   -3085    -2714    -2350    -2052    -1905    -1963    -2181    -2367 
   -2426    -2501    -2572    -2431    -2073    -1615    -1114     -670 
    -377     -199     -107     -176     -436     -829    -1289    -1712 
   -1976    -2030    -1882    -1557    -1164     -797     -414       -2 
     388      708      904     1051     1163     1064      789      543 
     381      371      577      914     1292     1653     2017     2419 
    2748     2977     3175     3335     3502     3713     3922     3969 
    3635     3005     2426     2042     1737     1362      866      251 
    -384     -956    -1602    -2297    -2822    -3168    -3252    -2973 
   -2560    -2216    -1989    -1943    -2036    -2185    -2342    -2438 
   -2489    -2616    -2893    -3257    -3598    -3763    -3635    -3335 
   -3047    -2787    -2455    -1969    -1463    -1081     -678     -173 
     273      559      709      780      846      980     1172     1362 
    1634     2072     2525     2731     2567     2172     1718     1253 
     812      419       76     -220     -426     -439     -253       64 
     367      346      -54     -506     -825    -1129    -1442    -1512 
   -1263     -867     -310      400     1068     1564     1788     1745 
    1631     1580     1559     1489     1353     1159      957      875 
     849      641      275      -19     -136     -138     -100       53 
     380      839     1373     1736     1669     1234      720      287 
    -194     -721    -1148    -1496    -1706    -1777    -1860    -1967 
   -2038    -1870    -1299     -482      453     1363     1959     2189 
    2158     1882     1395      797      257      -85     -233     -323 
    -472     -638     -783     -904     -895     -709     -357      124 
     594     1019     1537     2155     2666     2839     2679     2397 
    1935     1132      220     -560    -1185    -1622    -1870    -1937 
   -1929    -2081    -2551    -3298    -4059    -4612    -5049    -5435 
   -5673    -5778    -5710    -5274    -4515    -3806    -3276    -2711 
   -2227    -2043    -1994    -1977    -2007    -2028    -2073    -2128 
   -2177    -2346    -2688    -3059    -3292    -3328    -3166    -2844 
   -2398    -1777     -956      -50      786     1479     2063     2513 
    2642     2391     1979     1633     1438     1371     1380     1433 
    1463     1415     1345     1287     1171     1023     1022     1259 
    1570     1634     1355      898      391      -83     -509    -1016 
   -1665    -2289    -2690    -2931    -3178    -3382    -3428    -3319 
   -3194    -3219    -3402    -3708    -4049    -4193    -4122    -3965 
   -3576    -2877    -2149    -1604    -1181     -772     -409     -159 
      25      139      158      188      214       80     -183     -429 
    -616     -711     -670     -504     -283     -186     -336     -596 
    -897    -1357    -1923    -2488    -3078    -3558    -3681    -3462 
   -3159    -2919    -2625    -2196    -1704    -1217     -765     -336 
     107      528      841     1038     1158     1118      866      520 
     210       41       40      146      309      411      365      358 
     583      859      995     1178     1459     1671     1934     2293 
    2505     2556     2575     2453     2044     1398      683       71 
    -295     -413     -457     -465     -188      453     1176     1753 
    2192     2612     3092     3574     3939     4076     4018     3842 
    3527     3076     2426     1546      708       78     -503    -1097 
   -1505    -1586    -1562    -1802    -2373    -3180    -4191    -5188 
   -5941    -6495    -6827    -6848    -6535    -5854    -5036    -4465 
   -4134    -3806    -3393    -2873    -2271    -1605     -790      194 
    1224     2197     3085     3897     4710     5632     6617     7519 
    8236     8666     8771     8616     8163     7418     6599     5774 
    4919     4214     3709     3238     2657     1922     1189      515 
    -288    -1170    -2005    -2919    -3834    -4590    -5273    -5856 
   -6290    -6653    -6843    -6762    -6638    -6684    -6806    -6915 
   -7002    -6930    -6604    -6054    -5293    -4358    -3400    -2607 
   -1999    -1436     -861     -308      193      575      748      681 
     437      182       41      -23       -3      176      488      943 
    1485     1829     1871     1841     1859     1755     1489     1256 
    1157     1184     1283     1317     1192      870      352     -224 
    -669     -981    -1302    -1633    -1797    -1724    -1595    -1695 
   -2182    -2938    -3713    -4239    -4292    -3937    -3413    -2842 
   -2310    -1906    -1651    -1484    -1313    -1144    -1043    -1009 
   -1043    -1131    -1236    -1383    -1618    -1916    -2060    -1862 
   -1417     -879     -429     -348     -614     -881     -984    -1014 
   -1053    -1087    -1050     -891     -654     -495     -644    -1157 
   -1804    -2402    -2871    -3138    -3239    -3174    -2887    -2401 
   -1814    -1372    -1205    -1148    -1053     -860     -626     -504 
    -444     -256       74      313      197     -246     -716     -954 
    -916     -779     -672     -538     -360      -87      348      775 
     971      858      550      299       96     -248     -685    -1134 
   -1591    -2059    -2669    -3319    -3731    -3991    -4206    -4214 
   -3916    -3270    -2309    -1311     -528      -58       65      -27 
    -179     -369     -478     -322       79      544      898     1029 
     827      249     -424     -858    -1039    -1064    -1018     -997 
   -1053    -1237    -1515    -1720    -1748    -1602    -1300     -855 
    -273      377      909     1275     1615     1913     2124     2327 
    2452     2457     2461     2429     2236     1904     1521     1154 
     852      536       59     -461     -738     -756     -606     -265 
     162      446      438      136     -400    -1073    -1667    -1996 
   -2064    -1987    -1993    -2200    -2418    -2505    -2551    -2524 
   -2246    -1688     -906       -9      742     1202     1335     1107 
     681      274      -70     -296     -226      284     1086     1819 
    2351     2705     2747     2404     1887     1505     1411     1604 
    2110     2849     3463     3665     3424     2787     1982     1332 
     914      627      405      173     -242     -908    -1622    -2235 
   -2700    -2837    -2489    -1775     -993     -354      -10      -87 
    -463     -887    -1264    -1542    -1661    -1649    -1543    -1356 
   -1182    -1143    -1205    -1266    -1297    -1277    -1260    -1342 
   -1481    -1674    -1991    -2346    -2697    -3141    -3590    -3932 
   -4312    -4740    -5012    -5083    -4956    -4585    -4003    -3299 
   -2619    -2049    -1544    -1113     -787     -543     -363     -203 
     -47      124      347      585      808      962      955      895 
     950     1092     1306     1589     1844     2053     2261     2419 
    2446     2306     2008     1653     1397     1290     1182      914 
     564      223     -190     -725    -1381    -2109    -2727    -3136 
   -3455    -3720    -3824    -3845    -3917    -4105    -4475    -4845 
   -4964    -4879    -4715    -4520    -4347    -4217    -4132    -4134 
   -4187    -4157    -4024    -3764    -3257    -2596    -1996    -1522 
   -1155     -838     -474       46      686     1189     1457     1713 
    1996     2135     2122     1990     1693     1328     1159     1323 
    1658     1935     2017     1917     1861     1941     1971     1932 
    2019     2252     2538     2832     3044     3098     3009     2768 
    2390     1985     1603     1321     1325     1500     1503     1330 
    1077      660      192     -166     -551    -1002    -1274    -1324 
   -1371    -1530    -1859    -2372    -2828    -3011    -3045    -3031 
   -2817    -2353    -1761    -1132     -719     -857    -1518    -2410 
   -3306    -4037    -4429    -4438    -4166    -3713    -3110    -2393 
   -1727    -1279    -1026     -862     -726     -616     -545     -490 
    -457     -470     -558     -647     -563     -314      -47      187 
     393      609      857     1076     1206     1247     1263     1320 
    1443     1576     1551     1337     1076      779      476      342 
     390      445      490      684     1019     1313     1401     1180 
     718      143     -500    -1149    -1738    -2254    -2671    -2991 
   -3316    -3676    -3928    -3943    -3733    -3393    -3034    -2732 
   -2459    -2216    -2124    -2139    -2069    -1861    -1557    -1270 
   -1103    -1082    -1275    -1696    -2270    -2890    -3291    -3251 
   -2837    -2171    -1308     -403      344      883     1168     1042 
     577      119     -110      -96       68      280      526      819 
    1106     1269     1213     1024      922      969     1029     1026 
    1014     1073     1249     1500     1706     1803     1806     1785 
    1874     2088     2239     2308     2450     2538     2369     2041 
    1734     1466     1179      857      464      -98     -729    -1153 
   -1423    -1794    -2225    -2510    -2525    -2313    -2112    -2027 
   -2041    -2202    -2436    -2585    -2690    -2926    -3313    -3721 
   -4031    -4149    -4116    -4049    -3964    -3889    -3810    -3617 
   -3368    -3178    -3018    -2901    -2767    -2404    -1833    -1245 
    -671     -137      331      826     1341     1699     1828     1852 
    1832     1675     1346      931      534      210     -114     -534 
    -934    -1116    -1091    -1015     -978     -992    -1005     -912 
    -766     -788    -1042    -1387    -1693    -1906    -2020    -2084 
   -2178    -2351    -2515    -2500    -2373    -2362    -2483    -2610 
