Origin Time       2014/11/14 05:42:00
Lat.              43.655
Long.             144.497
Depth. (km)       0
Mag.              2.9
Station Code      ABSH11
Station Lat.      43.9144
Station Long.     144.1913
Station Height(m) -82
Record Time       2014/11/14 05:42:43
Sampling Freq(Hz) 100Hz
Duration Time(s)  120
Dir.              2
Scale Factor      2940(gal)/6170270
Max. Acc. (gal)   0.150
Last Correction   2014/11/14 05:42:28
Memo.             
[...]
   37858    37855    37854    37856    37855    37856    37859    37858 
   37857    37856    37855    37856    37855    37853    37856    37858 
   37860    37862    37860    37859    37858    37854    37852    37855 
   37854    37856    37859    37858    37855    37856    37857    37858 
   37857    37856    37855    37855    37855    37856    37858    37858 
   37855    37856    37857    37855    37856    37858    37860    37861 
   37860    37858    37859    37857    37855    37856    37858    37856 
   37853    37852    37854    37855    37854    37854    37856    37858 
   37855    37852    37853    37852    37851    37852    37853    37855 
   37858    37856    37855    37857    37858    37856    37857    37858 
   37854    37853    37855    37858    37858    37855    37854    37853 
   37852    37854    37856    37856    37855    37854    37853    37856 
   37856    37851    37852    37855    37853    37852    37852    37853 
   37856    37856    37855    37856    37858    37857    37856    37856 
   37854    37853    37852    37852    37852    37852    37852    37854 
   37856    37858    37858    37855    37853    37855    37856    37856 
   37856    37858    37857    37856    37858    37857    37856    37856 
   37858    37857    37854    37852    37854    37855    37854    37855 
   37854    37854    37856    37855    37855    37855    37855    37854 
   37855    37857    37857    37856    37856    37857    37855    37854 
   37857    37858    37856    37856    37857    37859    37859    37857 
   37856    37858    37860    37861    37862    37859    37856    37857 
   37855    37855    37856    37855    37855    37856    37857    37857 
   37857    37857    37858    37858    37858    37858    37856    37855 
   37858    37858    37857    37855    37855    37858    37859    37856 
   37856    37856    37856    37856    37856    37858    37860    37857 
   37855    37857    37857    37857    37858    37859    37858    37857 
   37858    37859    37859    37857    37857    37858    37858    37856 
   37856    37858    37859    37854    37851    37855    37856    37853 
   37854    37857    37855    37853    37855    37858    37857    37855 
   37854    37857    37858    37856    37854    37858    37859    37856 
   37853    37855    37857    37856    37855    37855    37855    37856 
   37855    37853    37854    37854    37853    37856    37857    37854 
   37851    37852    37855    37855    37854    37857    37860    37859 
   37858    37856    37855    37858    37856    37852    37853    37856 
   37855    37854    37854    37854    37855    37856    37856    37855 
   37853    37854    37857    37855    37853    37855    37856    37855 
   37853    37854    37856    37858    37856    37855    37857    37857 
   37856    37855    37855    37857    37857    37856    37854    37855 
   37857    37857    37854    37853    37855    37856    37856    37854 
   37854    37856    37856    37854    37854    37855    37856    37857 
   37856    37853    37853    37856    37854    37852    37855    37857 
   37856    37855    37857    37856    37855    37858    37860    37859 
   37856    37856    37858    37857    37856    37857    37857    37857 
   37858    37858    37856    37855    37856    37855    37855    37857 
   37858    37858    37857    37856    37857    37856    37857    37860 
   37858    37855    37858    37859    37857    37858    37859    37859 
   37859    37858    37856    37856    37859    37861    37859    37858 
   37859    37859    37859    37859    37860    37860    37855    37854 
   37858    37857    37854    37857    37862    37860    37857    37859 
   37861    37860    37858    37859    37861    37861    37860    37860 
   37858    37856    37854    37855    37860    37859    37856    37859 
   37857    37853    37853    37856    37857    37857    37854    37853 
   37856    37858    37857    37857    37858    37858    37858    37857 
   37856    37857    37858    37858    37858    37858    37855    37856 
   37858    37857    37856    37858    37858    37858    37856    37855 
   37857    37856    37854    37854    37853    37855    37857    37853 
   37852    37859    37858    37853    37857    37858    37855    37856 
   37858    37855    37853    37852    37854    37855    37854    37855 
   37856    37854    37853    37853    37855    37856    37853    37853 
   37858    37859    37856    37857    37859    37859    37856    37853 
   37854    37855    37853    37852    37853    37853    37853    37853 
   37852    37855    37857    37855    37854    37855    37854    37853 
   37853    37854    37853    37850    37852    37855    37855    37854 
   37857    37857    37855    37855    37859    37859    37856    37856 
   37855    37856    37857    37854    37854    37856    37854    37852 
   37853    37853    37852    37851    37849    37852    37856    37853 
   37850    37853    37857    37856    37854    37857    37858    37855 
   37855    37856    37856    37856    37857    37858    37858    37856 
   37855    37855    37856    37856    37856    37854    37854    37853 
   37852    37855    37858    37855    37854    37855    37855    37855 
   37855    37857    37859    37858    37856    37856    37857    37859 
   37858    37856    37856    37857    37855    37856    37858    37857 
   37855    37854    37855    37856    37856    37854    37854    37856 
   37856    37854    37854    37855    37856    37857    37858    37859 
   37856    37855    37857    37858    37859    37859    37859    37858 
   37857    37856    37857    37858    37859    37859    37858    37857 
   37856    37855    37855    37856    37857    37856    37858    37860 
   37859    37856    37856    37856    37855    37857    37860    37859 
   37857    37859    37858    37856    37858    37859    37858    37859 
   37857    37855    37857    37859    37857    37854    37855    37856 
   37855    37853    37854    37858    37854    37851    37856    37859 
   37854    37855    37860    37859    37858    37858    37858    37859 
   37858    37857    37859    37861    37859    37856    37855    37856 
   37856    37851    37850    37858    37865    37871    37875    37871 
   37853    37833    37830    37847    37862    37859    37850    37849 
   37847    37853    37874    37882    37874    37870    37857    37835 
   37829    37824    37816    37839    37891    37917    37885    37848 
   37870    37882    37843    37838    37867    37853    37821    37801 
   37794    37848    37929    37920    37879    37898    37879    37813 
   37828    37868    37843    37821    37835    37835    37832    37859 
   37896    37910    37905    37891    37856    37818    37830    37853 
   37823    37808    37850    37899    37923    37882    37830    37849 
   37850    37824    37857    37874    37855    37862    37865    37860 
   37872    37873    37840    37817    37868    37884    37793    37799 
   37908    37906    37860    37869    37854    37830    37833    37846 
   37886    37904    37858    37840    37881    37878    37820    37815 
   37845    37837    37858    37898    37879    37882    37888    37812 
   37812    37894    37868    37833    37889    37895    37847    37820 
   37816    37851    37865    37813    37810    37890    37917    37855 
   37836    37878    37859    37811    37833    37864    37888    37925 
   37887    37835    37862    37856    37818    37844    37839    37787 
   37829    37898    37859    37842    37914    37904    37838    37872 
   37899    37833    37822    37859    37828    37818    37862    37843 
   37830    37896    37892    37829    37866    37899    37847    37852 
   37887    37847    37807    37823    37882    37905    37818    37748 
   37821    37922    37911    37835    37834    37882    37868    37851 
   37879    37899    37920    37890    37782    37756    37819    37839 
   37862    37907    37887    37853    37876    37896    37901    37931 
   37915    37816    37754    37763    37771    37809    37872    37885 
   37888    37901    37872    37852    37886    37910    37881    37840 
   37819    37790    37769    37806    37873    37928    37943    37883 
   37822    37819    37802    37802    37881    37915    37862    37839 
   37854    37848    37845    37866    37871    37843    37842    37883 
   37877    37842    37862    37886    37863    37865    37888    37866 
   37821    37809    37848    37880    37871    37874    37866    37801 
   37777    37820    37843    37868    37912    37892    37822    37807 
   37868    37911    37895    37876    37839    37755    37746    37840 
   37889    37876    37869    37863    37864    37876    37873    37868 
   37872    37880    37875    37856    37847    37847    37840    37818 
   37792    37799    37816    37826    37858    37870    37872    37915 
   37921    37900    37919    37900    37841    37832    37837    37828 
   37819    37830    37895    37926    37861    37827    37854    37852 
   37811    37771    37800    37872    37885    37891    37933    37916 
   37865    37849    37810    37759    37780    37833    37851    37874 
   37918    37910    37868    37858    37853    37853    37883    37869 
   37819    37837    37868    37837    37820    37852    37873    37865 
   37836    37827    37868    37902    37891    37881    37874    37853 
   37854    37875    37862    37847    37848    37820    37810    37857 
   37878    37874    37894    37892    37879    37869    37812    37792 
   37859    37867    37818    37830    37852    37833    37827    37858 
   37902    37913    37908    37920    37887    37840    37857    37852 
   37833    37866    37856    37836    37897    37901    37835    37837 
   37844    37805    37797    37800    37785    37815    37867    37853 
   37837    37913    37964    37906    37875    37892    37858    37830 
   37846    37849    37880    37925    37914    37886    37851    37812 
   37826    37820    37767    37802    37877    37857    37842    37873 
   37851    37843    37888    37867    37834    37882    37883    37815 
   37820    37854    37838    37847    37888    37888    37861    37864 
   37885    37879    37876    37912    37922    37882    37846    37830 
   37824    37817    37815    37841    37858    37837    37832    37855 
   37850    37818    37831    37874    37876    37877    37912    37896 
   37858    37865    37842    37791    37816    37874    37898    37908 
   37920    37917    37853    37779    37812    37844    37783    37768 
   37826    37867    37895    37910    37921    37914    37840    37794 
   37829    37869    37887    37843    37783    37842    37903    37844 
   37807    37843    37883    37903    37872    37846    37887    37907 
   37886    37890    37859    37797    37818    37854    37834    37842 
   37877    37868    37833    37822    37853    37880    37893    37919 
   37894    37853    37919    37968    37886    37843    37886    37889 
   37884    37934    37960    37910    37827    37760    37735    37724 
   37686    37676    37742    37818    37866    37904    37932    37972 
   37981    37872    37721    37673    37699    37714    37736    37814 
   37907    37930    37911    37902    37859    37823    37861    37900 
   37951    38054    38074    38016    38031    38057    37996    37879 
   37726    37618    37643    37714    37730    37722    37743    37809 
   37896    37948    37944    37911    37877    37857    37849    37869 
   37923    37958    37926    37865    37850    37868    37875    37895 
   37939    37940    37909    37909    37896    37803    37697    37659 
   37658    37668    37692    37705    37726    37765    37791    37856 
   37958    37987    37983    37989    37932    37916    38008    38046 
   38029    38024    37960    37887    37857    37788    37718    37719 
   37726    37719    37736    37763    37799    37869    37940    37941 
   37911    37898    37808    37704    37749    37816    37829    37926 
   38036    38052    38034    37942    37807    37765    37738    37655 
   37633    37728    37861    37928    37943    37985    37984    37911 
   37871    37834    37763    37763    37862    37965    38011    38005 
   37956    37880    37844    37847    37829    37803    37775    37757 
   37797    37846    37860    37868    37832    37758    37737    37739 
   37739    37837    37994    38048    38016    37983    37900    37799 
   37780    37791    37800    37871    37937    37932    37925    37901 
   37811    37756    37803    37842    37803    37781    37825    37857 
   37862    37862    37814    37753    37747    37728    37686    37752 
   37933    38093    38156    38147    38090    37984    37872    37817 
   37810    37806    37786    37778    37823    37884    37885    37806 
   37719    37733    37809    37820    37830    37902    37900    37836 
   37835    37832    37824    37862    37812    37703    37702    37746 
   37830    37978    38022    38000    38015    37932    37808    37789 
   37819    37868    37879    37826    37850    37896    37825    37773 
   37832    37923    37988    37976    37913    37899    37919    37936 
   37915    37785    37644    37623    37635    37644    37733    37855 
   37943    38006    38032    37999    37922    37857    37842    37854 
   37888    37912    37893    37923    38011    38009    37938    37929 
   37922    37811    37634    37546    37659    37812    37805    37772 
   37841    37898    37889    37853    37798    37760    37807    37919 
   37968    37923    37906    37931    37955    38007    38032    37985 
   37946    37865    37680    37545    37541    37591    37682    37807 
   37910    37994    38073    38092    38034    37975    37927    37830 
   37721    37643    37598    37657    37783    37846    37894    37968 
   37980    37977    38031    38058    37971    37802    37668    37649 
   37704    37788    37856    37858    37862    37898    37889    37852 
   37840    37847    37873    37886    37857    37836    37862    37889 
   37876    37853    37854    37867    37879    37880    37870    37871 
   37875    37878    37900    37909    37882    37860    37874    37901 
   37859    37756    37752    37861    37923    37917    37922    37952 
   37973    37955    37941    37947    37901    37831    37782    37702 
   37641    37657    37693    37727    37758    37784    37863    37963 
   37989    37974    37967    37928    37848    37791    37798    37840 
   37896    37959    37972    37915    37836    37770    37754    37780 
   37782    37782    37823    37862    37899    37945    37947    37908 
   37886    37887    37867    37804    37739    37716    37722    37748 
   37790    37848    37950    38049    38058    38027    38003    37956 
   37926    37912    37872    37882    37898    37815    37773    37815 
   37772    37693    37717    37796    37847    37858    37877    37928 
   37928    37873    37835    37796    37771    37810    37854    37872 
   37888    37885    37872    37869    37884    37942    37974    37929 
   37893    37890    37865    37840    37849    37890    37914    37845 
   37738    37704    37714    37707    37723    37778    37826    37864 
   37913    37942    37941    37942    37909    37846    37833    37855 
   37847    37822    37817    37838    37874    37883    37865    37856 
   37866    37886    37918    37965    37982    37911    37818    37815 
   37847    37828    37781    37731    37708    37750    37804    37801 
   37782    37835    37952    38025    38014    37961    37894    37865 
   37881    37870    37847    37850    37849    37873    37901    37836 
   37744    37725    37748    37814    37880    37849    37820    37877 
   37907    37899    37923    37915    37855    37809    37773    37753 
   37781    37808    37837    37925    37996    37975    37933    37924 
   37906    37850    37789    37768    37772    37771    37783    37827 
   37896    37955    37954    37930    37954    37997    38005    37955 
   37861    37783    37745    37693    37626    37626    37727    37833 
   37850    37833    37861    37894    37896    37882    37858    37841 
   37862    37914    37954    37956    37931    37895    37861    37847 
   37850    37843    37840    37846    37810    37777    37833    37897 
   37887    37875    37900    37915    37920    37920    37874    37796 
   37761    37759    37758    37811    37893    37899    37866    37873 
   37903    37923    37898    37842    37836    37868    37866    37821 
   37765    37749    37784    37816    37845    37892    37912    37905 
   37907    37921    37939    37923    37846    37795    37828    37862 
   37837    37815    37847    37882    37857    37818    37839    37885 
   37898    37900    37896    37874    37862    37884    37916    37902 
   37839    37812    37831    37817    37791    37813    37875    37940 
   37932    37855    37835    37859    37837    37826    37846    37839 
   37829    37811    37766    37772    37814    37794    37770    37809 
   37853    37878    37891    37893    37928    37965    37919    37843 
   37843    37883    37892    37875    37868    37884    37894    37866 
   37821    37805    37823    37853    37881    37897    37899    37905 
   37924    37914    37861    37820    37806    37791    37789    37816 
   37851    37866    37849    37832    37846    37857    37859    37880 
   37891    37867    37858    37851    37814    37798    37819    37845 
   37869    37882    37886    37921    37950    37913    37879    37914 
   37946    37913    37843    37777    37741    37743    37761    37787 
   37830    37851    37849    37875    37909    37908    37889    37865 
   37846    37837    37812    37784    37795    37826    37844    37850 
   37859    37898    37954    37962    37927    37920    37914    37857 
   37799    37783    37781    37784    37783    37778    37795    37815 
   37806    37806    37838    37878    37911    37937    37949    37948 
   37934    37917    37902    37885    37873    37870    37865    37858 
   37850    37846    37854    37853    37814    37779    37799    37848 
   37879    37883    37877    37872    37865    37860    37847    37825 
   37823    37834    37833    37844    37877    37884    37865    37865 
   37870    37866    37871    37865    37839    37847    37872    37851 
   37823    37823    37817    37825    37880    37937    37951    37936 
   37922    37908    37900    37911    37900    37835    37783    37771 
   37769    37778    37770    37740    37776    37851    37866    37850 
   37857    37870    37885    37908    37932    37947    37946    37926 
   37888    37850    37836    37833    37823    37811    37801    37802 
   37830    37859    37871    37875    37861    37835    37840    37869 
   37871    37858    37859    37863    37867    37860    37846    37864 
   37893    37875    37851    37868    37864    37824    37823    37849 
   37843    37826    37821    37821    37832    37844    37839    37842 
   37851    37848    37844    37848    37856    37874    37893    37892 
   37881    37884    37875    37844    37850    37879    37868    37849 
   37858    37869    37885    37905    37911    37926    37928    37891 
   37866    37862    37847    37832    37827    37834    37859    37872 
   37864    37859    37859    37849    37837    37826    37809    37808 
   37837    37850    37830    37826    37852    37883    37896    37867 
   37825    37827    37854    37862    37861    37864    37856    37834 
