Origin Time       2014/11/14 05:42:00
Lat.              43.655
Long.             144.497
Depth. (km)       0
Mag.              2.9
Station Code      ABSH11
Station Lat.      43.9144
Station Long.     144.1913
Station Height(m) 40
Record Time       2014/11/14 05:42:43
Sampling Freq(Hz) 100Hz
Duration Time(s)  120
Dir.              5
Scale Factor      3920(gal)/6170801
Max. Acc. (gal)   0.861
Last Correction   2014/11/14 05:42:28
Memo.             
[...]
      38       40       41       41       43       44       39       31 
      31       36       37       38       42       45       43       39 
      38       41       44       42       43       46       45       40 
      36       34       31       26       26       33       42       47 
      49       53       56       50       46       49       46       41 
      43       47       46       39       36       41       42       37 
      33       33       33       33       33       35       39       38 
      41       47       48       48       51       52       51       49 
      49       49       47       45       46       44       40       42 
      45       43       38       37       40       37       29       31 
      40       43       37       32       35       39       36       35 
      43       57       62       60       63       65       55       41 
      33       29       26       29       35       38       39       42 
      44       45       47       50       48       43       44       45 
      44       41       41       45       47       44       47       53 
      52       46       42       40       32       25       24       25 
      25       26       33       43       46       49       54       54 
      47       42       42       39       33       30       31       34 
      39       40       39       40       39       38       41       43 
      44       46       52       53       50       50       49       43 
      38       37       40       39       34       36       43       40 
      30       30       36       33       30       34       41       41 
      38       44       50       47       44       44       45       43 
      39       39       43       45       43       43       42       37 
      37       39       37       35       37       41       39       36 
      39       41       35       28       33       40       37       37 
      48       58       58       50       46       44       35       26 
      26       33       37       39       47       52       49       47 
      45       40       39       40       40       39       37       40 
      42       42       45       50       50       47       43       40 
      37       33       30       31       31       32       37       41 
      41       40       41       46       47       47       53       59 
      57       49       46       49       43       32       31       37 
      38       30       27       31       33       32       34       44 
      52       46       41       48       52       47       44       48 
      50       49       49       51       51       48       43       39 
      40       38       35       37       39       39       40       40 
      37       34       32       31       35       46       53       52 
      47       45       46       42       37       39       45       48 
      46       47       52       54       47       42       43       41 
      35       33       37       38       38       43       48       50 
      51       52       49       44       42       42       41       40 
      43       43       39       33       33       34       30       28 
      36       42       42       40       42       44       44       46 
      50       51       50       48       47       46       41       39 
      44       49       45       38       38       45       43       37 
      40       42       33       30       37       42       42       44 
      47       44       39       37       39       39       38       39 
      39       40       40       38       37       39       39       38 
      39       39       40       47       51       51       51       51 
      49       42       38       39       37       36       35       37 
      41       42       43       46       46       42       36       37 
      42       47       49       47       44       40       36       36 
      35       34       43       49       47       42       37       34 
      28       26       31       39       44       44       46       45 
      38       32       30       35       46       52       54       56 
      55       49       45       42       37       33       37       39 
      37       34       31       30       33       39       45       46 
      47       47       43       37       32       36       44       48 
      53       55       50       42       35       31       30       28 
      30       35       39       38       40       47       49       44 
      43       47       47       43       40       41       43       43 
      42       44       46       41       35       35       36       33 
      30       34       44       45       43       45       49       50 
      49       50       55       57       51       42       38       37 
      35       35       36       38       43       44       40       41 
      47       46       45       49       50       47       46       41 
      39       40       40       42       45       45       43       39 
      38       39       39       38       41       46       44       41 
      42       45       45       44       47       46       40       40 
      45       46       45       47       47       46       46       39 
      32       37       40       33       29       32       38       44 
      52       59       60       54       41       23       10        8 
      20       51       86      101       85       51       25       21 
      25       25       28       38       41       41       50       51 
      35       23       31       40       33       31       55       90 
      99       76       43        9      -11      -16      -26      -30 
       4       65      116      135      126      102       86       91 
      70      -16      -98     -100      -54      -20       29      104 
     147      147      143      121       70       35       23      -15 
     -62      -52       -6       48      112      120       56       37 
      79       77       30        9        6       -8       10       58 
      62       17       -6        7       23       63      121      142 
     128       97       33      -26      -37      -27      -19        2 
      48      105      148      157      110        5      -91     -106 
     -71      -28       36      101      128      125      119      112 
      84       34        0        6       26       42       69       86 
      61       12      -31      -65      -60        5       77      101 
     110      123       93       31        9        9      -17      -23 
      22       63       63       62       84       78       30       -2 
      -8      -19        5       85      153      158      122       79 
      36      -17      -68      -84      -79      -72      -26       57 
     125      173      209      216      180       92      -14      -82 
    -110     -111      -87      -50        9       94      161      185 
     174      141       90       21      -38      -52      -41      -21 
      19       47       34       18       36       56       54       51 
      59       61       70      110      141      119       63       -3 
     -70     -107     -107      -79       -6       87      142      174 
     189      151       95       61       25        1       21       32 
      -4      -55      -85      -80      -46      -22       -3       62 
     161      235      267      252      158       15      -99     -167 
    -196     -155      -48       57      114      128      130      123 
     103       95       87       34      -25      -51      -86     -117 
     -71       32      147      251      274      195      117       67 
      -5      -39        8       28      -12      -24       -2        0 
      11       61       89       65       36       14      -25      -64 
     -61      -20       25       70      113      133      127       96 
      48       33       73      111       89       41       21       -4 
     -87     -170     -167      -93        0      103      198      261 
     289      253      144       12      -93     -137     -120      -42 
      96      202      197      126       54      -16      -86     -120 
     -96      -43       14       78      138      164      149      112 
      63        0      -46      -30       25       60       80      101 
      84       18      -50      -83      -63        6      102      194 
     243      226      154       60      -14      -35      -15       20 
      50       37      -28      -85     -111     -121      -77       35 
     140      172      137       76       11      -47      -59        7 
      97      157      211      246      207      115       38        4 
      -6      -27      -67      -86      -71      -44        8       89 
     147      150      109       27      -75     -124      -79       28 
     128      177      181      154       92      -10     -126     -177 
     -99       46      157      200      177      107       35       -2 
       3       41       99      170      206      164       89       11 
    -108     -240     -302     -274     -165       27      230      336 
     344      306      216       75      -57     -117     -101      -58 
     -21       24       64       72       87      130      131       69 
      -1      -61      -97      -71       -2       59      116      159 
     144       93       48        5      -20       -5       18       26 
      24       33       60       63       40       47       68       47 
      20       29       29        5       14       72      131      151 
     156      155      111       31      -34      -83     -101      -57 
       0       19       36       70       77       53       27       -9 
     -41      -19       52      119      165      206      234      194 
      72      -64     -148     -190     -205     -147      -20       94 
     179      255      283      248      181       77      -63     -174 
    -211     -187     -104       21      119      169      207      215 
     150       69       43       24      -20      -26        3       18 
      18       -3      -27        3       78      125      144      170 
     157       77        0      -51     -130     -198     -164      -75 
      -4       88      222      323      359      361      320      205 
      84       42       64      102      136      125       35     -131 
    -339     -534     -640     -611     -458     -203      123      445 
     697      810      720      459      115     -214     -411     -437 
    -353     -183       62      281      376      354      239       37 
    -178     -300     -296     -189       10      259      438      464 
     361      169     -104     -415     -665     -745     -583     -206 
     249      637      862      846      544       70     -328     -494 
    -404      -69      371      712      857      768      460       74 
    -266     -523     -649     -602     -426     -201       21      199 
     275      216       62     -123     -305     -440     -434     -245 
      46      323      538      672      669      492      214      -23 
    -105      -18      147      281      336      291      145      -35 
    -211     -373     -448     -418     -348     -254     -156      -94 
     -21      116      244      294      311      331      313      231 
     105      -25     -141     -247     -306     -258     -114       63 
     237      399      532      595      564      455      303      117 
    -130     -413     -629     -687     -557     -288       19      251 
     321      223       36     -196     -427     -507     -316       92 
     584     1016     1188      987      524      -20     -515     -827 
    -854     -631     -270      131      472      639      592      388 
      87     -237     -456     -479     -333      -66      275      587 
     773      774      560      182     -216     -494     -592     -526 
    -352     -161      -31       -2     -108     -312     -482     -525 
    -444     -224      152      584      920     1068     1018      821 
     573      362      212       83      -41     -145     -241     -357 
    -500     -633     -702     -681     -565     -353      -73      239 
     572      885     1063      987      670      255     -150     -499 
    -726     -769     -629     -372      -98      128      309      475 
     618      665      565      366      144      -62     -206     -254 
    -244     -217     -183     -166     -160     -121      -22      143 
     318      408      386      287      118     -106     -310     -407 
    -394     -302     -143       35      175      267      320      316 
     251      187      183      224      297      376      377      272 
      89     -166     -448     -682     -818     -791     -591     -329 
     -85      157      401      624      774      777      678      575 
     435      223        5     -156     -248     -257     -181      -62 
      36       91       99       22     -112     -177     -150     -139 
    -141      -92      -34      -37      -62      -33       46      124 
     170      169      144      121       81       23      -10      -20 
     -45      -63      -21       65      179      335      470      496 
     439      363      253       83      -85     -175     -207     -239 
    -261     -230     -169     -108      -34       25       -5     -137 
    -291     -369     -320     -132      171      489      712      770 
     622      316      -21     -315     -533     -602     -500     -293 
     -24      280      518      564      409      149     -117     -306 
    -324     -129      211      574      859     1003      988      807 
     456      -13     -509     -962    -1262    -1313    -1138     -796 
    -333      149      536      755      800      734      635      541 
     463      371      247      127       36      -70     -203     -323 
    -435     -554     -641     -650     -549     -318       17      340 
     526      566      522      431      315      192       90       50 
      51      -13     -172     -317     -364     -326     -205       33 
     345      622      790      813      685      439      132     -166 
    -381     -488     -504     -433     -263      -32      163      245 
     205       81      -81     -242     -333     -287     -140       25 
     195      345      409      385      322      231      105      -31 
    -137     -190     -182     -105       13      115      196      254 
     199      -10     -264     -438     -495     -429     -225       86 
     417      663      742      621      336      -16     -324     -500 
    -479     -253       86      417      660      774      726      497 
     131     -265     -591     -782     -791     -631     -386     -137 
      71      209      283      327      342      320      285      257 
     188       47      -85     -141     -140     -101      -24       73 
     173      256      293      267      206      143       69      -17 
     -89     -122     -106      -42       48      124      173      198 
     158       14     -184     -360     -474     -499     -411     -203 
      93      394      620      730      715      584      379      147 
     -51     -157     -177     -166     -152     -137     -154     -226 
    -295     -283     -209     -104       75      311      487      522 
     417      201      -55     -272     -420     -482     -423     -265 
     -79       99      273      414      473      445      350      200 
      14     -170     -298     -315     -205        1      243      456 
     572      565      469      299       67     -148     -280     -342 
    -352     -319     -278     -257     -225     -146      -42       59 
     155      227      263      281      289      270      226      175 
     124       72       12      -51      -85      -87      -94     -119 
    -134     -112      -53       29      126      225      288      286 
     241      168       42     -125     -260     -316     -294     -200 
     -53      121      298      438      518      553      528      391 
     148     -102     -264     -346     -383     -346     -226      -91 
      12       81       99       57      -16      -77     -101      -58 
      59      186      260      269      216      103      -30     -139 
    -204     -208     -142      -39       62      161      257      342 
     395      416      422      402      319      185       40      -91 
    -180     -219     -236     -228     -172      -90      -20       27 
      27      -34     -120     -176     -176     -122      -19      118 
     231      258      206      119       18      -72     -121     -116 
     -88      -71      -44       36      154      248      303      357 
     396      371      293      199       94       -6      -92     -176 
    -244     -264     -247     -216     -173     -120      -72      -27 
      26       89      145      182      204      218      228      236 
     250      272      286      265      206      126       17     -143 
    -315     -426     -456     -416     -309     -141       45      206 
     349      480      566      583      528      388      173      -60 
    -258     -396     -466     -475     -444     -384     -289     -166 
     -49       52      148      252      363      462      519      529 
     505      429      292      120      -55     -202     -292     -314 
    -269     -175      -60       48      118      125       77        7 
     -52      -72      -28       66      164      223      211      122 
     -20     -150     -206     -177      -82       51      181      280 
     334      333      279      201      114       25      -72     -177 
    -269     -315     -303     -237     -127       12      159      285 
     359      352      253      109       -1      -68     -118     -123 
     -45       79      186      246      237      153       26      -97 
    -187     -203     -103       73      226      310      329      274 
     145       -9     -147     -257     -303     -260     -167      -76 
       7       87      151      176      180      186      203      232 
     247      217      152       84       18      -47      -92     -116 
    -130     -111      -46       26       51       26       -5      -24 
     -35      -10       60      142      204      233      218      158 
      73       -3      -42      -23       50      133      170      125 
      28      -69     -148     -197     -189     -116       -8      106 
     203      251      253      240      214      165      102       49 
      27       32       25      -18      -72     -107     -137     -168 
    -168     -135      -82      -11       79      165      213      218 
     194      140       64       -3      -33      -32      -13       17 
      44       55       43       15       -9      -17      -11        1 
       9       16       24       27       26       43      100      182 
     259      313      333      305      229      107      -45     -187 
    -287     -335     -325     -256     -151      -43       49      128 
     197      256      313      361      377      351      282      183 
      79      -20     -108     -177     -223     -238     -217     -170 
    -121      -87      -66      -54      -50      -36        0       48 
      99      150      199      241      270      264      218      145 
      53      -38     -105     -138     -131      -88      -19       63 
     137      174      173      150      109       63       37       31 
      29       21       13       18       42       88      158      227 
