Origin Time       2014/11/14 05:42:00
Lat.              43.655
Long.             144.497
Depth. (km)       0
Mag.              2.9
Station Code      ABSH11
Station Lat.      43.9144
Station Long.     144.1913
Station Height(m) -82
Record Time       2014/11/14 05:42:43
Sampling Freq(Hz) 100Hz
Duration Time(s)  120
Dir.              3
Scale Factor      2940(gal)/6170270
Max. Acc. (gal)   0.109
Last Correction   2014/11/14 05:42:28
Memo.             
[...]
  -36624   -36622   -36625   -36628   -36628   -36627   -36627   -36625 
  -36625   -36625   -36623   -36622   -36623   -36624   -36625   -36623 
  -36624   -36625   -36625   -36624   -36621   -36620   -36623   -36625 
  -36623   -36625   -36628   -36627   -36626   -36627   -36627   -36624 
  -36624   -36627   -36625   -36623   -36625   -36625   -36624   -36626 
  -36628   -36629   -36629   -36625   -36622   -36624   -36625   -36626 
  -36626   -36624   -36623   -36623   -36622   -36622   -36624   -36624 
  -36623   -36622   -36623   -36624   -36624   -36624   -36623   -36621 
  -36624   -36626   -36625   -36625   -36624   -36623   -36623   -36624 
  -36625   -36624   -36622   -36623   -36623   -36624   -36623   -36623 
  -36622   -36622   -36623   -36623   -36622   -36623   -36623   -36623 
  -36624   -36623   -36622   -36625   -36625   -36624   -36625   -36626 
  -36626   -36626   -36626   -36625   -36623   -36624   -36625   -36622 
  -36622   -36624   -36624   -36624   -36624   -36623   -36623   -36624 
  -36622   -36622   -36623   -36622   -36620   -36622   -36624   -36623 
  -36625   -36626   -36624   -36625   -36627   -36627   -36628   -36627 
  -36624   -36623   -36623   -36624   -36625   -36624   -36624   -36623 
  -36619   -36619   -36621   -36618   -36619   -36621   -36620   -36621 
  -36623   -36624   -36626   -36624   -36620   -36623   -36626   -36624 
  -36624   -36626   -36626   -36626   -36626   -36624   -36623   -36624 
  -36624   -36622   -36621   -36622   -36622   -36623   -36625   -36625 
  -36623   -36624   -36624   -36623   -36625   -36624   -36621   -36624 
  -36627   -36624   -36621   -36622   -36624   -36623   -36622   -36622 
  -36622   -36620   -36621   -36623   -36622   -36623   -36625   -36624 
  -36623   -36624   -36625   -36627   -36626   -36624   -36623   -36623 
  -36623   -36626   -36625   -36625   -36628   -36628   -36626   -36625 
  -36625   -36626   -36624   -36624   -36628   -36629   -36626   -36626 
  -36626   -36624   -36627   -36627   -36624   -36625   -36626   -36624 
  -36623   -36625   -36626   -36625   -36626   -36627   -36626   -36626 
  -36629   -36628   -36624   -36624   -36627   -36627   -36624   -36624 
  -36625   -36623   -36621   -36622   -36626   -36624   -36622   -36624 
  -36625   -36623   -36622   -36625   -36626   -36623   -36624   -36624 
  -36625   -36630   -36630   -36626   -36624   -36624   -36623   -36623 
  -36623   -36624   -36623   -36624   -36626   -36625   -36623   -36623 
  -36624   -36624   -36624   -36624   -36624   -36625   -36625   -36622 
  -36621   -36622   -36621   -36620   -36623   -36626   -36626   -36625 
  -36624   -36623   -36622   -36625   -36628   -36627   -36626   -36629 
  -36628   -36625   -36623   -36622   -36625   -36627   -36626   -36625 
  -36624   -36621   -36621   -36624   -36626   -36626   -36624   -36622 
  -36621   -36623   -36624   -36623   -36623   -36626   -36628   -36623 
  -36621   -36623   -36623   -36622   -36623   -36626   -36626   -36625 
  -36624   -36626   -36627   -36626   -36626   -36625   -36624   -36624 
  -36623   -36624   -36626   -36626   -36623   -36624   -36625   -36623 
  -36623   -36624   -36625   -36624   -36621   -36622   -36625   -36626 
  -36626   -36627   -36625   -36623   -36624   -36625   -36624   -36622 
  -36621   -36621   -36622   -36622   -36621   -36623   -36624   -36622 
  -36622   -36625   -36625   -36625   -36627   -36625   -36623   -36624 
  -36623   -36622   -36624   -36623   -36621   -36625   -36627   -36624 
  -36624   -36626   -36624   -36624   -36625   -36622   -36623   -36623 
  -36621   -36623   -36626   -36624   -36625   -36625   -36625   -36625 
  -36622   -36621   -36622   -36620   -36621   -36625   -36625   -36623 
  -36623   -36624   -36624   -36624   -36624   -36623   -36624   -36626 
  -36628   -36629   -36626   -36625   -36626   -36624   -36621   -36623 
  -36623   -36622   -36623   -36623   -36621   -36621   -36623   -36625 
  -36622   -36622   -36625   -36625   -36623   -36624   -36625   -36626 
  -36627   -36627   -36625   -36626   -36628   -36627   -36626   -36625 
  -36623   -36622   -36623   -36624   -36621   -36620   -36623   -36626 
  -36624   -36622   -36625   -36628   -36626   -36625   -36627   -36629 
  -36628   -36625   -36625   -36626   -36624   -36623   -36624   -36625 
  -36623   -36621   -36623   -36625   -36624   -36622   -36622   -36622 
  -36622   -36622   -36622   -36623   -36625   -36626   -36625   -36622 
  -36622   -36626   -36627   -36624   -36624   -36624   -36624   -36624 
  -36623   -36624   -36625   -36625   -36627   -36626   -36624   -36625 
  -36625   -36623   -36622   -36623   -36625   -36626   -36622   -36621 
  -36623   -36623   -36620   -36620   -36623   -36624   -36624   -36624 
  -36626   -36625   -36624   -36623   -36622   -36623   -36624   -36623 
  -36624   -36625   -36625   -36626   -36627   -36625   -36624   -36623 
  -36623   -36624   -36625   -36625   -36625   -36622   -36620   -36622 
  -36626   -36623   -36618   -36620   -36622   -36621   -36623   -36624 
  -36625   -36626   -36625   -36625   -36625   -36626   -36626   -36626 
  -36626   -36625   -36625   -36627   -36629   -36627   -36625   -36626 
  -36625   -36624   -36622   -36621   -36623   -36624   -36623   -36623 
  -36623   -36623   -36622   -36622   -36625   -36625   -36622   -36622 
  -36623   -36623   -36623   -36625   -36629   -36629   -36626   -36625 
  -36625   -36626   -36626   -36624   -36626   -36628   -36626   -36624 
  -36624   -36623   -36625   -36627   -36625   -36622   -36620   -36622 
  -36625   -36626   -36623   -36619   -36620   -36623   -36623   -36623 
  -36623   -36625   -36626   -36623   -36622   -36625   -36622   -36619 
  -36616   -36614   -36619   -36634   -36656   -36680   -36682   -36648 
  -36587   -36539   -36541   -36581   -36618   -36633   -36636   -36643 
  -36662   -36693   -36699   -36651   -36590   -36558   -36560   -36595 
  -36640   -36654   -36633   -36618   -36635   -36638   -36595   -36581 
  -36651   -36702   -36650   -36593   -36612   -36639   -36628   -36608 
  -36593   -36601   -36635   -36641   -36616   -36621   -36627   -36607 
  -36632   -36655   -36595   -36572   -36649   -36681   -36649   -36645 
  -36639   -36603   -36602   -36614   -36577   -36573   -36629   -36652 
  -36654   -36645   -36599   -36615   -36682   -36672   -36637   -36626 
  -36582   -36583   -36659   -36667   -36600   -36573   -36583   -36595 
  -36614   -36618   -36632   -36677   -36670   -36613   -36618   -36642 
  -36618   -36621   -36642   -36615   -36605   -36635   -36632   -36617 
  -36630   -36609   -36571   -36591   -36616   -36627   -36675   -36681 
  -36622   -36625   -36662   -36627   -36591   -36606   -36611   -36615 
  -36639   -36634   -36613   -36597   -36585   -36616   -36647   -36609 
  -36600   -36675   -36704   -36651   -36636   -36675   -36660   -36576 
  -36516   -36536   -36598   -36624   -36616   -36649   -36688   -36656 
  -36629   -36655   -36657   -36628   -36609   -36587   -36593   -36644 
  -36657   -36619   -36606   -36615   -36600   -36564   -36565   -36645 
  -36708   -36681   -36655   -36682   -36684   -36647   -36628   -36622 
  -36601   -36566   -36533   -36535   -36586   -36634   -36657   -36676 
  -36689   -36680   -36659   -36651   -36647   -36606   -36549   -36525 
  -36529   -36566   -36632   -36659   -36634   -36617   -36622   -36633 
  -36649   -36673   -36684   -36640   -36581   -36590   -36628   -36607 
  -36569   -36572   -36584   -36606   -36652   -36668   -36656   -36673 
  -36699   -36685   -36629   -36576   -36584   -36630   -36643   -36604 
  -36582   -36609   -36626   -36625   -36644   -36648   -36625   -36616 
  -36620   -36632   -36655   -36664   -36650   -36631   -36597   -36558 
  -36570   -36619   -36624   -36606   -36620   -36627   -36600   -36605 
  -36664   -36691   -36658   -36633   -36644   -36653   -36649   -36646 
  -36642   -36608   -36552   -36537   -36572   -36594   -36607   -36641 
  -36665   -36665   -36652   -36633   -36628   -36646   -36665   -36670 
  -36673   -36661   -36607   -36533   -36509   -36545   -36586   -36620 
  -36659   -36661   -36630   -36632   -36661   -36665   -36653   -36637 
  -36610   -36611   -36637   -36634   -36616   -36628   -36632   -36590 
  -36562   -36574   -36594   -36612   -36623   -36645   -36687   -36683 
  -36636   -36618   -36627   -36646   -36654   -36638   -36638   -36630 
  -36579   -36578   -36622   -36596   -36550   -36593   -36659   -36668 
  -36650   -36636   -36621   -36636   -36679   -36687   -36661   -36631 
  -36577   -36542   -36562   -36567   -36572   -36640   -36703   -36697 
  -36661   -36629   -36624   -36640   -36608   -36558   -36581   -36601 
  -36581   -36614   -36649   -36625   -36625   -36651   -36619   -36567 
  -36580   -36645   -36707   -36734   -36718   -36671   -36601   -36538 
  -36548   -36617   -36635   -36607   -36624   -36651   -36635   -36630 
  -36647   -36618   -36569   -36583   -36652   -36714   -36718   -36642 
  -36580   -36601   -36607   -36567   -36571   -36599   -36592   -36589 
  -36620   -36650   -36640   -36605   -36627   -36687   -36678   -36629 
  -36638   -36676   -36682   -36651   -36609   -36583   -36554   -36532 
  -36578   -36635   -36599   -36571   -36647   -36704   -36657   -36608 
  -36613   -36622   -36617   -36604   -36607   -36625   -36632   -36643 
  -36658   -36628   -36593   -36605   -36611   -36601   -36630   -36686 
  -36700   -36656   -36613   -36607   -36603   -36589   -36582   -36598 
  -36653   -36697   -36678   -36655   -36651   -36604   -36556   -36567 
  -36569   -36549   -36601   -36678   -36693   -36692   -36691   -36647 
  -36600   -36576   -36560   -36579   -36625   -36653   -36663   -36661 
  -36634   -36621   -36633   -36599   -36538   -36553   -36625   -36666 
  -36666   -36648   -36615   -36612   -36634   -36609   -36571   -36598 
  -36638   -36641   -36651   -36669   -36652   -36615   -36591   -36572 
  -36554   -36553   -36591   -36653   -36688   -36674   -36652   -36664 
  -36690   -36677   -36640   -36626   -36605   -36565   -36560   -36588 
  -36613   -36648   -36680   -36685   -36670   -36621   -36546   -36530 
  -36619   -36723   -36727   -36661   -36631   -36628   -36593   -36568 
  -36570   -36550   -36553   -36624   -36681   -36690   -36672   -36636 
  -36633   -36645   -36597   -36549   -36562   -36586   -36601   -36623 
  -36634   -36640   -36649   -36629   -36591   -36587   -36619   -36625 
  -36604   -36619   -36666   -36699   -36711   -36694   -36651   -36599 
  -36531   -36500   -36571   -36658   -36662   -36652   -36694   -36705 
  -36640   -36592   -36598   -36598   -36586   -36588   -36597   -36625 
  -36658   -36662   -36656   -36661   -36674   -36696   -36682   -36605 
  -36567   -36605   -36602   -36543   -36530   -36575   -36612   -36610 
  -36601   -36615   -36629   -36596   -36535   -36539   -36619   -36682 
  -36721   -36758   -36758   -36767   -36778   -36679   -36531   -36493 
  -36527   -36555   -36572   -36582   -36629   -36720   -36754   -36699 
  -36654   -36647   -36615   -36571   -36591   -36651   -36662   -36616 
  -36566   -36539   -36524   -36512   -36517   -36547   -36608   -36692 
  -36749   -36755   -36730   -36695   -36643   -36561   -36489   -36494 
  -36549   -36597   -36645   -36684   -36677   -36641   -36618   -36616 
  -36619   -36615   -36644   -36724   -36782   -36769   -36737   -36718 
  -36675   -36622   -36619   -36603   -36504   -36432   -36477   -36535 
  -36531   -36516   -36538   -36601   -36676   -36714   -36714   -36699 
  -36672   -36645   -36633   -36623   -36604   -36608   -36642   -36666 
  -36675   -36680   -36630   -36543   -36510   -36510   -36486   -36518 
  -36630   -36695   -36706   -36733   -36716   -36649   -36605   -36581 
  -36573   -36579   -36578   -36624   -36710   -36732   -36712   -36720 
  -36725   -36728   -36758   -36744   -36649   -36557   -36502   -36451 
  -36410   -36405   -36438   -36498   -36578   -36680   -36762   -36771 
  -36739   -36728   -36719   -36672   -36603   -36545   -36542   -36601 
  -36658   -36662   -36627   -36594   -36586   -36582   -36549   -36539 
  -36606   -36653   -36610   -36603   -36681   -36705   -36654   -36623 
  -36614   -36601   -36591   -36564   -36546   -36585   -36637   -36644 
  -36615   -36586   -36588   -36611   -36641   -36710   -36775   -36756 
  -36729   -36750   -36723   -36634   -36577   -36570   -36580   -36592 
  -36600   -36600   -36592   -36580   -36584   -36613   -36636   -36648 
  -36666   -36666   -36626   -36546   -36462   -36447   -36489   -36522 
  -36575   -36666   -36727   -36732   -36689   -36628   -36614   -36646 
  -36648   -36612   -36591   -36596   -36626   -36667   -36668   -36656 
  -36698   -36768   -36786   -36747   -36693   -36642   -36586   -36552 
  -36574   -36617   -36630   -36616   -36611   -36629   -36631   -36587 
  -36547   -36538   -36502   -36447   -36464   -36560   -36632   -36635 
  -36642   -36689   -36708   -36686   -36668   -36642   -36610   -36629 
  -36677   -36693   -36688   -36681   -36669   -36648   -36595   -36533 
  -36517   -36532   -36548   -36611   -36688   -36681   -36646   -36660 
  -36644   -36579   -36545   -36541   -36537   -36567   -36646   -36723 
  -36743   -36713   -36704   -36722   -36685   -36616   -36605   -36619 
  -36577   -36512   -36495   -36537   -36578   -36576   -36578   -36621 
  -36677   -36725   -36759   -36762   -36726   -36686   -36665   -36652 
  -36631   -36587   -36523   -36483   -36489   -36507   -36530   -36566 
  -36582   -36582   -36616   -36641   -36613   -36610   -36675   -36755 
  -36824   -36853   -36822   -36773   -36730   -36669   -36610   -36565 
  -36515   -36490   -36499   -36488   -36458   -36457   -36501   -36599 
  -36706   -36733   -36702   -36688   -36665   -36612   -36585   -36579 
  -36563   -36572   -36604   -36620   -36629   -36631   -36621   -36622 
  -36625   -36616   -36630   -36670   -36667   -36634   -36641   -36666 
  -36678   -36703   -36732   -36743   -36730   -36667   -36563   -36498 
  -36498   -36514   -36507   -36499   -36533   -36601   -36638   -36633 
  -36648   -36690   -36689   -36633   -36599   -36603   -36595   -36584 
  -36587   -36592   -36629   -36689   -36722   -36743   -36768   -36770 
  -36752   -36712   -36636   -36569   -36527   -36476   -36422   -36417 
  -36467   -36527   -36577   -36620   -36667   -36719   -36751   -36756 
  -36738   -36684   -36626   -36637   -36685   -36696   -36674   -36653 
  -36653   -36658   -36638   -36627   -36648   -36663   -36659   -36621 
  -36570   -36558   -36547   -36503   -36484   -36498   -36524   -36574 
  -36604   -36601   -36624   -36642   -36604   -36578   -36596   -36622 
  -36663   -36711   -36722   -36708   -36700   -36686   -36673   -36658 
  -36624   -36617   -36656   -36680   -36676   -36671   -36652   -36633 
  -36629   -36608   -36572   -36542   -36502   -36467   -36461   -36476 
  -36525   -36613   -36687   -36714   -36727   -36752   -36759   -36735 
  -36705   -36684   -36668   -36649   -36627   -36602   -36572   -36553 
  -36549   -36546   -36551   -36590   -36645   -36681   -36694   -36687 
  -36667   -36655   -36639   -36583   -36527   -36549   -36601   -36602 
  -36595   -36623   -36653   -36674   -36676   -36648   -36615   -36597 
  -36593   -36592   -36588   -36591   -36618   -36659   -36680   -36681 
  -36685   -36678   -36641   -36611   -36622   -36645   -36649   -36647 
  -36642   -36625   -36614   -36614   -36602   -36569   -36544   -36554 
  -36578   -36579   -36576   -36596   -36606   -36578   -36573   -36634 
  -36708   -36741   -36744   -36729   -36690   -36649   -36622   -36587 
  -36545   -36534   -36564   -36602   -36622   -36643   -36674   -36683 
  -36655   -36622   -36607   -36596   -36568   -36539   -36542   -36581 
  -36621   -36651   -36667   -36658   -36650   -36681   -36724   -36724 
  -36695   -36677   -36667   -36646   -36624   -36607   -36602   -36624 
  -36655   -36653   -36622   -36604   -36599   -36578   -36565   -36580 
  -36592   -36588   -36578   -36563   -36557   -36573   -36595   -36616 
  -36641   -36664   -36675   -36660   -36612   -36573   -36588   -36616 
  -36610   -36607   -36627   -36647   -36677   -36718   -36740   -36732 
  -36699   -36648   -36593   -36558   -36558   -36565   -36557   -36561 
  -36587   -36612   -36642   -36676   -36677   -36644   -36628   -36635 
  -36627   -36607   -36596   -36590   -36578   -36572   -36581   -36603 
  -36625   -36639   -36638   -36619   -36610   -36626   -36639   -36647 
  -36657   -36645   -36625   -36636   -36667   -36681   -36657   -36628 
  -36635   -36655   -36660   -36652   -36633   -36607   -36588   -36580 
  -36582   -36608   -36642   -36643   -36618   -36608   -36602   -36572 
  -36539   -36539   -36564   -36579   -36593   -36629   -36666   -36675 
  -36671   -36676   -36686   -36687   -36683   -36685   -36694   -36689 
  -36657   -36621   -36605   -36595   -36579   -36575   -36594   -36607 
  -36602   -36603   -36614   -36609   -36586   -36582   -36603   -36622 
  -36629   -36636   -36637   -36629   -36615   -36607   -36619   -36645 
  -36665   -36694   -36722   -36709   -36677   -36667   -36664   -36650 
  -36629   -36599   -36570   -36556   -36543   -36529   -36533   -36544 
  -36549   -36577   -36621   -36641   -36648   -36669   -36678   -36648 
  -36613   -36608   -36622   -36631   -36644   -36655   -36668   -36693 
  -36709   -36695   -36673   -36650   -36613   -36577   -36557   -36538 
  -36525   -36540   -36574   -36596   -36600   -36609   -36630   -36644 
  -36649   -36655   -36669   -36689   -36694   -36671   -36645   -36630 
  -36617   -36618   -36633   -36625   -36601   -36603   -36633   -36661 
  -36672   -36675   -36678   -36673   -36653   -36624   -36600   -36590 
  -36589   -36592   -36597   -36598   -36596   -36598   -36579   -36542 
  -36530   -36548   -36563   -36557   -36545   -36565   -36624   -36675 
  -36686   -36688   -36703   -36712   -36700   -36683   -36669   -36647 
  -36628   -36634   -36654   -36661   -36655   -36646   -36635   -36624 
  -36618   -36620   -36626   -36630   -36629   -36619   -36597   -36577 
  -36582   -36605   -36621   -36626   -36624   -36631   -36646   -36642 
  -36620   -36604   -36599   -36588   -36570   -36569   -36587   -36598 
  -36602   -36607   -36610   -36616   -36621   -36621   -36621   -36622 
  -36633   -36662   -36684   -36684   -36677   -36667   -36649   -36632 
  -36620   -36616   -36622   -36627   -36628   -36626   -36619   -36606 
  -36599   -36601   -36616   -36641   -36667   -36677   -36675   -36679 
  -36679   -36656   -36619   -36596   -36593   -36589   -36576   -36571 
  -36577   -36578   -36582   -36604   -36629   -36637   -36630   -36622 
  -36621   -36626   -36635   -36643   -36643   -36639   -36628   -36609 
  -36601   -36619   -36642   -36639   -36619   -36602   -36600   -36616 
  -36637   -36640   -36630   -36621   -36623   -36628   -36612   -36588 
  -36597   -36631   -36647   -36650   -36656   -36659   -36652   -36634 
  -36604   -36581   -36573   -36574   -36581   -36589   -36597   -36613 
  -36634   -36652   -36665   -36670   -36669   -36671   -36676   -36671 
  -36647   -36622   -36611   -36604   -36596   -36599   -36613   -36623 
  -36630   -36645   -36663   -36659   -36627   -36596   -36587   -36589 
  -36585   -36576   -36579   -36593   -36599   -36604   -36616   -36625 
  -36633   -36646   -36654   -36652   -36650   -36652   -36660   -36663 
  -36645   -36623   -36631   -36651   -36641   -36615   -36604   -36606 
