Origin Time       2014/11/14 05:42:00
Lat.              43.655
Long.             144.497
Depth. (km)       0
Mag.              2.9
Station Code      ABSH11
Station Lat.      43.9144
Station Long.     144.1913
Station Height(m) -82
Record Time       2014/11/14 05:42:43
Sampling Freq(Hz) 100Hz
Duration Time(s)  120
Dir.              1
Scale Factor      2940(gal)/6170270
Max. Acc. (gal)   0.175
Last Correction   2014/11/14 05:42:28
Memo.             
[...]
  -59698   -59695   -59694   -59695   -59695   -59693   -59694   -59695 
  -59697   -59698   -59696   -59695   -59697   -59697   -59696   -59699 
  -59698   -59697   -59699   -59701   -59700   -59697   -59697   -59699 
  -59698   -59695   -59695   -59696   -59697   -59697   -59696   -59697 
  -59699   -59697   -59695   -59696   -59696   -59696   -59698   -59702 
  -59701   -59699   -59698   -59696   -59697   -59698   -59696   -59697 
  -59698   -59695   -59692   -59694   -59695   -59697   -59696   -59694 
  -59695   -59698   -59698   -59697   -59696   -59695   -59696   -59697 
  -59698   -59699   -59698   -59696   -59698   -59700   -59698   -59697 
  -59701   -59703   -59700   -59697   -59698   -59700   -59699   -59696 
  -59695   -59696   -59696   -59695   -59695   -59696   -59697   -59699 
  -59700   -59697   -59694   -59696   -59698   -59697   -59697   -59696 
  -59696   -59697   -59696   -59695   -59695   -59695   -59694   -59695 
  -59698   -59697   -59696   -59699   -59699   -59698   -59700   -59699 
  -59696   -59696   -59696   -59695   -59699   -59700   -59698   -59698 
  -59700   -59698   -59698   -59701   -59701   -59700   -59699   -59698 
  -59698   -59697   -59697   -59699   -59700   -59700   -59699   -59698 
  -59697   -59698   -59696   -59694   -59696   -59699   -59700   -59699 
  -59699   -59697   -59696   -59696   -59698   -59701   -59701   -59698 
  -59698   -59699   -59698   -59700   -59700   -59698   -59699   -59702 
  -59701   -59698   -59699   -59701   -59700   -59700   -59701   -59699 
  -59700   -59701   -59697   -59696   -59700   -59703   -59704   -59703 
  -59701   -59702   -59703   -59701   -59700   -59700   -59698   -59697 
  -59698   -59700   -59701   -59699   -59698   -59701   -59703   -59701 
  -59698   -59698   -59700   -59701   -59701   -59701   -59703   -59701 
  -59701   -59700   -59697   -59697   -59701   -59701   -59701   -59702 
  -59701   -59700   -59700   -59700   -59700   -59700   -59700   -59697 
  -59698   -59701   -59702   -59701   -59701   -59700   -59699   -59699 
  -59698   -59698   -59698   -59700   -59700   -59699   -59698   -59699 
  -59700   -59699   -59701   -59702   -59700   -59700   -59703   -59701 
  -59700   -59700   -59699   -59699   -59699   -59697   -59696   -59696 
  -59698   -59699   -59699   -59701   -59699   -59695   -59698   -59699 
  -59698   -59699   -59700   -59698   -59698   -59698   -59697   -59697 
  -59697   -59697   -59698   -59699   -59699   -59700   -59700   -59699 
  -59699   -59701   -59700   -59698   -59699   -59698   -59695   -59697 
  -59698   -59695   -59697   -59700   -59699   -59696   -59695   -59697 
  -59698   -59696   -59698   -59698   -59694   -59694   -59697   -59696 
  -59696   -59698   -59699   -59699   -59698   -59698   -59696   -59694 
  -59695   -59696   -59696   -59697   -59696   -59694   -59694   -59696 
  -59695   -59696   -59697   -59695   -59694   -59694   -59694   -59694 
  -59695   -59694   -59696   -59698   -59696   -59694   -59695   -59695 
  -59695   -59697   -59697   -59696   -59697   -59696   -59694   -59697 
  -59698   -59697   -59697   -59698   -59695   -59694   -59694   -59694 
  -59694   -59696   -59697   -59695   -59694   -59696   -59697   -59697 
  -59697   -59700   -59699   -59696   -59696   -59697   -59695   -59696 
  -59695   -59695   -59696   -59694   -59694   -59695   -59695   -59695 
  -59698   -59698   -59697   -59698   -59696   -59693   -59695   -59699 
  -59698   -59697   -59697   -59696   -59697   -59697   -59697   -59700 
  -59699   -59697   -59698   -59701   -59702   -59699   -59697   -59698 
  -59700   -59699   -59698   -59697   -59695   -59696   -59698   -59695 
  -59694   -59695   -59694   -59695   -59697   -59697   -59696   -59698 
  -59699   -59699   -59697   -59697   -59698   -59699   -59697   -59696 
  -59698   -59699   -59694   -59692   -59696   -59698   -59699   -59698 
  -59699   -59700   -59698   -59697   -59698   -59697   -59697   -59699 
  -59699   -59697   -59696   -59698   -59697   -59697   -59699   -59697 
  -59694   -59695   -59693   -59693   -59699   -59699   -59697   -59696 
  -59694   -59695   -59698   -59697   -59696   -59696   -59697   -59699 
  -59699   -59698   -59698   -59699   -59699   -59700   -59701   -59699 
  -59699   -59699   -59697   -59696   -59697   -59698   -59699   -59698 
  -59695   -59695   -59697   -59696   -59694   -59697   -59697   -59696 
  -59696   -59697   -59698   -59700   -59699   -59697   -59699   -59701 
  -59700   -59697   -59696   -59697   -59697   -59696   -59698   -59700 
  -59700   -59700   -59701   -59700   -59699   -59701   -59701   -59701 
  -59702   -59701   -59700   -59699   -59699   -59698   -59700   -59703 
  -59703   -59701   -59700   -59702   -59701   -59697   -59698   -59701 
  -59699   -59698   -59699   -59700   -59703   -59704   -59699   -59697 
  -59699   -59700   -59701   -59700   -59698   -59697   -59697   -59698 
  -59699   -59700   -59699   -59699   -59702   -59704   -59702   -59697 
  -59697   -59702   -59704   -59702   -59702   -59701   -59699   -59698 
  -59698   -59699   -59700   -59699   -59698   -59699   -59699   -59700 
  -59699   -59699   -59700   -59699   -59699   -59698   -59697   -59697 
  -59699   -59701   -59699   -59698   -59697   -59697   -59698   -59698 
  -59697   -59698   -59699   -59700   -59699   -59697   -59700   -59702 
  -59700   -59698   -59698   -59700   -59700   -59699   -59699   -59700 
  -59699   -59699   -59700   -59700   -59698   -59697   -59699   -59699 
  -59699   -59697   -59695   -59696   -59699   -59698   -59695   -59696 
  -59699   -59699   -59697   -59699   -59698   -59697   -59699   -59700 
  -59698   -59699   -59701   -59700   -59700   -59702   -59700   -59697 
  -59696   -59697   -59698   -59697   -59694   -59693   -59695   -59698 
  -59699   -59700   -59698   -59696   -59696   -59697   -59696   -59697 
  -59697   -59698   -59698   -59698   -59696   -59695   -59697   -59697 
  -59696   -59696   -59697   -59697   -59698   -59700   -59700   -59699 
  -59698   -59698   -59698   -59697   -59696   -59698   -59699   -59698 
  -59696   -59693   -59694   -59697   -59697   -59695   -59696   -59700 
  -59700   -59697   -59696   -59697   -59698   -59699   -59697   -59697 
  -59698   -59699   -59698   -59699   -59699   -59696   -59697   -59697 
  -59695   -59697   -59698   -59697   -59698   -59696   -59694   -59698 
  -59698   -59694   -59696   -59698   -59696   -59696   -59698   -59697 
  -59697   -59698   -59696   -59696   -59697   -59697   -59698   -59699 
  -59698   -59697   -59699   -59699   -59698   -59698   -59697   -59697 
  -59699   -59698   -59697   -59698   -59697   -59693   -59695   -59699 
  -59699   -59699   -59701   -59699   -59698   -59700   -59699   -59698 
  -59699   -59699   -59699   -59699   -59698   -59698   -59699   -59699 
  -59698   -59701   -59703   -59701   -59698   -59699   -59698   -59695 
  -59696   -59699   -59700   -59699   -59697   -59698   -59701   -59699 
  -59698   -59700   -59700   -59698   -59698   -59698   -59698   -59697 
  -59697   -59699   -59698   -59697   -59698   -59698   -59698   -59698 
  -59698   -59697   -59697   -59698   -59698   -59699   -59701   -59700 
  -59698   -59698   -59697   -59696   -59697   -59698   -59697   -59696 
  -59696   -59695   -59694   -59695   -59694   -59695   -59697   -59696 
  -59696   -59696   -59693   -59693   -59697   -59697   -59696   -59697 
  -59695   -59692   -59693   -59694   -59694   -59697   -59698   -59696 
  -59696   -59695   -59692   -59694   -59697   -59697   -59696   -59696 
  -59695   -59697   -59697   -59696   -59699   -59699   -59698   -59696 
  -59693   -59694   -59698   -59700   -59704   -59706   -59705   -59701 
  -59691   -59684   -59688   -59700   -59704   -59697   -59691   -59690 
  -59689   -59697   -59708   -59706   -59699   -59698   -59695   -59694 
  -59697   -59690   -59680   -59688   -59709   -59717   -59702   -59699 
  -59716   -59714   -59692   -59681   -59676   -59692   -59725   -59714 
  -59681   -59690   -59700   -59688   -59705   -59720   -59693   -59681 
  -59686   -59677   -59711   -59758   -59738   -59697   -59674   -59659 
  -59678   -59715   -59723   -59702   -59668   -59656   -59691   -59734 
  -59749   -59729   -59683   -59674   -59701   -59681   -59660   -59703 
  -59709   -59680   -59703   -59729   -59725   -59708   -59683   -59697 
  -59716   -59698   -59698   -59696   -59688   -59696   -59663   -59657 
  -59725   -59720   -59682   -59741   -59758   -59681   -59660   -59692 
  -59699   -59710   -59717   -59677   -59651   -59686   -59702   -59697 
  -59748   -59773   -59716   -59682   -59667   -59634   -59657   -59715 
  -59729   -59727   -59714   -59669   -59655   -59710   -59761   -59753 
  -59702   -59654   -59651   -59666   -59667   -59702   -59746   -59721 
  -59696   -59708   -59689   -59687   -59718   -59694   -59672   -59708 
  -59721   -59701   -59689   -59682   -59690   -59688   -59678   -59721 
  -59750   -59696   -59669   -59708   -59707   -59687   -59709   -59721 
  -59697   -59680   -59689   -59708   -59701   -59681   -59701   -59721 
  -59709   -59693   -59654   -59638   -59704   -59734   -59700   -59705 
  -59720   -59700   -59690   -59706   -59724   -59701   -59651   -59654 
  -59688   -59708   -59716   -59681   -59656   -59697   -59716   -59707 
  -59740   -59769   -59740   -59673   -59620   -59623   -59668   -59733 
  -59759   -59706   -59687   -59734   -59733   -59716   -59728   -59692 
  -59656   -59682   -59690   -59678   -59686   -59682   -59697   -59741 
  -59724   -59655   -59630   -59662   -59708   -59730   -59727   -59728 
  -59727   -59689   -59653   -59671   -59707   -59727   -59729   -59688 
  -59630   -59625   -59670   -59713   -59735   -59737   -59720   -59704 
  -59699   -59683   -59666   -59684   -59712   -59709   -59697   -59689 
  -59669   -59665   -59705   -59750   -59773   -59774   -59742   -59688 
  -59649   -59644   -59679   -59722   -59722   -59699   -59679   -59654 
  -59671   -59723   -59733   -59707   -59671   -59651   -59681   -59709 
  -59704   -59729   -59757   -59724   -59670   -59645   -59655   -59692 
  -59716   -59715   -59723   -59713   -59673   -59677   -59722   -59722 
  -59708   -59719   -59680   -59630   -59669   -59709   -59691   -59697 
  -59723   -59724   -59722   -59715   -59695   -59687   -59697   -59702 
  -59697   -59711   -59720   -59697   -59697   -59701   -59667   -59679 
  -59717   -59687   -59674   -59702   -59686   -59683   -59715   -59703 
  -59676   -59687   -59713   -59722   -59700   -59675   -59661   -59659 
  -59698   -59734   -59723   -59734   -59740   -59678   -59654   -59702 
  -59712   -59712   -59749   -59738   -59700   -59711   -59704   -59658 
  -59662   -59695   -59692   -59665   -59642   -59663   -59707   -59701 
  -59699   -59767   -59806   -59755   -59685   -59635   -59614   -59631 
  -59671   -59723   -59747   -59725   -59710   -59701   -59662   -59648 
  -59677   -59700   -59709   -59705   -59696   -59695   -59699   -59724 
  -59738   -59703   -59691   -59727   -59729   -59700   -59689   -59688 
  -59675   -59651   -59658   -59703   -59727   -59731   -59726   -59707 
  -59720   -59724   -59658   -59644   -59717   -59727   -59676   -59668 
  -59681   -59679   -59668   -59678   -59734   -59760   -59711   -59688 
  -59700   -59669   -59656   -59719   -59766   -59747   -59744   -59769 
  -59710   -59606   -59623   -59705   -59712   -59701   -59714   -59696 
  -59664   -59655   -59654   -59656   -59670   -59699   -59722   -59721 
  -59730   -59746   -59714   -59669   -59679   -59708   -59701   -59694 
  -59713   -59719   -59707   -59693   -59679   -59683   -59691   -59672 
  -59653   -59677   -59729   -59749   -59708   -59682   -59706   -59721 
  -59711   -59694   -59680   -59690   -59712   -59716   -59703   -59693 
  -59707   -59727   -59725   -59703   -59656   -59615   -59631   -59671 
  -59698   -59716   -59712   -59723   -59758   -59739   -59682   -59674 
  -59699   -59718   -59726   -59720   -59704   -59684   -59680   -59687 
  -59659   -59645   -59682   -59693   -59701   -59755   -59762   -59717 
  -59688   -59671   -59687   -59708   -59678   -59664   -59687   -59680 
  -59675   -59710   -59733   -59710   -59693   -59700   -59683   -59655 
  -59670   -59702   -59731   -59759   -59748   -59730   -59741   -59700 
  -59641   -59653   -59645   -59611   -59668   -59736   -59729   -59727 
  -59717   -59684   -59697   -59719   -59713   -59732   -59763   -59761 
  -59732   -59696   -59674   -59657   -59616   -59567   -59553   -59566 
  -59570   -59578   -59619   -59654   -59648   -59645   -59691   -59741 
  -59739   -59731   -59785   -59872   -59924   -59925   -59894   -59869 
  -59873   -59849   -59752   -59646   -59603   -59619   -59657   -59686 
  -59721   -59758   -59756   -59723   -59673   -59594   -59541   -59564 
  -59612   -59629   -59608   -59584   -59609   -59673   -59740   -59784 
  -59749   -59655   -59613   -59615   -59583   -59578   -59650   -59725 
  -59785   -59856   -59891   -59863   -59825   -59813   -59807   -59741 
  -59592   -59463   -59455   -59508   -59545   -59577   -59613   -59678 
  -59802   -59891   -59859   -59772   -59726   -59718   -59692   -59651 
  -59643   -59690   -59763   -59779   -59685   -59549   -59455   -59444 
  -59530   -59640   -59733   -59835   -59901   -59891   -59832   -59738 
  -59686   -59758   -59891   -59997   -60029   -59967   -59878   -59779 
  -59651   -59574   -59534   -59452   -59428   -59519   -59606   -59637 
  -59652   -59658   -59647   -59641   -59688   -59752   -59765   -59763 
  -59746   -59653   -59565   -59576   -59650   -59745   -59856   -59983 
  -60065   -60013   -59874   -59729   -59597   -59544   -59590   -59621 
  -59582   -59504   -59435   -59422   -59474   -59557   -59632   -59704 
  -59788   -59849   -59858   -59829   -59768   -59727   -59753   -59759 
  -59702   -59669   -59674   -59670   -59659   -59620   -59570   -59578 
  -59606   -59640   -59728   -59768   -59689   -59660   -59749   -59854 
  -59932   -59951   -59915   -59898   -59868   -59796   -59728   -59642 
  -59564   -59550   -59494   -59410   -59446   -59521   -59546   -59629 
  -59760   -59840   -59856   -59772   -59621   -59562   -59592   -59607 
  -59651   -59744   -59797   -59857   -59943   -59910   -59800   -59768 
  -59724   -59638   -59661   -59694   -59605   -59554   -59614   -59670 
  -59726   -59800   -59837   -59811   -59737   -59683   -59679   -59672 
  -59699   -59770   -59770   -59710   -59662   -59602   -59596   -59674 
  -59721   -59728   -59742   -59735   -59709   -59643   -59524   -59450 
  -59462   -59493   -59532   -59592   -59647   -59700   -59782   -59842 
  -59847   -59901   -60020   -60036   -59916   -59811   -59768   -59715 
  -59611   -59513   -59529   -59630   -59689   -59703   -59694   -59646 
  -59624   -59652   -59660   -59667   -59694   -59687   -59663   -59662 
  -59639   -59590   -59575   -59595   -59623   -59690   -59803   -59888 
  -59910   -59923   -59951   -59965   -59956   -59887   -59737   -59612 
  -59564   -59494   -59389   -59374   -59456   -59520   -59554   -59641 
  -59727   -59734   -59745   -59817   -59856   -59836   -59782   -59698 
  -59647   -59648   -59630   -59597   -59592   -59610   -59647   -59694 
  -59732   -59745   -59735   -59745   -59783   -59776   -59697   -59620 
  -59601   -59632   -59680   -59722   -59768   -59834   -59893   -59891 
  -59841   -59803   -59777   -59741   -59717   -59693   -59669   -59682 
  -59684   -59622   -59547   -59510   -59507   -59522   -59526   -59528 
  -59579   -59683   -59778   -59824   -59830   -59834   -59845   -59818 
  -59781   -59803   -59820   -59787   -59786   -59785   -59689   -59585 
  -59553   -59556   -59593   -59634   -59608   -59559   -59552   -59572 
  -59596   -59630   -59700   -59774   -59765   -59719   -59732   -59738 
  -59685   -59647   -59644   -59645   -59677   -59752   -59813   -59810 
  -59770   -59736   -59709   -59677   -59657   -59669   -59695   -59699 
  -59697   -59743   -59826   -59886   -59883   -59833   -59789   -59757 
  -59709   -59665   -59643   -59644   -59670   -59667   -59624   -59614 
  -59643   -59651   -59639   -59633   -59648   -59694   -59729   -59713 
  -59675   -59658   -59656   -59666   -59709   -59773   -59800   -59788 
  -59781   -59749   -59649   -59562   -59541   -59563   -59621   -59683 
  -59727   -59777   -59790   -59739   -59697   -59692   -59697   -59695 
  -59665   -59647   -59671   -59665   -59641   -59658   -59668   -59665 
  -59699   -59723   -59724   -59755   -59789   -59790   -59777   -59751 
  -59717   -59707   -59707   -59674   -59649   -59691   -59724   -59682 
  -59645   -59671   -59721   -59749   -59744   -59732   -59712   -59678 
  -59679   -59689   -59652   -59627   -59634   -59651   -59699   -59724 
  -59708   -59736   -59766   -59713   -59635   -59605   -59633   -59665 
  -59646   -59639   -59677   -59692   -59699   -59738   -59766   -59789 
  -59817   -59813   -59802   -59790   -59738   -59687   -59671   -59646 
  -59598   -59565   -59572   -59635   -59718   -59746   -59708   -59678 
  -59685   -59692   -59684   -59675   -59689   -59744   -59790   -59769 
  -59721   -59696   -59693   -59703   -59711   -59715   -59732   -59748 
  -59745   -59722   -59656   -59590   -59607   -59675   -59716   -59717 
  -59670   -59620   -59642   -59680   -59663   -59654   -59679   -59699 
  -59714   -59716   -59702   -59706   -59722   -59722   -59714   -59687 
  -59663   -59679   -59700   -59709   -59716   -59707   -59723   -59765 
  -59760   -59740   -59740   -59710   -59680   -59698   -59725   -59753 
  -59782   -59782   -59763   -59733   -59681   -59656   -59679   -59683 
  -59650   -59640   -59658   -59667   -59659   -59637   -59632   -59680 
  -59741   -59771   -59785   -59787   -59763   -59731   -59715   -59725 
  -59741   -59708   -59646   -59630   -59645   -59651   -59649   -59625 
  -59599   -59617   -59647   -59664   -59683   -59697   -59705   -59710 
  -59702   -59702   -59717   -59725   -59742   -59767   -59770   -59759 
  -59742   -59707   -59671   -59664   -59689   -59721   -59717   -59661 
  -59602   -59605   -59645   -59661   -59657   -59664   -59685   -59736 
  -59795   -59800   -59774   -59771   -59764   -59745   -59726   -59670 
  -59613   -59630   -59655   -59639   -59638   -59664   -59710   -59771 
  -59780   -59744   -59727   -59705   -59682   -59690   -59694   -59705 
  -59740   -59731   -59695   -59701   -59706   -59679   -59654   -59645 
  -59633   -59613   -59613   -59664   -59741   -59798   -59830   -59832 
  -59799   -59762   -59736   -59721   -59705   -59668   -59635   -59644 
  -59671   -59696   -59722   -59708   -59653   -59614   -59605   -59622 
  -59674   -59708   -59696   -59676   -59638   -59580   -59587   -59643 
  -59650   -59650   -59690   -59710   -59724   -59768   -59778   -59759 
  -59774   -59777   -59732   -59692   -59681   -59697   -59734   -59742 
  -59729   -59735   -59730   -59702   -59674   -59643   -59640   -59691 
  -59723   -59711   -59711   -59707   -59678   -59673   -59683   -59669 
  -59658   -59660   -59662   -59684   -59706   -59684   -59651   -59644 
  -59656   -59677   -59696   -59704   -59715   -59729   -59732   -59713 
  -59689   -59692   -59705   -59678   -59649   -59685   -59731   -59725 
  -59725   -59752   -59755   -59750   -59763   -59764   -59760   -59766 
  -59743   -59694   -59671   -59671   -59648   -59597   -59560   -59569 
  -59613   -59656   -59681   -59703   -59719   -59720   -59733   -59748 
  -59733   -59717   -59725   -59721   -59716   -59739   -59745   -59707 
