Origin Time       2014/11/14 05:42:00
Lat.              43.655
Long.             144.497
Depth. (km)       0
Mag.              2.9
Station Code      ABSH11
Station Lat.      43.9144
Station Long.     144.1913
Station Height(m) 40
Record Time       2014/11/14 05:42:43
Sampling Freq(Hz) 100Hz
Duration Time(s)  120
Dir.              4
Scale Factor      3920(gal)/6170801
Max. Acc. (gal)   1.218
Last Correction   2014/11/14 05:42:28
Memo.             
[...]
    9281     9279     9275     9272     9274     9275     9276     9278 
    9280     9281     9279     9276     9276     9275     9270     9269 
    9272     9272     9273     9278     9280     9280     9277     9271 
    9269     9273     9277     9279     9278     9277     9273     9271 
    9273     9270     9264     9266     9270     9271     9272     9273 
    9270     9265     9267     9272     9276     9279     9283     9288 
    9286     9280     9278     9278     9277     9274     9270     9267 
    9266     9266     9266     9270     9275     9276     9276     9278 
    9276     9270     9268     9272     9272     9267     9271     9279 
    9278     9273     9270     9269     9267     9267     9272     9276 
    9278     9277     9272     9269     9271     9273     9272     9276 
    9282     9280     9272     9271     9275     9272     9268     9270 
    9272     9270     9266     9265     9266     9267     9263     9261 
    9271     9283     9283     9279     9285     9292     9286     9279 
    9279     9276     9270     9265     9264     9268     9273     9274 
    9273     9274     9273     9265     9261     9265     9266     9262 
    9261     9264     9273     9282     9286     9288     9289     9287 
    9280     9275     9272     9270     9273     9278     9279     9279 
    9276     9269     9264     9264     9263     9264     9268     9272 
    9276     9278     9275     9269     9265     9262     9262     9262 
    9265     9269     9269     9270     9277     9284     9285     9281 
    9277     9274     9271     9267     9266     9267     9266     9268 
    9275     9278     9276     9273     9270     9267     9263     9261 
    9262     9269     9275     9275     9273     9278     9280     9272 
    9266     9269     9270     9262     9258     9267     9275     9277 
    9279     9281     9283     9279     9267     9260     9260     9262 
    9265     9271     9278     9283     9280     9276     9271     9261 
    9253     9251     9257     9268     9278     9282     9284     9283 
    9275     9265     9261     9257     9251     9254     9267     9281 
    9287     9286     9286     9284     9276     9272     9271     9269 
    9269     9270     9266     9261     9260     9261     9264     9271 
    9277     9281     9281     9278     9274     9271     9267     9265 
    9265     9266     9273     9279     9273     9265     9261     9262 
    9259     9255     9256     9260     9260     9265     9273     9277 
    9279     9283     9286     9287     9288     9288     9287     9284 
    9275     9266     9260     9261     9262     9263     9270     9279 
    9283     9281     9275     9270     9263     9255     9255     9263 
    9266     9268     9275     9279     9277     9275     9274     9274 
    9271     9268     9269     9271     9272     9271     9269     9272 
    9278     9281     9281     9282     9278     9272     9270     9272 
    9272     9272     9276     9282     9286     9284     9281     9284 
    9281     9270     9267     9270     9271     9271     9270     9269 
    9269     9269     9267     9268     9269     9270     9273     9273 
    9271     9273     9275     9272     9269     9271     9275     9278 
    9282     9287     9287     9281     9278     9273     9263     9257 
    9260     9261     9261     9271     9284     9290     9288     9282 
    9277     9271     9261     9259     9267     9270     9265     9267 
    9278     9279     9272     9273     9277     9274     9272     9272 
    9272     9274     9273     9269     9273     9281     9280     9275 
    9276     9278     9269     9259     9260     9266     9266     9267 
    9274     9279     9279     9278     9278     9276     9271     9266 
    9267     9269     9268     9269     9274     9278     9280     9282 
    9282     9277     9275     9277     9277     9276     9275     9274 
    9276     9274     9267     9261     9263     9264     9262     9261 
    9261     9262     9267     9272     9272     9277     9286     9287 
    9283     9279     9276     9273     9273     9273     9271     9271 
    9276     9280     9281     9281     9279     9275     9271     9269 
    9269     9269     9271     9271     9268     9269     9271     9271 
    9271     9273     9273     9271     9268     9269     9274     9277 
    9276     9279     9284     9281     9276     9275     9276     9274 
    9270     9270     9275     9273     9267     9271     9279     9277 
    9270     9274     9281     9279     9274     9276     9279     9273 
    9265     9268     9273     9270     9269     9272     9276     9275 
    9273     9274     9276     9273     9271     9273     9273     9270 
    9266     9264     9265     9267     9270     9280     9287     9281 
    9274     9270     9266     9260     9256     9257     9266     9278 
    9286     9286     9283     9283     9280     9272     9272     9279 
    9279     9274     9274     9276     9270     9261     9255     9254 
    9254     9258     9265     9270     9269     9268     9270     9268 
    9263     9261     9269     9280     9283     9281     9281     9282 
    9277     9265     9260     9266     9269     9265     9265     9270 
    9268     9259     9257     9262     9264     9263     9266     9274 
    9279     9278     9278     9280     9281     9280     9277     9277 
    9278     9275     9275     9276     9276     9270     9263     9264 
    9266     9260     9260     9263     9261     9259     9263     9266 
    9268     9272     9276     9275     9272     9271     9268     9267 
    9267     9266     9270     9278     9278     9273     9278     9287 
    9286     9281     9279     9278     9271     9262     9258     9261 
    9267     9270     9273     9279     9284     9283     9275     9268 
    9269     9272     9274     9276     9281     9285     9277     9267 
    9263     9259     9255     9254     9259     9266     9271     9277 
    9285     9287     9282     9280     9282     9279     9271     9268 
    9272     9274     9272     9268     9270     9276     9277     9274 
    9276     9283     9281     9272     9269     9272     9267     9262 
    9270     9280     9279     9275     9277     9278     9273     9269 
    9268     9269     9271     9276     9280     9284     9283     9275 
    9270     9270     9266     9263     9270     9280     9285     9289 
    9292     9285     9274     9266     9264     9266     9267     9268 
    9271     9273     9269     9268     9275     9282     9282     9282 
    9281     9277     9271     9267     9268     9269     9268     9271 
    9275     9277     9279     9283     9284     9282     9282     9282 
    9277     9276     9278     9275     9268     9263     9263     9262 
    9263     9269     9271     9269     9268     9268     9268     9270 
    9275     9279     9277     9274     9275     9274     9268     9266 
    9267     9268     9273     9277     9273     9272     9275     9270 
    9264     9270     9277     9275     9271     9273     9275     9271 
    9265     9268     9275     9276     9278     9282     9278     9272 
    9269     9266     9263     9262     9260     9262     9270     9271 
    9267     9269     9276     9274     9269     9275     9282     9280 
    9276     9275     9275     9272     9264     9261     9268     9273 
    9272     9274     9280     9280     9274     9268     9267     9270 
    9272     9273     9278     9283     9280     9272     9271     9271 
    9263     9258     9262     9268     9269     9270     9279     9285 
    9281     9274     9270     9268     9265     9262     9267     9278 
    9284     9283     9284     9286     9282     9279     9279     9275 
    9272     9272     9271     9267     9261     9259     9262     9262 
    9264     9270     9275     9277     9277     9278     9278     9279 
    9280     9278     9279     9283     9283     9280     9283     9286 
    9283     9282     9284     9280     9272     9267     9266     9261 
    9255     9251     9248     9248     9254     9271     9305     9344 
    9357     9321     9257     9206     9194     9214     9250     9271 
    9265     9256     9275     9312     9336     9329     9298     9264 
    9253     9257     9242     9213     9214     9256     9296     9303 
    9301     9323     9348     9330     9279     9229     9198     9194 
    9215     9244     9287     9349     9383     9347     9276     9208 
    9153     9148     9204     9264     9306     9344     9369     9371 
    9346     9290     9236     9216     9197     9166     9184     9257 
    9315     9323     9291     9258     9246     9255     9323     9415 
    9403     9298     9230     9207     9185     9172     9158     9147 
    9208     9330     9421     9453     9437     9358     9253     9186 
    9139     9111     9151     9242     9338     9404     9400     9334 
    9265     9220     9189     9184     9214     9265     9318     9364 
    9368     9324     9284     9263     9222     9174     9156     9183 
    9259     9351     9390     9358     9302     9256     9232     9237 
    9246     9244     9245     9265     9315     9360     9340     9292 
    9257     9206     9161     9179     9226     9260     9312     9366 
    9368     9349     9332     9288     9243     9224     9195     9153 
    9150     9205     9283     9346     9379     9379     9340     9288 
    9257     9238     9232     9243     9247     9241     9244     9276 
    9349     9416     9412     9344     9256     9180     9133     9110 
    9120     9183     9257     9303     9349     9406     9428     9400 
    9341     9259     9173     9138     9179     9241     9266     9263 
    9267     9284     9309     9329     9327     9307     9298     9308 
    9321     9322     9303     9242     9171     9147     9148     9143 
    9179     9285     9407     9463     9436     9404     9386     9313 
    9196     9133     9116     9078     9068     9146     9258     9366 
    9475     9511     9435     9331     9256     9197     9194     9248 
    9283     9310     9354     9339     9247     9152     9074     9038 
    9086     9194     9325     9478     9606     9629     9545     9397 
    9227     9073     8960     8911     8963     9124     9322     9453 
    9472     9436     9410     9379     9334     9324     9340     9299 
    9201     9122     9079     9042     9039     9105     9214     9351 
    9498     9580     9545     9450     9346     9244     9171     9139 
    9132     9164     9212     9239     9267     9296     9288     9264 
    9260     9260     9272     9322     9381     9419     9432     9386 
    9262     9118     9026     9027     9115     9225     9318     9402 
    9447     9424     9374     9325     9270     9217     9178     9154 
    9172     9247     9330     9367     9362     9317     9243     9186 
    9163     9158     9190     9267     9341     9380     9382     9354 
    9322     9308     9283     9231     9191     9191     9227     9287 
    9347     9385     9385     9345     9294     9252     9192     9136 
    9114     9109     9132     9216     9319     9374     9377     9352 
    9313     9297     9339     9381     9339     9227     9122     9064 
    9070     9160     9309     9435     9486     9463     9401     9348 
    9305     9253     9214     9216     9245     9282     9299     9251 
    9129     8998     8953     9015     9149     9344     9570     9730 
    9753     9644     9449     9227     9037     8933     8922     8977 
    9082     9227     9386     9506     9542     9491     9394     9299 
    9214     9140     9131     9180     9209     9208     9196     9155 
    9102     9095     9175     9310     9426     9509     9576     9595 
    9527     9391     9237     9102     9031     9067     9162     9238 
    9299     9373     9410     9367     9285     9204     9140     9125 
    9171     9248     9327     9367     9341     9283     9252     9224 
    9171     9142     9160     9206     9297     9403     9467     9473 
    9414     9313     9254     9244     9221     9201     9228     9284 
    9337     9349     9279     9186     9162     9180     9215     9283 
    9334     9329     9302     9248     9166     9121     9144     9219 
    9326     9429     9488     9475     9393     9270     9148     9086 
    9114     9199     9281     9342     9403     9443     9393     9247 
    9098     9033     9058     9149     9294     9444     9517     9495 
    9437     9387     9328     9257     9208     9164     9097     9056 
    9083     9132     9173     9223     9286     9359     9430     9473 
    9477     9472     9465     9418     9323     9211     9082     8963 
    8933     9003     9122     9256     9359     9404     9452     9513 
    9487     9365     9244     9145     9078     9132     9287     9416 
    9474     9472     9385     9243     9130     9064     9043     9088 
    9181     9293     9413     9498     9506     9443     9320     9164 
    9035     8946     8888     8918     9054     9233     9401     9527 
    9586     9595     9613     9663     9708     9717     9695     9641 
    9535     9373     9202     9072     8978     8916     8933     9042 
    9176     9245     9171     8977     8791     8667     8566     8551 
    8714     9005     9331     9609     9729     9683     9563     9394 
    9191     9082     9158     9381     9699    10045    10277    10276 
   10010     9545     9045     8683     8524     8534     8677     8935 
    9241     9469     9552     9558     9576     9580     9461     9171 
    8774     8407     8204     8217     8427     8844     9474    10201 
   10836    11190    11148    10741    10069     9239     8435     7861 
    7621     7743     8186     8793     9342     9694     9851     9851 
    9683     9392     9131     9020     9062     9205     9393     9543 
    9590     9547     9430     9246     9051     8918     8879     8917 
    9011     9181     9403     9589     9708     9746     9659     9484 
    9308     9143     9002     8936     8926     8925     8977     9140 
    9363     9548     9680     9781     9799     9669     9427     9141 
    8836     8563     8426     8476     8683     9006     9383     9698 
    9888     9966     9891     9674     9473     9376     9294     9201 
    9183     9245     9332     9440     9531     9522     9396     9164 
    8858     8584     8430     8429     8585     8869     9212     9541 
    9825    10081    10245    10184     9907     9584     9338     9166 
    9045     8975     8951     8967     9019     9080     9115     9159 
    9274     9430     9532     9549     9506     9385     9165     8883 
    8579     8328     8284     8532     9003     9585    10143    10495 
   10510    10202     9705     9203     8859     8755     8853     9056 
    9279     9416     9334     9004     8594     8325     8304     8553 
    9062     9723    10336    10727    10806    10515     9878     9081 
    8375     7948     7883     8162     8693     9363    10025    10495 
   10626    10382     9843     9169     8519     8043     7876     8038 
    8452     9016     9596    10078    10398    10483    10307     9937 
    9502     9150     8943     8828     8774     8823     8951     9064 
    9145     9243     9349     9423     9467     9458     9335     9113 
    8918     8833     8840     8934     9128     9362     9578     9746 
    9793     9687     9501     9328     9219     9175     9177     9247 
    9373     9460     9475     9452     9346     9142     8945     8822 
    8786     8857     9003     9180     9376     9530     9573     9559 
    9566     9552     9468     9378     9329     9268     9160     9039 
    8942     8875     8843     8873     8966     9114     9344     9628 
    9857     9982    10013     9930     9739     9485     9198     8926 
    8723     8605     8563     8594     8694     8881     9182     9585 
   10009    10326    10407    10220     9852     9380     8872     8483 
    8325     8361     8540     8839     9136     9264     9210     9119 
    9118     9220     9399     9651     9934    10160    10282    10263 
   10011     9514     8911     8390     8073     7987     8110     8415 
    8845     9290     9667     9908     9946     9800     9565     9311 
    9101     9041     9176     9444     9764    10047    10137     9926 
    9496     9062     8784     8695     8799     9102     9532     9895 
   10019     9880     9519     8980     8409     8003     7869     8033 
    8444     8993     9574    10062    10307    10250     9951     9519 
    9082     8759     8604     8603     8749     9032     9386     9735 
   10007    10138    10130    10029     9816     9472     9083     8753 
    8526     8438     8513     8731     9046     9402     9718     9900 
    9902     9754     9511     9220     8931     8692     8546     8526 
    8651     8933     9329     9723    10033    10235    10291    10182 
    9942     9611     9220     8832     8524     8346     8342     8531 
    8862     9245     9584     9772     9764     9583     9294     8995 
    8797     8774     8950     9278     9647     9932    10033     9912 
    9615     9216     8788     8448     8339     8524     8942     9450 
    9878    10097    10078     9874     9563     9230     8964     8840 
    8886     9052     9248     9419     9525     9524     9436     9324 
    9205     9104     9077     9096     9087     9038     9001     9001 
    9017     9058     9176     9349     9499     9595     9621     9538 
    9358     9141     8936     8807     8824     8988     9243     9539 
    9805     9958     9963     9834     9635     9430     9224     9039 
    8971     9046     9151     9188     9180     9177     9178     9178 
    9175     9171     9186     9237     9299     9327     9308     9277 
    9263     9237     9173     9101     9038     8989     8979     9041 
    9187     9403     9636     9816     9898     9861     9723     9502 
    9196     8873     8683     8698     8850     9084     9364     9611 
    9747     9743     9580     9273     8922     8659     8554     8608 
    8793     9057     9338     9580     9721     9719     9605     9472 
    9398     9404     9459     9521     9566     9566     9473     9291 
    9096     8946     8860     8834     8858     8932     9041     9158 
    9267     9383     9512     9632     9707     9703     9612     9452 
    9261     9092     8974     8906     8904     8973     9067     9153 
    9251     9356     9415     9425     9445     9492     9538     9547 
    9501     9398     9233     9007     8780     8646     8663     8830 
    9108     9432     9726     9934    10019     9968     9786     9515 
    9254     9101     9066     9095     9153     9209     9230     9198 
    9124     9023     8911     8829     8837     8936     9059     9185 
    9346     9534     9694     9770     9752     9671     9539     9348 
    9134     8964     8887     8912     9023     9184     9337     9425 
    9432     9376     9285     9200     9166     9194     9276     9404 
    9525     9566     9516     9408     9260     9099     8970     8918 
    8957     9063     9199     9347     9482     9555     9541     9474 
    9396     9319     9260     9239     9253     9273     9284     9287 
    9272     9239     9208     9185     9156     9121     9110     9142 
    9184     9225     9286     9356     9408     9445     9461     9436 
    9381     9323     9259     9184     9127     9102     9104     9149 
    9239     9343     9438     9514     9546     9531     9488     9422 
