Origin Time       2014/11/14 05:42:00
Lat.              43.655
Long.             144.497
Depth. (km)       0
Mag.              2.9
Station Code      ABSH11
Station Lat.      43.9144
Station Long.     144.1913
Station Height(m) 40
Record Time       2014/11/14 05:42:43
Sampling Freq(Hz) 100Hz
Duration Time(s)  120
Dir.              6
Scale Factor      3920(gal)/6170801
Max. Acc. (gal)   0.573
Last Correction   2014/11/14 05:42:28
Memo.             
[...]
  -45192   -45187   -45188   -45193   -45195   -45191   -45189   -45192 
  -45192   -45188   -45186   -45187   -45184   -45184   -45188   -45192 
  -45196   -45196   -45193   -45191   -45192   -45192   -45192   -45194 
  -45196   -45197   -45198   -45196   -45192   -45190   -45190   -45192 
  -45195   -45200   -45200   -45195   -45194   -45196   -45193   -45188 
  -45188   -45189   -45189   -45191   -45192   -45192   -45194   -45195 
  -45195   -45195   -45195   -45195   -45193   -45190   -45189   -45191 
  -45193   -45193   -45190   -45191   -45193   -45192   -45187   -45186 
  -45192   -45194   -45191   -45189   -45191   -45193   -45191   -45191 
  -45194   -45197   -45194   -45189   -45191   -45192   -45185   -45185 
  -45196   -45201   -45198   -45197   -45200   -45196   -45186   -45181 
  -45186   -45191   -45191   -45196   -45204   -45200   -45191   -45189 
  -45195   -45199   -45196   -45191   -45194   -45196   -45191   -45185 
  -45187   -45192   -45193   -45193   -45196   -45197   -45194   -45190 
  -45189   -45192   -45194   -45197   -45200   -45198   -45192   -45189 
  -45194   -45200   -45200   -45198   -45195   -45194   -45194   -45193 
  -45193   -45192   -45191   -45193   -45196   -45195   -45191   -45191 
  -45191   -45189   -45190   -45192   -45193   -45194   -45194   -45192 
  -45194   -45198   -45199   -45193   -45190   -45191   -45191   -45191 
  -45192   -45192   -45192   -45195   -45196   -45193   -45196   -45201 
  -45202   -45204   -45204   -45197   -45190   -45190   -45191   -45188 
  -45188   -45195   -45199   -45197   -45193   -45188   -45188   -45186 
  -45183   -45186   -45190   -45191   -45191   -45193   -45197   -45194 
  -45186   -45189   -45199   -45203   -45199   -45197   -45196   -45196 
  -45193   -45191   -45195   -45194   -45187   -45189   -45195   -45195 
  -45195   -45195   -45196   -45195   -45191   -45190   -45194   -45196 
  -45194   -45191   -45191   -45191   -45188   -45190   -45196   -45196 
  -45195   -45195   -45194   -45192   -45192   -45194   -45196   -45195 
  -45192   -45194   -45197   -45195   -45194   -45195   -45195   -45193 
  -45191   -45190   -45193   -45193   -45189   -45190   -45193   -45192 
  -45188   -45189   -45190   -45190   -45190   -45189   -45190   -45190 
  -45190   -45195   -45197   -45196   -45193   -45189   -45190   -45194 
  -45195   -45197   -45202   -45204   -45199   -45193   -45191   -45193 
  -45193   -45190   -45192   -45196   -45195   -45191   -45190   -45189 
  -45188   -45186   -45186   -45188   -45188   -45189   -45192   -45197 
  -45196   -45190   -45186   -45186   -45189   -45189   -45187   -45192 
  -45197   -45194   -45192   -45198   -45201   -45191   -45184   -45187 
  -45190   -45192   -45193   -45195   -45196   -45192   -45192   -45196 
  -45193   -45189   -45191   -45193   -45191   -45187   -45188   -45192 
  -45192   -45191   -45193   -45193   -45189   -45187   -45189   -45189 
  -45188   -45188   -45192   -45199   -45197   -45191   -45191   -45195 
  -45195   -45192   -45192   -45197   -45197   -45189   -45183   -45190 
  -45200   -45195   -45190   -45194   -45193   -45189   -45189   -45192 
  -45191   -45191   -45193   -45195   -45197   -45196   -45193   -45194 
  -45197   -45196   -45193   -45191   -45194   -45196   -45193   -45194 
  -45199   -45197   -45193   -45193   -45194   -45196   -45197   -45193 
  -45189   -45192   -45192   -45189   -45191   -45194   -45191   -45186 
  -45191   -45199   -45199   -45194   -45192   -45195   -45197   -45193 
  -45192   -45198   -45199   -45194   -45191   -45193   -45195   -45192 
  -45192   -45197   -45197   -45193   -45194   -45198   -45196   -45190 
  -45188   -45193   -45197   -45197   -45197   -45193   -45187   -45185 
  -45190   -45194   -45191   -45188   -45194   -45196   -45190   -45188 
  -45192   -45196   -45195   -45191   -45194   -45198   -45192   -45187 
  -45193   -45196   -45190   -45188   -45195   -45201   -45199   -45191 
  -45190   -45191   -45187   -45186   -45189   -45188   -45189   -45192 
  -45196   -45198   -45196   -45193   -45192   -45189   -45189   -45191 
  -45194   -45194   -45194   -45195   -45195   -45195   -45192   -45186 
  -45183   -45188   -45195   -45196   -45190   -45189   -45194   -45195 
  -45192   -45189   -45193   -45196   -45192   -45192   -45199   -45200 
  -45193   -45190   -45194   -45198   -45195   -45191   -45192   -45193 
  -45190   -45189   -45192   -45193   -45193   -45195   -45193   -45191 
  -45191   -45194   -45197   -45195   -45191   -45192   -45193   -45195 
  -45195   -45192   -45192   -45195   -45193   -45187   -45187   -45194 
  -45198   -45200   -45203   -45197   -45185   -45181   -45186   -45191 
  -45193   -45196   -45202   -45201   -45196   -45194   -45195   -45192 
  -45187   -45187   -45193   -45196   -45194   -45195   -45198   -45194 
  -45186   -45183   -45189   -45195   -45194   -45190   -45194   -45198 
  -45190   -45182   -45182   -45185   -45190   -45199   -45201   -45197 
  -45194   -45190   -45186   -45187   -45191   -45198   -45203   -45204 
  -45197   -45187   -45183   -45185   -45189   -45194   -45199   -45204 
  -45203   -45192   -45186   -45188   -45189   -45192   -45192   -45191 
  -45192   -45192   -45190   -45189   -45190   -45188   -45187   -45191 
  -45196   -45197   -45196   -45194   -45191   -45186   -45184   -45187 
  -45192   -45194   -45194   -45196   -45194   -45189   -45188   -45193 
  -45196   -45193   -45192   -45195   -45197   -45194   -45190   -45189 
  -45190   -45189   -45189   -45191   -45194   -45192   -45189   -45195 
  -45198   -45193   -45192   -45196   -45194   -45189   -45188   -45194 
  -45200   -45198   -45193   -45193   -45194   -45191   -45189   -45194 
  -45199   -45199   -45194   -45195   -45200   -45197   -45189   -45188 
  -45187   -45186   -45187   -45191   -45194   -45194   -45194   -45195 
  -45192   -45190   -45192   -45194   -45192   -45191   -45191   -45191 
  -45192   -45195   -45198   -45200   -45199   -45193   -45191   -45190 
  -45188   -45188   -45190   -45194   -45198   -45199   -45195   -45190 
  -45188   -45185   -45184   -45191   -45197   -45197   -45195   -45193 
  -45190   -45188   -45186   -45188   -45191   -45196   -45196   -45193 
  -45191   -45192   -45193   -45194   -45198   -45199   -45196   -45197 
  -45201   -45197   -45190   -45187   -45189   -45192   -45190   -45189 
  -45196   -45201   -45199   -45191   -45186   -45186   -45187   -45187 
  -45191   -45197   -45194   -45187   -45188   -45193   -45192   -45187 
  -45187   -45195   -45197   -45194   -45195   -45199   -45200   -45195 
  -45191   -45193   -45195   -45193   -45194   -45200   -45201   -45192 
  -45190   -45194   -45194   -45191   -45192   -45195   -45198   -45198 
  -45196   -45195   -45194   -45192   -45192   -45193   -45192   -45190 
  -45190   -45194   -45193   -45188   -45190   -45195   -45196   -45196 
  -45197   -45195   -45191   -45188   -45188   -45189   -45191   -45188 
  -45187   -45191   -45193   -45190   -45193   -45196   -45190   -45187 
  -45191   -45193   -45193   -45193   -45194   -45194   -45191   -45188 
  -45185   -45182   -45172   -45157   -45156   -45191   -45262   -45352 
  -45417   -45382   -45203   -44947   -44787   -44840   -45046   -45248 
  -45355   -45383   -45396   -45426   -45423   -45305   -45103   -44944 
  -44915   -45008   -45146   -45229   -45229   -45228   -45298   -45366 
  -45300   -45144   -45103   -45236   -45332   -45231   -45088   -45075 
  -45120   -45112   -45068   -45079   -45224   -45417   -45438   -45263 
  -45116   -45098   -45129   -45179   -45203   -45148   -45137   -45256 
  -45344   -45299   -45219   -45167   -45139   -45129   -45086   -45046 
  -45152   -45346   -45399   -45256   -45042   -44982   -45173   -45369 
  -45405   -45339   -45157   -45005   -45117   -45293   -45242   -45096 
  -45051   -45090   -45184   -45261   -45243   -45223   -45250   -45227 
  -45186   -45193   -45167   -45133   -45205   -45300   -45297   -45239 
  -45167   -45071   -45003   -45012   -45074   -45167   -45275   -45370 
  -45437   -45431   -45300   -45153   -45127   -45123   -45036   -44985 
  -45059   -45203   -45340   -45386   -45312   -45172   -45058   -45067 
  -45185   -45244   -45180   -45170   -45300   -45348   -45239   -45178 
  -45195   -45145   -45021   -44933   -44998   -45197   -45349   -45387 
  -45397   -45351   -45222   -45159   -45182   -45164   -45131   -45126 
  -45116   -45164   -45241   -45211   -45157   -45191   -45223   -45216 
  -45191   -45125   -45097   -45184   -45322   -45411   -45372   -45234 
  -45141   -45155   -45188   -45141   -45015   -44927   -44966   -45095 
  -45254   -45390   -45458   -45488   -45477   -45351   -45144   -44961 
  -44838   -44791   -44831   -44972   -45227   -45442   -45439   -45349 
  -45337   -45317   -45254   -45251   -45291   -45273   -45179   -45076 
  -45043   -45063   -45043   -45021   -45100   -45226   -45342   -45445 
  -45456   -45389   -45360   -45311   -45136   -44902   -44746   -44795 
  -45065   -45319   -45358   -45310   -45316   -45310   -45263   -45214 
  -45172   -45192   -45249   -45234   -45179   -45158   -45142   -45135 
  -45152   -45114   -45064   -45171   -45337   -45306   -45163   -45126 
  -45132   -45082   -45079   -45184   -45328   -45431   -45430   -45342 
  -45232   -45118   -45057   -45088   -45102   -45081   -45139   -45217 
  -45197   -45162   -45196   -45250   -45262   -45208   -45159   -45217 
  -45328   -45381   -45379   -45345   -45207   -44942   -44715   -44691 
  -44863   -45148   -45415   -45513   -45463   -45397   -45343   -45273 
  -45245   -45273   -45260   -45187   -45118   -45055   -44995   -44975 
  -45018   -45130   -45246   -45288   -45300   -45347   -45360   -45304 
  -45238   -45145   -44998   -44882   -44876   -45004   -45232   -45417 
  -45465   -45428   -45357   -45284   -45239   -45171   -45068   -45048 
  -45150   -45265   -45308   -45266   -45141   -45014   -45033   -45191 
  -45319   -45321   -45209   -45073   -45067   -45145   -45123   -45068 
  -45146   -45303   -45399   -45377   -45253   -45111   -45045   -45067 
  -45130   -45180   -45178   -45206   -45321   -45372   -45297   -45238 
  -45182   -45059   -45008   -45108   -45280   -45441   -45485   -45365 
  -45173   -44972   -44825   -44862   -45037   -45171   -45257   -45349 
  -45386   -45342   -45276   -45191   -45082   -45054   -45153   -45297 
  -45440   -45494   -45351   -45107   -44930   -44886   -44986   -45136 
  -45185   -45182   -45263   -45368   -45362   -45225   -45054   -45037 
  -45192   -45278   -45217   -45179   -45221   -45277   -45320   -45296 
  -45163   -45013   -44973   -45043   -45117   -45163   -45284   -45452 
  -45458   -45278   -45076   -44943   -44937   -45042   -45155   -45279 
  -45418   -45474   -45421   -45299   -45161   -45070   -45023   -45016 
  -45100   -45247   -45347   -45337   -45221   -45089   -45080   -45166 
  -45166   -45107   -45183   -45367   -45445   -45340   -45163   -45008 
  -44917   -44961   -45128   -45262   -45287   -45287   -45299   -45291 
  -45277   -45225   -45101   -45006   -45042   -45190   -45369   -45437 
  -45328   -45180   -45116   -45109   -45113   -45082   -45012   -45017 
  -45147   -45287   -45368   -45377   -45259   -45127   -45182   -45301 
  -45249   -45118   -45083   -45165   -45292   -45303   -45158   -45042 
  -45059   -45153   -45243   -45225   -45104   -45041   -45115   -45251 
  -45375   -45445   -45452   -45395   -45260   -45105   -45045   -45078 
  -45089   -45039   -45028   -45137   -45322   -45427   -45383   -45285 
  -45173   -45035   -44960   -45011   -45127   -45215   -45242   -45233 
  -45226   -45227   -45203   -45105   -45016   -45093   -45323   -45520 
  -45503   -45270   -45067   -45094   -45196   -45159   -45072   -45071 
  -45101   -45154   -45286   -45385   -45333   -45204   -45096   -45029 
  -45038   -45115   -45152   -45147   -45215   -45338   -45416   -45419 
  -45324   -45142   -44972   -44901   -44971   -45162   -45358   -45468 
  -45498   -45438   -45286   -45132   -45006   -44875   -44843   -44993 
  -45187   -45307   -45366   -45319   -45178   -45093   -45112   -45179 
  -45263   -45295   -45265   -45251   -45244   -45173   -45070   -45048 
  -45116   -45201   -45301   -45404   -45432   -45342   -45152   -44993 
  -45018   -45168   -45282   -45329   -45317   -45277   -45274   -45242 
  -45063   -44873   -44890   -45052   -45164   -45163   -45115   -45149 
  -45297   -45385   -45305   -45213   -45224   -45261   -45270   -45278 
  -45286   -45259   -45161   -44996   -44867   -44904   -45102   -45312 
  -45396   -45370   -45356   -45361   -45288   -45166   -45097   -45097 
  -45117   -45134   -45184   -45293   -45392   -45387   -45308   -45270 
  -45284   -45261   -45176   -45042   -44859   -44710   -44683   -44793 
  -45056   -45403   -45633   -45664   -45599   -45520   -45384   -45157 
  -44964   -44933   -45000   -45039   -45047   -45104   -45238   -45353 
  -45361   -45300   -45235   -45165   -45094   -45076   -45104   -45092 
  -45026   -44978   -44982   -45059   -45170   -45244   -45343   -45505 
  -45583   -45539   -45479   -45381   -45210   -45091   -45114   -45237 
  -45370   -45362   -45149   -44888   -44725   -44651   -44682   -44831 
  -45050   -45335   -45605   -45699   -45637   -45503   -45274   -45021 
  -44882   -44861   -44962   -45183   -45368   -45432   -45484   -45519 
  -45403   -45165   -44986   -44991   -45152   -45313   -45300   -45101 
  -44903   -44862   -44938   -45084   -45334   -45625   -45787   -45670 
  -45233   -44671   -44336   -44386   -44696   -45119   -45582   -45960 
  -46096   -45932   -45549   -45123   -44824   -44694   -44724   -44904 
  -45150   -45347   -45408   -45272   -45026   -44860   -44856   -44979 
  -45159   -45301   -45381   -45464   -45536   -45493   -45344   -45188 
  -45047   -44906   -44795   -44774   -44887   -45130   -45444   -45694 
  -45751   -45676   -45607   -45482   -45174   -44794   -44604   -44710 
  -44988   -45229   -45350   -45421   -45461   -45394   -45187   -44915 
  -44742   -44817   -45087   -45344   -45481   -45528   -45519   -45455 
  -45311   -45110   -44988   -45042   -45212   -45394   -45473   -45373 
  -45172   -44968   -44778   -44680   -44745   -44897   -45056   -45213 
  -45355   -45467   -45521   -45457   -45298   -45177   -45199   -45327 
  -45426   -45389   -45262   -45201   -45215   -45160   -45010   -44874 
  -44848   -44958   -45121   -45198   -45143   -45065   -45086   -45202 
  -45313   -45333   -45301   -45333   -45409   -45429   -45429   -45438 
  -45355   -45178   -44999   -44825   -44709   -44777   -44967   -45141 
  -45325   -45523   -45607   -45523   -45324   -45126   -45062   -45098 
  -45109   -45109   -45163   -45224   -45222   -45194   -45221   -45286 
  -45317   -45290   -45226   -45191   -45256   -45358   -45328   -45132 
  -44951   -44912   -44950   -44999   -45074   -45196   -45359   -45476 
  -45431   -45264   -45128   -45105   -45152   -45168   -45140   -45132 
  -45144   -45141   -45145   -45178   -45244   -45355   -45475   -45480 
  -45320   -45122   -44978   -44865   -44828   -44902   -45001   -45073 
  -45153   -45283   -45434   -45460   -45302   -45163   -45202   -45297 
  -45313   -45269   -45222   -45210   -45239   -45264   -45289   -45312 
  -45257   -45168   -45162   -45154   -45052   -44959   -44950   -44999 
  -45078   -45108   -45083   -45154   -45324   -45421   -45430   -45424 
  -45369   -45268   -45200   -45177   -45159   -45108   -45047   -45073 
  -45199   -45283   -45235   -45155   -45177   -45286   -45405   -45449 
  -45355   -45205   -45107   -45022   -44945   -44925   -44926   -44927 
  -44954   -44991   -45061   -45215   -45389   -45489   -45516   -45468 
  -45331   -45206   -45187   -45193   -45146   -45136   -45227   -45332 
  -45361   -45336   -45299   -45234   -45120   -45013   -44987   -45012 
  -45030   -45074   -45184   -45318   -45375   -45317   -45233   -45175 
  -45107   -45024   -44993   -45092   -45255   -45288   -45192   -45140 
  -45154   -45169   -45182   -45179   -45185   -45288   -45444   -45503 
  -45437   -45329   -45215   -45098   -45000   -44974   -45048   -45148 
  -45209   -45278   -45352   -45325   -45184   -45029   -44969   -45032 
  -45122   -45147   -45142   -45169   -45218   -45255   -45276   -45303 
  -45345   -45363   -45324   -45254   -45206   -45182   -45159   -45148 
  -45150   -45148   -45152   -45169   -45176   -45158   -45117   -45077 
  -45043   -45016   -45051   -45194   -45370   -45460   -45435   -45361 
  -45292   -45215   -45108   -45028   -45056   -45152   -45223   -45258 
  -45264   -45231   -45197   -45180   -45167   -45170   -45213   -45269 
  -45270   -45197   -45125   -45126   -45152   -45133   -45101   -45117 
  -45182   -45276   -45354   -45342   -45244   -45137   -45096   -45139 
  -45200   -45209   -45189   -45189   -45188   -45175   -45194   -45256 
  -45312   -45337   -45334   -45297   -45191   -45018   -44869   -44852 
  -44973   -45159   -45342   -45462   -45456   -45336   -45169   -45012 
  -44921   -44922   -44984   -45098   -45280   -45460   -45500   -45374 
  -45217   -45138   -45123   -45148   -45215   -45310   -45387   -45381 
  -45279   -45161   -45110   -45119   -45133   -45135   -45115   -45062 
  -45007   -44978   -44960   -44995   -45161   -45407   -45588   -45612 
  -45475   -45258   -45075   -44988   -45001   -45096   -45242   -45386 
  -45457   -45400   -45243   -45085   -45002   -44999   -45047   -45097 
  -45095   -45072   -45110   -45210   -45295   -45324   -45336   -45375 
  -45405   -45357   -45230   -45096   -45004   -44962   -44974   -45041 
  -45155   -45274   -45313   -45261   -45201   -45180   -45189   -45203 
  -45215   -45253   -45304   -45294   -45212   -45131   -45091   -45094 
  -45154   -45248   -45317   -45346   -45331   -45240   -45076   -44920 
  -44877   -44973   -45129   -45250   -45307   -45316   -45298   -45272 
  -45218   -45140   -45084   -45050   -45008   -44991   -45049   -45175 
  -45309   -45398   -45450   -45475   -45433   -45315   -45202   -45169 
  -45199   -45237   -45266   -45287   -45286   -45236   -45170   -45155 
  -45176   -45163   -45120   -45076   -45051   -45063   -45089   -45125 
  -45196   -45267   -45276   -45238   -45204   -45199   -45208   -45199 
  -45162   -45125   -45105   -45101   -45123   -45164   -45190   -45197 
  -45228   -45297   -45373   -45406   -45382   -45333   -45262   -45132 
  -44985   -44929   -44979   -45068   -45142   -45197   -45252   -45282 
  -45256   -45207   -45177   -45160   -45148   -45137   -45134   -45163 
  -45217   -45263   -45280   -45249   -45186   -45147   -45160   -45186 
  -45194   -45186   -45169   -45185   -45276   -45373   -45382   -45314 
  -45224   -45152   -45111   -45098   -45123   -45192   -45266   -45292 
  -45271   -45242   -45199   -45112   -45015   -44971   -45012   -45118 
  -45222   -45280   -45304   -45306   -45300   -45305   -45303   -45257 
  -45197   -45174   -45157   -45085   -44995   -44973   -45036   -45131 
  -45209   -45268   -45318   -45347   -45346   -45317   -45265   -45227 
  -45232   -45251   -45221   -45127   -45025   -44970   -44976   -45032 
  -45107   -45174   -45237   -45306   -45362   -45353   -45270   -45183 
  -45157   -45167   -45178   -45196   -45226   -45256   -45272   -45252 
  -45213   -45204   -45214   -45187   -45124   -45076   -45077   -45114 
  -45141   -45138   -45144   -45198   -45271   -45291   -45246   -45208 
  -45215   -45226   -45213   -45203   -45208   -45214   -45220   -45244 
