Origin Time       2015/03/14 02:09:00
Lat.              38.362
Long.             141.767
Depth. (km)       57
Mag.              3.9
Station Code      MYG004
Station Lat.      38.7324
Station Long.     141.0271
Station Height(m) 38
Record Time       2015/03/14 02:09:48
Sampling Freq(Hz) 100Hz
Duration Time(s)  60
Dir.              U-D
Scale Factor      7845(gal)/8223790
Max. Acc. (gal)   1.668
Last Correction   2015/03/14 02:09:48
Memo.             
[...]
  -52026   -52030   -52029   -52026   -52024   -52027   -52027   -52026 
  -52024   -52027   -52031   -52033   -52026   -52024   -52027   -52027 
  -52026   -52024   -52023   -52024   -52027   -52027   -52023   -52020 
  -52023   -52026   -52027   -52030   -52030   -52031   -52034   -52033 
  -52030   -52031   -52033   -52029   -52024   -52023   -52023   -52024 
  -52027   -52027   -52026   -52029   -52030   -52027   -52027   -52027 
  -52027   -52027   -52026   -52027   -52033   -52031   -52029   -52030 
  -52030   -52031   -52031   -52026   -52022   -52024   -52024   -52023 
  -52023   -52024   -52026   -52026   -52026   -52027   -52030   -52031 
  -52031   -52029   -52027   -52033   -52034   -52031   -52029   -52029 
  -52029   -52027   -52022   -52022   -52023   -52020   -52020   -52027 
  -52029   -52029   -52030   -52030   -52029   -52031   -52035   -52034 
  -52031   -52030   -52026   -52022   -52023   -52023   -52020   -52023 
  -52026   -52029   -52030   -52031   -52033   -52031   -52030   -52033 
  -52031   -52026   -52024   -52027   -52027   -52026   -52024   -52023 
  -52023   -52023   -52024   -52026   -52024   -52029   -52033   -52030 
  -52027   -52027   -52030   -52030   -52027   -52026   -52027   -52026 
  -52027   -52027   -52023   -52023   -52026   -52026   -52022   -52022 
  -52024   -52026   -52026   -52030   -52031   -52029   -52030   -52031 
  -52029   -52026   -52027   -52026   -52026   -52026   -52024   -52024 
  -52026   -52024   -52024   -52024   -52029   -52031   -52030   -52031 
  -52033   -52031   -52030   -52030   -52027   -52023   -52024   -52027 
  -52024   -52022   -52023   -52023   -52027   -52030   -52027   -52027 
  -52029   -52033   -52034   -52031   -52027   -52027   -52027   -52026 
  -52023   -52022   -52022   -52024   -52027   -52027   -52026   -52027 
  -52027   -52027   -52030   -52031   -52031   -52033   -52031   -52029 
  -52027   -52029   -52029   -52026   -52024   -52026   -52026   -52026 
  -52022   -52022   -52023   -52023   -52026   -52031   -52033   -52031 
  -52030   -52030   -52030   -52027   -52024   -52024   -52029   -52027 
  -52031   -52033   -52024   -52023   -52027   -52024   -52022   -52026 
  -52030   -52029   -52019   -52014   -52029   -52035   -52029   -52030 
  -52037   -52035   -52031   -52014   -51997   -52026   -52060   -52024 
  -51985   -52034   -52060   -51997   -51991   -52053   -52037   -52003 
  -52029   -51981   -51905   -51985   -52069   -52034   -52035   -52046 
  -52074   -52219   -52178   -51949   -52076   -52263   -51919   -51704 
  -52120   -52307   -51811   -51501   -51999   -52469   -52112   -51772 
  -52128   -52343   -51977   -51759   -52069   -52309   -51961   -51652 
  -51958   -52188   -52039   -51991   -51916   -51927   -52258   -52184 
  -51848   -52014   -52084   -51972   -52304   -52326   -51810   -51899 
  -52227   -51765   -51514   -52209   -52459   -51930   -51873   -52178 
  -52174   -52033   -51807   -51707   -52047   -52267   -52084   -51949 
  -51885   -52066   -52482   -52227   -51798   -52093   -52016   -51648 
  -52092   -52211   -51602   -51746   -52407   -52425   -52099   -51915 
  -51671   -51626   -52227   -52624   -52051   -51655   -52085   -52228 
  -51987   -52153   -52387   -52208   -51844   -51606   -51624   -51862 
  -52089   -52020   -52045   -52447   -52280   -51545   -51613   -52232 
  -52311   -52161   -52072   -51813   -51807   -52064   -52057   -52027 
  -52150   -52200   -52188   -51996   -51821   -52093   -52336   -52014 
  -51727   -51993   -52199   -51916   -51738   -51968   -52146   -52164 
  -52251   -52189   -51841   -51661   -51841   -51999   -52058   -52286 
  -52370   -52047   -51956   -52157   -51997   -51825   -52062   -52130 
  -51921   -51968   -52065   -51865   -51867   -52058   -51945   -51999 
  -52373   -52294   -51922   -51939   -52042   -51899   -51931   -52177 
  -52137   -51862   -51856   -52111   -52153   -52058   -52178   -52207 
  -51977   -51960   -52073   -51717   -51521   -52299   -52697   -51868 
  -51484   -52127   -52398   -51954   -51732   -52076   -52223   -51822 
  -51779   -52184   -52184   -52146   -52350   -52083   -51691   -51795 
  -52035   -52200   -52165   -51916   -51923   -51996   -51822   -51898 
  -52164   -52230   -52231   -52037   -51806   -52077   -52338   -51973 
  -51668   -51926   -52168   -52026   -51856   -52002   -52289   -52201 
  -51841   -51912   -52220   -52077   -51829   -51988   -52189   -52051 
  -51895   -52002   -51995   -51842   -52041   -52288   -52104   -51958 
  -52176   -52294   -52105   -51907   -51868   -51943   -51953   -51850 
  -51976   -52172   -52010   -51941   -52181   -52115   -51775   -51869 
  -52358   -52327   -51718   -51611   -52126   -52340   -52069   -51803 
  -51877   -52247   -52407   -52014   -51692   -51975   -52204   -51980 
  -51999   -52249   -52060   -51844   -52046   -52182   -52123   -52116 
  -52118   -51988   -51807   -51881   -52146   -52189   -51991   -51804 
  -51760   -51861   -51954   -52019   -52262   -52427   -51961   -51321 
  -51513   -52299   -52637   -52299   -51882   -51965   -52397   -52473 
  -52114   -51892   -51945   -52029   -51948   -51641   -51521   -51884 
  -52088   -51842   -51869   -52281   -52496   -52401   -52143   -52060 
  -52335   -52186   -51520   -51572   -52054   -51911   -51815   -52041 
  -52026   -52070   -52207   -52154   -52077   -52022   -51966   -51853 
  -51885   -52195   -52014   -51570   -51949   -52423   -52196   -52073 
  -52261   -52180   -51970   -52019   -52135   -52047   -51980   -52037 
  -51970   -51921   -52060   -51970   -51634   -51741   -52251   -52390 
  -52131   -52118   -52323   -52149   -51726   -51671   -51916   -52011 
  -51926   -51881   -51999   -52176   -52065   -51756   -51840   -52226 
  -52277   -52033   -51952   -52150   -52316   -52216   -52077   -51981 
  -51891   -52092   -52343   -52164   -51857   -51772   -51825   -51831 
  -51806   -52062   -52353   -52162   -51852   -51740   -51757   -51985 
  -52100   -51983   -51937   -51912   -52138   -52477   -52397   -52493 
  -52744   -52240   -51568   -51518   -51736   -51799   -51732   -51966 
  -52442   -52438   -51871   -51517   -51983   -52531   -52103   -51594 
  -51973   -52146   -51746   -51842   -52269   -52208   -51765   -51513 
  -52006   -52687   -52303   -51560   -51872   -52517   -52466   -52042 
  -51703   -51703   -52153   -52450   -52066   -51799   -52205   -52336 
  -51975   -51846   -51822   -51846   -52199   -52328   -51846   -51449 
  -51675   -52154   -52311   -52020   -51798   -52054   -52309   -52073 
  -51835   -52064   -52182   -51922   -51864   -52058   -52242   -52197 
  -51853   -51854   -52169   -52204   -52159   -52049   -51935   -52195 
  -52347   -51962   -51551   -51706   -52191   -52126   -51655   -51803 
  -52377   -52381   -51923   -51926   -52305   -52196   -51836   -51798 
  -51889   -52108   -52231   -52000   -51831   -51858   -52020   -52165 
  -52011   -52050   -52450   -52504   -52174   -51763   -51390   -51446 
  -51872   -52201   -52309   -52146   -51941   -52199   -52570   -52311 
  -51810   -51808   -51976   -51827   -51679   -51834   -52037   -52083 
  -52184   -52338   -52200   -51949   -51842   -51772   -52060   -52563 
  -52340   -51795   -51905   -52127   -51949   -51773   -51798   -52072 
  -52413   -52274   -51727   -51549   -51960   -52262   -52058   -51804 
  -51859   -51919   -51949   -52367   -52625   -52120   -51915   -52346 
  -52131   -51552   -51819   -52192   -51899   -51872   -52239   -52092 
  -51702   -51827   -52254   -52340   -52010   -51802   -51934   -52178 
  -52253   -51827   -51505   -52007   -52390   -52099   -52068   -52317 
  -52043   -51706   -52073   -52374   -51987   -51769   -51999   -52029 
  -51962   -52084   -51958   -51686   -51867   -52269   -52427   -52266 
  -51889   -51740   -51949   -52157   -52222   -52126   -51935   -51858 
  -51937   -52042   -51983   -51942   -52223   -52223   -51759   -51904 
  -52515   -52481   -52134   -51954   -51733   -51727   -51865   -51707 
  -51700   -52154   -52321   -51945   -51894   -52272   -52181   -51945 
  -52270   -52231   -51628   -51869   -52605   -52330   -51540   -51532 
  -52107   -52240   -51979   -52112   -52331   -52080   -51692   -51482 
  -51730   -52425   -52598   -52118   -52096   -52224   -51799   -51826 
  -52300   -52110   -51730   -51675   -51734   -52068   -52284   -52188 
  -52359   -52219   -51553   -51760   -52443   -52173   -51703   -51802 
  -51862   -52004   -52469   -52392   -52019   -52285   -52215   -51538 
  -51592   -52019   -52096   -52174   -51960   -51555   -51761   -52142 
  -52222   -52303   -52224   -52155   -52318   -52029   -51704   -52077 
  -52138   -51727   -51864   -52114   -51939   -51895   -52100   -52185 
  -52132   -52238   -52398   -52224   -51892   -51684   -51679   -51861 
  -51757   -51594   -52097   -52608   -52439   -52132   -52037   -52046 
  -52151   -52181   -51859   -51522   -51673   -51977   -52037   -52056 
  -52037   -51918   -51931   -52111   -52331   -52401   -52062   -51745 
  -52033   -52398   -52243   -51904   -51740   -51850   -52159   -52207 
  -51968   -51900   -52026   -52072   -51985   -51903   -51884   -51964 
  -52186   -52235   -51964   -51915   -52165   -52196   -52060   -51952 
  -51817   -51900   -52051   -51931   -51975   -52110   -51922   -52014 
  -52344   -52251   -52114   -52019   -51815   -52014   -52234   -52014 
  -51953   -52019   -51836   -51744   -51945   -52097   -51961   -51888 
  -52159   -52404   -52281   -51981   -51856   -51939   -51972   -51981 
  -52128   -52193   -52112   -52050   -52000   -51995   -51989   -52042 
  -52205   -52087   -51795   -51861   -52014   -51871   -51784   -52056 
  -52189   -51869   -51859   -52338   -52415   -52164   -52165   -52091 
  -51842   -51767   -51757   -51904   -52282   -52278   -51999   -52065 
  -52022   -51691   -51838   -52236   -52153   -51954   -52116   -52235 
  -52122   -52030   -51813   -51756   -52185   -52251   -51914   -51988 
  -51972   -51605   -51645   -52011   -52239   -52427   -52521   -52227 
  -51854   -51953   -52132   -51962   -51970   -52178   -51934   -51537 
  -51629   -51961   -52154   -52292   -52340   -52037   -51683   -51948 
  -52393   -52182   -51788   -51869   -52096   -52123   -52041   -51942 
  -51999   -52230   -52154   -51879   -52089   -52247   -51761   -51613 
  -52209   -52486   -52069   -51736   -51845   -52057   -52139   -52011 
  -51877   -52060   -52232   -51966   -51736   -52039   -52232   -51939 
  -51910   -52173   -52208   -52169   -52110   -51930   -51925   -52118 
  -52110   -51885   -51867   -52103   -52064   -51714   -51817   -52292 
  -52318   -52146   -52112   -51868   -51740   -52000   -52073   -51945 
  -52056   -52176   -52034   -51928   -51999   -52011   -52045   -52216 
  -52292   -52245   -52095   -51718   -51507   -51892   -52286   -52088 
  -51859   -52042   -52234   -52336   -52354   -51997   -51679   -51858 
  -52014   -51888   -51888   -52006   -51995   -52014   -52100   -52012 
  -51892   -51995   -52161   -52116   -52000   -52123   -52134   -51817 
  -51768   -52116   -52299   -52145   -51956   -51896   -51922   -51999 
  -52096   -52146   -52041   -51933   -52215   -52447   -52111   -51931 
  -52165   -52173   -52011   -51859   -51733   -51879   -51965   -51691 
  -51723   -52162   -52014   -51611   -52099   -52436   -51796   -52022 
  -53073   -52448   -51047   -51499   -52570   -52205   -51507   -51840 
  -52452   -52455   -52299   -52126   -51603   -51664   -52393   -52243 
  -51919   -52456   -52189   -51394   -51877   -52498   -52396   -52178 
  -51700   -51633   -52239   -52135   -51671   -52176   -52771   -52026 
  -50865   -51192   -52146   -51884   -51377   -51914   -52785   -52829 
  -51818   -51332   -52344   -52978   -52177   -51506   -51939   -52628 
  -52404   -51726   -52022   -52627   -52181   -51603   -51806   -51934 
  -51552   -51474   -52037   -52266   -51831   -51761   -52011   -52020 
  -52211   -52366   -52341   -52681   -52636   -51829   -51457   -51786 
  -52062   -51925   -51819   -52343   -52519   -51624   -51225   -52003 
  -52517   -52150   -51687   -51571   -51684   -51923   -51954   -51798 
  -52077   -52648   -52475   -51601   -51468   -52020   -51872   -51621 
  -52339   -53092   -52911   -52299   -52111   -52347   -52334   -51865 
  -51437   -51402   -51530   -51710   -52226   -52759   -52749   -52380 
  -51910   -51430   -51209   -51305   -51709   -52297   -52529   -52227 
  -51905   -52043   -52479   -52547   -52328   -52364   -52107   -51293 
  -51040   -51633   -52011   -51899   -52191   -52957   -53123   -52574 
  -52087   -51806   -51389   -50845   -50819   -51518   -52072   -52010 
  -51933   -52249   -52490   -52425   -52566   -52759   -52292   -51680 
  -51856   -52247   -52105   -51942   -51993   -51938   -51973   -52069 
  -51995   -52041   -52105   -51923   -52092   -52697   -52654   -51703 
  -51035   -51233   -51474   -51584   -52064   -52226   -52073   -52546 
  -52813   -52315   -52208   -52440   -51960   -51372   -51950   -52836 
  -52446   -51560   -51617   -52164   -52285   -52107   -52084   -52265 
  -52195   -51565   -51104   -51301   -51402   -51312   -51781   -52366 
  -52408   -52575   -52991   -52893   -52648   -52519   -51810   -51010 
  -51021   -51308   -51509   -52138   -52779   -52759   -52621   -52664 
  -52446   -51975   -51505   -51409   -51599   -51316   -51040   -51648 
  -52263   -52338   -52540   -52841   -52821   -52404   -51813   -51638 
  -51918   -51958   -51459   -50939   -51162   -51869   -52165   -52447 
  -53323   -53775   -53227   -52632   -52343   -51985   -51673   -51321 
  -50596   -50371   -51177   -51645   -51614   -52227   -52846   -52774 
  -52562   -52258   -51819   -51691   -51881   -51949   -51702   -51655 
  -52282   -52845   -52639   -52309   -52201   -52057   -52263   -52631 
  -52276   -51644   -51664   -51838   -51469   -51224   -51628   -52007 
  -52192   -52582   -52775   -52597   -52516   -52308   -51721   -51227 
  -51159   -51417   -51591   -51586   -51783   -52226   -52613   -52554 
  -52185   -52247   -52410   -52087   -51827   -51748   -51736   -52146 
  -52431   -52155   -51933   -52089   -52443   -52555   -52297   -52115 
  -51975   -51537   -51050   -51052   -51403   -51425   -51432   -51968 
  -52574   -53013   -53258   -53068   -52613   -52014   -51541   -51773 
  -52145   -51763   -51256   -51472   -52014   -52150   -52006   -52073 
  -52056   -51727   -51722   -52228   -52633   -52417   -51970   -52195 
  -52608   -52218   -51900   -52224   -51989   -51405   -51613   -51833 
  -51522   -51513   -51802   -52095   -52440   -52434   -52234   -52597 
  -53096   -52767   -52058   -51898   -51945   -51633   -51186   -50993 
  -51295   -51888   -52128   -52154   -52500   -52702   -52362   -51977 
  -51759   -51555   -51584   -51922   -52093   -51879   -51738   -51997 
  -52355   -52528   -52641   -52683   -52431   -52037   -51763   -51632 
  -51775   -52157   -52317   -51991   -51694   -51872   -52072   -52029 
  -51937   -51962   -52312   -52425   -51950   -51817   -52184   -52359 
  -52201   -51850   -51663   -51781   -51759   -51599   -51721   -51938 
  -51892   -51753   -51746   -51815   -51867   -51962   -52056   -52111 
  -52512   -52899   -52478   -52069   -52328   -52266   -51854   -51991 
  -52242   -51826   -51205   -51239   -51877   -52389   -52416   -52193 
  -52049   -52123   -52258   -52273   -52184   -51939   -51698   -51787 
  -51945   -51925   -52037   -52251   -52232   -52058   -52030   -52231 
  -52363   -52181   -52053   -52227   -52197   -51808   -51661   -51765 
  -51634   -51614   -52014   -52293   -52354   -52408   -52235   -52116 
  -52313   -52195   -51675   -51547   -51833   -51823   -51559   -51625 
  -51867   -51853   -51854   -52074   -52218   -52257   -52419   -52666 
  -52709   -52501   -52284   -52037   -51799   -51807   -51867   -51687 
  -51469   -51544   -51856   -52118   -52318   -52481   -52435   -52321 
  -52257   -51984   -51613   -51592   -51826   -51895   -51796   -51657 
  -51578   -51722   -51933   -52115   -52387   -52397   -52135   -52364 
  -52902   -52775   -52249   -52027   -51825   -51565   -51522   -51349 
  -51263   -51777   -52164   -51995   -51948   -52323   -52760   -52668 
  -52267   -52389   -52523   -51957   -51425   -51322   -51336   -51594 
  -51953   -52020   -52072   -52408   -52664   -52364   -51842   -51954 
  -52521   -52602   -52192   -51845   -51618   -51471   -51603   -51941 
  -52062   -52014   -52250   -52483   -52261   -52011   -52041   -52099 
  -51968   -51594   -51341   -51409   -51467   -51561   -51750   -51821 
  -52066   -52498   -52536   -52385   -52540   -52748   -52772   -52716 
  -52519   -52177   -51829   -51559   -51479   -51622   -51779   -51767 
  -51694   -51771   -51882   -51910   -52104   -52362   -52236   -52014 
  -52146   -52284   -52118   -51943   -52033   -52281   -52251   -51889 
  -51802   -52031   -51962   -51638   -51698   -52143   -52346   -52257 
  -52265   -52199   -51813   -51591   -51871   -52100   -51933   -51752 
  -51811   -52064   -52375   -52516   -52367   -52042   -51842   -51867 
  -51846   -51848   -52012   -52073   -52099   -52155   -51996   -51935 
  -52132   -52153   -52056   -52030   -51907   -51810   -51876   -51794 
  -51683   -52050   -52505   -52461   -52359   -52551   -52508   -52033 
  -51780   -52000   -52045   -51707   -51452   -51374   -51466   -51796 
  -52100   -52320   -52521   -52500   -52321   -52181   -52070   -52011 
  -51900   -51702   -51752   -52003   -51968   -51788   -51927   -52169 
  -52176   -52139   -52236   -52363   -52370   -52181   -51954   -51888 
  -51836   -51649   -51578   -51757   -51872   -51943   -52220   -52404 
  -52242   -52047   -52069   -52122   -52006   -51891   -51979   -52203 
  -52315   -52146   -52049   -52265   -52404   -52332   -52246   -52172 
  -51945   -51459   -51235   -51584   -51784   -51656   -51804   -51989 
  -51814   -51768   -52066   -52334   -52419   -52398   -52369   -52299 
  -52118   -52100   -52366   -52458   -52243   -52150   -52192   -52105 
  -52049   -52023   -51784   -51505   -51483   -51626   -51760   -51905 
  -51902   -51611   -51614   -52141   -52341   -51997   -51802   -51856 
  -51850   -51849   -52004   -52262   -52326   -52110   -52049   -52274 
  -52393   -52385   -52521   -52577   -52226   -51844   -51869   -52043 
  -51991   -51736   -51588   -51775   -51987   -51904   -51796   -51935 
  -52118   -52146   -52154   -52169   -52043   -51887   -51941   -52132 
  -52104   -51850   -51807   -51976   -52118   -52284   -52305   -52146 
  -52222   -52335   -52087   -51894   -51999   -52095   -52181   -52238 
  -52142   -52108   -52111   -51881   -51583   -51559   -51714   -51675 
  -51601   -51937   -52341   -52261   -51939   -51838   -51957   -52097 
  -52122   -52019   -51996   -52118   -52084   -51871   -51907   -52267 
  -52466   -52292   -52227   -52413   -52336   -52022   -51887   -51911 
  -51899   -51733   -51543   -51592   -51814   -51987   -52097   -52243 
  -52312   -52112   -51942   -52030   -52066   -51993   -52026   -52139 
  -52227   -52180   -51996   -51962   -52161   -52193   -52012   -51991 
  -52016   -51958   -52081   -52212   -52062   -51912   -52020   -52091 
  -51876   -51682   -51742   -51938   -52107   -52006   -51795   -51826 
  -51819   -51657   -51723   -52053   -52369   -52398   -52134   -52031 
  -52177   -52103   -51908   -52027   -52165   -52008   -51956   -52169 
