Origin Time       2015/03/14 02:09:00
Lat.              38.362
Long.             141.767
Depth. (km)       57
Mag.              3.9
Station Code      MYG004
Station Lat.      38.7324
Station Long.     141.0271
Station Height(m) 38
Record Time       2015/03/14 02:09:48
Sampling Freq(Hz) 100Hz
Duration Time(s)  60
Dir.              N-S
Scale Factor      7845(gal)/8223790
Max. Acc. (gal)   2.362
Last Correction   2015/03/14 02:09:48
Memo.             
[...]
    5950     5954     5958     5957     5957     5958     5956     5946 
    5945     5946     5950     5954     5956     5950     5948     5949 
    5949     5948     5950     5952     5949     5946     5946     5946 
    5949     5949     5949     5954     5960     5962     5965     5967 
    5962     5953     5945     5942     5945     5948     5953     5957 
    5954     5952     5950     5946     5942     5944     5950     5956 
    5957     5960     5957     5950     5949     5952     5952     5953 
    5954     5956     5953     5948     5946     5945     5944     5946 
    5949     5950     5952     5949     5949     5953     5954     5954 
    5958     5957     5952     5952     5950     5949     5953     5950 
    5949     5953     5953     5948     5946     5949     5950     5950 
    5952     5953     5954     5954     5953     5953     5956     5954 
    5950     5952     5953     5952     5949     5949     5950     5950 
    5945     5945     5949     5949     5952     5953     5952     5952 
    5956     5957     5956     5958     5961     5960     5957     5957 
    5953     5948     5945     5944     5942     5942     5948     5949 
    5946     5952     5956     5954     5954     5956     5956     5958 
    5960     5956     5954     5956     5953     5952     5950     5946 
    5944     5946     5950     5954     5952     5949     5952     5952 
    5948     5948     5948     5948     5950     5953     5952     5948 
    5949     5956     5958     5956     5954     5954     5953     5956 
    5958     5954     5953     5958     5957     5948     5944     5945 
    5944     5940     5940     5945     5950     5956     5962     5964 
    5957     5957     5961     5958     5950     5949     5950     5948 
    5944     5944     5944     5946     5950     5949     5949     5953 
    5953     5953     5954     5954     5954     5958     5962     5962 
    5958     5953     5949     5950     5953     5952     5952     5950 
    5950     5950     5946     5946     5949     5949     5950     5949 
    5949     5952     5953     5950     5953     5957     5961     5960 
    5954     5952     5949     5946     5946     5950     5949     5948 
    5952     5954     5952     5949     5946     5944     5950     5956 
    5957     5956     5952     5949     5953     5957     5956     5956 
    5957     5956     5956     5956     5952     5946     5945     5942 
    5938     5942     5949     5953     5952     5949     5946     5946 
    5952     5957     5957     5954     5957     5961     5960     5954 
    5950     5949     5954     5958     5956     5948     5944     5942 
    5942     5944     5946     5948     5949     5952     5952     5952 
    5952     5953     5956     5958     5957     5954     5956     5960 
    5958     5958     5960     5956     5949     5942     5940     5940 
    5940     5944     5946     5952     5958     5956     5946     5948 
    5958     5961     5957     5958     5961     5961     5957     5948 
    5948     5953     5952     5954     5953     5933     5929     5950 
    5934     5907     5931     5967     5968     5965     5980     6004 
    5971     5886     5914     6043     6033     5895     5869     5962 
    5994     5896     5857     5971     6014     5938     5948     6006 
    5989     5930     5887     5927     6000     5992     5952     5911 
    5913     6029     6060     5888     5802     5908     6014     6008 
    5934     5934     6026     6015     5895     5884     5976     5960 
    5838     5871     6064     6114     5995     5891     5854     5938 
    6058     6002     5871     5868     5958     6039     5973     5845 
    5922     6018     5946     5987     6075     5940     5795     5841 
    5988     6103     6068     5914     5803     5881     6041     5987 
    5826     5864     5999     6049     6043     5985     5910     5910 
    5992     6085     6021     5807     5753     5917     6046     6035 
    5940     5894     5984     6080     6037     5919     5834     5853 
    5948     5952     5887     5923     6008     6004     5935     5940 
    6018     5998     5911     5914     5946     5961     5979     5962 
    5956     5987     5961     5910     5967     6058     6027     5896 
    5784     5782     5883     5960     5940     5950     6080     6172 
    6066     5868     5807     5914     6014     6048     6018     5881 
    5791     5880     5960     5907     5922     6076     6124     6023 
    5964     5904     5805     5821     5931     5965     5930     5930 
    5977     6027     6073     6102     6049     5894     5757     5788 
    5948     6002     5910     5946     6096     6072     5960     5975 
    6034     5995     5825     5679     5746     5895     5976     6031 
    5991     5915     5987     6049     5967     5922     6003     6097 
    6043     5880     5899     6011     5917     5815     5904     6026 
    6102     6073     5921     5853     5935     5999     5946     5809 
    5800     5991     6023     5826     5800     5961     6006     5989 
    6050     6104     6075     5964     5867     5869     5927     6006 
    6022     5852     5751     5934     6092     6030     5983     6025 
    5992     5913     5886     5896     5926     5954     5981     6006 
    5953     5879     5911     5979     5976     5938     5940     5935 
    5861     5840     5940     6018     6039     6085     6076     5961 
    5875     5838     5795     5823     5919     5940     5931     6018 
    6142     6223     6197     6057     5940     5884     5817     5773 
    5815     5913     6004     6023     5884     5682     5729     6053 
    6262     6160     5968     5911     5965     5958     5769     5590 
    5730     6093     6305     6223     6039     5953     5940     5917 
    5917     5964     5996     5925     5767     5736     5911     6011 
    5950     6006     6203     6288     6115     5807     5741     5922 
    5919     5718     5633     5783     6091     6238     6115     6019 
    5998     5944     5902     5868     5898     5961     5868     5726 
    5736     5904     6150     6235     6150     6129     6072     5894 
    5818     5826     5827     5956     6110     6100     6049     6006 
    5891     5800     5823     5892     5940     5950     5918     5898 
    5948     5965     5896     5910     6039     6127     6061     5871 
    5751     5826     5956     5975     5919     5891     5976     6142 
    6177     6039     5908     5859     5913     6054     6142     6115 
    6012     5871     5737     5661     5725     5879     5945     5967 
    6052     6130     6115     5948     5714     5725     5937     6011 
    5933     5891     5979     6077     6010     5954     6081     6176 
    6089     5927     5888     5977     5923     5738     5730     5950 
    6193     6241     6043     5864     5826     5817     5892     6029 
    5989     5821     5738     5800     5952     5989     5894     5933 
    6115     6178     6052     5902     5911     6073     6118     5894 
    5698     5803     6019     6085     6021     5929     5864     5867 
    5921     5991     6026     5954     5825     5834     6026     6168 
    6099     5934     5869     5998     6145     5957     5607     5665 
    5984     6025     5837     5733     5914     6290     6397     6095 
    5768     5756     6026     6148     5915     5713     5849     6075 
    6023     5829     5850     5991     5952     5841     5925     6151 
    6218     6065     5958     5952     5869     5733     5702     5863 
    6056     6072     5945     5822     5906     6174     6216     6018 
    5938     5914     5819     5769     5788     5867     5996     6087 
    6120     6099     6006     5910     5825     5745     5805     5965 
    5971     5877     5896     6015     6177     6216     6012     5813 
    5802     5918     6058     6029     5864     5886     6072     6120 
    5965     5763     5722     5864     5958     5973     6080     6201 
    6150     5942     5687     5562     5734     6092     6358     6386 
    6173     5868     5717     5765     5886     5987     5965     5854 
    5894     6006     5896     5660     5636     5930     6296     6378 
    6189     5971     5751     5590     5603     5698     5837     6103 
    6394     6504     6351     6096     5926     5821     5749     5719 
    5714     5793     5989     6145     6049     5752     5583     5755 
    6070     6231     6157     5984     5914     5946     5942     5972 
    6056     6061     6058     6060     5965     5861     5803     5779 
    5826     5873     5925     6006     5971     5890     5940     6014 
    6019     5965     5900     5967     6093     6058     5910     5811 
    5798     5867     5981     6057     6029     5979     5996     6000 
    5981     6050     6096     6016     5910     5853     5953     6079 
    5880     5634     5784     6029     6069     6002     5834     5706 
    5825     5994     6031     5973     5879     5945     6089     6023 
    5996     6120     6033     5837     5822     5861     5919     6015 
    6003     5942     5976     6003     5927     5864     5933     6102 
    6239     6153     5864     5724     5806     5896     5999     6092 
    6075     6019     5921     5729     5632     5692     5784     5907 
    6039     6218     6434     6350     6014     5894     5919     5796 
    5653     5697     5884     6038     6054     5944     5790     5822 
    6069     6168     6037     5945     5918     5908     5933     5906 
    5900     6052     6207     6177     6003     5802     5682     5706 
    5784     5859     6006     6151     6093     5950     5975     6112 
    6138     5952     5757     5876     6170     6214     5950     5667 
    5628     5875     6138     6119     5935     5906     6003     5979 
    5810     5715     5778     5892     5992     6033     6033     6065 
    6023     5937     5950     5887     5795     5940     6066     6031 
    6030     5981     5942     6042     6049     5942     5914     5950 
    6106     6290     6222     5979     5765     5633     5648     5714 
    5718     5787     5961     6083     6033     5892     5852     5906 
    5925     5925     5984     6080     6148     6200     6249     6207 
    6042     5867     5814     5859     5872     5849     5810     5751 
    5826     6027     6096     6025     5937     5918     6046     6127 
    5949     5751     5701     5691     5780     5977     6107     6150 
    6131     6052     6041     6102     6087     5952     5753     5655 
    5798     6066     6247     6272     6212     6097     5898     5732 
    5687     5722     5868     6019     5976     5802     5643     5576 
    5675     5872     6083     6308     6439     6322     6064     5891 
    5803     5729     5760     5913     6022     6068     6131     6114 
    5964     5861     5902     5976     5964     5888     5875     5914 
    5922     5980     6070     5989     5842     5892     6018     6014 
    5925     5849     5879     6031     6115     5998     5869     5961 
    6108     6002     5694     5539     5698     6012     6266     6330 
    6195     5984     5786     5663     5698     5846     5992     6080 
    6150     6211     6120     5895     5760     5798     5940     6099 
    6106     5983     5923     5856     5701     5620     5641     5711 
    5836     5917     5979     6212     6485     6465     6169     5911 
    5838     5871     5972     6083     6033     5863     5773     5810 
    5976     6191     6160     5857     5648     5714     5900     5960 
    5833     5800     6016     6168     6072     5919     5798     5709 
    5764     5985     6210     6250     6093     5962     6018     6133 
    6133     5988     5811     5813     5976     6044     5989     5956 
    5908     5854     5902     5937     5836     5726     5713     5778 
    5863     5899     5931     5977     5938     5875     5940     6092 
    6173     6141     6130     6153     6050     5894     5864     5906 
    5910     5913     6021     6181     6196     6115     6138     6120 
    5887     5595     5468     5566     5736     5840     5937     5972 
    5922     6002     6097     6021     6054     6093     5829     5744 
    6112     6354     6102     5710     5772     6135     6077     5753 
    5760     6006     6228     6261     6049     5734     5418     5379 
    5760     6022     5922     5910     6126     6316     6237     5884 
    5611     5655     5940     6222     6189     6015     6081     6181 
    6123     6099     6130     6097     5940     5701     5568     5593 
    5625     5590     5570     5674     5811     5887     5977     6012 
    5975     6061     6165     6093     6016     5979     5856     5699 
    5552     5512     5688     5902     5964     6031     6355     6916 
    7377     7375     6978     6577     6239     5763     5235     5152 
    5670     6172     6389     6750     7149     6910     5940     5005 
    4726     4882     5120     5404     5489     5248     5240     5817 
    6494     6741     6620     6480     6303     5809     5211     5009 
    5143     5341     5821     6615     7037     6924     6933     7010 
    6399     5077     3967     3936     4857     5861     6331     6214 
    5856     5807     6227     6670     6798     6708     6516     6316 
    6264     6252     5998     5623     5668     6261     6775     6635 
    5985     5379     5344     5980     6528     6164     5205     4444 
    4027     4083     4881     5952     6519     6475     6255     6195 
    6162     5948     5755     5755     5922     6289     6632     6569 
    6227     6148     6569     7261     8040     8428     7603     5890 
    4654     4374     4442     4421     4411     4641     5125     5689 
    6191     6564     6706     6600     6384     6088     5521     4706 
    4256     4672     5638     6577     7141     7195     6925     6744 
    6744     6554     6142     6108     6556     6806     6498     5867 
    5263     5008     5074     5066     5038     5337     5842     6276 
    6485     6419     6165     5663     5066     4988     5489     6021 
    6365     6621     6782     6690     6232     5603     5073     4822 
    5082     5846     6790     7592     7825     7203     6118     5260 
    4961     5093     5398     5732     6119     6629     7065     7052 
    6490     5607     4869     4649     4847     5235     5664     5918 
    5921     5718     5495     5721     6393     6709     6380     6018 
    5934     6023     6269     6463     6443     6451     6583     6539 
    6223     5833     5454     5228     5370     5740     5962     5938 
    5854     5840     5883     6033     6265     6293     6119     6188 
    6439     6299     5689     5071     4800     4904     5182     5435 
    5655     5949     6246     6255     5945     5670     5625     5621 
    5545     5640     6174     6889     7217     7144     6987     6673 
    6148     5788     5798     5968     6196     6459     6459     6120 
    5818     5787     5864     5663     5113     4718     4837     5305 
    5871     6435     6881     7002     6777     6488     6141     5535 
    4965     4804     4872     4954     5078     5297     5764     6463 
    7028     7165     6906     6529     6265     6010     5678     5456 
    5499     5790     6210     6540     6608     6505     6453     6438 
    6272     5968     5780     5814     5773     5341     4675     4256 
    4379     4920     5479     5800     6119     6635     7034     7063 
    6855     6535     6239     6186     6355     6500     6502     6330 
    5961     5617     5464     5367     5420     5869     6598     7287 
    7508     6912     5848     5059     4765     4833     5070     5217 
    5395     5759     5944     5798     5653     5705     5778     5618 
    5312     5121     5173     5481     5896     6312     6813     7219 
    7168     6837     6739     6899     6864     6416     5894     5659 
    5547     5479     5692     6031     6102     5927     5718     5498 
    5282     5192     5239     5341     5622     6216     6844     7138 
    7076     6709     6016     5239     4857     5031     5371     5533 
    5548     5529     5590     5838     6192     6443     6435     6164 
    5881     5971     6423     6771     6758     6512     6224     6108 
    6158     6093     5977     6091     6316     6509     6655     6535 
    6054     5470     5032     4860     4985     5302     5575     5655 
    5634     5667     5814     5987     5968     5814     5873     6222 
    6539     6507     6087     5595     5524     6003     6650     7069 
    7164     6870     6237     5652     5386     5266     5108     5020 
    5080     5223     5406     5541     5529     5424     5437     5717 
    6119     6394     6498     6524     6496     6455     6546     6825 
    7110     7123     6760     6259     5944     5763     5551     5436 
    5478     5564     5574     5412     5294     5406     5491     5343 
    5059     4923     5254     5967     6612     6905     6797     6389 
    5973     5864     6156     6633     6993     7188     7273     7094 
    6577     5879     5266     4997     5104     5277     5131     4634 
    4261     4398     4822     5190     5503     5899     6338     6623 
    6691     6697     6752     6843     6917     6944     6967     6971 
    6833     6627     6465     6204     5756     5304     5092     5287 
    5721     5977     5995     6027     6104     6053     5778     5355 
    5035     5007     5235     5513     5636     5616     5643     5821 
    6057     6134     5976     5806     5802     5896     6029     6219 
    6467     6666     6640     6355     5976     5756     5876     6216 
    6460     6524     6525     6405     6107     5769     5422     5097 
    5034     5281     5611     5819     5888     5973     6097     6161 
    6228     6247     6054     5744     5509     5490     5760     6265 
    6925     7468     7487     6985     6288     5601     5142     5063 
    5194     5314     5427     5537     5532     5335     5055     4946 
    5224     5859     6471     6673     6538     6350     6131     5914 
    5904     6110     6424     6720     6785     6600     6385     6185 
    5895     5623     5576     5724     5900     5995     5989     5950 
    6004     6193     6285     6031     5614     5363     5324     5417 
    5611     5859     6112     6358     6528     6447     6054     5611 
    5401     5417     5474     5400     5279     5377     5767     6297 
    6824     7148     7011     6508     6025     5749     5656     5601 
    5508     5508     5665     5950     6320     6546     6447     6227 
    6096     5979     5814     5526     5044     4739     5073     5872 
    6513     6646     6480     6336     6237     6115     5977     5857 
    5911     6168     6346     6301     6222     6305     6494     6562 
    6426     6133     5679     5194     4888     4738     4712     4982 
    5533     6021     6189     6168     6230     6413     6512     6424 
    6295     6285     6399     6501     6474     6327     6158     5975 
    5705     5412     5266     5333     5590     5926     6058     5792 
    5336     5088     5205     5490     5638     5694     5968     6453 
    6878     7055     6921     6660     6498     6399     6255     6073 
    5925     5879     5845     5742     5661     5663     5790     6041 
    6166     5954     5551     5282     5343     5528     5470     5283 
    5347     5652     5921     6018     6091     6311     6544     6643 
