Origin Time       2015/03/14 02:09:00
Lat.              38.362
Long.             141.767
Depth. (km)       57
Mag.              3.9
Station Code      MYG004
Station Lat.      38.7324
Station Long.     141.0271
Station Height(m) 38
Record Time       2015/03/14 02:09:48
Sampling Freq(Hz) 100Hz
Duration Time(s)  60
Dir.              E-W
Scale Factor      7845(gal)/8223790
Max. Acc. (gal)   3.574
Last Correction   2015/03/14 02:09:48
Memo.             
[...]
    2201     2196     2196     2200     2204     2203     2201     2203 
    2203     2203     2204     2199     2195     2200     2205     2205 
    2205     2203     2200     2203     2204     2203     2200     2200 
    2196     2195     2199     2204     2201     2201     2204     2200 
    2196     2201     2203     2201     2201     2199     2201     2207 
    2212     2209     2203     2200     2196     2193     2199     2204 
    2205     2204     2203     2199     2196     2196     2192     2195 
    2203     2205     2205     2207     2208     2205     2199     2193 
    2191     2195     2201     2204     2207     2209     2205     2200 
    2200     2203     2207     2209     2205     2200     2200     2200 
    2201     2201     2200     2200     2204     2205     2203     2199 
    2196     2196     2193     2192     2196     2199     2201     2205 
    2205     2203     2203     2204     2209     2218     2215     2205 
    2200     2196     2196     2196     2196     2200     2200     2199 
    2201     2204     2205     2205     2196     2193     2196     2199 
    2201     2205     2207     2204     2201     2200     2200     2201 
    2204     2203     2199     2200     2196     2192     2195     2196 
    2199     2204     2208     2205     2207     2208     2204     2203 
    2207     2208     2207     2201     2199     2199     2196     2195 
    2195     2195     2196     2200     2203     2207     2208     2208 
    2208     2205     2205     2204     2201     2203     2200     2196 
    2200     2196     2195     2196     2199     2200     2201     2200 
    2204     2207     2204     2204     2203     2201     2200     2196 
    2195     2200     2203     2203     2203     2204     2204     2207 
    2205     2203     2201     2200     2203     2207     2204     2203 
    2204     2203     2199     2196     2196     2199     2201     2201 
    2200     2200     2207     2209     2205     2201     2196     2196 
    2199     2204     2209     2211     2208     2203     2196     2196 
    2201     2203     2201     2203     2200     2196     2195     2195 
    2195     2195     2199     2205     2208     2209     2211     2208 
    2204     2205     2205     2203     2200     2196     2196     2196 
    2196     2199     2196     2199     2203     2203     2205     2211 
    2207     2203     2207     2207     2205     2208     2205     2200 
    2200     2200     2199     2196     2199     2200     2199     2200 
    2203     2203     2201     2204     2208     2207     2208     2211 
    2208     2205     2201     2196     2196     2199     2196     2196 
    2196     2200     2204     2204     2201     2201     2204     2207 
    2208     2207     2205     2207     2207     2205     2200     2196 
    2193     2193     2196     2196     2199     2207     2211     2208 
    2203     2203     2205     2207     2205     2201     2196     2193 
    2193     2192     2192     2196     2200     2203     2205     2205 
    2204     2204     2205     2208     2208     2204     2201     2201 
    2201     2201     2203     2201     2196     2193     2195     2196 
    2196     2199     2200     2205     2209     2205     2205     2209 
    2207     2204     2205     2207     2211     2208     2200     2199 
    2200     2200     2196     2189     2191     2196     2201     2207 
    2205     2204     2209     2207     2196     2199     2205     2200 
    2196     2207     2203     2193     2203     2208     2189     2188 
    2205     2204     2195     2188     2184     2208     2219     2176 
    2196     2286     2265     2180     2214     2281     2234     2147 
    2158     2215     2168     2073     2128     2241     2211     2143 
    2211     2305     2278     2223     2247     2254     2196     2182 
    2178     2126     2142     2187     2168     2187     2203     2163 
    2222     2267     2176     2231     2381     2272     2107     2184 
    2257     2161     2096     2121     2163     2215     2211     2174 
    2209     2235     2228     2284     2272     2181     2230     2262 
    2133     2143     2230     2147     2163     2282     2232     2205 
    2251     2149     2092     2209     2235     2147     2174     2262 
    2205     2123     2215     2296     2193     2096     2154     2300 
    2376     2282     2184     2211     2220     2151     2114     2126 
    2142     2161     2191     2188     2157     2200     2308     2332 
    2262     2196     2174     2191     2188     2174     2215     2187 
    2060     2110     2303     2299     2166     2168     2259     2301 
    2280     2226     2195     2192     2170     2147     2163     2149 
    2114     2168     2226     2215     2224     2201     2157     2259 
    2392     2359     2246     2157     2093     2092     2142     2146 
    2143     2219     2259     2199     2144     2124     2146     2269 
    2386     2332     2212     2166     2142     2124     2162     2189 
    2130     2077     2192     2370     2382     2316     2353     2327 
    2150     2111     2205     2084     1929     2074     2263     2226 
    2146     2211     2324     2293     2180     2157     2150     2135 
    2211     2272     2212     2133     2130     2208     2270     2253 
    2286     2398     2362     2215     2174     2184     2173     2107 
    1946     1930     2173     2351     2344     2304     2254     2189 
    2150     2126     2149     2195     2160     2176     2308     2263 
    2111     2215     2400     2365     2258     2219     2166     2100 
    2111     2168     2133     2038     2052     2168     2273     2324 
    2324     2293     2241     2170     2178     2238     2166     2081 
    2188     2293     2209     2100     2111     2211     2304     2346 
    2378     2351     2173     1993     2008     2126     2196     2219 
    2224     2231     2259     2265     2228     2172     2072     2015 
    2120     2276     2334     2317     2299     2267     2176     2111 
    2166     2258     2292     2247     2154     2084     2056     2045 
    2111     2257     2330     2309     2331     2371     2292     2134 
    2083     2172     2231     2144     2023     2060     2242     2394 
    2432     2343     2177     2111     2143     2062     1878     1826 
    1992     2239     2361     2335     2367     2466     2442     2415 
    2436     2274     2073     2097     2147     2073     1975     1921 
    2052     2330     2465     2408     2350     2353     2282     2114 
    2020     1987     1941     2033     2211     2254     2228     2246 
    2250     2220     2200     2228     2282     2263     2209     2276 
    2350     2227     2074     2074     2121     2191     2299     2315 
    2241     2199     2212     2253     2288     2277     2255     2242 
    2160     2027     1965     1980     2006     2065     2166     2227 
    2273     2347     2389     2408     2412     2357     2301     2242 
    2116     2034     2064     2074     2011     2016     2166     2322 
    2388     2388     2319     2263     2299     2305     2222     2098 
    2000     1968     1914     1892     2079     2319     2427     2471 
    2484     2470     2411     2311     2303     2311     2124     1845 
    1771     1912     1988     1975     2111     2270     2236     2257 
    2479     2597     2415     2092     1953     2096     2218     2209 
    2328     2494     2436     2272     2170     2097     2068     2089 
    2130     2232     2366     2382     2246     2022     1796     1773 
    2026     2247     2245     2273     2458     2542     2377     2079 
    1934     2126     2394     2361     2161     2158     2338     2447 
    2400     2222     2043     2064     2170     2185     2137     2025 
    1968     2065     2141     2160     2211     2209     2149     2181 
    2313     2351     2246     2251     2416     2447     2270     2138 
    2174     2223     2189     2195     2274     2332     2293     2193 
    2116     1993     1826     1848     2034     2174     2249     2239 
    2228     2373     2461     2317     2144     2066     2083     2199 
    2309     2336     2344     2344     2282     2218     2203     2235 
    2338     2431     2357     2182     2072     2022     1922     1846 
    1910     1981     1999     2111     2292     2403     2417     2295 
    2146     2163     2214     2169     2214     2336     2347     2353 
    2463     2515     2432     2300     2173     2085     2022     1975 
    1969     1949     2015     2254     2354     2170     2116     2281 
    2267     2084     2016     2061     2162     2295     2366     2344 
    2243     2169     2250     2355     2286     2114     2091     2357 
    2602     2471     2188     2107     2126     2058     1966     1923 
    1933     2026     2172     2269     2284     2276     2290     2304 
    2296     2309     2361     2361     2278     2196     2146     2060 
    1981     2027     2155     2277     2357     2336     2212     2077 
    2022     2012     1966     1975     2133     2327     2479     2563 
    2509     2398     2322     2230     2166     2192     2172     2068 
    2097     2230     2195     2070     2110     2192     2142     2130 
    2243     2265     2161     2126     2231     2297     2166     2038 
    2111     2215     2205     2177     2165     2165     2187     2232 
    2338     2392     2263     2226     2376     2359     2209     2196 
    2193     2111     2038     2001     2114     2226     2072     1988 
    2209     2358     2411     2533     2485     2297     2261     2196 
    2019     2020     2120     2130     2165     2146     2058     2138 
    2208     2079     1999     1993     1992     2141     2313     2367 
    2474     2552     2482     2488     2454     2201     2098     2184 
    2115     2070     2196     2185     1960     1814     1952     2227 
    2354     2277     2192     2286     2398     2317     2201     2115 
    1961     1894     2011     2149     2239     2344     2421     2412 
    2392     2374     2313     2274     2285     2322     2382     2331 
    2120     1981     1981     2011     2043     2022     1949     1996 
    2161     2309     2390     2326     2130     2058     2204     2338 
    2319     2241     2166     2128     2174     2224     2191     2209 
    2351     2420     2353     2265     2195     2188     2214     2124 
    2061     2203     2346     2370     2330     2141     1954     1987 
    2043     2025     2039     2030     2092     2317     2436     2346 
    2290     2344     2361     2315     2261     2199     2169     2200 
    2235     2223     2134     2014     1982     2034     2087     2143 
    2228     2319     2336     2276     2243     2191     2139     2274 
    2473     2461     2315     2254     2272     2245     2157     2066 
    1960     1899     2026     2230     2293     2219     2133     2137 
    2196     2192     2176     2243     2241     2111     2058     2111 
    2168     2263     2366     2326     2196     2161     2209     2242 
    2251     2232     2284     2454     2473     2236     2038     2000 
    2064     2200     2323     2378     2403     2393     2280     2029 
    1802     1796     1982     2195     2317     2300     2180     2056 
    2025     2047     2041     2130     2390     2565     2536     2452 
    2371     2242     2095     2007     2014     2128     2245     2246 
    2267     2385     2394     2282     2187     2049     1929     2020 
    2228     2308     2241     2138     2106     2185     2263     2215 
    2100     2101     2278     2442     2427     2296     2212     2228 
    2208     2061     1954     2015     2144     2222     2231     2224 
    2227     2215     2224     2200     2037     1929     2085     2316 
    2420     2469     2469     2378     2297     2257     2207     2204 
    2258     2265     2187     2041     1880     1856     2023     2215 
    2293     2296     2266     2184     2120     2155     2178     2076 
    1930     1904     2118     2497     2721     2660     2511     2394 
    2280     2157     2038     1979     2056     2208     2317     2350 
    2278     2170     2093     1948     1810     1878     2049     2158 
    2249     2319     2280     2143     2045     2084     2224     2349 
    2428     2501     2544     2536     2436     2227     2038     1981 
    2072     2322     2527     2448     2282     2253     2162     1919 
    1750     1665     1588     1794     2343     2662     2508     2359 
    2367     2226     1980     1903     2052     2257     2394     2540 
    2627     2500     2262     1958     1683     1777     2111     2312 
    2436     2482     2428     2452     2369     2095     1966     1935 
    1911     2160     2501     2512     2284     2142     2153     2077 
    1844     1755     1956     2157     2149     2215     2546     2713 
    2509     2312     2236     2142     2085     2102     2263     2556 
    2627     2386     2121     1890     1773     1935     2121     2052 
    1965     2155     2398     2338     2120     1992     1956     2107 
    2355     2431     2501     2759     2951     2871     2523     2083 
    1837     1818     1877     1958     2003     1995     2066     2246 
    2407     2494     2546     2698     3005     3200     3038     2636 
    2289     2034     1640     1181      985      961      903     1051 
    1549     1972     1925     1634     1595     1891     2196     2412 
    2714     2947     2755     2192     1587     1228     1468     2489 
    3927     5131     5483     4702     3064     1124     -540    -1436 
   -1344     -259     1540     3499     5163     5949     5208     3331 
    1657      924      785      842     1131     1570     1911     2143 
    2224     1892     1275     1063     1698     2932     4205     4956 
    4774     3840     2866     2173     1487      685      176      495 
    1576     2651     3075     2817     2209     1729     1614     1632 
    1609     1753     2180     2721     3130     3238     3021     2652 
    2338     1985     1582     1517     1856     2334     2855     3099 
    2717     2039     1641     1528     1301      958     1015     1710 
    2616     3107     2934     2246     1344      656      680     1593 
    2941     3971     4303     4028     3277     2238     1200      436 
     367     1228     2625     3948     4719     4615     3727     2579 
    1675     1171     1032     1139     1350     1598     1779     1817 
    1837     1915     1966     1944     1906     2010     2222     2196 
    1987     2126     2686     3141     3069     2463     1729     1528 
    2087     2847     3150     2982     2775     2613     2143     1375 
     859     1074     1992     3090     3705     3608     3102     2384 
    1505      765      519      892     1628     2269     2725     3005 
    2835     2272     1814     1763     2042     2370     2512     2492 
    2292     1737     1073      909     1389     2235     3157     3657 
    3353     2644     2230     2205     2226     2182     2215     2376 
    2504     2349     1934     1601     1579     1818     2085     2257 
    2454     2697     2816     2652     2207     1810     1809     2095 
    2388     2524     2590     2868     3250     3257     2786     2176 
    1783     1636     1513     1435     1579     1795     1775     1548 
    1382     1532     2238     3245     3693     3323     2772     2436 
    2234     1975     1513     1096     1093     1334     1497     1590 
    1783     2189     2762     3173     2941     1975      928      542 
     895     1672     2573     3341     3704     3457     2882     2539 
    2455     2411     2428     2511     2655     2913     3099     3059 
    2893     2569     2043     1597     1397     1358     1516     1750 
    1711     1483     1456     1717     2185     2687     2890     2725 
    2465     2166     1822     1719     1973     2317     2550     2628 
    2565     2436     2358     2442     2616     2570     2196     1771 
    1503     1306     1065      868      926     1360     2053     2701 
    3150     3510     3753     3696     3300     2701     2177     1857 
    1624     1549     1723     1992     2255     2430     2421     2416 
    2565     2751     2802     2613     2366     2363     2357     1892 
    1151      739      926     1375     1672     1726     1622     1628 
    1899     2060     1829     1605     1826     2365     2882     3215 
    3338     3310     3248     3196     3119     3040     3041     3095 
    3001     2666     2246     1948     1779     1582     1362     1298 
    1383     1393     1230     1167     1507     2079     2439     2363 
    1985     1683     1841     2424     2893     2906     2725     2648 
    2651     2579     2313     1980     1877     2118     2578     2949 
    2876     2349     1746     1405     1394     1636     1962     2116 
    2001     1887     2012     2243     2370     2362     2254     2077 
    1907     1871     2026     2201     2146     1912     1880     2334 
    3060     3523     3527     3333     3105     2768     2378     2185 
    2304     2416     2149     1630     1297     1341     1559     1636 
    1541     1476     1560     1776     1964     1949     1910     2092 
    2351     2535     2770     3053     3319     3634     3735     3267 
    2413     1632     1242     1177     1092     1013     1212     1630 
    2181     2787     3087     2906     2451     1966     1679     1710 
    1930     2107     2088     1979     1982     2084     2196     2323 
    2442     2574     2802     3102     3307     3179     2673     2006 
    1375      947      896     1247     1842     2381     2663     2745 
    2677     2444     2166     2012     2141     2517     2848     2972 
    2907     2658     2430     2439     2440     2106     1567     1223 
    1287     1652     2042     2295     2424     2451     2327     2092 
    1876     1752     1729     1802     1921     2008     2043     2091 
    2178     2238     2195     2161     2435     2997     3373     3307 
    3071     2929     2787     2492     2070     1665     1491     1741 
    2265     2581     2440     2065     1719     1447     1251     1206 
    1417     1911     2478     2747     2571     2218     1998     1869 
    1761     1837     2097     2380     2606     2708     2662     2542 
    2359     2195     2203     2307     2367     2416     2369     2073 
    1688     1532     1680     1999     2344     2593     2563     2187 
    1771     1710     1999     2292     2361     2343     2455     2662 
    2837     2955     2998     3011     3032     2880     2481     2107 
    1907     1783     1740     1854     2070     2253     2253     1989 
    1594     1301     1237     1398     1657     1912     2184     2363 
    2253     1971     1807     1833     1979     2187     2396     2610 
    2898     3134     3107     2867     2590     2365     2272     2269 
    2144     1884     1691     1634     1647     1675     1738     1956 
    2276     2434     2408     2336     2231     2181     2263     2366 
    2440     2528     2583     2554     2473     2439     2508     2594 
    2581     2444     2170     1777     1457     1401     1551     1775 
    2000     2126     2137     2120     2121     2151     2238     2358 
    2421     2450     2604     2853     2940     2774     2525     2412 
    2452     2388     2084     1767     1628     1632     1757     1984 
    2224     2389     2355     2023     1539     1165     1048     1202 
