Origin Time       2007/01/13 13:24:00
Lat.              46.937
Long.             155.052
Depth. (km)       30
Mag.              8.2
Station Code      HKD159
Station Lat.      41.7162
Station Long.     141.0025
Station Height(m) 35
Record Time       2007/01/13 13:26:14
Sampling Freq(Hz) 100Hz
Duration Time(s)  263
Dir.              U-D
Scale Factor      3920(gal)/6182761
Max. Acc. (gal)   2.242
Last Correction   2007/01/13 13:25:59
Memo.             
[...]
  -22411   -22243   -22146   -22230   -22437   -22658   -22845   -23078 
  -23485   -23936   -24098   -23879   -23440   -22920   -22429   -22082 
  -21914   -21927   -22146   -22514   -22923   -23279   -23488   -23564 
  -23646   -23767   -23789   -23621   -23373   -23229   -23163   -22974 
  -22634   -22395   -22484   -22876   -23360   -23706   -23798   -23677 
  -23503   -23461   -23512   -23369   -22932   -22470   -22258   -22354 
  -22685   -23105   -23458   -23677   -23717   -23510   -23195   -23096 
  -23302   -23569   -23649   -23506   -23212   -22843   -22505   -22276 
  -22202   -22342   -22589   -22726   -22766   -22866   -23033   -23168 
  -23192   -23098   -22947   -22813   -22789   -22945   -23196   -23294 
  -23058   -22611   -22237   -22087   -22137   -22311   -22578   -22966 
  -23418   -23740   -23798   -23578   -23121   -22614   -22343   -22380 
  -22526   -22600   -22571   -22467   -22405   -22520   -22757   -22953 
  -23016   -22910   -22739   -22810   -23269   -23850   -24191   -24105 
  -23503   -22469   -21373   -20694   -20770   -21645   -22929   -24065 
  -24754   -24947   -24692   -24154   -23548   -23033   -22699   -22559 
  -22586   -22693   -22783   -22832   -22724   -22293   -21750   -21550 
  -21856   -22569   -23534   -24358   -24592   -24216   -23502   -22631 
  -21786   -21244   -21222   -21774   -22662   -23433   -23810   -23808 
  -23597   -23427   -23479   -23708   -23949   -24072   -23878   -23190 
  -22192   -21310   -20911   -21241   -22212   -23348   -24220   -24666 
  -24693   -24464   -24116   -23624   -23044   -22538   -22164   -21902 
  -21799   -21939   -22341   -22920   -23486   -23820   -23894   -23875 
  -23791   -23517   -23073   -22592   -22179   -21905   -21837   -22058 
  -22567   -23206   -23807   -24237   -24335   -24010   -23328   -22494 
  -21810   -21592   -21960   -22718   -23526   -24068   -24100   -23681 
  -23198   -22975   -23019   -23158   -23191   -22936   -22383   -21815 
  -21615   -22015   -22990   -24148   -24853   -24698   -23779   -22550 
  -21552   -21123   -21306   -21945   -22715   -23295   -23667   -23961 
  -24134   -24095   -23870   -23496   -23104   -22893   -22866   -22937 
  -23108   -23308   -23444   -23535   -23592   -23549   -23339   -22971 
  -22541   -22161   -21920   -21866   -21980   -22238   -22661   -23241 
  -23888   -24444   -24690   -24456   -23798   -23000   -22377   -22086 
  -22064   -22165   -22350   -22610   -22884   -23155   -23415   -23593 
  -23639   -23491   -23110   -22655   -22334   -22196   -22193   -22316 
  -22585   -22900   -23095   -23124   -23055   -23002   -23062   -23174 
  -23228   -23255   -23321   -23420   -23521   -23576   -23453   -23050 
  -22516   -22095   -21880   -21871   -22012   -22230   -22583   -23134 
  -23747   -24165   -24230   -23938   -23363   -22669   -22150   -22053 
  -22368   -22859   -23242   -23356   -23208   -22917   -22690   -22767 
  -23176   -23631   -23836   -23670   -23076   -22200   -21471   -21235 
  -21510   -22061   -22666   -23308   -23935   -24315   -24281   -23817 
  -23020   -22196   -21776   -21993   -22737   -23631   -24230   -24323 
  -24073   -23687   -23155   -22428   -21678   -21294   -21590   -22521 
  -23660   -24465   -24707   -24496   -23961   -23293   -22811   -22649 
  -22718   -22862   -22885   -22701   -22405   -22121   -22029   -22345 
  -23037   -23793   -24309   -24365   -23852   -22949   -22068   -21512 
  -21344   -21510   -21929   -22586   -23414   -24118   -24400   -24196 
  -23604   -22856   -22332   -22296   -22645   -23061   -23284   -23206 
  -22921   -22681   -22672   -22915   -23262   -23455   -23386   -23187 
  -22971   -22744   -22547   -22487   -22621   -22910   -23274   -23670 
  -24044   -24245   -24110   -23624   -22908   -22159   -21602   -21437 
  -21835   -22755   -23807   -24588   -24949   -24844   -24264   -23322 
  -22236   -21302   -20858   -21037   -21629   -22340   -22956   -23344 
  -23590   -23877   -24128   -24160   -23903   -23339   -22625   -22080 
  -21858   -22022   -22586   -23236   -23592   -23640   -23534   -23405 
  -23372   -23406   -23352   -23127   -22820   -22596   -22508   -22482 
  -22504   -22603   -22665   -22512   -22217   -22074   -22233   -22623 
  -23134   -23718   -24320   -24689   -24501   -23764   -22832   -22112 
  -21849   -22048   -22518   -22987   -23236   -23234   -23087   -22858 
  -22597   -22437   -22505   -22799   -23215   -23622   -23906   -23994 
  -23818   -23319   -22620   -22053   -21935   -22367   -23194   -24067 
  -24629   -24692   -24261   -23485   -22610   -21907   -21575   -21663 
  -22044   -22546   -23009   -23286   -23367   -23369   -23362   -23383 
  -23412   -23298   -22964   -22510   -22097   -21963   -22270   -22835 
  -23341   -23654   -23732   -23576   -23295   -22994   -22748   -22599 
  -22481   -22358   -22266   -22149   -21985   -21954   -22202   -22731 
  -23487   -24204   -24517   -24383   -23989   -23461   -22943   -22636 
  -22610   -22778   -23009   -23193   -23306   -23392   -23456   -23510 
  -23570   -23566   -23441   -23206   -22873   -22530   -22308   -22214 
  -22224   -22367   -22554   -22640   -22714   -22943   -23282   -23572 
  -23689   -23593   -23351   -23072   -22856   -22762   -22701   -22496 
  -22157   -21940   -22077   -22596   -23329   -23968   -24263   -24156 
  -23725   -23145   -22581   -22142   -21991   -22229   -22790   -23556 
  -24319   -24785   -24766   -24233   -23387   -22633   -22232   -22135 
  -22181   -22298   -22558   -23065   -23732   -24242   -24333   -24024 
  -23502   -22911   -22343   -21915   -21726   -21792   -22096   -22579 
  -23067   -23387   -23581   -23754   -23845   -23720   -23296   -22571 
  -21768   -21270   -21264   -21642   -22256   -23026   -23775   -24188 
  -24120   -23678   -23044   -22450   -22093   -21999   -22191   -22695 
  -23345   -23860   -24022   -23797   -23460   -23352   -23509   -23777 
  -23986   -23934   -23568   -23031   -22454   -21996   -21847   -22047 
  -22545   -23168   -23566   -23513   -23037   -22310   -21694   -21569 
  -21990   -22802   -23798   -24604   -24865   -24564   -23873   -22989 
  -22149   -21529   -21273   -21537   -22322   -23424   -24472   -25033 
  -24924   -24266   -23258   -22201   -21499   -21386   -21762   -22355 
  -22933   -23337   -23523   -23566   -23500   -23339   -23195   -23091 
  -22949   -22827   -22826   -22890   -22950   -22994   -23038   -23179 
  -23407   -23510   -23441   -23307   -23079   -22790   -22627   -22588 
  -22515   -22385   -22316   -22469   -22914   -23467   -23789   -23736 
  -23496   -23306   -23145   -22856   -22442   -22084   -21965   -22221 
  -22914   -23843   -24602   -24968   -24900   -24299   -23162   -21760 
  -20537   -19936   -20158   -21101   -22480   -23873   -24877   -25215 
  -24751   -23718   -22625   -21787   -21294   -21247   -21601   -22102 
  -22689   -23486   -24383   -25056   -25259   -24941   -24211   -23254 
  -22282   -21495   -21098   -21205   -21693   -22404   -23273   -24065 
  -24462   -24380   -23889   -23102   -22249   -21574   -21226   -21306 
  -21832   -22743   -23940   -25163   -25949   -25883   -24927   -23533 
  -22327   -21667   -21582   -21919   -22391   -22722   -22894   -23012 
  -23055   -23044   -23091   -23159   -23170   -23140   -23061   -23004 
  -23081   -23202   -23213   -23120   -23017   -23050   -23256   -23439 
  -23551   -23721   -23771   -23441   -22868   -22320   -21979   -21997 
  -22351   -22835   -23281   -23615   -23782   -23721   -23420   -22930 
  -22327   -21791   -21636   -22044   -22888   -23840   -24517   -24657 
  -24280   -23594   -22822   -22247   -22140   -22433   -22825   -23166 
  -23356   -23229   -22818   -22410   -22301   -22541   -22923   -23269 
  -23510   -23521   -23232   -22791   -22444   -22362   -22563   -22959 
  -23422   -23772   -23834   -23519   -22886   -22236   -21969   -22179 
  -22628   -23033   -23203   -23146   -23040   -22972   -22916   -22939 
  -23147   -23446   -23651   -23705   -23564   -23163   -22695   -22542 
  -22795   -23201   -23523   -23607   -23399   -23066   -22831   -22753 
  -22804   -22952   -23131   -23246   -23268   -23223   -23064   -22704 
  -22205   -21829   -21845   -22229   -22715   -23149   -23498   -23701 
  -23727   -23565   -23228   -22864   -22671   -22801   -23377   -24277 
  -25039   -25283   -24998   -24319   -23357   -22279   -21378   -20953 
  -21122   -21724   -22395   -22847   -23030   -22984   -22823   -22912 
  -23493   -24249   -24674   -24588   -24068   -23250   -22352   -21709 
  -21662   -22276   -23179   -23887   -24182   -24006   -23250   -22034 
  -20909   -20395   -20617   -21433   -22523   -23493   -24085   -24163 
  -23764   -23187   -22703   -22306   -22052   -22279   -23110   -24121 
  -24756   -24795   -24329   -23567   -22757   -22208   -22273   -22987 
  -23828   -24203   -23989   -23435   -22787   -22173   -21717   -21616 
  -22006   -22724   -23384   -23729   -23697   -23318   -22767   -22338 
  -22352   -22961   -23894   -24665   -24903   -24453   -23478   -22428 
  -21772   -21692   -21958   -22302   -22748   -23337   -23868   -24061 
  -23761   -23040   -22253   -21732   -21471   -21437   -21787   -22460 
  -23149   -23744   -24243   -24476   -24393   -24151   -23782   -23347 
  -23022   -22723   -22316   -21971   -21841   -21938   -22321   -22943 
  -23593   -24060   -24197   -23983   -23544   -23035   -22562   -22208 
  -21974   -21803   -21725   -21828   -22207   -22907   -23652   -24031 
  -24004   -23778   -23459   -23152   -23038   -23145   -23297   -23319 
  -23096   -22655   -22198   -21825   -21545   -21510   -21829   -22401 
  -23065   -23661   -24086   -24326   -24325   -24054   -23646   -23254 
  -22910   -22575   -22189   -21805   -21600   -21654   -22013   -22700 
  -23426   -23764   -23680   -23437   -23203   -23042   -22926   -22720 
  -22384   -22084   -22049   -22345   -22854   -23469   -24074   -24466 
  -24554   -24425   -24181   -23874   -23491   -22984   -22355   -21744 
  -21452   -21655   -22151   -22625   -22939   -23081   -23148   -23304 
  -23527   -23619   -23507   -23354   -23380   -23634   -23895   -23874 
  -23473   -22790   -22080   -21696   -21825   -22354   -23065   -23777 
  -24350   -24636   -24518   -23955   -23037   -22057   -21408   -21273 
  -21548   -22006   -22415   -22604   -22569   -22432   -22286   -22193 
  -22200   -22318   -22623   -23213   -24009   -24751   -25097   -24846 
  -24180   -23476   -22918   -22551   -22454   -22625   -22864   -22959 
  -22909   -22808   -22661   -22534   -22568   -22781   -23083   -23359 
  -23442   -23284   -23057   -22914   -22860   -22898   -22998   -23070 
  -23130   -23251   -23405   -23462   -23208   -22591   -21962   -21732 
  -21948   -22425   -23040   -23727   -24334   -24607   -24401   -23866 
  -23227   -22517   -21803   -21360   -21325   -21541   -21859   -22330 
  -23060   -23900   -24465   -24552   -24274   -23782   -23208   -22764 
  -22524   -22332   -22125   -22036   -22172   -22535   -22999   -23355 
  -23462   -23340   -23097   -22879   -22820   -22883   -22862   -22677 
  -22549   -22747   -23267   -23838   -24110   -23936   -23505   -23097 
  -22804   -22571   -22401   -22377   -22475   -22692   -23188   -23885 
  -24316   -24144   -23382   -22261   -21232   -20664   -20579   -20993 
  -21994   -23345   -24627   -25577   -25954   -25556   -24468   -22980 
  -21496   -20505   -20196   -20366   -20820   -21427   -21990   -22342 
  -22518   -22724   -23077   -23558   -24096   -24500   -24591   -24378 
  -23916   -23265   -22640   -22281   -22233   -22434   -22836   -23353 
  -23852   -24212   -24320   -24095   -23587   -23025   -22708   -22766 
  -23035   -23214   -23143   -22895   -22603   -22311   -22032   -21892 
  -22100   -22666   -23392   -24121   -24679   -24774   -24210   -23091 
  -21810   -20842   -20446   -20606   -21163   -21893   -22531   -22959 
  -23305   -23666   -23947   -24028   -23859   -23487   -23043   -22594 
  -22149   -21802   -21617   -21595   -21876   -22615   -23623   -24461 
  -24876   -24880   -24578   -24118   -23520   -22706   -21842   -21305 
  -21319   -21857   -22687   -23413   -23686   -23475   -23092   -22988 
  -23391   -24070   -24554   -24493   -23847   -22999   -22498   -22517 
  -22795   -23072   -23279   -23379   -23284   -22911   -22339   -21924 
  -21991   -22507   -23266   -24119   -24870   -25230   -25012   -24229 
  -22984   -21553   -20438   -19968   -20182   -21051   -22350   -23592 
  -24354   -24470   -24031   -23371   -22833   -22462   -22129   -21897 
  -21988   -22480   -23216   -23992   -24546   -24537   -23933   -23119 
  -22464   -22105   -22025   -22094   -22217   -22399   -22611   -22774 
  -22891   -23079   -23417   -23766   -23835   -23461   -22797   -22137 
  -21681   -21597   -22015   -22826   -23751   -24475   -24718   -24434 
  -23810   -23027   -22241   -21687   -21567   -21888   -22494   -23172 
  -23697   -23804   -23439   -23006   -22915   -23137   -23456   -23674 
  -23624   -23292   -22813   -22312   -21856   -21541   -21531   -21898 
  -22533   -23316   -24066   -24439   -24255   -23740   -23158   -22553 
  -22013   -21754   -21926   -22534   -23347   -23898   -23814   -23099 
  -22096   -21288   -21076   -21657   -22919   -24385   -25498   -25964 
  -25713   -24822   -23566   -22294   -21284   -20758   -20796   -21248 
  -21878   -22531   -23175   -23901   -24736   -25434   -25681   -25350 
  -24468   -23288   -22283   -21705   -21433   -21338   -21395   -21653 
  -22308   -23446   -24736   -25711   -26094   -25710   -24558   -22954 
  -21334   -20069   -19463   -19599   -20340   -21561   -23034   -24322 
  -25089   -25189   -24550   -23459   -22493   -21912   -21679   -21755 
  -22031   -22420   -22926   -23442   -23721   -23634   -23281   -22796 
  -22374   -22267   -22473   -22753   -22879   -22753   -22539   -22508 
  -22682   -22957   -23375   -23882   -24233   -24360   -24314   -23949 
  -23191   -22337   -21741   -21558   -21837   -22478   -23269   -24028 
  -24608   -24968   -25078   -24880   -24413   -23705   -22838   -22058 
  -21578   -21503   -21767   -22214   -22760   -23220   -23387   -23303 
  -23148   -22985   -22826   -22810   -22918   -22912   -22659   -22294 
  -22147   -22320   -22616   -22909   -23096   -23154   -23146   -23026 
  -22872   -22901   -23060   -23121   -23038   -22951   -23011   -23243 
  -23614   -24071   -24293   -23959   -23212   -22405   -21816   -21606 
  -21780   -22233   -22753   -23229   -23730   -24155   -24330   -24281 
  -24079   -23777   -23436   -23118   -23000   -23227   -23649   -23993 
  -24117   -23974   -23514   -22836   -22290   -22081   -22063   -22171 
  -22479   -22804   -22812   -22481   -22225   -22447   -23128   -23973 
  -24515   -24171   -22807   -21078   -19905   -19807   -20706   -22093 
  -23410   -24376   -24975   -25191   -24976   -24440   -23762   -22937 
  -21871   -20787   -20195   -20370   -21291   -22776   -24230   -24951 
  -24827   -24251   -23644   -23303   -23329   -23544   -23611   -23351 
  -22781   -21882   -20915   -20575   -21124   -22070   -23129   -24352 
  -25314   -25488   -24973   -24098   -23093   -22280   -21992   -22328 
  -22997   -23503   -23636   -23489   -23271   -23161   -23020   -22706 
  -22510   -22567   -22595   -22561   -22671   -22817   -22771   -22599 
  -22481   -22532   -22823   -23215   -23465   -23531   -23532   -23526 
  -23496   -23535   -23589   -23234   -22489   -22012   -22054   -22405 
  -23000   -23542   -23548   -23220   -23019   -22881   -22880   -23262 
  -23625   -23612   -23634   -23992   -24486   -24899   -25080   -24790 
  -23925   -22830   -21963   -21347   -20843   -20612   -20808   -21319 
  -22099   -23071   -23908   -24497   -24834   -24593   -23700   -22706 
  -22154   -22107   -22394   -22888   -23363   -23455   -23063   -22446 
  -21889   -21463   -21179   -21213   -21715   -22525   -23291   -23879 
  -24408   -24726   -24451   -23660   -22873   -22374   -21917   -21188 
  -20490   -20342   -20669   -21410   -22781   -24303   -25233   -25649 
  -25846   -25652   -24895   -23775   -22639   -21709   -21118   -21022 
  -21480   -22467   -23767   -24848   -25364   -25355   -24840   -23957 
  -23142   -22603   -22074   -21375   -20823   -20879   -21568   -22533 
  -23531   -24440   -24956   -24836   -24166   -23264   -22524   -22163 
  -22152   -22451   -22993   -23590   -23901   -23631   -23021   -22559 
  -22363   -22364   -22503   -22651   -22759   -22844   -22895   -22967 
  -23237   -23757   -24234   -24310   -23862   -22917   -21642   -20470 
  -19868   -20076   -21097   -22672   -24315   -25498   -25931   -25614 
  -24683   -23475   -22412   -21666   -21304   -21364   -21683   -22166 
  -22822   -23386   -23647   -23832   -24203   -24664   -24924   -24888 
  -24729   -24476   -24014   -23424   -22775   -22047   -21455   -21247 
  -21468   -22096   -22930   -23619   -23969   -23930   -23458   -22649 
  -21912   -21698   -22029   -22642   -23332   -23792   -23766   -23443 
  -23099   -22785   -22587   -22531   -22436   -22306   -22285   -22336 
  -22552   -23093   -23683   -23980   -23978   -23767   -23459   -23258 
  -23318   -23599   -23965   -24278   -24385   -24274   -24076   -23867 
  -23628   -23268   -22792   -22401   -22200   -22140   -22264   -22579 
  -22881   -23056   -23233   -23504   -23784   -23870   -23620   -23200 
  -22886   -22727   -22641   -22511   -22170   -21583   -20985   -20717 
  -20989   -21809   -22994   -24198   -24977   -25004   -24305   -23246 
  -22322   -21883   -21827   -21764   -21661   -21778   -22153   -22694 
  -23353   -24013   -24528   -24686   -24354   -23711   -22886   -21935 
  -21199   -21019   -21409   -22119   -22820   -23415   -23901   -24132 
  -24172   -24233   -24166   -23706   -23062   -22762   -23036   -23595 
  -23964   -23870   -23329   -22634   -22103   -21687   -21287   -21107 
  -21370   -22161   -23321   -24345   -24758   -24501   -23822   -23063 
  -22523   -22279   -22271   -22450   -22686   -22887   -23038   -23019 
  -22798   -22547   -22480   -22717   -23215   -23752   -23933   -23589 
  -23135   -22986   -23004   -22919   -22625   -22136   -21754   -21810 
  -22276   -22909   -23414   -23581   -23436   -23144   -22830   -22537 
  -22405   -22635   -23214   -23967   -24613   -24832   -24584   -24122 
  -23545   -22813   -22098   -21614   -21381   -21508   -22197   -23360 
  -24579   -25284   -25019   -23880   -22486   -21426   -21042   -21396 
  -22125   -22788   -23223   -23393   -23327   -23146   -22895   -22566 
  -22231   -22014   -22102   -22624   -23383   -23970   -24161   -23973 
  -23500   -22982   -22687   -22651   -22842   -23172   -23340   -23179 
  -22875   -22659   -22673   -22956   -23304   -23437   -23322   -23076 
  -22807   -22606   -22514   -22596   -22873   -23216   -23512   -23710 
  -23782   -23770   -23652   -23287   -22692   -22134   -21831   -21910 
  -22426   -23098   -23595   -23830   -23705   -23346   -23150   -23102 
  -22914   -22646   -22373   -22023   -21755   -21687   -21718   -21945 
  -22516   -23265   -23927   -24331   -24285   -23787   -23239   -22990 
  -23053   -23363   -23758   -23888   -23543   -22962   -22569   -22478 
  -22559   -22638   -22558   -22537   -22912   -23447   -23629   -23275 
  -22530   -21759   -21391   -21615   -22333   -23314   -24260   -24886 
  -24963   -24436   -23642   -22925   -22233   -21619   -21382   -21537 
  -21904   -22445   -23103   -23691   -24065   -24172   -23904   -23224 
