Origin Time       2007/01/13 13:24:00
Lat.              46.937
Long.             155.052
Depth. (km)       30
Mag.              8.2
Station Code      HKD159
Station Lat.      41.7162
Station Long.     141.0025
Station Height(m) 35
Record Time       2007/01/13 13:26:14
Sampling Freq(Hz) 100Hz
Duration Time(s)  263
Dir.              E-W
Scale Factor      3920(gal)/6182761
Max. Acc. (gal)   9.098
Last Correction   2007/01/13 13:25:59
Memo.             
[...]
  -17552   -18249   -18606   -18753   -18895   -19159   -19472   -19552 
  -19133   -18216   -17062   -16005   -15331   -15193   -15549   -16207 
  -16862   -17269   -17560   -18150   -19204   -20458   -21533   -22134 
  -22101   -21578   -20991   -20612   -20230   -19438   -18126   -16564 
  -15087   -13860   -12985   -12595   -12728   -13330   -14326   -15555 
  -16838   -18130   -19343   -20121   -20140   -19534   -18763   -18151 
  -17734   -17412   -17089   -16789   -16685   -16983   -17781   -18841 
  -19616   -19706   -19138   -18311   -17804   -18046   -19068   -20497 
  -21728   -22253   -21939   -21040   -19901   -18592   -16984   -15182 
  -13662   -12920   -13114   -14051   -15332   -16546   -17450   -18076 
  -18650   -19376   -20273   -21142   -21658   -21676   -21363   -20965 
  -20574   -20074   -19332   -18434   -17600   -16905   -16329   -15926 
  -15691   -15513   -15387   -15456   -15728   -15972   -15940   -15569 
  -14938   -14252   -13918   -14284   -15299   -16677   -18205   -19774 
  -21344   -22953   -24544   -25753   -26136   -25629   -24461   -22828 
  -20962   -19175   -17667   -16396   -15100   -13548   -11851   -10432 
   -9691    -9731   -10359   -11386   -12792   -14510   -16325   -18173 
  -20182   -22265   -24065   -25323   -26010   -26279   -26324   -26106 
  -25360   -23825   -21389   -18274   -15116   -12647   -11279   -10903 
  -10946   -10774   -10326   -10199   -10945   -12615   -14920   -17424 
  -19726   -21660   -23227   -24398   -25097   -25261   -24889   -24172 
  -23463   -22900   -22247   -21230   -19749   -17751   -15237   -12490 
  -10037    -8274    -7255    -6890    -7222    -8393   -10423   -13113 
  -16143   -19123   -21612   -23353   -24499   -25439   -26385   -27195 
  -27497   -26901   -25271   -22910   -20359   -18099   -16405   -15229 
  -14247   -13196   -12218   -11806   -12268   -13337   -14368   -14834 
  -14695   -14433   -14704   -15904   -17832   -19815   -21270   -21987 
  -22128   -22151   -22393   -22746   -22904   -22588   -21593   -19987 
  -18188   -16675   -15578   -14646   -13693   -12945   -12830   -13622 
  -15219   -17052   -18438   -19057   -19046   -18876   -18972   -19337 
  -19657   -19697   -19554   -19563   -19900   -20434   -20876   -20860 
  -20133   -18818   -17321   -16119   -15549   -15468   -15269   -14501 
  -13399   -12715   -13152   -14988   -17930   -21040   -23189   -23861 
  -23324   -22160   -20850   -19616   -18426   -17151   -15881   -14996 
  -14717   -14866   -15173   -15399   -15352   -15206   -15502   -16567 
  -18185   -19719   -20514   -20555   -20552   -21072   -21956   -22650 
  -22635   -21730   -20290   -18755   -17289   -16079   -15291   -14842 
  -14602   -14415   -14143   -13887   -13838   -14254   -15506   -17550 
  -19681   -21122   -21564   -21209   -20530   -19948   -19673   -19705 
  -19768   -19377   -18286   -16764   -15475   -15123   -15811   -16812 
  -17344   -17236   -16776   -16385   -16459   -17140   -18192   -19166 
  -19749   -20010   -20208   -20420   -20491   -20234   -19616   -18832 
  -18092   -17345   -16477   -15625   -15020   -14823   -15141   -15854 
  -16603   -17106   -17316   -17394   -17666   -18459   -19813   -21411 
  -22759   -23396   -23189   -22354   -21155   -19851   -18658   -17564 
  -16397   -15039   -13612   -12440   -11720   -11363   -11226   -11427 
  -12255   -13855   -16202   -19120   -22124   -24526   -25873   -26193 
  -25826   -25190   -24553   -23813   -22661   -20959   -18798   -16342 
  -13788   -11495    -9996    -9524    -9745   -10264   -11000   -11976 
  -13234   -14912   -17107   -19735   -22563   -25321   -27792   -29718 
  -30706   -30435   -28829   -26052   -22429   -18272   -13835    -9547 
   -6154    -4357    -4237    -5386    -7465   -10202   -13173   -16110 
  -19025   -21797   -24082   -25634   -26388   -26521   -26493   -26583 
  -26580   -26043   -24671   -22483   -19741   -16747   -13803   -11246 
   -9347    -8179    -7692    -7805    -8459    -9654   -11398   -13683 
  -16355   -18892   -20748   -21990   -23171   -24609   -26098   -27190 
  -27431   -26394   -23963   -20629   -17270   -14626   -12947   -12120 
  -12038   -12701   -14091   -16046   -18147   -19832   -20702   -20758 
  -20409   -20151   -20225   -20494   -20488   -19851   -18751   -17579 
  -16451   -15273   -14085   -13135   -12650   -12646   -13053   -13885 
  -15064   -16401   -17931   -19885   -22240   -24642   -26652   -27838 
  -27914   -26910   -25038   -22436   -19171   -15509   -12061    -9437 
   -7908    -7511    -8108    -9315   -10754   -12331   -14208   -16559 
  -19234   -21738   -23645   -24902   -25719   -26337   -26723   -26451 
  -25173   -23013   -20388   -17880   -16055   -14874   -13668   -11929 
   -9901    -8567    -8967   -11210   -14321   -17045   -18648   -19309 
  -19898   -21087   -22682   -23806   -23594   -21948   -19771   -18317 
  -18260   -19219   -20010   -19575   -17820   -15620   -14106   -13796 
  -14334   -14980   -15218   -15073   -15088   -15910   -17680   -19709 
  -20962   -20965   -20077   -19020   -18293   -17988   -17937   -17906 
  -17764   -17592   -17689   -18402   -19735   -21105   -21740   -21304 
  -19983   -18261   -16783   -16037   -16034   -16374   -16607   -16609 
  -16641   -16916   -17232   -17218   -16663   -15662   -14717   -14395 
  -14820   -15885   -17528   -19416   -20980   -21960   -22570   -23158 
  -23797   -24161   -23787   -22316   -19736   -16557   -13499   -11192 
  -10175   -10586   -11969   -13684   -15236   -16322   -17055   -17931 
  -19201   -20503   -21393   -21998   -22824   -24023   -25129   -25407 
  -24263   -21629   -18185   -14976   -12710   -11475   -10874   -10387 
   -9965   -10122   -11238   -13155   -15500   -17938   -20211   -22165 
  -23714   -24766   -25166   -24782   -23736   -22416   -21184   -20144 
  -19097   -17732   -15992   -14222   -12916   -12310   -12149   -11950 
  -11603   -11628   -12774   -15352   -18858   -22272   -24706   -25784 
  -25642   -24812   -23888   -23042   -22001   -20543   -18837   -17202 
  -15746   -14438   -13323   -12510   -12073   -12011   -12253   -12805 
  -13708   -14788   -15754   -16577   -17566   -19038   -20971   -23045 
  -24869   -26012   -26118   -25181   -23516   -21448   -19196   -16930 
  -14812   -13119   -12201   -12077   -12427   -13068   -13941   -14851 
  -15622   -16246   -16860   -17681   -18729   -19728   -20491   -21157 
  -22068   -23454   -25029   -26107   -26147   -24879   -22287   -18728 
  -14829   -11273    -8648    -7304    -7301    -8428   -10316   -12627 
  -15111   -17556   -19775   -21645   -23166   -24418   -25334   -25651 
  -25312   -24677   -24116   -23596   -22793   -21443   -19497   -17045 
  -14211   -11179    -8266    -5877    -4502    -4715    -6877   -10603 
  -14829   -18614   -21562   -23665   -25159   -26245   -26942   -27326 
  -27513   -27378   -26667   -25433   -23995   -22379   -20292   -17617 
  -14471   -11068    -7750    -5036    -3606    -4087    -6583   -10384 
  -14477   -18232   -21383   -23869   -25924   -27737   -29004   -29133 
  -27737   -24904   -21294   -17983   -15838   -14931   -14703   -14566 
  -14063   -12980   -11766   -11204   -11557   -12598   -14145   -16149 
  -18550   -21120   -23355   -24651   -24640   -23375   -21370   -19513 
  -18607   -18737   -19174   -19034   -18000   -16336   -14477   -12954 
  -12316   -12655   -13448   -14126   -14562   -14981   -15747   -17146 
  -19106   -21180   -22730   -23237   -22725   -21761   -20925   -20415 
  -19982   -19155   -17851   -16732   -16565   -17434   -18818   -20004 
  -20280   -19189   -17024   -14879   -13751   -13761   -14370   -14987 
  -15271   -15177   -14990   -15147   -15776   -16647   -17516   -18305 
  -19295   -20814   -22467   -23347   -23057   -22040   -21088   -20610 
  -20320   -19768   -18901   -17853   -16685   -15596   -14902   -14620 
  -14375   -13782   -12832   -12042   -12032   -12872   -14081   -15269 
  -16545   -18186   -20249   -22585   -24800   -26318   -26763   -26164 
  -24873   -23427   -22238   -21243   -20138   -18867   -17567   -16281 
  -15007   -13796   -12683   -11560   -10331    -9272    -8991    -9882 
  -11826   -14499   -17585   -20670   -23409   -25652   -27172   -27732 
  -27442   -26530   -24895   -22367   -19160   -15803   -12983   -11288 
  -10766   -11002   -11518   -11905   -11944   -11816   -12176   -13737 
  -16500   -19596   -22082   -23645   -24485   -24896   -25088   -25045 
  -24484   -23248   -21596   -19937   -18469   -17127   -15742   -14181 
  -12503   -11162   -10812   -11666   -13294   -15050   -16487   -17489 
  -18333   -19508   -21105   -22624   -23595   -24045   -24121   -23680 
  -22549   -20741   -18405   -15972   -14034   -12891   -12501   -12769 
  -13620   -14766   -15811   -16629   -17283   -17776   -18123   -18431 
  -18924   -19881   -21297   -22710   -23430   -22900   -21082   -18582 
  -16264   -14741   -14160   -14316   -14843   -15347   -15682   -16095 
  -16920   -18179   -19479   -20307   -20462   -20155   -19760   -19543 
  -19622   -19900   -19970   -19443   -18418   -17377   -16649   -16103 
  -15418   -14616   -14110   -14254   -15223   -17017   -19176   -20916 
  -21790   -21949   -21694   -21124   -20217   -18959   -17481   -16068 
  -14848   -13731   -12766   -12225   -12398   -13400   -15142   -17397 
  -19744   -21692   -22981   -23689   -24049   -24080   -23578   -22477 
  -20896   -18970   -16860   -14839   -13214   -12120   -11501   -11293 
  -11477   -12096   -13211   -14728   -16419   -18095   -19781   -21563 
  -23122   -24114   -24757   -25318   -25567   -25040   -23503   -21064 
  -18125   -15370   -13408   -12345   -12072   -12410   -12775   -12618 
  -12088   -11816   -12489   -14463   -17360   -20308   -22647   -24144 
  -24799   -24886   -24715   -24313   -23724   -23023   -22079   -20753 
  -19006   -16903   -14749   -12992   -11888   -11403   -11390   -11675 
  -12168   -12909   -13731   -14440   -15279   -16456   -17976   -20045 
  -22654   -25309   -27445   -28658   -28614   -27062   -24352   -21402 
  -18722   -16239   -13992   -12121   -10595    -9490    -8999    -9211 
  -10171   -11784   -13571   -14935   -15815   -16719   -18031   -19835 
  -22158   -24540   -26184   -26854   -26701   -25874   -24549   -22731 
  -20370   -17607   -14992   -13403   -13149   -13686   -14429   -15042 
  -15172   -14698   -14138   -14227   -15095   -16426   -17993   -19535 
  -20648   -21100   -21088   -20913   -20541   -19847   -18843   -17671 
  -16761   -16557   -17000   -17668   -18261   -18654   -18694   -18299 
  -17557   -16727   -16125   -15717   -15247   -14806   -14724   -15177 
  -16170   -17505   -18836   -19970   -20974   -21926   -22701   -23134 
  -23159   -22728   -21965   -21095   -20071   -18768   -17275   -15753 
  -14428   -13522   -12935   -12450   -12272   -12771   -13863   -15291 
  -17216   -19761   -22390   -24351   -25320   -25449   -25116   -24565 
  -23690   -22235   -20184   -17779   -15237   -12832   -10967    -9755 
   -9060    -9068   -10179   -12363   -15137   -18057   -20786   -22990 
  -24440   -24983   -24673   -23923   -23044   -21989   -20732   -19319 
  -17710   -15893   -13901   -11869   -10301    -9809   -10568   -12294 
  -14519   -16713   -18504   -19865   -20852   -21463   -21815   -22019 
  -22033   -21876   -21652   -21295   -20613   -19641   -18630   -17704 
  -16951   -16624   -16740   -16865   -16720   -16520   -16551   -16768 
  -16915   -16798   -16434   -16004   -15656   -15414   -15311   -15511 
  -16102   -16852   -17402   -17689   -18127   -19211   -20919   -22776 
  -24174   -24552   -23837   -22580   -21278   -19979   -18619   -17112 
  -15370   -13566   -12085   -11176   -10851   -11073   -11700   -12528 
  -13663   -15348   -17435   -19528   -21425   -23093   -24431   -25333 
  -25838   -26045   -25943   -25421   -24317   -22419   -19794   -17049 
  -14822   -13306   -12445   -12167   -12229   -12222   -12021   -11958 
  -12381   -13266   -14269   -15148   -16120   -17632   -19865   -22453 
  -24721   -26220   -26804   -26463   -25453   -24214   -23004   -21809 
  -20486   -18905   -17030   -14871   -12508   -10177    -8203    -6882 
   -6373    -6709    -7917    -9884   -12351   -15195   -18321   -21324 
  -23614   -24769   -24865   -24595   -24809   -25801   -27115   -27898 
  -27352   -25288   -22399   -19648   -17486   -15739   -13945   -11725 
   -9145    -6945    -6104    -7014    -9322   -12341   -15277   -17548 
  -19340   -21292   -23434   -25211   -26245   -26328   -25368   -23802 
  -22369   -21311   -20336   -19133   -17542   -15675   -14020   -12994 
  -12541   -12380   -12388   -12755   -13679   -14910   -16047   -17107 
  -18311   -19628   -20869   -21880   -22558   -22908   -22989   -22757 
  -22138   -21131   -19716   -17865   -15752   -13877   -12824   -12707 
  -13081   -13480   -13735   -13975   -14545   -15624   -17021   -18429 
  -19540   -20083   -20176   -20261   -20578   -21074   -21542   -21661 
  -21335   -20770   -20188   -19725   -19343   -18794   -17924   -16892 
  -16122   -15989   -16451   -17056   -17269   -16857   -16093   -15527 
  -15566   -16256   -17194   -17677   -17343   -16580   -16122   -16482 
  -17605   -18894   -19857   -20554   -21169   -21751   -22486   -23546 
  -24650   -25189   -24707   -23170   -20964   -18506   -15855   -12976 
  -10238    -8195    -6997    -6466    -6533    -7282    -8822   -11136 
  -13965   -16940   -19986   -23273   -26569   -29228   -30924   -31698 
  -31450   -30069   -27748   -24742   -21194   -17309   -13365    -9651 
   -6545    -4463    -3610    -4015    -5751    -8700   -12385   -16325 
  -20207   -23631   -26163   -27768   -28799   -29583   -30081   -29790 
  -28153   -25137   -21265   -17300   -13835   -11018    -8729    -6906 
   -5696    -5480    -6579    -8896   -11906   -14953   -17609   -19874 
  -22008   -24226   -26607   -28889   -30229   -29728   -27222   -23353 
  -19096   -15280   -12304   -10200    -9010    -8936    -9935   -11554 
  -13460   -15685   -18108   -20226   -21679   -22514   -22886   -22868 
  -22531   -21962   -21164   -20097   -18898   -17777   -16822   -16079 
  -15509   -15034   -14783   -14994   -15656   -16472   -17138   -17479 
  -17579   -17890   -18841   -20338   -21903   -23073   -23490   -22944 
  -21607   -19982   -18449   -17049   -15690   -14408   -13351   -12551 
  -12025   -11942   -12478   -13695   -15471   -17430   -19052   -19947 
  -20244   -20541   -21214   -22153   -23027   -23399   -22959   -21908 
  -20740   -19763   -18861   -17610   -15868   -14061   -12755   -12369 
  -12997   -14211   -15375   -16161   -16627   -17054   -17777   -18942 
  -20385   -21782   -22755   -22996   -22532   -21652   -20571   -19336 
  -17938   -16507   -15358   -14780   -14897   -15619   -16535   -17085 
  -17096   -16946   -17054   -17537   -18285   -18974   -19282   -19387 
  -19755   -20338   -20617   -20336   -19602   -18560   -17467   -16757 
  -16567   -16426   -15708   -14367   -13058   -12509   -13009   -14518 
  -16629   -18557   -19778   -20463   -21167   -22190   -23186   -23419 
  -22483   -20723   -18845   -17333   -16424   -16224   -16645   -17385 
  -17964   -18015   -17639   -17203   -16766   -16062   -15070   -14142 
  -13565   -13467   -13965   -15037   -16501   -18177   -19745   -20692 
  -20808   -20442   -20128   -20270   -20995   -21883   -22155   -21439 
  -20023   -18409   -17003   -16056   -15616   -15517   -15503   -15449 
  -15421   -15542   -15768   -15794   -15462   -15202   -15665   -16970 
  -18653   -20125   -21001   -21281   -21325   -21473   -21752   -22019 
  -22006   -21384   -20176   -18787   -17492   -16396   -15666   -15367 
  -15313   -15353   -15606   -16258   -17199   -17981   -18175   -17786 
  -17274   -17130   -17520   -18270   -18992   -19302   -19098   -18591 
  -18129   -17957   -18045   -18241   -18429   -18492   -18406   -18326 
  -18401   -18524   -18437   -17990   -17199   -16222   -15337   -14806 
  -14753   -15108   -15663   -16233   -16736   -17195   -17697   -18396 
  -19486   -20967   -22397   -23111   -22783   -21600   -20000   -18475 
  -17411   -16804   -16326   -15825   -15401   -15102   -14964   -15059 
  -15320   -15586   -15787   -15966   -16286   -16972   -18162   -19722 
  -21115   -21722   -21393   -20470   -19463   -18801   -18593   -18608 
  -18511   -18013   -17141   -16435   -16425   -16947   -17377   -17314 
  -16800   -16178   -15854   -16021   -16626   -17457   -18125   -18324 
  -18333   -18898   -20344   -22094   -23241   -23275   -22216   -20460 
  -18616   -17207   -16318   -15762   -15474   -15471   -15738   -16273 
  -16925   -17392   -17530   -17382   -17030   -16663   -16570   -16927 
  -17642   -18325   -18516   -18145   -17587   -17223   -17188   -17466 
  -17878   -18122   -18118   -18082   -18272   -18830   -19673   -20491 
  -20965   -20930   -20448   -19779   -19082   -18235   -17124   -15917 
  -14951   -14450   -14337   -14366   -14375   -14332   -14209   -14040 
  -14125   -14822   -16093   -17653   -19390   -21198   -22780   -23995 
  -24893   -25263   -24740   -23359   -21530   -19611   -17721   -15840 
  -14054   -12719   -12228   -12588   -13381   -14201   -14980   -15818 
  -16741   -17839   -19258   -20839   -22121   -22742   -22673   -22115 
  -21338   -20539   -19727   -18822   -17845   -16791   -15622   -14583 
  -14118   -14332   -14903   -15518   -16076   -16590   -17174   -17977 
  -19050   -20242   -21232   -21832   -22230   -22744   -23287   -23263 
  -22242   -20486   -18520   -16671   -15230   -14362   -13795   -13197 
  -12576   -11967   -11469   -11559   -12657   -14705   -17370   -20146 
  -22488   -24208   -25448   -26359   -26991   -27164   -26446   -24666 
  -22256   -19770   -17398   -15120   -12915   -10873    -9239    -8188 
   -7659    -7491    -7697    -8546   -10312   -13034   -16467   -20178 
  -23707   -26652   -28723   -29662   -29284   -27749   -25469   -22927 
  -20630   -18700   -16731   -14433   -12100   -10316    -9515    -9797 
  -10875   -12234   -13555   -14903   -16405   -18056   -19805   -21553 
  -23051   -23992   -24284   -24007   -23175   -21877   -20403   -18966 
  -17552   -16178   -15015   -14231   -13855   -13793   -13873   -13896 
  -13878   -14201   -15264   -17164   -19642   -22053   -23757   -24549 
  -24517   -23832   -22822   -21800   -20789   -19638   -18264   -16679 
  -15000   -13525   -12676   -12591   -12935   -13316   -13552   -13533 
  -13423   -13789   -15017   -16895   -19034   -21169   -23061   -24533 
  -25479   -25775   -25461   -24762   -23682   -22027   -19905   -17729 
  -15831   -14402   -13469   -12803   -12245   -11969   -12137   -12720 
  -13647   -14755   -15807   -16788   -17922   -19348   -20966   -22492 
  -23595   -23989   -23543   -22472   -21253   -20203   -19318   -18446 
  -17374   -15910   -14088   -12208   -10756   -10271   -11011   -12694 
  -14758   -16755   -18426   -19686   -20573   -21194   -21788   -22488 
  -23036   -23063   -22537   -21779   -21074   -20436   -19743   -18865 
  -17716   -16343   -14972   -13985   -13745   -14130   -14436   -14096 
  -13336   -12884   -13172   -14143   -15627   -17441   -19272   -20875 
  -22192   -23124   -23585   -23665   -23458   -23084   -22767   -22474 
  -21771   -20356   -18398   -16309   -14502   -13216   -12395   -11828 
  -11342   -10971   -11073   -12092   -14091   -16624   -19123   -21325 
  -23244   -24952   -26366   -27022   -26318   -24233   -21392   -18374 
