Origin Time       2007/01/13 13:24:00
Lat.              46.937
Long.             155.052
Depth. (km)       30
Mag.              8.2
Station Code      HKD159
Station Lat.      41.7162
Station Long.     141.0025
Station Height(m) 35
Record Time       2007/01/13 13:26:14
Sampling Freq(Hz) 100Hz
Duration Time(s)  263
Dir.              N-S
Scale Factor      3920(gal)/6182761
Max. Acc. (gal)   9.318
Last Correction   2007/01/13 13:25:59
Memo.             
[...]
    7039     7120     6845     6256     5511     4740     4057     3658 
    3718     4183     4726     5009     4944     4661     4349     4193 
    4314     4720     5309     5900     6344     6627     6727     6587 
    6281     6035     6056     6336     6645     6795     6750     6508 
    6127     5744     5428     5155     4854     4420     3899     3537 
    3495     3667     3923     4263     4670     5106     5548     5974 
    6417     6860     7182     7262     6962     6290     5548     5043 
    4884     5065     5514     6054     6425     6405     5940     5253 
    4775     4766     5104     5453     5537     5320     4907     4428 
    4100     4116     4428     4849     5290     5715     6021     6179 
    6271     6360     6515     6744     6881     6745     6286     5627 
    5079     4905     5106     5541     6033     6268     5947     5121 
    4155     3423     3067     2952     2949     3138     3610     4350 
    5327     6427     7420     8190     8768     9127     9183     8882 
    8276     7548     6814     6058     5231     4236     2965     1481 
      68     -929    -1291     -928      102     1555     3213     5008 
    6786     8335     9608    10615    11336    11779    11919    11647 
   10871     9623     8153     6829     5764     4681     3257     1467 
    -359    -1668    -2022    -1429     -244     1135     2423     3532 
    4543     5589     6794     8157     9469    10469    10992    10962 
   10368     9327     8158     7181     6462     5907     5455     5046 
    4572     4007     3450     3035     2834     2788     2777     2770 
    2736     2598     2397     2292     2453     3028     4005     5170 
    6350     7498     8506     9171     9408     9318     9046     8709 
    8339     7842     7117     6130     4867     3400     1967      771 
     -86     -406      -21      968     2308     3858     5622     7480 
    9147    10468    11493    12258    12645    12496    11753    10374 
    8281     5694     3182     1135     -371    -1279    -1541    -1282 
    -658      317     1597     3022     4492     5940     7329     8703 
    9981    10962    11446    11222    10320     9079     7869     7027 
    6700     6580     6269     5692     4823     3607     2326     1431 
    1106     1295     1783     2214     2435     2661     3105     3813 
    4805     6025     7300     8374     8954     9008     8811     8501 
    8034     7507     7041     6617     6142     5525     4698     3653 
    2497     1566     1203     1389     1906     2736     3958     5435 
    6842     7953     8739     9198     9340     9330     9344     9358 
    9225     8833     8088     6838     5068     3181     1747      983 
     766      939     1333     1812     2462     3452     4760     6166 
    7409     8355     9004     9292     9042     8221     7036     5794 
    4818     4356     4348     4441     4294     3789     3125     2742 
    2951     3698     4696     5651     6375     6809     7032     7207 
    7456     7775     7978     7742     6826     5266     3382     1645 
     503      262     1034     2646     4621     6378     7521     8039 
    8191     8151     7972     7812     7794     7754     7459     6910 
    6258     5605     5007     4495     3998     3467     3023     2775 
    2703     2802     3124     3692     4441     5188     5747     6020 
    5989     5815     5807     6156     6869     7854     8932     9839 
   10244     9938     9061     7922     6723     5599     4599     3681 
    2828     2086     1584     1399     1411     1579     2106     3094 
    4348     5563     6610     7566     8467     9258     9799     9807 
    9223     8427     7723     7070     6360     5540     4623     3718 
    2941     2373     2094     2110     2274     2384     2383     2413 
    2687     3380     4531     5972     7423     8699     9777    10644 
   11161    11188    10682     9578     7937     6076     4298     2749 
    1391        2    -1454    -2615    -3011    -2298     -443     2035 
    4398     6297     7701     8577     9069     9589    10438    11553 
   12616    13169    12841    11573     9493     6857     4187     2019 
     557     -284     -720     -971    -1086     -953     -369      861 
    2805     5364     8240    10855    12575    13111    12733    12000 
   11271    10583     9748     8393     6360     4081     2181      942 
     304       31     -184     -575    -1150    -1591    -1461     -479 
    1391     3863     6388     8516    10136    11382    12371    13080 
   13437    13292    12423    10801     8660     6361     4267     2564 
    1257      272     -547    -1283    -1825    -2072    -1929    -1135 
     498     2842     5559     8239    10518    12171    13038    13070 
   12512    11795    11229    10885    10582     9837     8147     5537 
    2497     -470    -2871    -4240    -4508    -4034    -3194    -2121 
    -688     1374     4146     7257    10076    12191    13608    14563 
   15177    15216    14431    13054    11444     9527     7171     4659 
    2393      575     -690    -1295    -1312    -1032     -569      224 
    1294     2360     3347     4439     5791     7358     8925    10187 
   10793    10479     9341     7756     6089     4745     4155     4390 
    5119     5990     6704     6889     6279     4933     3222     1778 
    1284     1962     3422     5001     5990     5945     5083     4201 
    4102     5027     6550     8028     9002     9210     8604     7497 
    6407     5668     5383     5534     5856     5932     5642     5251 
    5009     4754     4165     3382     2928     3082     3790     4879 
    5976     6664     6911     6925     6675     5965     4905     4049 
    3868     4338     5178     6091     6781     7020     6732     5990 
    4959     3892     3100     2745     2754     2948     3201     3539 
    4031     4576     4916     4961     5097     5852     7205     8600 
    9592    10045     9780     8583     6740     5080     4156     3894 
    4164     4868     5450     5395     4905     4414     4129     4203 
    4614     5209     5889     6324     6106     5277     4172     3195 
    2837     3242     4109     5222     6522     7839     8900     9496 
    9683     9697     9577     9141     8393     7491     6379     4898 
    3174     1531      245     -442     -426       75      758     1640 
    2937     4574     6116     7181     7705     7795     7637     7562 
    7801     8252     8683     8968     8993     8640     8085     7710 
    7567     7323     6677     5478     3682     1497     -655    -2365 
   -3215    -2780    -1031     1485     4087     6399     8366    10135 
   11778    13050    13703    13719    13010    11495     9428     7194 
    5105     3413     2142     1138      341     -237     -553     -447 
     213     1328     2648     3922     5012     5981     6909     7677 
    8262     8886     9566     9983     9890     9312     8493     7753 
    7198     6633     5801     4629     3301     2051      942       75 
    -228      269     1402     2755     4033     5237     6438     7610 
    8805    10098    11323    12143    12209    11269     9450     7257 
    5172     3449     2170     1334      819      427      180      337 
     943     1655     2217     2803     3628     4645     5812     7146 
    8466     9458     9991    10234    10419    10467    10092     9251 
    8122     6800     5391     4150     3288     2796     2510     2280 
    2018     1728     1654     2138     3212     4625     6088     7284 
    8023     8409     8569     8406     7795     6917     6230     6064 
    6301     6506     6308     5532     4138     2373      896      428 
    1223     2859     4519     5571     5849     5479     4754     4122 
    3937     4213     4762     5537     6600     7719     8434     8627 
    8594     8585     8629     8623     8414     7941     7213     6166 
    4682     2728      555    -1224    -2021    -1748     -668      980 
    2914     4740     6204     7310     8227     9191    10251    11060 
   11208    10647     9628     8526     7665     7000     6207     5164 
    3985     2791     1757     1102      822      809     1099     1609 
    2116     2720     3716     5037     6306     7224     7769     8209 
    8771     9282     9381     8955     8201     7510     7305     7623 
    7976     7918     7378     6569     5928     5700     5482     4708 
    3271     1402     -551    -2198    -3240    -3470    -2790    -1341 
     648     2976     5314     7375     9213    10987    12619    13819 
   14409    14469    14066    13145    11717     9856     7652     5172 
    2496      -15    -1857    -2997    -3796    -4328    -4325    -3659 
   -2374     -402     2329     5608     8934    11752    13716    14775 
   15039    14669    13871    12868    11812    10704     9455     8019 
    6370     4436     2193     -223    -2557    -4529    -5834    -6087 
   -5023    -2843      -28     3080     6214     8994    11171    12862 
   14192    14918    14746    13842    12623    11256     9644     7690 
    5492     3362     1648      548       35     -170     -512    -1302 
   -2390    -3187    -3142    -2112     -233     2333     5363     8405 
   10885    12455    13164    13315    13272    13213    12934    12175 
   10960     9393     7572     5657     3711     1710     -316    -2098 
   -3057    -2799    -1632     -180     1276     2749     4202     5637 
    7195     8888    10408    11391    11778    11770    11557    11205 
   10647     9731     8324     6421     4406     2952     2311     2095 
    1858     1496     1033      333     -637    -1451    -1554     -817 
     524     2264     4353     6668     8943    10967    12569    13474 
   13523    12911    11923    10689     9406     8325     7403     6484 
    5582     4566     3196     1578       -1    -1347    -2152    -2103 
   -1207      283     2004     3642     5181     6822     8682    10685 
   12551    13892    14410    13993    12736    10978     9146     7365 
    5517     3745     2294     1033     -161    -1090    -1786    -2403 
   -2607    -1990     -621     1297     3626     6119     8469    10389 
   11629    12140    12132    11859    11458    10965    10251     9150 
    7853     6650     5482     4302     3279     2392     1479      595 
     -77     -438     -523     -555     -647     -375      950     3454 
    6400     8797    10177    10697    10656    10175     9473     9071 
    9399    10410    11557    12056    11383     9577     6951     3876 
     891    -1420    -2728    -3101    -2912    -2584    -2312    -1892 
    -796     1298     4030     6673     8833    10584    12049    13237 
   14227    15009    15273    14735    13413    11488     9216     6863 
    4505     2035     -637    -3353    -5583    -6681    -6269    -4384 
   -1543     1355     3655     5391     6820     7944     8861     9976 
   11505    13162    14380    14708    14130    12856    10944     8551 
    6165     4133     2442     1036     -114    -1144    -2185    -3022 
   -3080    -1944      260     2926     5276     6882     7849     8488 
    9184    10281    11682    12804    13130    12547    11232     9486 
    7579     5702     4080     2962     2313     1687      843      160 
     -64      -60      -38      126      530     1086     1768     2622 
    3672     5053     6845     8825    10700    12239    13269    13862 
   14187    14041    12972    10851     8031     5147     2803     1248 
     392       55       -4     -166     -678    -1349    -1764    -1597 
    -596     1299     3726     6090     7926     9054     9555     9657 
    9654     9929    10660    11448    11685    11123     9821     8003 
    6132     4714     3916     3457     2952     2345     1775     1106 
     118     -886    -1270     -829      228     1770     3689     5674 
    7379     8672     9559     9980    10044    10213    10759    11335 
   11401    10827     9854     8609     7044     5267     3571     2109 
     862      -73     -492     -453     -288     -125      281     1092 
    2198     3481     4951     6736     8891    11056    12604    13132 
   12600    11301     9890     8986     8545     8111     7476     6572 
    5333     3986     2835     1929     1253      812      611      696 
     991     1392     1920     2484     3001     3767     4988     6288 
    7222     7843     8527     9463    10493    11377    11883    11741 
   10904     9526     7713     5655     3584     1642       33    -1092 
   -1862    -2445    -2754    -2543    -1661     -161     1896     4518 
    7391     9904    11670    12526    12494    11935    11252    10680 
   10267     9867     9334     8477     7019     5090     3349     2314 
    1880     1574     1068      291     -540     -900     -456      441 
    1296     2208     3585     5413     7249     8942    10837    12987 
   14875    16108    16697    16660    15821    14105    11740     8933 
    5666     2059    -1485    -4557    -6785    -7903    -7843    -6692 
   -4769    -2483      -68     2313     4532     6689     9020    11610 
   14326    16870    18797    19631    18979    16745    13449     9981 
    6872     4082     1441    -1062    -3416    -5599    -7281    -7953 
   -7460    -5940    -3418      -17     3726     7092     9619    11285 
   12307    12854    13113    13351    13620    13689    13408    12730 
   11588    10091     8418     6622     4764     2939     1227     -434 
   -2213    -3945    -5103    -5309    -4693    -3637    -2218     -333 
    1854     4196     6839     9798    12821    15749    18405    20129 
   20146    18347    15257    11592     7926     4563     1759     -349 
   -2023    -3606    -5054    -5985    -5994    -5013    -3372    -1372 
     883     3173     5392     7772    10360    12702    14255    14851 
   14631    13700    12223    10542     8846     7317     6249     5492 
    4663     3792     3030     2359     1787     1365     1068      825 
     654      578      515      576     1094     2237     4066     6478 
    8960    11011    12377    12860    12490    11514    10256     9224 
    8601     7956     7032     5993     4931     3757     2360      777 
    -815    -2042    -2244    -1203      517     2380     4124     5572 
    6803     8010     9193    10217    10999    11542    11703    11264 
   10283     8838     6964     5053     3432     1944      529     -608 
   -1276    -1277     -663      244     1357     2728     4271     5963 
    7840     9798    11498    12491    12627    12042    10768     8886 
    6918     5567     4897     4347     3698     3194     2946     2896 
    3027     3372     3931     4560     5134     5644     5897     5545 
    4628     3603     2928     2843     3311     4202     5454     6931 
    8420     9732    10823    11763    12346    12202    11267     9550 
    6981     3853      765    -1657    -2868    -2881    -2292    -1549 
    -666      544     2164     4052     6055     8049     9788    11120 
   11950    12023    11322    10173     8792     7317     5938     4773 
    3935     3484     3372     3403     3194     2699     2348     2389 
    2850     3770     4967     5965     6299     5935     5402     5352 
    6033     7154     8262     9108     9530     9479     9246     9067 
    8807     8299     7466     6260     4681     2716      562    -1259 
   -2331    -2594    -2249    -1580     -743      244     1380     2703 
    4403     6692     9390    11989    14263    16230    17496    17431 
   15886    13287    10122     6668     3239      173    -2455    -4594 
   -5920    -6142    -5405    -4083    -2167      575     3971     7538 
   10864    13675    15800    17003    16972    15673    13411    10631 
    7905     5644     3775     1945      -39    -1911    -3240    -3926 
   -4057    -3531    -2199     -192     2145     4579     6885     8773 
   10319    11822    13077    13499    12965    11931    10727     9271 
    7511     5639     3893     2473     1529     1144     1213     1365 
    1353     1276     1340     1736     2499     3410     4316     5208 
    6093     7008     7886     8571     8967     8933     8485     7976 
    7670     7588     7631     7498     7029     6402     5756     5085 
    4321     3354     2244     1344     1023     1325     2087     3230 
    4602     5923     7044     7898     8468     8806     8834     8527 
    8118     7735     7308     6788     6265     6024     6229     6652 
    6936     6779     6136     5294     4392     3412     2459     1544 
     759      455      763     1500     2594     4104     5846     7325 
    8167     8390     8265     8190     8430     8865     9208     9254 
    8936     8352     7499     6198     4522     2864     1603      929 
     764      885     1269     2109     3381     4671     5514     5804 
    5891     6155     6623     7250     8022     8669     8908     8682 
    7939     6685     5259     4202     3854     3999     4052     3810 
    3626     3816     4247     4523     4399     3990     3635     3579 
    3721     3840     3963     4224     4715     5540     6628     7623 
    8204     8439     8733     9349    10163    10844    11063    10648 
    9587     7919     5831     3615     1579       83     -717     -990 
    -811     -101     1039     2296     3423     4471     5653     7045 
    8574    10018    11011    11348    11064    10333     9407     8357 
    7150     5875     4549     3145     1852      904      447      483 
     760      989     1100     1309     2075     3691     6009     8556 
   10596    11541    11384    10478     9329     8526     8341     8484 
    8373     7729     6685     5255     3426     1538      -56    -1154 
   -1527    -1041      251     2032     3854     5556     7016     7811 
    7746     7266     7038     7346     8042     8832     9337     9303 
    8872     8263     7574     7004     6672     6399     5936     5108 
    3882     2478     1219      289     -180      -78      510     1415 
    2544     3718     4748     5783     7189     9063    11115    12947 
   14210    14582    13933    12426    10340     7914     5323     2711 
     292    -1782    -3546    -4950    -5617    -5100    -3289     -491 
    2849     6357     9631    12187    13670    14076    13733    12938 
   11708    10053     8212     6492     5063     3999     3361     2992 
    2517     1786      899      -76     -813     -783       70     1358 
    2763     4104     5273     6300     7324     8399     9385    10158 
   10657    10675    10127     9318     8586     7922     7053     5936 
    4864     3954     3084     2310     1829     1716     1893     2263 
    2700     2889     2723     2662     3120     4095     5449     6940 
    8293     9302     9729     9574     9231     8931     8579     8156 
    7811     7596     7238     6456     5271     3782     2248     1260 
    1169     1739     2504     3124     3474     3594     3659     3938 
    4491     5084     5591     6001     6199     6302     6685     7419 
    8277     9076     9617     9671     9209     8438     7657     7040 
    6474     5749     4781     3535     2061      692     -178     -449 
    -134      799     2143     3418     4302     4897     5568     6592 
    7905     9197    10180    10674    10634    10152     9348     8297 
    7095     5869     4748     3766     2809     1883     1286     1295 
    1848     2656     3551     4507     5339     5798     5781     5352 
    4835     4609     4780     5298     6033     6697     7034     7023 
