Origin Time       2014/12/03 23:19:00
Lat.              35.290
Long.             137.118
Depth. (km)       45
Mag.              4.2
Station Code      MIE017
Station Lat.      34.3624
Station Long.     136.3348
Station Height(m) 118
Record Time       2014/12/03 23:20:25
Sampling Freq(Hz) 100Hz
Duration Time(s)  60
Dir.              U-D
Scale Factor      7845(gal)/8223790
Max. Acc. (gal)   1.054
Last Correction   2014/12/03 23:20:25
Memo.             
[...]
    5890     5791     5694     5877     6249     6273     5881     5632 
    5793     5985     5868     5703     5805     5934     5883     5979 
    6262     6130     5620     5568     6050     6277     6008     5706 
    5641     5725     5886     6012     5940     5796     5811     5949 
    6046     5950     5740     5833     6193     6166     5719     5555 
    5791     5899     5886     6057     6033     5679     5683     6084 
    6141     5838     5815     6016     5926     5788     5987     6029 
    5692     5687     6096     6120     5769     5769     6006     5869 
    5632     5913     6257     5935     5525     5788     6120     5952 
    5867     6070     5948     5597     5749     6200     6176     5826 
    5710     5732     5709     5826     6072     6089     5871     5814 
    5919     5960     6065     6130     5840     5516     5683     6157 
    6312     5879     5351     5451     6075     6351     5938     5582 
    5826     6084     5842     5614     5892     6237     6119     5854 
    5848     5910     5888     5890     5995     6176     6119     5670 
    5344     5637     6207     6305     5918     5719     5814     5755 
    5616     5811     6092     5950     5803     6080     6106     5643 
    5571     6069     6281     5984     5833     5940     5844     5741 
    6016     6204     5906     5598     5776     6150     6044     5567 
    5644     6247     6181     5393     5317     6170     6459     5810 
    5455     5796     6062     5972     5987     6102     5879     5643 
    5863     6095     6000     5902     5908     5852     5818     5921 
    5937     5760     5744     6012     6092     5821     5829     6216 
    6145     5548     5387     5922     6343     6135     5778     5787 
    5864     5692     5664     6093     6421     6008     5363     5517 
    6224     6249     5617     5578     6120     6096     5632     5683 
    6035     5989     5840     6062     6199     5802     5506     5902 
    6305     5987     5525     5620     5906     6000     6131     6214 
    5879     5402     5441     5971     6330     6212     5922     5802 
    5871     5899     5846     5908     6012     5908     5753     5833 
    5911     5768     5764     5994     6041     5892     5886     5931 
    5787     5725     5976     6195     6112     5906     5764     5719 
    5780     5929     6004     5902     5814     5796     5705     5772 
    6107     6204     5975     5849     5838     5780     5776     5921 
    6118     6110     5859     5663     5682     5829     6002     6075 
    5975     5831     5846     5937     5942     5964     5973     5760 
    5584     5896     6282     5987     5458     5645     6150     6084 
    5815     5961     6112     5875     5682     5850     6006     5945 
    5917     5830     5652     5842     6131     5922     5753     6057 
    6168     5823     5634     5853     5962     5689     5678     6183 
    6315     5795     5513     5802     6089     6070     5950     5938 
    5998     5876     5614     5692     6080     6112     5773     5757 
    6118     6106     5545     5324     5940     6478     6138     5601 
    5620     5887     6023     6050     5954     5806     5848     6056 
    6077     5872     5769     5838     5953     6049     5976     5718 
    5614     5819     6012     6002     5962     5973     5902     5732 
    5683     5879     6021     5876     5806     6083     6224     5803 
    5385     5670     6232     6257     5929     5810     5782     5736 
    5948     6195     6054     5803     5764     5773     5836     6034 
    6022     5732     5692     6022     6160     5859     5605     5734 
    5895     5911     6025     6088     5845     5630     5869     6268 
    6185     5694     5486     5853     6272     6069     5519     5536 
    6146     6419     5994     5578     5678     5900     5923     5964 
    6018     5826     5665     5965     6361     6200     5589     5337 
    5827     6313     6075     5625     5714     6091     6087     5788 
    5829     6080     5833     5466     5815     6335     6107     5568 
    5605     6048     6129     5852     5795     5884     5784     5869 
    6212     6091     5559     5526     6135     6498     6039     5418 
    5494     5930     5976     5872     6148     6318     5826     5373 
    5692     6227     6131     5667     5648     6029     6183     5954 
    5655     5655     5968     6186     6157     6034     5757     5512 
    5727     6049     5895     5687     5925     6211     6035     5583 
    5528     6006     6241     5933     5763     5881     5894     5926 
    6060     6010     5884     5958     6025     5814     5625     5810 
    5983     5776     5649     5938     6158     5910     5628     5853 
    6235     6091     5616     5575     6039     6309     6062     5830 
    5958     5937     5541     5498     6070     6427     6100     5633 
    5544     5698     5825     5999     6230     6210     5884     5643 
    5714     5854     5856     5877     6048     6122     5914     5688 
    5714     5841     5895     5968     6044     6016     5919     5763 
    5740     6025     6139     5809     5641     5896     6049     5849 
    5684     5873     6092     5972     5842     5958     5902     5641 
    5764     6188     6210     5805     5634     5940     6110     5737 
    5490     5886     6273     6081     5745     5763     5937     5942 
    5887     5922     5914     5861     5992     6169     5980     5601 
    5590     5867     5965     5918     5960     5965     5840     5837 
    6006     6025     5829     5773     6002     6150     5944     5703 
    5727     5846     5919     5971     5967     5846     5656     5665 
    5965     6110     5940     5864     5919     5935     6073     6095 
    5699     5505     5919     6230     6000     5833     6052     6068 
    5718     5719     6114     6054     5590     5617     6026     5953 
    5613     5780     6102     5902     5652     5895     6129     5929 
    5714     5890     6123     5919     5678     6056     6463     6034 
    5418     5576     6068     6137     5980     5960     5900     5661 
    5517     5692     6011     6076     5902     5917     6030     5876 
    5737     5942     6119     5954     5834     6046     6102     5748 
    5643     5988     6011     5710     5807     5988     5719     5593 
    5952     6134     5902     5822     6004     6025     5873     5840 
    5888     5859     5805     5842     5967     6044     5904     5714 
    5883     6242     6165     5694     5514     5823     6115     6103 
    5999     5836     5555     5580     6061     6274     5891     5610 
    5780     5935     5913     5958     6033     6015     5981     5956 
    5931     5913     5833     5729     5790     5949     5902     5702 
    5726     5977     6066     5921     5860     5949     5944     5837 
    5817     5842     5856     6066     6339     6126     5557     5422 
    5908     6299     6068     5648     5652     5940     6064     6029 
    6006     5864     5651     5705     5908     5834     5713     6006 
    6277     5929     5540     5800     6141     5940     5651     5798 
    6143     6227     6002     5779     5772     5810     5722     5718 
    5919     6108     6120     5917     5717     5876     6130     5958 
    5648     5764     6046     5981     5776     5798     5868     5822 
    5883     6095     6080     5748     5645     5991     6235     6087 
    5842     5730     5776     5813     5692     5719     6093     6336 
    6091     5746     5694     5760     5764     5864     6006     5967 
    5876     5864     5900     6016     5976     5653     5659     6143 
    6254     5850     5768     6014     5968     5803     5890     6021 
    5880     5567     5595     6057     6214     5791     5567     5968 
    6266     5908     5568     5834     6131     5968     5822     5973 
    5931     5637     5694     6080     6139     5863     5836     6064 
    6008     5699     5756     6141     6102     5684     5660     5968 
    5960     5749     5844     6010     5802     5652     6000     6232 
    5933     5826     6157     6053     5529     5606     6084     6012 
    5672     5769     6097     6161     5937     5713     5724     5856 
    5863     5896     6070     6061     5831     5773     5922     5894 
    5736     5914     6165     5856     5522     5925     6320     5931 
    5533     5815     6168     5994     5622     5709     6147     6096 
    5620     5699     6211     6180     5688     5595     5971     6141 
    5911     5786     5968     6056     5842     5656     5738     5915 
    5944     5814     5814     6080     6178     5856     5672     5980 
    6115     5753     5697     6158     6134     5491     5422     6085 
    6272     5821     5780     6165     6108     5753     5741     5836 
    5765     5880     6070     5923     5737     5890     6016     5831 
    5792     5992     5921     5773     5957     6043     5802     5738 
    5980     6041     5884     5958     6085     5842     5625     5822 
    6003     5926     5879     5946     5988     5906     5779     5822 
    5967     5980     5841     5698     5810     6110     6088     5733 
    5641     5938     6134     5965     5717     5741     5937     6070 
    6130     6002     5725     5680     5826     5854     5871     5968 
    5972     5980     6066     5911     5620     5718     6080     6134 
    5863     5715     5783     5806     5852     6052     6092     5869 
    5802     5919     5802     5680     5953     6134     5938     5881 
    6021     5911     5655     5686     5981     6145     5977     5771 
    5895     6114     6006     5765     5782     5946     5898     5648 
    5710     6166     6218     5744     5688     6006     5859     5609 
    5881     6122     5873     5724     6048     6185     5763     5579 
    5999     6193     5906     5809     5991     6006     5815     5678 
    5782     5987     6006     5919     5931     5917     5790     5768 
    5908     5995     5926     5833     5872     5914     5742     5729 
    6185     6386     5837     5428     5823     6231     5972     5691 
    5915     6000     5689     5769     6224     6131     5605     5560 
    5908     5944     5819     5952     6057     5904     5788     5914 
    6041     5962     5910     5971     5838     5622     5782     6162 
    6205     5868     5659     5833     6023     6012     5980     5863 
    5705     5829     6089     6120     5949     5732     5552     5601 
    5950     6252     6156     5772     5524     5686     6068     6189 
    5854     5489     5644     6106     6234     6012     5857     5807 
    5787     5991     6272     6131     5668     5583     6004     6195 
    5790     5389     5556     6100     6330     6014     5738     5741 
    5763     5942     6176     6046     5822     5809     5793     5819 
    5979     5945     5659     5552     5803     6133     6254     6083 
    5818     5841     6099     6008     5594     5656     6124     6016 
    5486     5683     6413     6363     5680     5702     6308     6130 
    5209     5047     5987     6651     6305     5787     5672     5653 
    5764     6120     6154     5668     5493     5913     6064     5813 
    6015     6454     6218     5707     5697     5714     5362     5387 
    6021     6401     6370     6322     5853     5090     5242     6165 
    6386     5908     5914     6318     6272     5860     5540     5476 
    5790     6218     6186     5727     5532     5840     6083     5968 
    5913     6034     5888     5656     5911     6154     5746     5433 
    5919     6361     5875     5319     5796     6482     6102     5420 
    5778     6454     6170     5486     5455     5961     6254     5880 
    5370     5710     6577     6633     5813     5305     5580     6100 
    6219     5917     5793     5927     5876     5813     5888     5694 
    5447     5826     6455     6459     5975     5652     5665     5715 
    5598     5859     6652     6646     5448     4953     5938     6440 
    5584     5305     6262     6718     6185     5678     5572     5722 
    5844     5645     5501     5854     6237     5976     5341     5397 
    6380     6801     5854     5179     5805     6358     6119     5895 
    5953     6004     5908     5733     5809     6088     5930     5368 
    5454     6299     6497     5632     5193     5883     6447     6129 
    5769     5856     5961     5946     5906     5834     5833     5846 
    5859     6069     6239     5979     5583     5548     5854     6076 
    5918     5694     5915     6251     5953     5539     5899     6122 
    5580     5637     6330     6195     5632     5680     5953     6012 
    5908     5868     6096     6012     5525     5686     6299     6192 
    5620     5603     6183     6439     5864     5277     5584     6192 
    6151     5788     5792     6118     6166     5621     5359     6108 
    6575     5798     5320     5994     6304     5778     5643     6002 
    6014     5736     5791     6102     6102     5805     5590     5636 
    5933     6129     6068     6049     5907     5571     5786     6343 
    6154     5668     5763     5861     5670     5688     5798     5756 
    5852     6066     5964     5752     5965     6197     5980     5861 
    6015     5790     5476     5827     6150     5807     5689     6029 
    5958     5786     6143     6285     5844     5590     5822     6142 
    6129     5779     5605     5769     6043     6290     6201     5853 
    5798     5907     5852     5895     6076     5919     5364     5251 
    6052     6616     6030     5462     5908     6272     5539     4791 
    5428     6682     6806     5915     5447     5694     5793     5499 
    5502     6026     6389     6234     5972     5884     5952     6243 
    6358     5895     5637     6027     6075     5614     5537     5757 
    5868     6141     6480     6322     5679     5283     5582     6011 
    5927     5694     5848     5988     5732     5626     6016     6370 
    6330     6210     6083     5595     5154     5485     5992     5935 
    5949     6307     6250     5791     5516     5578     5913     6029 
    5629     5539     6065     6301     6060     5987     6146     6126 
    5890     5788     5900     6015     6084     6018     5703     5551 
    5894     6185     5898     5441     5404     5719     5992     5981 
    5831     5895     6093     6083     5968     5953     5869     5756 
    5904     6127     6170     6168     6112     5925     5647     5339 
    5355     5853     6146     5876     5751     6046     6110     5864 
    5815     5760     5458     5601     6320     6508     5821     5343 
    5795     6377     6100     5611     5900     6385     6345     5968 
    5551     5611     6122     5887     5073     5301     6312     6616 
    6242     5991     5995     5987     5811     5625     5557     5501 
    5524     5844     6227     6174     5813     5722     5848     5836 
    5867     6087     6247     6162     5769     5383     5694     6447 
    6520     5967     5788     5898     5674     5498     5803     6103 
    6092     6139     6226     5968     5653     5709     5908     5956 
    5811     5590     5593     5850     5953     5655     5374     5571 
    5976     6185     6265     6237     5977     5773     5979     6186 
    5921     5737     6052     6110     5664     5602     6131     6346 
    5830     5344     5606     6178     6208     5717     5443     5838 
    6521     6563     5902     5664     5999     5869     5389     5382 
    5725     5989     6087     6077     6142     6147     5913     5842 
    5980     5879     5741     5872     6042     6085     5954     5717 
    5672     5705     5516     5516     5952     6133     5670     5273 
    5668     6417     6459     5798     5526     5921     6160     5981 
    5823     5864     6075     6192     5967     5814     6035     6180 
    6000     5813     5831     5872     5725     5605     5714     5814 
    5879     6103     6278     6295     6228     5981     5788     5940 
    6129     6042     5769     5564     5659     5929     5958     5622 
    5310     5545     6095     6102     5686     5806     6299     6249 
    5786     5613     5753     5918     6033     5967     5787     5877 
    6080     5831     5462     5742     6307     6355     6073     5904 
    5837     5845     5773     5540     5555     5979     6386     6382 
    5961     5547     5503     5688     5880     5973     5834     5632 
    5830     6232     6038     5572     5775     6184     6104     5950 
    5910     5771     5778     6035     6208     6115     5894     5838 
    6016     5964     5540     5382     5757     6237     6373     5952 
    5443     5560     5984     6060     5900     5840     5857     5802 
    5727     5786     5875     5887     5985     6186     6201     5940 
    5718     5823     5999     5856     5744     6069     6254     5846 
    5528     5826     6164     5958     5620     5741     6106     6172 
    5949     5803     5815     5875     5980     6056     5967     5849 
    5930     6043     5930     5772     5879     6056     5911     5609 
    5623     5975     6096     5738     5539     5861     6150     6068 
    5967     6041     5995     5737     5649     5852     5952     5793 
    5725     5876     5937     5863     5856     5910     5958     6014 
    6057     6011     5902     5845     5784     5726     5775     5810 
    5852     6025     6030     5793     5792     6093     6212     5977 
    5730     5805     6023     5999     5821     5753     5726     5719 
    5892     6066     5942     5722     5776     5967     5933     5768 
    5849     6092     6019     5694     5672     5958     6079     5883 
    5694     5827     6065     6069     5973     5915     5860     5892 
    5956     5962     6015     6062     5979     5953     6108     6148 
    5875     5611     5663     5814     5879     6006     6075     5873 
    5688     5692     5759     5926     6008     5822     5792     6002 
    6004     5887     5914     6006     6075     5999     5779     5675 
    5760     5931     6012     5792     5491     5587     5904     5925 
    5805     5945     6124     6027     5813     5823     6095     6195 
    5888     5683     5926     6172     6042     5786     5837     6146 
    6146     5765     5598     5768     5930     5965     5879     5780 
    5831     5933     5954     5942     5906     5868     5846     5805 
    5837     5948     5953     5844     5740     5755     5958     6092 
    5908     5757     5962     6227     6193     5906     5711     5827 
    5935     5810     5802     5919     5776     5670     5917     6060 
    5846     5682     5930     6349     6268     5753     5626     5921 
    6003     5886     5944     6035     5863     5579     5555     5830 
    5998     5899     5888     6037     6085     5968     5813     5817 
    5950     5948     5883     5881     5810     5732     5773     5863 
    5913     5896     5895     6003     6035     5867     5776     5895 
    5972     5917     5896     5979     6004     5892     5805     5844 
    5892     5854     5840     5968     6042     5875     5792     5973 
    6012     5803     5683     5768     5979     6106     5934     5741 
    5842     6004     5972     5873     5873     5899     5826     5768 
    5867     5975     5940     5926     6070     6150     5940     5717 
    5838     6054     5968     5817     5915     5975     5807     5684 
