Origin Time       2014/12/03 23:19:00
Lat.              35.290
Long.             137.118
Depth. (km)       45
Mag.              4.2
Station Code      MIE017
Station Lat.      34.3624
Station Long.     136.3348
Station Height(m) 118
Record Time       2014/12/03 23:20:25
Sampling Freq(Hz) 100Hz
Duration Time(s)  60
Dir.              N-S
Scale Factor      7845(gal)/8223790
Max. Acc. (gal)   3.455
Last Correction   2014/12/03 23:20:25
Memo.             
[...]
   -7557    -7801    -7555    -7422    -7596    -7685    -7641    -7538 
   -7377    -7357    -7585    -7722    -7566    -7476    -7555    -7456 
   -7322    -7560    -7875    -7750    -7398    -7395    -7650    -7652 
   -7431    -7354    -7452    -7572    -7657    -7618    -7555    -7727 
   -7827    -7514    -7330    -7557    -7572    -7304    -7348    -7646 
   -7726    -7631    -7570    -7446    -7264    -7271    -7557    -7902 
   -7882    -7391    -6967    -7080    -7551    -7997    -8174    -7979 
   -7565    -7267    -7225    -7330    -7469    -7553    -7624    -7782 
   -7875    -7728    -7469    -7280    -7188    -7214    -7444    -7746 
   -7902    -7958    -7906    -7574    -7047    -6747    -6967    -7607 
   -8225    -8309    -7879    -7319    -6880    -6841    -7272    -7839 
   -8182    -8087    -7645    -7256    -7160    -7264    -7449    -7732 
   -7974    -7877    -7574    -7400    -7327    -7287    -7404    -7673 
   -7839    -7749    -7519    -7299    -7184    -7300    -7628    -7844 
   -7726    -7488    -7354    -7357    -7574    -7870    -7834    -7461 
   -7273    -7408    -7507    -7593    -7821    -7844    -7541    -7272 
   -7226    -7442    -7730    -7726    -7666    -7803    -7645    -7236 
   -7242    -7429    -7391    -7514    -7740    -7681    -7688    -7809 
   -7538    -7144    -7246    -7609    -7603    -7454    -7807    -8133 
   -7734    -7284    -7295    -7292    -7292    -7580    -7763    -7545 
   -7261    -7357    -7789    -8013    -7723    -7242    -7034    -7298 
   -7817    -8085    -7885    -7599    -7439    -7148    -6928    -7302 
   -7997    -8283    -7983    -7474    -7053    -6836    -7094    -7803 
   -8260    -8016    -7441    -7034    -6980    -7290    -7696    -7807 
   -7747    -7830    -7788    -7430    -7248    -7482    -7703    -7704 
   -7685    -7636    -7462    -7331    -7408    -7518    -7537    -7623 
   -7739    -7677    -7515    -7371    -7257    -7338    -7585    -7735 
   -7827    -7794    -7395    -7096    -7380    -7815    -7902    -7580 
   -7136    -7118    -7619    -8093    -8037    -7600    -7311    -7198 
   -7089    -7329    -7901    -8082    -7699    -7380    -7365    -7323 
   -7281    -7534    -7873    -7923    -7750    -7491    -7195    -7134 
   -7375    -7600    -7750    -7915    -7851    -7399    -7020    -7134 
   -7396    -7574    -7952    -8289    -8017    -7276    -6801    -7103 
   -7769    -8000    -7793    -7557    -7318    -7153    -7260    -7546 
   -7811    -7858    -7642    -7472    -7520    -7539    -7393    -7371 
   -7631    -7774    -7550    -7365    -7446    -7484    -7474    -7727 
   -7979    -7746    -7284    -7110    -7226    -7503    -7773    -7798 
   -7726    -7722    -7651    -7452    -7219    -7160    -7342    -7676 
   -8009    -7921    -7479    -7294    -7385    -7460    -7572    -7753 
   -7832    -7676    -7388    -7186    -7180    -7318    -7479    -7746 
   -8129    -8170    -7627    -6985    -6806    -7163    -7695    -8060 
   -8197    -7979    -7439    -7044    -7006    -7132    -7444    -7913 
   -8086    -7838    -7555    -7291    -7021    -7101    -7518    -7896 
   -8110    -8093    -7727    -7132    -6739    -6971    -7696    -8289 
   -8245    -7722    -7206    -6890    -6943    -7368    -7759    -8019 
   -8139    -7809    -7257    -7111    -7299    -7345    -7342    -7651 
   -7979    -7913    -7747    -7641    -7234    -6782    -7030    -7881 
   -8537    -8526    -7852    -6903    -6380    -6635    -7346    -8073 
   -8595    -8579    -7823    -6886    -6513    -6741    -7248    -7859 
   -8391    -8449    -7843    -7089    -6791    -6886    -7215    -7753 
   -8154    -8104    -7753    -7393    -7180    -7182    -7406    -7719 
   -7908    -7860    -7596    -7365    -7418    -7507    -7377    -7319 
   -7496    -7700    -7820    -7784    -7607    -7500    -7393    -7207 
   -7333    -7692    -7715    -7534    -7507    -7535    -7551    -7581 
   -7569    -7526    -7495    -7433    -7339    -7452    -7801    -7865 
   -7553    -7426    -7507    -7484    -7473    -7572    -7636    -7661 
   -7744    -7813    -7654    -7325    -7168    -7226    -7307    -7573 
   -7967    -7927    -7605    -7561    -7488    -7155    -7076    -7408 
   -7786    -7994    -7942    -7638    -7284    -7092    -7194    -7508 
   -7736    -7816    -7821    -7572    -7222    -7299    -7635    -7701 
   -7684    -7842    -7778    -7400    -7261    -7403    -7404    -7410 
   -7693    -7827    -7557    -7350    -7377    -7419    -7561    -7780 
   -7738    -7452    -7269    -7312    -7561    -7911    -7954    -7601 
   -7396    -7465    -7338    -7152    -7402    -7786    -7857    -7834 
   -7804    -7514    -7171    -7061    -7040    -7257    -7901    -8334 
   -8232    -7993    -7381    -6505    -6559    -7468    -7987    -8190 
   -8506    -8225    -7219    -6602    -6689    -6870    -7333    -8237 
   -8579    -8046    -7437    -6940    -6569    -6916    -7786    -8215 
   -8154    -8078    -7742    -7117    -6952    -7295    -7473    -7627 
   -8116    -8281    -7742    -7294    -7254    -7106    -6985    -7304 
   -7770    -7956    -7865    -7722    -7522    -7227    -7207    -7477 
   -7646    -7726    -7754    -7689    -7562    -7272    -7042    -7194 
   -7599    -8073    -8281    -7846    -7180    -7006    -7213    -7408 
   -7704    -7989    -7862    -7572    -7507    -7442    -7218    -7094 
   -7283    -7703    -8020    -8014    -7765    -7442    -7269    -7314 
   -7364    -7365    -7481    -7719    -7923    -7869    -7523    -7318 
   -7410    -7357    -7268    -7580    -7908    -7824    -7576    -7272 
   -6905    -7015    -7835    -8441    -8186    -7618    -7241    -7074 
   -7169    -7427    -7727    -8073    -8136    -7654    -7094    -7011 
   -7229    -7345    -7485    -7830    -8068    -7998    -7749    -7319 
   -6899    -6922    -7215    -7456    -7993    -8622    -8328    -7304 
   -6713    -6735    -7044    -7662    -8202    -8177    -7917    -7715 
   -7312    -6899    -7017    -7466    -7749    -7873    -7797    -7480 
   -7389    -7611    -7696    -7619    -7570    -7493    -7335    -7209 
   -7315    -7614    -7916    -8052    -7707    -7129    -7111    -7470 
   -7504    -7458    -7756    -7986    -7774    -7535    -7497    -7312 
   -7115    -7333    -7753    -8001    -8001    -7723    -7357    -7179 
   -7167    -7253    -7557    -7929    -7919    -7561    -7315    -7307 
   -7422    -7539    -7576    -7622    -7666    -7537    -7414    -7560 
   -7739    -7712    -7603    -7491    -7361    -7322    -7485    -7754 
   -7835    -7662    -7482    -7287    -7072    -7276    -7785    -7877 
   -7712    -7815    -7722    -7269    -7211    -7507    -7477    -7408 
   -7750    -7885    -7523    -7342    -7504    -7652    -7771    -7825 
   -7526    -7102    -7175    -7443    -7383    -7501    -7966    -8095 
   -7770    -7340    -6978    -6998    -7569    -8093    -7955    -7586 
   -7547    -7410    -7015    -7010    -7503    -8051    -8309    -7977 
   -7219    -6899    -7315    -7624    -7527    -7692    -8004    -7788 
   -7364    -7327    -7462    -7462    -7430    -7472    -7588    -7719 
   -7719    -7506    -7277    -7330    -7477    -7468    -7649    -8062 
   -7969    -7315    -7032    -7361    -7607    -7642    -7803    -7767 
   -7330    -7179    -7553    -7751    -7616    -7657    -7770    -7553 
   -7393    -7480    -7252    -7125    -7742    -8060    -7588    -7438 
   -7672    -7499    -7233    -7423    -7727    -7767    -7720    -7555 
   -7219    -7190    -7538    -7688    -7550    -7581    -7751    -7685 
   -7555    -7619    -7538    -7233    -7225    -7537    -7704    -7773 
   -7935    -7798    -7206    -6943    -7381    -7676    -7533    -7623 
   -7827    -7604    -7348    -7510    -7649    -7497    -7482    -7580 
   -7515    -7569    -7758    -7709    -7528    -7457    -7439    -7453 
   -7506    -7560    -7642    -7641    -7541    -7577    -7573    -7299 
   -7229    -7515    -7651    -7682    -7850    -7754    -7335    -7214 
   -7356    -7392    -7612    -7989    -7939    -7484    -7134    -7130 
   -7403    -7735    -7971    -8021    -7713    -7222    -7045    -7241 
   -7566    -7886    -7974    -7761    -7537    -7295    -6932    -7007 
   -7717    -8149    -7902    -7626    -7534    -7294    -7020    -7146 
   -7669    -7998    -7858    -7690    -7705    -7543    -7261    -7307 
   -7439    -7342    -7472    -7836    -7839    -7647    -7652    -7531 
   -7211    -7168    -7426    -7689    -7862    -7846    -7635    -7510 
   -7589    -7530    -7218    -7049    -7291    -7770    -8087    -8052 
   -7797    -7325    -6840    -6990    -7581    -7723    -7619    -7843 
   -7843    -7396    -7330    -7661    -7665    -7526    -7609    -7609 
   -7528    -7622    -7632    -7377    -7256    -7481    -7655    -7654 
   -7716    -7609    -7222    -7075    -7346    -7685    -7896    -7925 
   -7722    -7406    -7261    -7427    -7589    -7499    -7499    -7716 
   -7850    -7809    -7514    -7087    -7048    -7447    -7851    -7974 
   -7763    -7338    -7063    -7312    -7788    -7878    -7735    -7665 
   -7491    -7369    -7444    -7258    -6982    -7366    -8040    -8154 
   -7882    -7631    -7335    -7125    -7176    -7356    -7685    -8158 
   -8336    -7998    -7364    -6747    -6543    -6990    -7820    -8413 
   -8319    -7682    -6951    -6544    -6750    -7439    -8083    -8345 
   -8395    -8159    -7269    -6443    -6764    -7770    -8387    -8298 
   -7677    -6957    -6600    -6810    -7520    -8210    -8334    -8122 
   -8097    -8007    -7280    -6303    -6039    -6673    -7763    -8719 
   -8959    -8653    -8091    -6985    -5779    -5572    -6589    -8222 
   -9553    -9591    -8127    -6338    -5756    -6528    -7700    -8687 
   -8985    -8016    -6524    -5788    -5962    -7180    -9436   -10740 
   -9329    -6669    -5081    -4947    -6062    -8301   -10121    -9821 
   -8095    -6635    -5938    -6129    -7132    -8013    -8187    -7996 
   -7780    -7642    -7388    -6995    -7227    -8090    -8463    -8390 
   -8274    -7192    -5548    -5540    -7202    -8525    -8911    -8846 
   -8193    -6993    -6218    -6679    -7652    -7870    -7580    -7500 
   -7591    -7969    -8437    -8164    -7240    -6808    -7229    -7574 
   -7473    -7444    -7356    -7034    -7121    -7847    -8382    -8073 
   -7681    -7678    -6832    -5607    -6475    -8711    -9729    -9548 
   -8631    -6825    -5297    -5157    -6465    -8571    -9795    -9239 
   -7939    -6855    -6118    -6041    -6872    -8179    -9202    -9196 
   -7940    -6293    -5377    -5694    -7075    -8655    -9373    -8951 
   -8040    -7071    -6203    -6384    -7871    -9001    -8642    -7592 
   -6839    -6498    -6581    -7350    -8374    -8640    -8028    -7221 
   -6736    -6812    -7362    -8120    -8510    -7917    -7047    -7028 
   -7447    -7499    -7427    -7558    -7597    -7560    -7719    -7815 
   -7712    -7604    -7339    -6936    -6943    -7526    -8121    -8191 
   -7722    -7257    -7481    -7959    -7439    -6480    -6810    -7870 
   -8324    -8626    -8490    -7015    -5844    -6697    -8235    -8533 
   -7882    -7589    -7506    -7003    -7023    -8004    -8413    -7543 
   -6585    -6571    -7362    -8117    -8155    -7761    -7657    -7781 
   -7612    -7330    -7240    -7037    -7010    -7889    -8935    -8668 
   -7230    -6120    -6197    -7272    -8517    -8792    -8147    -7584 
   -7021    -6238    -6303    -7580    -8635    -8550    -7905    -7360 
   -7061    -7105    -7515    -7668    -7007    -6644    -7611    -8779 
   -9050    -8536    -7211    -5853    -6022    -7257    -7940    -8319 
   -8885    -8668    -7481    -6451    -6162    -6478    -7396    -8642 
   -8997    -8032    -7102    -6809    -6511    -6600    -7705    -8692 
   -8592    -8190    -7593    -6447    -6177    -7438    -8633    -8808 
   -8276    -7499    -6898    -6497    -6619    -7682    -8441    -7715 
   -6777    -6988    -7720    -8019    -7948    -7958    -7763    -7034 
   -6647    -7002    -7466    -8108    -8753    -8444    -7437    -6944 
   -7101    -7218    -7468    -8205    -8630    -8090    -7213    -6889 
   -7047    -6926    -6564    -6840    -7796    -8457    -8248    -7581 
   -7040    -6725    -6898    -7879    -8856    -8849    -8091    -7132 
   -6239    -5913    -6616    -7936    -8947    -9143    -8546    -7469 
   -6542    -6513    -7138    -7378    -7399    -7909    -8270    -7875 
   -7248    -6728    -6528    -7269    -8745    -9383    -8336    -6812 
   -5962    -5946    -7173    -8989    -9591    -8950    -8048    -6910 
   -6069    -6381    -7276    -7931    -8276    -8247    -7785    -7136 
   -6727    -6885    -7608    -8467    -8552    -7438    -5931    -5125 
   -5772    -7669    -9285    -9526    -8668    -7411    -6561    -6627 
   -7454    -8584    -9358    -9036    -7600    -6186    -5792    -6196 
   -7109    -8424    -9137    -8503    -7202    -6251    -6226    -7130 
   -8324    -9038    -8842    -7877    -6710    -5922    -6192    -7726 
   -9261    -9462    -8685    -7534    -5987    -5055    -5898    -7630 
   -8818    -9135    -8536    -7329    -6463    -6353    -6777    -7526 
   -8388    -9117    -9078    -7858    -6427    -5730    -5667    -6497 
   -8136    -9288    -9305    -8568    -7430    -6381    -6085    -6723 
   -7572    -7925    -8059    -8284    -8447    -8463    -7831    -6359 
   -5645    -6786    -8283    -8857    -8926    -8553    -7437    -6178 
   -5590    -6022    -7468    -9124    -9884    -9360    -7834    -6115 
   -4982    -4733    -5949    -8658   -11016   -11165    -9309    -6967 
   -5343    -4777    -5270    -6594    -8095    -9104    -9192    -8286 
   -7047    -6393    -6527    -7194    -8073    -8441    -8390    -8802 
   -8977    -7951    -6620    -5782    -5620    -6755    -8494    -8962 
   -8094    -7257    -6985    -6913    -6903    -7298    -8077    -8649 
   -8623    -8039    -7275    -6817    -6821    -7300    -8024    -8202 
   -7697    -7163    -6612    -6183    -6588    -7967    -9811   -10551 
   -8772    -6048    -4931    -5400    -6378    -7796    -9238    -9667 
   -8932    -7439    -5749    -5051    -5914    -7491    -9042   -10261 
  -10260    -8482    -6008    -4653    -5162    -6951    -8969   -10072 
   -9769    -8584    -6885    -5198    -4931    -6423    -8059    -8688 
   -8802    -8635    -7754    -6818    -6766    -7111    -7376    -7755 
   -7835    -7385    -7176    -7476    -7848    -8114    -8139    -7890 
   -7734    -7874    -7902    -7447    -6957    -6968    -7127    -6928 
   -6851    -7545    -8303    -8152    -7537    -7075    -6799    -7047 
   -7707    -7921    -7657    -7626    -7846    -7865    -7761    -7712 
   -7430    -7018    -7118    -7612    -7877    -7919    -7855    -7565 
   -7338    -7423    -7522    -7569    -7794    -8047    -8020    -7646 
   -7136    -7005    -7547    -8025    -7510    -6536    -6272    -6940 
   -7948    -8411    -8095    -7811    -7920    -7848    -7482    -7339 
   -7524    -7734    -7739    -7468    -7159    -7113    -7253    -7474 
   -7743    -7789    -7553    -7377    -7384    -7449    -7708    -8190 
   -8182    -7295    -6405    -6373    -7091    -8114    -8780    -8345 
   -7153    -6474    -6718    -7315    -7860    -8133    -8040    -8013 
   -8316    -8375    -7723    -6794    -6411    -6998    -7950    -8276 
   -7870    -7233    -6790    -6748    -7141    -7919    -8556    -8413 
   -7777    -7283    -7030    -6967    -7065    -7264    -7645    -8117 
   -8324    -8113    -7605    -7203    -7198    -7227    -7167    -7354 
   -7727    -8063    -8168    -7936    -7657    -7392    -7026    -6875 
   -7078    -7443    -7797    -7979    -7963    -7630    -7023    -6804 
   -7248    -7765    -7892    -7813    -7693    -7375    -7092    -7187 
   -7396    -7678    -8208    -8519    -8244    -7655    -7023    -6516 
   -6502    -7132    -7854    -8159    -8147    -7870    -7399    -7230 
   -7449    -7535    -7447    -7599    -7812    -7614    -7326    -7418 
   -7652    -7830    -7819    -7515    -7408    -7676    -7759    -7488 
   -7322    -7461    -7325    -6818    -6913    -7634    -8089    -8233 
   -8105    -7344    -6481    -6551    -7538    -8517    -8953    -8726 
   -7794    -6763    -6435    -6774    -7344    -7931    -8338    -8307 
   -7827    -7222    -6759    -6659    -7186    -8024    -8328    -7805 
   -6889    -6214    -6496    -7678    -8706    -9032    -8698    -7668 
   -6632    -6448    -6957    -7543    -7812    -7852    -8025    -8215 
   -8111    -7727    -7086    -6535    -6725    -7452    -7955    -8032 
   -7734    -7203    -6928    -7273    -7959    -8279    -8108    -7730 
   -7187    -6898    -7168    -7487    -7715    -7983    -7809    -7191 
   -6934    -7230    -7565    -7715    -7882    -8095    -8110    -7973 
   -7753    -7225    -6789    -7047    -7391    -7188    -7258    -8073 
   -8507    -8098    -7727    -7385    -6569    -6284    -7149    -7873 
   -8021    -8322    -8329    -7574    -6859    -6725    -7048    -7726 
   -8519    -8865    -8260    -7107    -6411    -6327    -6588    -7391 
   -8378    -8725    -8388    -7581    -6577    -6346    -7231    -8174 
   -8424    -8162    -7715    -7331    -7103    -7079    -7330    -7719 
   -7996    -7990    -7599    -6987    -6679    -7023    -7815    -8477 
   -8477    -7921    -7461    -7167    -6805    -6818    -7371    -7854 
   -7931    -7708    -7477    -7457    -7508    -7538    -7641    -7715 
   -7647    -7547    -7438    -7287    -7396    -7755    -7740    -7362 
   -7307    -7573    -7723    -7812    -7811    -7504    -7198    -7215 
   -7439    -7831    -8235    -8159    -7519    -6805    -6409    -6602 
   -7418    -8198    -8404    -8225    -7807    -7312    -7138    -7271 
   -7542    -7909    -7963    -7515    -7198    -7306    -7354    -7381 
   -7860    -8244    -7805    -7214    -7132    -7198    -7307    -7600 
   -7789    -7847    -7990    -8007    -7548    -6839    -6596    -6997 
   -7491    -7886    -8222    -8052    -7392    -7038    -7152    -7327 
   -7720    -8218    -8102    -7526    -7214    -7264    -7487    -7723 
   -7812    -7701    -7512    -7488    -7614    -7573    -7348    -7236 
   -7381    -7576    -7591    -7472    -7287    -7137    -7334    -7912 
   -8314    -8144    -7727    -7395    -7071    -6961    -7269    -7659 
   -7913    -8016    -7793    -7302    -7052    -7292    -7577    -7581 
   -7568    -7751    -7946    -7827    -7489    -7283    -7179    -7165 
   -7427    -7776    -7924    -7884    -7723    -7560    -7423    -7253 
   -7165    -7277    -7560    -7869    -7939    -7755    -7526    -7302 
   -7169    -7276    -7545    -7798    -7865    -7750    -7689    -7553 
   -7252    -7264    -7518    -7472    -7361    -7468    -7514    -7548 
   -7746    -7807    -7654    -7560    -7501    -7435    -7568    -7860 
   -7888    -7538    -7284    -7310    -7318    -7420    -7823    -8035 
   -7646    -7069    -6793    -6897    -7395    -8143    -8700    -8517 
   -7542    -6652    -6535    -6999    -7749    -8368    -8355    -7852 
   -7261    -6764    -6736    -7285    -7858    -8137    -8185    -7870 
   -7302    -6997    -7087    -7284    -7593    -7990    -7973    -7558 
   -7410    -7519    -7464    -7339    -7377    -7530    -7651    -7705 
   -7770    -7781    -7605    -7378    -7290    -7325    -7474    -7755 
   -8028    -8006    -7572    -7038    -6798    -6948    -7369    -7788 
