Origin Time       2014/12/03 23:19:00
Lat.              35.290
Long.             137.118
Depth. (km)       45
Mag.              4.2
Station Code      MIE017
Station Lat.      34.3624
Station Long.     136.3348
Station Height(m) 118
Record Time       2014/12/03 23:20:25
Sampling Freq(Hz) 100Hz
Duration Time(s)  60
Dir.              E-W
Scale Factor      7845(gal)/8223790
Max. Acc. (gal)   4.333
Last Correction   2014/12/03 23:20:25
Memo.             
[...]
   -1167    -1074    -1042    -1139    -1175    -1084    -1047    -1129 
   -1159    -1096    -1101    -1136    -1077    -1053    -1140    -1178 
   -1092    -1028    -1111    -1213    -1171    -1048    -1021    -1111 
   -1151    -1100    -1113    -1155    -1107    -1088    -1147    -1123 
   -1020    -1009    -1124    -1216    -1198    -1127    -1063    -1050 
   -1071    -1077    -1125    -1204    -1167    -1059    -1038    -1097 
   -1147    -1173    -1167    -1078    -1011    -1088    -1161    -1125 
   -1116    -1148    -1120    -1065    -1081    -1104    -1078    -1143 
   -1239    -1117     -954    -1016    -1135    -1171    -1210    -1154 
   -1000    -1011    -1131    -1147    -1178    -1258    -1183    -1000 
    -951    -1039    -1094    -1120    -1224    -1281    -1142    -1021 
   -1063    -1055    -1013    -1100    -1167    -1143    -1107    -1044 
   -1038    -1125    -1154    -1125    -1129    -1139    -1107    -1047 
   -1098    -1209    -1121     -973    -1036    -1190    -1201    -1113 
   -1154    -1216    -1058    -1004    -1200    -1181     -973     -985 
   -1094    -1117    -1152    -1142    -1075    -1120    -1125    -1017 
   -1131    -1347    -1256    -1039     -965     -934     -938    -1084 
   -1286    -1332    -1196    -1127    -1212    -1220    -1088     -993 
    -946     -916     -974    -1100    -1200    -1220    -1248    -1301 
   -1162     -909     -932    -1192    -1304    -1212    -1065     -857 
    -720     -965    -1408    -1557    -1368    -1065     -780     -714 
    -951    -1239    -1312    -1171    -1032    -1086    -1227    -1217 
   -1104    -1123    -1167    -1030     -977    -1161    -1194    -1038 
   -1065    -1212    -1155    -1039    -1124    -1233    -1181    -1065 
    -999     -989    -1008    -1053    -1125    -1165    -1146    -1070 
   -1009    -1136    -1356    -1429    -1293     -959     -718     -855 
   -1088    -1162    -1181    -1167    -1125    -1135    -1213    -1228 
   -1059     -976    -1159    -1220    -1051    -1000     -992     -950 
   -1150    -1356    -1291    -1266    -1317    -1113     -762     -692 
    -969    -1242    -1364    -1374    -1097     -714     -810    -1269 
   -1425    -1270    -1215    -1173     -951     -870    -1071    -1213 
   -1188    -1142    -1057     -918     -895    -1156    -1489    -1356 
    -934     -938    -1159    -1073    -1013    -1175    -1229    -1152 
   -1119    -1112    -1007     -870     -969    -1198    -1232    -1177 
   -1291    -1364    -1073     -719     -767    -1098    -1379    -1394 
   -1185    -1084    -1058     -918     -932    -1133    -1282    -1437 
   -1433     -997     -607     -738    -1044    -1285    -1582    -1522 
    -946     -602     -764    -1028    -1262    -1399    -1305    -1057 
    -808     -743    -1078    -1622    -1733    -1348    -1077     -890 
    -499     -526    -1197    -1571    -1375    -1270    -1223     -911 
    -773    -1024    -1194    -1183    -1240    -1348    -1362    -1089 
    -638     -565    -1000    -1453    -1568    -1405    -1167     -864 
    -577     -708    -1156    -1431    -1578    -1570    -1086     -461 
    -386     -924    -1440    -1513    -1485    -1476    -1128     -676 
    -664    -1023    -1312    -1363    -1408    -1362     -974     -757 
   -1013    -1142     -928     -908    -1286    -1520    -1228     -828 
    -666     -795    -1242    -1533    -1366    -1181    -1102     -974 
    -955    -1019     -934     -957    -1404    -1726    -1306     -712 
    -797    -1247    -1305    -1107    -1011     -857     -767    -1081 
   -1498    -1575    -1258     -827     -676     -838    -1223    -1694 
   -1679    -1053     -558     -619     -992    -1325    -1502    -1436 
   -1055     -774     -857     -880     -931    -1370    -1638    -1356 
   -1053     -951     -849     -792     -911    -1206    -1545    -1632 
   -1387     -982     -598     -546     -908    -1286    -1471    -1418 
   -1125     -953     -980     -928     -980    -1255    -1360    -1163 
   -1028    -1144    -1178     -977     -978    -1230    -1285    -1170 
   -1150    -1139    -1074    -1093    -1085     -892     -896    -1264 
   -1383    -1063     -831     -864    -1038    -1291    -1426    -1304 
   -1136    -1093    -1053    -1065    -1206    -1183    -1063    -1138 
   -1085     -880    -1012    -1185    -1024     -965    -1138    -1237 
   -1254    -1221    -1129    -1004     -918    -1057    -1219    -1070 
   -1021    -1310    -1305     -972     -986    -1182    -1107    -1117 
   -1355    -1323     -963     -700     -773    -1148    -1549    -1545 
   -1123     -731     -622     -800    -1193    -1539    -1571    -1308 
   -1021     -811     -558     -572    -1178    -1837    -1861    -1358 
    -889     -761     -772     -810    -1060    -1343    -1370    -1323 
   -1345    -1273     -946     -550     -616    -1151    -1459    -1452 
   -1475    -1306     -920     -627     -513     -822    -1433    -1694 
   -1576    -1290     -857     -692     -884    -1008    -1139    -1385 
   -1327    -1019     -981    -1038     -919    -1036    -1351    -1368 
   -1313    -1367    -1053     -557     -565     -907    -1227    -1613 
   -1748    -1359     -922     -681     -517     -695    -1237    -1664 
   -1792    -1584     -994     -434     -396     -838    -1354    -1595 
   -1497    -1201     -912     -783     -907    -1236    -1408    -1240 
   -1062    -1042     -997     -907     -974    -1266    -1509    -1386 
    -967     -672     -712     -966    -1364    -1655    -1463    -1011 
    -739     -850    -1204    -1229     -990    -1051    -1170    -1162 
   -1300    -1269     -982     -907     -962     -990    -1194    -1329 
   -1178    -1154    -1224     -972     -789    -1150    -1506    -1327 
   -1007     -939     -946     -874     -882    -1174    -1552    -1547 
   -1201     -966     -931     -903     -936    -1174    -1300    -1043 
    -924    -1148    -1136     -970    -1131    -1323    -1363    -1387 
   -1042     -575     -719    -1107    -1297    -1431    -1337    -1100 
    -996     -886     -916    -1143    -1209    -1215    -1279    -1202 
   -1125    -1109     -987     -911     -949    -1017    -1220    -1439 
   -1456    -1259     -918     -702     -764     -993    -1314    -1401 
   -1177    -1188    -1277     -936     -649     -849    -1177    -1401 
   -1540    -1457    -1062     -656     -612     -872    -1254    -1630 
   -1649    -1254     -805     -490     -569    -1224    -1875    -1837 
   -1227     -672     -545     -718    -1038    -1355    -1414    -1251 
   -1081    -1043    -1124    -1084     -997    -1193    -1318    -1026 
    -810     -978    -1262    -1341    -1194    -1138    -1125     -899 
    -845    -1105    -1296    -1429    -1409    -1003     -692     -799 
    -997    -1200    -1405    -1345    -1117    -1021    -1011    -1032 
   -1070    -1057    -1166    -1289    -1097     -977    -1177    -1119 
    -864    -1071    -1414    -1337    -1143     -986     -702     -673 
   -1121    -1506    -1474    -1256    -1111     -999     -831     -804 
   -1026    -1289    -1512    -1622    -1379     -963     -772     -715 
    -714     -978    -1332    -1456    -1443    -1385    -1173     -707 
    -318     -654    -1410    -1625    -1386    -1244    -1065     -800 
    -772    -1013    -1291    -1493    -1605    -1462     -969     -594 
    -691     -903    -1102    -1482    -1690    -1409     -951     -653 
    -588     -770    -1185    -1628    -1606    -1039     -722     -999 
   -1189    -1058    -1077    -1216    -1063     -789     -970    -1476 
   -1535    -1161    -1000     -976     -807     -903    -1340    -1494 
   -1286    -1080     -908     -870     -987    -1016    -1175    -1482 
   -1339     -987    -1016    -1098    -1070    -1229    -1350    -1125 
    -812     -777    -1000    -1194    -1248    -1293    -1320    -1193 
    -916     -672     -641     -835    -1248    -1748    -1873    -1413 
    -792     -526     -668     -942    -1223    -1530    -1645    -1339 
    -877     -750     -974    -1115    -1124    -1336    -1428    -1073 
    -873     -949     -843     -834    -1132    -1429    -1513    -1244 
    -957    -1020     -907     -643    -1074    -1736    -1603    -1073 
    -827     -683     -670    -1109    -1590    -1605    -1320    -1000 
    -777     -733     -849    -1177    -1560    -1583    -1224     -801 
    -579     -796    -1320    -1584    -1474    -1312    -1042     -658 
    -562     -850    -1230    -1489    -1552    -1401    -1026     -626 
    -645    -1093    -1445    -1429    -1204    -1124    -1293    -1133 
    -604     -595    -1113    -1389    -1391    -1298     -980     -751 
   -1092    -1578    -1455    -1004     -823     -842     -982    -1133 
   -1125    -1260    -1447    -1297    -1125    -1042     -868     -913 
   -1121    -1112    -1119    -1368    -1513    -1185     -631     -430 
    -679    -1129    -1512    -1593    -1521    -1359     -969     -715 
    -791     -893    -1067    -1339    -1475    -1455    -1274     -916 
    -561     -604    -1206    -1710    -1624    -1223     -747     -600 
    -916    -1097    -1192    -1393    -1167     -868    -1094    -1227 
   -1104    -1289    -1466    -1202     -853     -810    -1017    -1111 
   -1024    -1070    -1217    -1286    -1290    -1170     -996     -972 
   -1074    -1121     -967     -893    -1255    -1534    -1304    -1084 
   -1147    -1081     -724     -631    -1121    -1456    -1359    -1334 
   -1136     -719     -776    -1204    -1467    -1420    -1121     -940 
    -940     -841     -893    -1219    -1379    -1312    -1188     -962 
    -866    -1081    -1213    -1182    -1339    -1331     -911     -780 
    -997     -986    -1043    -1363    -1437    -1269    -1127    -1003 
    -970     -997    -1023    -1117    -1142    -1090    -1117    -1057 
    -980    -1147    -1274    -1266    -1324    -1162     -892     -947 
    -972     -873    -1113    -1424    -1362    -1136    -1043    -1155 
   -1224    -1005     -877    -1094    -1192    -1069    -1142    -1259 
   -1093     -936    -1009    -1067    -1085    -1239    -1350    -1139 
    -828     -815    -1105    -1362    -1359    -1224    -1011     -769 
    -890    -1251    -1362    -1421    -1447     -999     -472     -561 
   -1028    -1274    -1359    -1552    -1560    -1224     -876     -714 
    -892    -1247    -1219    -1038    -1188    -1247    -1035    -1030 
   -1140    -1069    -1028    -1089    -1131    -1148    -1069    -1038 
   -1170    -1181    -1102    -1060    -1007    -1120    -1208    -1146 
   -1336    -1390     -976     -812     -985    -1026     -985    -1000 
   -1165    -1377    -1390    -1327    -1136     -801     -793    -1026 
   -1084    -1175    -1359    -1395    -1201     -814     -683    -1047 
   -1320    -1289    -1375    -1425    -1042     -553     -538    -1020 
   -1507    -1613    -1393    -1069     -751     -611     -843    -1270 
   -1487    -1447    -1352    -1179     -850     -589     -715    -1229 
   -1617    -1459    -1155    -1028     -874     -890    -1225    -1341 
   -1086     -935     -977     -996    -1081    -1343    -1507    -1300 
    -929     -777     -804     -868    -1146    -1559    -1556    -1179 
    -989     -953     -980    -1113     -970     -762    -1021    -1289 
   -1297    -1367    -1348    -1116     -862     -822    -1136    -1385 
   -1281    -1174    -1036     -760     -814    -1205    -1340    -1124 
    -976    -1060    -1209    -1230    -1136    -1220    -1358    -1043 
    -696     -855    -1055    -1119    -1300    -1428    -1350    -1113 
    -873     -808     -881    -1138    -1509    -1545    -1229     -965 
    -818     -804    -1036    -1282    -1216    -1030    -1088    -1212 
   -1138    -1021     -942     -990    -1308    -1551    -1354    -1009 
    -973    -1032     -804     -773    -1156    -1308    -1266    -1291 
   -1078     -881    -1013    -1131    -1152    -1254    -1312    -1260 
   -1205    -1065     -873     -885    -1042    -1147    -1254    -1344 
   -1444    -1440     -984     -459     -463     -826    -1298    -1648 
   -1528    -1135     -854     -658     -538     -712    -1250    -1989 
   -2405    -1779     -387      302     -402    -1472    -1890    -1790 
   -1425     -869     -669     -824     -712     -715    -1248    -1767 
   -1821    -1071      -39     -147    -1142    -1796    -2076    -1977 
   -1331     -579     -164     -297     -903    -1677    -2247    -1991 
    -899       18       86     -491    -1271    -1921    -2092    -1691 
   -1163     -562      274      246    -1352    -2945    -3040    -2070 
    -939       16      454        8     -846    -1287    -1398    -1652 
   -2057    -2308    -1818     -410      785      650     -676    -2458 
   -3495    -2736    -1026      131      962     1503      279    -2417 
   -4159    -4036    -2582      -75     2143     1930     -376    -2384 
   -3250    -3438    -2659     -897      931     1787      776    -1545 
   -3357    -3929    -2887     -210     1544      672     -932    -2272 
   -3523    -2953     -391     1522     1721      513    -2007    -4321 
   -4384    -2220      355     1668     1606      513    -1892    -4078 
   -3550    -1682     -938     -222      781       62    -1602    -2196 
   -2231    -1776     -606     -720    -1701     -630      892      -74 
   -1868    -2544    -2470    -1737     -279     1136      928    -1540 
   -3896    -3901    -2373     -279     2000     2550      276    -2772 
   -4353    -4113    -2324       47     1128      858      835       75 
   -3076    -5652    -4232     -819     1498     2532     2191      -76 
   -3377    -5451    -4379    -1080     1668     2678     1428    -2123 
   -4792    -4077    -2115     -548     1269     2123      552    -1981 
   -3563    -3736    -2380     -141     1273     1016     -390    -2219 
   -3592    -3304    -1242      943     1675      386    -2328    -4054 
   -3094     -929      792     1825      828    -2479    -4553    -3256 
    -969      256      638      367     -522    -1711    -2801    -2929 
   -1746     -525       11      661      615    -1431    -3343    -3187 
   -2245    -1069      392      958      297    -1171    -2366    -1898 
   -1390    -2235    -1962     -502     -378     -488      307      -17 
   -1845    -2971    -2335    -1071     -495     -410     -272     -714 
   -1680    -1690    -1183    -1624    -1597     -289      -31     -884 
    -890    -1173    -2523    -2388     -789     -697    -1393     -766 
    -344     -889     -584     -230    -1620    -2841    -2408    -1859 
   -1196      490     1765     1121    -1071    -3231    -3908    -3168 
   -1664      178     1217      747     -531    -1964    -2860    -2525 
   -1675    -1109     -449      406      889      148    -1977    -3503 
   -2849    -1474     -681      117      369     -784    -1583    -1150 
   -1451    -2215    -1327       45     -355    -1764    -2126    -1402 
   -1170    -1228     -561     -324     -842     -938    -1050    -1368 
   -1386    -1764    -2066    -1179     -137       -2     -221     -506 
   -1390    -3037    -4205    -3190     -491     1618     1930      483 
   -1714    -2915    -2886    -2574    -2019     -901      704     1466 
    -448    -3291    -3754    -2139      212     2498     2459     -294 
   -3118    -4270    -3364     -923     1057     1308      434     -874 
   -2385    -3341    -2844    -1279     -131     -189     -951    -1946 
   -2839    -2620    -1073      248      359     -270    -1331    -2292 
   -2046     -730      545     1086       71    -2100    -2963    -2096 
   -1568    -1551     -942     -164     -133     -525     -546     -753 
   -1641    -2168    -2161    -2154    -1526     -532     -266     -519 
    -857    -1317    -1605    -1518    -1405    -1669    -1968    -1741 
   -1117     -432      139      479      395     -529    -2014    -3017 
   -3207    -2581     -832     1159     1831      997     -807    -2848 
   -3821    -3391    -2191     -468     1113     1576      569    -1613 
   -3546    -4124    -3755    -2299      341     2239     1971      596 
    -996    -3038    -4156    -2818     -568      824     1026     -380 
   -2049    -2219    -1861    -1503     -442      341        8     -903 
   -2440    -4072    -3723    -1171     1356     2640     2228     -453 
   -3805    -5314    -4637    -2295     1032     2974     1760     -981 
   -3063    -3770    -2471       -1     1259     1028      255    -1362 
   -3383    -4176    -3138    -1069      579      977      418     -929 
   -2594    -3125    -2130     -668      418      500     -826    -2847 
   -3840    -2682     -379     1262     1742      819    -1668    -3897 
   -3962    -2296        8     1706     1321     -545    -2238    -3489 
   -3649    -1918      365     1605     1136    -1194    -3399    -3361 
   -2072     -816      449      885     -191    -1729    -2424    -2128 
   -1698    -1356     -360      730      249    -1667    -3052    -2616 
    -881      460      297     -630    -1410    -2343    -3019    -2367 
    -846      549     1323      673    -1348    -3099    -3176    -1744 
    -136      515      207     -581    -1498    -2124    -2165    -1586 
    -735     -631    -1588    -2119    -1317     -529     -743    -1337 
   -1876    -1813     -777     -272     -811     -799     -467     -928 
   -1601    -1896    -1544     -677     -361     -658    -1065    -1763 
   -2207    -1907    -1221     -340      109     -217     -679    -1308 
   -2000    -2064    -1880    -1684    -1105     -623     -481     -301 
    -314     -822    -1480    -1806    -1723    -1464     -980     -286 
     -31     -579    -1282    -1437    -1251    -1368    -1945    -2193 
   -1308     -129     -139    -1125    -1899    -2176    -2074    -1139 
     286      702      106     -511    -1709    -3203    -2960    -1236 
      54      575      180    -1308    -2542    -2806    -2743    -1885 
     109     1566     1151     -469    -2234    -3603    -3771    -2060 
     496     1787      946    -1034    -2574    -3051    -2578    -1169 
     299      715      255    -1107    -2975    -3234    -1625     -124 
     572      355    -1012    -2502    -2822    -1965    -1021     -668 
    -360        8     -272    -1016    -1645    -2114    -2079    -1316 
    -378       17     -537    -1543    -2121    -2104    -1534     -619 
     147      429     -324    -1965    -2983    -2770    -2004     -920 
     205      630      184     -723    -1677    -2351    -2354    -1460 
    -382     -170     -702    -1301    -1790    -1919    -1495     -932 
    -445      -23     -228    -1323    -2220    -1833     -827     -515 
    -804    -1043    -1466    -1857    -1404     -799    -1140    -1691 
   -1480     -901     -526     -457     -728    -1208    -1559    -1611 
   -1333     -804     -344     -375    -1021    -1732    -1775    -1152 
    -417     -225     -770    -1354    -1688    -2147    -2284    -1534 
    -475       90     -124     -811    -1372    -1804    -2143    -1744 
    -720      -40       11     -664    -1975    -2740    -2394    -1606 
    -719      -83      -97     -510    -1057    -1548    -1792    -1745 
   -1093     -236     -261     -918    -1443    -1781    -1507     -591 
    -194     -702    -1201    -1336    -1617    -2008    -1876    -1152 
    -386     -120     -599    -1499    -2115    -2069    -1575     -791 
     195      608     -225    -1715    -2795    -2924    -2111     -615 
