Origin Time       2013/10/26 02:10:00
Lat.              37.195
Long.             144.568
Depth. (km)       56
Mag.              7.1
Station Code      ABSH11
Station Lat.      43.9144
Station Long.     144.1913
Station Height(m) 40
Record Time       2013/10/26 02:11:58
Sampling Freq(Hz) 100Hz
Duration Time(s)  210
Dir.              6
Scale Factor      3920(gal)/6170801
Max. Acc. (gal)   1.500
Last Correction   2013/10/26 02:11:43
Memo.             
[...]
  -44772   -44522   -44484   -44567   -44594   -44485   -44346   -44369 
  -44622   -44968   -45202   -45216   -45089   -44996   -44980   -44929 
  -44807   -44714   -44748   -44937   -45210   -45415   -45427   -45243 
  -44971   -44754   -44670   -44669   -44678   -44700   -44762   -44837 
  -44859   -44813   -44781   -44874   -45119   -45411   -45589   -45555 
  -45366   -45176   -45099   -45139   -45238   -45349   -45458   -45569 
  -45685   -45772   -45765   -45625   -45361   -45064   -44890   -44920 
  -45076   -45216   -45259   -45194   -45040   -44845   -44659   -44500 
  -44403   -44439   -44573   -44681   -44704   -44663   -44593   -44535 
  -44466   -44317   -44119   -43990   -43994   -44109   -44297   -44522 
  -44741   -44940   -45141   -45341   -45501   -45570   -45517   -45401 
  -45312   -45293   -45393   -45623   -45880   -46029   -46021   -45918 
  -45837   -45823   -45792   -45615   -45261   -44864   -44624   -44626 
  -44765   -44878   -44929   -44986   -45074   -45147   -45136   -45003 
  -44808   -44690   -44738   -44904   -45054   -45066   -44933   -44761 
  -44671   -44701   -44793   -44830   -44745   -44614   -44613   -44833 
  -45195   -45520   -45662   -45604   -45432   -45202   -44940   -44697 
  -44498   -44354   -44327   -44499   -44868   -45301   -45632   -45782 
  -45768   -45645   -45477   -45334   -45260   -45250   -45277   -45316 
  -45329   -45282   -45214   -45243   -45419   -45636   -45744   -45662 
  -45423   -45151   -44954   -44827   -44691   -44518   -44344   -44218 
  -44176   -44189   -44211   -44250   -44358   -44553   -44783   -44985 
  -45149   -45282   -45381   -45447   -45525   -45664   -45820   -45873 
  -45768   -45574   -45439   -45439   -45490   -45486   -45443   -45443 
  -45502   -45560   -45524   -45354   -45134   -45014   -45071   -45218 
  -45293   -45232   -45121   -45068   -45073   -45024   -44845   -44601 
  -44445   -44478   -44665   -44862   -44950   -44896   -44745   -44605 
  -44581   -44693   -44876   -45059   -45224   -45369   -45450   -45405 
  -45208   -44942   -44794   -44891   -45149   -45397   -45566   -45639 
  -45595   -45439   -45174   -44839   -44566   -44478   -44582   -44778 
  -44938   -45022   -45066   -45068   -44993   -44863   -44751   -44703 
  -44719   -44785   -44884   -44979   -45041   -45065   -45049   -45010 
  -44988   -45004   -45060   -45144   -45224   -45261   -45257   -45246 
  -45229   -45177   -45068   -44908   -44742   -44657   -44712   -44896 
  -45132   -45325   -45436   -45496   -45562   -45658   -45728   -45701 
  -45580   -45409   -45221   -45046   -44918   -44905   -45054   -45291 
  -45448   -45416   -45222   -45017   -44968   -45127   -45430   -45758 
  -46020   -46215   -46362   -46392   -46227   -45911   -45572   -45327 
  -45223   -45193   -45114   -44957   -44792   -44650   -44503   -44321 
  -44124   -44020   -44117   -44380   -44669   -44880   -44973   -44965 
  -44900   -44784   -44632   -44480   -44346   -44224   -44135   -44116 
  -44177   -44300   -44472   -44653   -44788   -44871   -44945   -45021 
  -45073   -45089   -45115   -45222   -45426   -45665   -45843   -45917 
  -45934   -45985   -46087   -46161   -46142   -46072   -46042   -46084 
  -46116   -46009   -45783   -45621   -45664   -45876   -46082   -46072 
  -45779   -45344   -44978   -44762   -44590   -44339   -44040   -43830 
  -43796   -43901   -44014   -44008   -43832   -43567   -43377   -43369 
  -43515   -43701   -43849   -44004   -44272   -44662   -45075   -45379 
  -45492   -45459   -45385   -45316   -45242   -45160   -45082   -45022 
  -44998   -45012   -45045   -45108   -45242   -45444   -45663   -45844 
  -45936   -45909   -45765   -45520   -45210   -44939   -44861   -45033 
  -45328   -45583   -45734   -45786   -45733   -45554   -45245   -44847 
  -44458   -44199   -44101   -44107   -44164   -44247   -44370   -44593 
  -44922   -45270   -45551   -45742   -45864   -45927   -45912   -45785 
  -45556   -45305   -45110   -45010   -45029   -45131   -45197   -45148 
  -44989   -44697   -44256   -43770   -43399   -43256   -43390   -43752 
  -44202   -44601   -44876   -45042   -45162   -45270   -45351   -45392 
  -45415   -45455   -45534   -45631   -45692   -45662   -45553   -45444 
  -45394   -45393   -45380   -45283   -45099   -44893   -44718   -44579 
  -44488   -44479   -44572   -44747   -44932   -44999   -44856   -44564 
  -44285   -44156   -44221   -44432   -44735   -45127   -45598   -46049 
  -46347   -46449   -46397   -46260   -46119   -46036   -46021   -46054 
  -46125   -46220   -46315   -46409   -46483   -46462   -46303   -46063 
  -45871   -45845   -46010   -46255   -46441   -46516   -46486   -46350 
  -46119   -45789   -45348   -44852   -44431   -44216   -44227   -44358 
  -44475   -44492   -44407   -44296   -44186   -44021   -43802   -43608 
  -43517   -43574   -43756   -43982   -44224   -44526   -44909   -45318 
  -45647   -45800   -45762   -45590   -45365   -45153   -44975   -44804 
  -44613   -44446   -44403   -44540   -44806   -45064   -45194   -45193 
  -45147   -45120   -45116   -45105   -45052   -44979   -44979   -45108 
  -45307   -45455   -45492   -45444   -45362   -45316   -45370   -45529 
  -45747   -45907   -45860   -45547   -45045   -44475   -43951   -43563 
  -43348   -43302   -43393   -43552   -43725   -43903   -44092   -44284 
  -44454   -44620   -44807   -44977   -45076   -45097   -45112   -45244 
  -45540   -45893   -46151   -46235   -46133   -45871   -45507   -45130 
  -44850   -44743   -44823   -45066   -45382   -45613   -45643   -45475 
  -45201   -44926   -44683   -44452   -44242   -44115   -44126   -44263 
  -44442   -44564   -44576   -44515   -44481   -44544   -44694   -44867 
  -45005   -45092   -45144   -45167   -45147   -45061   -44900   -44706 
  -44562   -44537   -44621   -44755   -44898   -45034   -45183   -45396 
  -45676   -45939   -46092   -46115   -46049   -45937   -45782   -45604 
  -45457   -45373   -45336   -45312   -45282   -45248   -45220   -45198 
  -45177   -45156   -45142   -45133   -45094   -44974   -44755   -44504 
  -44360   -44426   -44654   -44900   -45064   -45132   -45153   -45217 
  -45341   -45409   -45330   -45160   -44986   -44841   -44754   -44739 
  -44759   -44770   -44717   -44549   -44303   -44110   -44086   -44256 
  -44553   -44839   -44991   -45010   -44991   -45000   -45048   -45126 
  -45238   -45424   -45703   -46028   -46336   -46573   -46701   -46735 
  -46709   -46650   -46595   -46562   -46517   -46412   -46237   -46023 
  -45826   -45684   -45585   -45502   -45407   -45275   -45116   -44995 
  -44947   -44951   -44977   -44985   -44930   -44811   -44672   -44562 
  -44507   -44486   -44453   -44385   -44300   -44208   -44092   -43989 
  -43994   -44170   -44512   -44959   -45388   -45661   -45685   -45467 
  -45119   -44764   -44486   -44338   -44366   -44603   -44997   -45410 
  -45698   -45763   -45596   -45289   -44963   -44712   -44573   -44549 
  -44643   -44830   -45023   -45127   -45093   -44946   -44774   -44672 
  -44692   -44826   -45018   -45220   -45411   -45566   -45652   -45680 
  -45688   -45687   -45693   -45734   -45807   -45890   -45974   -46016 
  -45955   -45802   -45631   -45522   -45511   -45563   -45584   -45510 
  -45380   -45291   -45300   -45362   -45368   -45257   -45077   -44897 
  -44737   -44596   -44487   -44441   -44476   -44563   -44655   -44715 
  -44739   -44761   -44779   -44734   -44575   -44321   -44063   -43898 
  -43849   -43854   -43816   -43731   -43684   -43733   -43897   -44163 
  -44469   -44745   -44951   -45061   -45050   -44945   -44843   -44825 
  -44873   -44922   -44940   -44938   -44976   -45090   -45219   -45298 
  -45346   -45371   -45325   -45177   -44953   -44719   -44542   -44489 
  -44606   -44876   -45224   -45557   -45810   -45972   -46057   -46066 
  -46013   -45934   -45870   -45837   -45807   -45744   -45641   -45500 
  -45326   -45141   -44951   -44750   -44562   -44451   -44473   -44616 
  -44786   -44878   -44879   -44858   -44892   -44964   -44979   -44877 
  -44710   -44590   -44564   -44577   -44557   -44478   -44354   -44243 
  -44205   -44260   -44419   -44686   -45032   -45404   -45773   -46121 
  -46387   -46512   -46518   -46480   -46428   -46339   -46200   -46049 
  -45945   -45912   -45911   -45854   -45668   -45396   -45185   -45123 
  -45164   -45197   -45143   -44998   -44811   -44636   -44492   -44374 
  -44278   -44194   -44126   -44131   -44251   -44444   -44626   -44723 
  -44707   -44607   -44511   -44524   -44687   -44944   -45201   -45390 
  -45503   -45570   -45615   -45652   -45685   -45733   -45821   -45938 
  -46024   -46016   -45887   -45695   -45559   -45559   -45691   -45899 
  -46126   -46343   -46497   -46472   -46195   -45725   -45246   -44937 
  -44836   -44863   -44934   -44988   -44988   -44923   -44791   -44602 
  -44390   -44210   -44126   -44176   -44334   -44514   -44604   -44547 
  -44389   -44239   -44201   -44300   -44480   -44679   -44875   -45021 
  -45035   -44886   -44647   -44432   -44325   -44338   -44420   -44501 
  -44524   -44443   -44257   -44042   -43908   -43920   -44088   -44384 
  -44734   -45035   -45242   -45371   -45433   -45435   -45407   -45410 
  -45514   -45698   -45845   -45879   -45834   -45775   -45743   -45741 
  -45729   -45645   -45503   -45389   -45373   -45452   -45556   -45626 
  -45631   -45526   -45299   -45013   -44765   -44629   -44609   -44643 
  -44694   -44782   -44931   -45150   -45394   -45547   -45525   -45362 
  -45141   -44921   -44703   -44424   -44050   -43670   -43429   -43388 
  -43479   -43597   -43697   -43803   -43930   -44040   -44076   -44025 
  -43946   -43932   -44018   -44154   -44273   -44364   -44501   -44793 
  -45245   -45719   -46076   -46272   -46340   -46352   -46330   -46195 
  -45885   -45466   -45073   -44822   -44760   -44854   -45031   -45224 
  -45386   -45481   -45501   -45483   -45499   -45629   -45899   -46246 
  -46557   -46753   -46818   -46778   -46662   -46475   -46237   -45995 
  -45828   -45803   -45897   -45991   -45965   -45816   -45648   -45546 
  -45493   -45418   -45317   -45271   -45330   -45453   -45547   -45531 
  -45405   -45245   -45132   -45064   -44971   -44822   -44662   -44536 
  -44441   -44309   -44051   -43678   -43337   -43181   -43246   -43503 
  -43865   -44173   -44322   -44335   -44282   -44212   -44174   -44194 
  -44283   -44466   -44755   -45104   -45437   -45692   -45836   -45880 
  -45881   -45898   -45947   -46014   -46071   -46104   -46129   -46180 
  -46269   -46370   -46427   -46387   -46257   -46125   -46067   -46067 
  -46052   -45944   -45696   -45331   -44951   -44639   -44400   -44222 
  -44141   -44207   -44424   -44698   -44854   -44788   -44567   -44318 
  -44110   -43953   -43818   -43715   -43748   -43989   -44358   -44704 
  -44898   -44873   -44690   -44471   -44286   -44136   -44009   -43912 
  -43902   -44053   -44359   -44735   -45080   -45317   -45438   -45497 
  -45534   -45529   -45451   -45326   -45239   -45243   -45313   -45375 
  -45352   -45222   -45019   -44805   -44643   -44550   -44487   -44430 
  -44405   -44448   -44531   -44583   -44581   -44595   -44715   -44949 
  -45203   -45378   -45436   -45404   -45343   -45279   -45203   -45112 
  -45017   -44964   -45012   -45189   -45456   -45716   -45889   -45956 
  -45941   -45910   -45927   -45975   -45986   -45952   -45907   -45860 
  -45794   -45680   -45519   -45387   -45337   -45314   -45233   -45046 
  -44770   -44495   -44290   -44160   -44099   -44146   -44348   -44664 
  -44958   -45106   -45096   -45031   -44988   -44958   -44937   -44940 
  -44942   -44914   -44859   -44756   -44574   -44325   -44087   -43967 
  -44039   -44290   -44614   -44888   -45059   -45126   -45101   -45026 
  -44978   -44996   -45061   -45176   -45354   -45571   -45795   -46017 
  -46228   -46366   -46346   -46140   -45778   -45336   -44917   -44603 
  -44415   -44342   -44347   -44378   -44414   -44485   -44586   -44663 
  -44695   -44711   -44758   -44905   -45191   -45562   -45883   -46059 
  -46090   -46037   -45994   -46024   -46094   -46132   -46114   -46051 
  -45970   -45879   -45739   -45531   -45323   -45228   -45303   -45496 
  -45690   -45799   -45802   -45711   -45533   -45291   -45025   -44787 
  -44652   -44663   -44779   -44922   -45050   -45147   -45226   -45302 
  -45332   -45278   -45169   -45055   -44973   -44947   -44942   -44903 
  -44830   -44755   -44690   -44612   -44483   -44300   -44103   -43946 
  -43846   -43794   -43778   -43801   -43885   -44012   -44109   -44125 
  -44093   -44085   -44144   -44270   -44447   -44666   -44938   -45259 
  -45550   -45717   -45742   -45664   -45518   -45357   -45242   -45178 
  -45124   -45063   -45033   -45089   -45229   -45392   -45521   -45615 
  -45710   -45814   -45897   -45938   -45944   -45946   -45970   -46019 
  -46078   -46110   -46078   -45988   -45872   -45759   -45660   -45560 
  -45460   -45409   -45443   -45526   -45554   -45443   -45191   -44914 
  -44778   -44838   -44984   -45088   -45105   -45065   -44991   -44844 
  -44589   -44275   -43998   -43807   -43673   -43536   -43387   -43299 
  -43343   -43503   -43699   -43861   -43979   -44116   -44337   -44625 
  -44909   -45158   -45395   -45630   -45833   -45965   -46015   -46005 
  -45976   -45957   -45973   -46056   -46226   -46436   -46601   -46653 
  -46564   -46370   -46152   -45981   -45875   -45798   -45698   -45574 
  -45456   -45322   -45126   -44882   -44679   -44588   -44599   -44635 
  -44608   -44509   -44418   -44383   -44331   -44135   -43748   -43284 
  -42915   -42728   -42709   -42808   -42956   -43104   -43237   -43323 
  -43323   -43266   -43223   -43247   -43384   -43627   -43900   -44154 
  -44424   -44739   -45058   -45330   -45530   -45650   -45713   -45760 
  -45818   -45918   -46085   -46303   -46539   -46742   -46861   -46911 
  -46946   -46980   -46986   -46953   -46904   -46860   -46796   -46653 
  -46378   -45995   -45605   -45303   -45123   -45055   -45049   -45033 
  -44945   -44762   -44510   -44254   -44062   -43964   -43921   -43843 
  -43666   -43438   -43278   -43265   -43402   -43653   -43961   -44272 
  -44553   -44755   -44830   -44796   -44740   -44761   -44898   -45083 
  -45208   -45259   -45322   -45449   -45588   -45644   -45573   -45438 
  -45365   -45427   -45595   -45790   -45956   -46069   -46136   -46192 
  -46259   -46286   -46208   -46030   -45814   -45642   -45572   -45568 
  -45541   -45468   -45430   -45526   -45762   -45997   -46039   -45834 
  -45506   -45222   -45085   -45109   -45230   -45381   -45532   -45660 
  -45713   -45634   -45436   -45192   -44978   -44852   -44845   -44943 
  -45086   -45205   -45258   -45225   -45111   -44955   -44805   -44668 
  -44522   -44359   -44212   -44125   -44095   -44059   -43978   -43881 
  -43820   -43841   -43967   -44172   -44404   -44613   -44765   -44856 
  -44888   -44865   -44837   -44874   -44986   -45110   -45171   -45156 
  -45139   -45204   -45360   -45559   -45757   -45925   -46057   -46157 
  -46216   -46206   -46131   -46037   -45965   -45929   -45917   -45899 
  -45844   -45752   -45643   -45519   -45367   -45171   -44939   -44724 
  -44585   -44510   -44440   -44364   -44330   -44380   -44520   -44711 
  -44870   -44943   -44945   -44910   -44848   -44752   -44613   -44463 
  -44353   -44299   -44268   -44213   -44118   -44029   -44008   -44061 
  -44125   -44147   -44163   -44243   -44407   -44594   -44738   -44844 
  -44979   -45191   -45471   -45750   -45967   -46129   -46256   -46319 
  -46268   -46082   -45813   -45570   -45447   -45431   -45424   -45355 
  -45253   -45196   -45207   -45220   -45142   -44956   -44753   -44648 
  -44652   -44682   -44665   -44605   -44561   -44597   -44718   -44857 
  -44939   -44952   -44928   -44902   -44892   -44877   -44828   -44748 
  -44674   -44645   -44671   -44733   -44817   -44922   -45047   -45164 
  -45215   -45166   -45039   -44926   -44946   -45126   -45384   -45640 
  -45881   -46110   -46298   -46385   -46334   -46178   -45969   -45739 
  -45527   -45390   -45340   -45323   -45274   -45184   -45093   -45064 
  -45133   -45236   -45268   -45208   -45104   -45014   -44968   -44935 
  -44873   -44800   -44775   -44841   -44981   -45108   -45129   -45038 
  -44942   -44949   -45062   -45218   -45371   -45512   -45642   -45712 
  -45641   -45427   -45162   -44959   -44880   -44894   -44930   -44958 
  -45016   -45118   -45214   -45232   -45157   -45083   -45117   -45228 
  -45301   -45272   -45162   -45018   -44878   -44747   -44626   -44548 
  -44548   -44631   -44758   -44863   -44902   -44883   -44840   -44801 
  -44772   -44756   -44776   -44834   -44893   -44910   -44864   -44785 
  -44768   -44869   -45050   -45240   -45367   -45400   -45372   -45321 
  -45230   -45086   -44927   -44821   -44804   -44849   -44880   -44838 
  -44746   -44673   -44669   -44713   -44734   -44697   -44634   -44612 
  -44682   -44834   -45010   -45162   -45270   -45326   -45343   -45328 
  -45238   -45043   -44794   -44595   -44520   -44573   -44676   -44730 
  -44717   -44686   -44657   -44609   -44515   -44402   -44359   -44455 
  -44654   -44869   -45051   -45208   -45379   -45555   -45666   -45658 
  -45554   -45427   -45349   -45330   -45298   -45195   -45048   -44926 
  -44860   -44823   -44778   -44738   -44733   -44755   -44783   -44819 
  -44878   -44966   -45104   -45299   -45504   -45645   -45694   -45681 
  -45669   -45697   -45731   -45709   -45637   -45566   -45528   -45549 
  -45621   -45678   -45669   -45607   -45536   -45472   -45400   -45307 
  -45196   -45087   -45004   -44958   -44940   -44921   -44870   -44788 
  -44697   -44610   -44535   -44463   -44391   -44337   -44315   -44296 
  -44264   -44249   -44284   -44377   -44525   -44684   -44799   -44860 
  -44888   -44895   -44869   -44816   -44767   -44758   -44822   -44956 
  -45119   -45273   -45391   -45474   -45564   -45686   -45828   -45968 
  -46090   -46169   -46170   -46069   -45881   -45653   -45457   -45370 
  -45449   -45667   -45889   -45972   -45898   -45745   -45594   -45475 
  -45359   -45225   -45133   -45138   -45220   -45288   -45250   -45081 
  -44859   -44721   -44722   -44801   -44886   -44942   -44948   -44909 
  -44844   -44786   -44775   -44820   -44907   -45025   -45149   -45258 
  -45356   -45449   -45495   -45438   -45267   -45032   -44803   -44618 
  -44472   -44365   -44331   -44382   -44475   -44540   -44540   -44495 
  -44472   -44522   -44632   -44769   -44900   -45022   -45165   -45320 
  -45423   -45433   -45363   -45253   -45140   -45047   -44994   -44988 
  -45012   -45052   -45107   -45174   -45238   -45275   -45286   -45310 
  -45368   -45445   -45516   -45557   -45538   -45447   -45295   -45109 
  -44935   -44832   -44821   -44868   -44927   -44970   -44996   -45032 
  -45081   -45108   -45110   -45105   -45066   -44955   -44802   -44670 
  -44609   -44622   -44678   -44739   -44789   -44837   -44890   -44923 
  -44917   -44898   -44910   -44974   -45073   -45169   -45230   -45235 
  -45160   -44999   -44789   -44604   -44495   -44453   -44450   -44485 
  -44569   -44705   -44873   -45021   -45066   -44968   -44788   -44631 
  -44547   -44527   -44557   -44664   -44873   -45152   -45419   -45598 
  -45656   -45607   -45500   -45404   -45362   -45392   -45516   -45736 
  -45978   -46140   -46188   -46164   -46110   -46040   -45942   -45792 
  -45590   -45380   -45217   -45116   -45047   -44979   -44905   -44816 
