Origin Time       2013/10/26 02:10:00
Lat.              37.195
Long.             144.568
Depth. (km)       56
Mag.              7.1
Station Code      ABSH11
Station Lat.      43.9144
Station Long.     144.1913
Station Height(m) -82
Record Time       2013/10/26 02:11:58
Sampling Freq(Hz) 100Hz
Duration Time(s)  210
Dir.              2
Scale Factor      2940(gal)/6170270
Max. Acc. (gal)   0.904
Last Correction   2013/10/26 02:11:43
Memo.             
[...]
   33917    33884    33822    33761    33725    33706    33685    33676 
   33692    33725    33773    33851    33944    34012    34035    34041 
   34053    34055    34017    33931    33824    33731    33668    33638 
   33643    33682    33730    33738    33709    33684    33694    33743 
   33800    33834    33859    33890    33919    33927    33907    33868 
   33811    33749    33706    33692    33709    33749    33786    33806 
   33818    33815    33792    33755    33727    33704    33664    33605 
   33548    33495    33447    33413    33390    33384    33404    33435 
   33462    33500    33567    33640    33680    33680    33649    33606 
   33593    33625    33668    33696    33717    33746    33789    33836 
   33866    33859    33818    33774    33743    33718    33695    33663 
   33626    33615    33625    33627    33620    33611    33605    33593 
   33560    33506    33449    33413    33419    33473    33560    33644 
   33702    33739    33775    33797    33776    33721    33656    33609 
   33597    33603    33606    33626    33674    33717    33721    33700 
   33674    33648    33630    33603    33558    33522    33503    33487 
   33491    33515    33540    33568    33611    33661    33692    33696 
   33694    33696    33695    33706    33729    33742    33720    33669 
   33632    33634    33629    33584    33543    33549    33591    33636 
   33663    33681    33705    33728    33728    33716    33718    33732 
   33728    33704    33694    33719    33755    33766    33734    33684 
   33672    33714    33776    33825    33860    33892    33927    33953 
   33940    33878    33790    33715    33688    33706    33725    33705 
   33646    33582    33547    33549    33563    33573    33601    33657 
   33718    33768    33798    33793    33754    33699    33652    33615 
   33587    33588    33635    33712    33797    33880    33961    34021 
   34040    34028    34010    33987    33955    33921    33887    33853 
   33833    33827    33819    33807    33800    33810    33837    33855 
   33844    33807    33746    33668    33606    33580    33599    33662 
   33737    33767    33741    33709    33717    33772    33852    33920 
   33945    33923    33869    33805    33759    33750    33761    33751 
   33710    33670    33670    33717    33785    33827    33822    33797 
   33791    33797    33771    33693    33595    33532    33541    33596 
   33636    33667    33736    33823    33886    33912    33886    33821 
   33778    33785    33842    33909    33923    33883    33831    33803 
   33801    33800    33796    33819    33873    33924    33938    33907 
   33854    33796    33738    33685    33635    33581    33522    33461 
   33421    33412    33420    33450    33510    33582    33659    33732 
   33773    33773    33753    33721    33683    33651    33627    33605 
   33590    33610    33668    33708    33697    33662    33625    33575 
   33518    33474    33464    33498    33554    33609    33674    33757 
   33821    33845    33843    33835    33811    33780    33759    33744 
   33732    33736    33765    33823    33889    33931    33944    33938 
   33922    33897    33856    33805    33773    33768    33771    33763 
   33745    33729    33727    33714    33664    33588    33507    33448 
   33453    33522    33604    33649    33645    33626    33628    33639 
   33641    33646    33637    33613    33623    33705    33844    33976 
   34022    33957    33829    33714    33654    33632    33618    33615 
   33643    33695    33744    33775    33782    33757    33710    33666 
   33631    33612    33625    33677    33741    33797    33832    33830 
   33799    33762    33738    33737    33759    33790    33802    33776 
   33735    33718    33719    33729    33763    33822    33868    33867 
   33825    33763    33687    33608    33551    33522    33496    33457 
   33427    33453    33558    33682    33753    33772    33753    33693 
   33628    33591    33574    33573    33585    33597    33620    33682 
   33751    33789    33812    33829    33814    33773    33723    33673 
   33654    33663    33644    33570    33497    33486    33538    33605 
   33637    33625    33608    33606    33590    33557    33542    33556 
   33589    33634    33689    33739    33778    33813    33849    33891 
   33942    33968    33936    33875    33836    33835    33855    33858 
   33814    33749    33690    33639    33600    33576    33549    33496 
   33414    33329    33268    33245    33287    33398    33533    33656 
   33761    33848    33934    34024    34095    34131    34119    34045 
   33931    33803    33678    33598    33597    33662    33747    33820 
   33858    33842    33782    33720    33670    33626    33604    33625 
   33696    33818    33948    34037    34075    34067    34011    33930 
   33843    33749    33669    33627    33608    33613    33666    33744 
   33792    33788    33743    33677    33608    33544    33494    33468 
   33457    33454    33451    33432    33429    33490    33584    33653 
   33686    33684    33650    33616    33612    33653    33722    33769 
   33777    33783    33811    33846    33871    33881    33886    33904 
   33926    33929    33913    33876    33809    33761    33765    33770 
   33741    33710    33702    33710    33724    33731    33732    33739 
   33762    33791    33801    33781    33743    33698    33653    33618 
   33599    33584    33552    33502    33458    33448    33488    33567 
   33645    33685    33681    33672    33699    33778    33893    33990 
   34018    33985    33932    33890    33881    33898    33904    33885 
   33853    33800    33722    33665    33667    33707    33742    33726 
   33667    33637    33671    33749    33849    33920    33921    33870 
   33812    33766    33730    33690    33640    33595    33557    33520 
   33509    33535    33568    33578    33547    33462    33347    33264 
   33250    33302    33376    33435    33486    33555    33622    33640 
   33599    33541    33499    33473    33461    33482    33555    33667 
   33782    33892    33992    34059    34086    34082    34061    34053 
   34055    34026    33965    33911    33879    33861    33853    33873 
   33937    34003    34028    34031    34033    34032    34035    34045 
   34062    34098    34146    34166    34144    34088    34010    33915 
   33815    33736    33697    33692    33717    33740    33730    33704 
   33682    33661    33651    33648    33621    33568    33498    33424 
   33381    33370    33332    33253    33201    33240    33351    33455 
   33507    33532    33548    33570    33634    33739    33827    33874 
   33900    33914    33926    33940    33928    33885    33843    33827 
   33833    33847    33860    33864    33856    33857    33883    33912 
   33911    33895    33908    33955    33987    33991    34003    34023 
   34019    33995    33969    33932    33878    33823    33783    33761 
   33760    33774    33781    33769    33751    33729    33685    33636 
   33610    33593    33570    33558    33551    33528    33487    33435 
   33378    33351    33367    33381    33386    33432    33515    33607 
   33718    33830    33917    33980    34007    33978    33917    33852 
   33789    33735    33708    33713    33748    33795    33813    33778 
   33722    33696    33729    33781    33781    33732    33705    33730 
   33767    33777    33773    33769    33727    33633    33550    33528 
   33554    33598    33632    33624    33576    33522    33490    33495 
   33532    33583    33619    33603    33529    33453    33446    33517 
   33624    33710    33752    33787    33845    33915    33999    34089 
   34131    34088    33983    33890    33859    33839    33777    33712 
   33687    33695    33729    33789    33844    33842    33767    33662 
   33578    33524    33492    33479    33481    33496    33499    33483 
   33474    33465    33448    33444    33427    33375    33322    33294 
   33301    33345    33393    33434    33476    33496    33482    33452 
   33417    33391    33382    33376    33379    33410    33473    33555 
   33634    33664    33618    33547    33504    33475    33465    33518 
   33634    33768    33877    33949    33998    34016    33982    33926 
   33903    33910    33897    33842    33787    33774    33796    33823 
   33853    33896    33932    33951    33987    34049    34087    34071 
   34015    33949    33892    33847    33814    33803    33802    33766 
   33686    33594    33508    33426    33335    33232    33155    33160 
   33238    33334    33433    33533    33610    33651    33662    33655 
   33644    33629    33602    33574    33561    33561    33566    33574 
   33571    33550    33543    33559    33559    33549    33561    33581 
   33609    33649    33680    33708    33752    33801    33841    33875 
   33908    33924    33911    33890    33882    33888    33905    33907 
   33862    33787    33725    33713    33766    33850    33922    33949 
   33916    33870    33876    33944    34047    34156    34246    34296 
   34292    34233    34128    34015    33932    33886    33866    33873 
   33897    33922    33949    33997    34063    34122    34143    34114 
   34076    34087    34128    34118    34020    33864    33707    33589 
   33489    33368    33242    33158    33118    33114    33158    33230 
   33291    33329    33344    33349    33385    33446    33474    33466 
   33467    33493    33548    33605    33601    33547    33514    33529 
   33572    33637    33732    33868    34029    34164    34228    34216 
   34165    34100    34033    33998    34019    34081    34156    34227 
   34280    34303    34299    34281    34262    34261    34272    34266 
   34225    34144    34049    33969    33886    33778    33693    33655 
   33624    33573    33506    33433    33367    33303    33248    33254 
   33326    33402    33456    33492    33510    33523    33534    33527 
   33510    33499    33488    33474    33462    33434    33362    33248 
   33129    33035    32978    32963    32988    33026    33060    33103 
   33152    33181    33188    33172    33161    33235    33401    33567 
   33701    33804    33865    33931    34049    34175    34271    34334 
   34383    34465    34602    34744    34835    34851    34799    34728 
   34682    34641    34559    34427    34278    34152    34066    34009 
   33956    33907    33868    33828    33787    33745    33693    33631 
   33551    33431    33286    33153    33052    32991    32976    33009 
   33094    33212    33318    33381    33428    33489    33537    33546 
   33551    33574    33588    33580    33560    33521    33468    33430 
   33425    33455    33501    33549    33621    33734    33858    33976 
   34097    34212    34290    34315    34304    34298    34310    34319 
   34315    34311    34337    34431    34582    34729    34798    34775 
   34704    34612    34500    34394    34301    34181    34010    33808 
   33583    33328    33070    32866    32762    32756    32799    32853 
   32912    32971    33015    33045    33059    33051    33035    33034 
   33058    33125    33232    33322    33380    33432    33479    33537 
   33623    33701    33760    33837    33923    33995    34065    34128 
   34166    34176    34149    34099    34073    34070    34053    34032 
   34022    34031    34063    34071    34014    33938    33877    33823 
   33781    33753    33724    33711    33736    33776    33787    33755 
   33688    33603    33505    33375    33215    33063    32949    32872 
   32830    32822    32837    32847    32852    32874    32945    33084 
   33257    33406    33522    33622    33715    33824    33955    34077 
   34179    34262    34320    34356    34381    34405    34442    34482 
   34504    34501    34474    34422    34352    34291    34250    34201 
   34141    34106    34079    34012    33918    33834    33765    33687 
   33577    33459    33386    33346    33280    33189    33114    33049 
   32962    32867    32802    32779    32771    32745    32690    32613 
   32533    32482    32480    32504    32524    32556    32623    32696 
   32772    32922    33112    33291    33528    33738    33791    33850 
   33995    34095    34211    34424    34577    34648    34741    34790 
   34797    34861    34903    34901    34958    35018    35014    35003 
   34977    34907    34823    34714    34581    34476    34397    34312 
   34224    34146    34067    33973    33848    33704    33580    33484 
   33378    33231    33059    32906    32790    32704    32642    32605 
   32612    32675    32763    32845    32934    33045    33168    33285 
   33380    33451    33518    33586    33636    33672    33718    33775 
   33833    33924    34069    34219    34322    34375    34399    34431 
   34492    34550    34557    34523    34493    34485    34494    34508 
   34497    34459    34443    34464    34495    34510    34468    34355 
   34228    34127    34058    34048    34106    34173    34182    34129 
   34052    33961    33853    33731    33587    33426    33277    33143 
   33012    32896    32812    32757    32735    32751    32787    32830 
   32908    33022    33118    33174    33233    33320    33415    33515 
   33650    33812    33958    34053    34098    34106    34092    34075 
   34071    34102    34185    34310    34440    34541    34579    34539 
   34456    34365    34258    34130    33994    33868    33785    33758 
   33761    33770    33765    33709    33583    33426    33290    33182 
   33084    32976    32835    32649    32447    32261    32107    32014 
   31985    31988    31999    32005    31983    31921    31851    31821 
   31844    31914    32031    32203    32437    32713    32966    33159 
   33319    33461    33563    33620    33651    33687    33751    33819 
   33851    33848    33827    33791    33760    33752    33761    33788 
   33844    33902    33913    33885    33863    33854    33849    33877 
   33947    34006    34017    33979    33915    33858    33819    33799 
   33813    33856    33882    33847    33753    33634    33533    33499 
   33535    33600    33673    33761    33853    33930    33978    33959 
   33850    33704    33604    33591    33652    33743    33806    33824 
   33824    33833    33861    33924    34023    34114    34176    34240 
   34321    34413    34515    34595    34623    34624    34602    34514 
   34359    34191    34065    34006    33988    33971    33954    33967 
   34021    34106    34201    34272    34295    34298    34330    34385 
   34437    34495    34552    34586    34622    34679    34726    34753 
   34754    34701    34590    34449    34286    34092    33884    33700 
   33563    33485    33464    33484    33537    33618    33715    33824 
   33934    34036    34128    34204    34267    34344    34434    34532 
   34653    34812    34997    35180    35338    35460    35532    35547 
   35493    35369    35215    35022    34721    34346    33966    33570 
   33219    32990    32845    32776    32796    32847    32925    33044 
   33148    33224    33300    33361    33387    33368    33319    33287 
   33276    33256    33223    33192    33169    33166    33198    33273 
   33369    33456    33536    33625    33714    33793    33855    33889 
   33898    33899    33895    33905    33961    34066    34194    34310 
   34389    34431    34446    34438    34420    34402    34341    34214 
   34045    33842    33615    33399    33197    32998    32793    32566 
   32341    32168    32044    31951    31905    31929    32002    32073 
   32128    32211    32360    32547    32722    32882    33033    33169 
   33296    33418    33500    33528    33531    33527    33523    33539 
   33546    33488    33395    33369    33431    33520    33595    33658 
   33719    33789    33876    33977    34087    34199    34307    34391 
   34434    34459    34486    34505    34514    34505    34457    34381 
   34316    34262    34197    34111    33982    33809    33630    33464 
   33307    33160    33021    32875    32720    32562    32402    32247 
   32104    31989    31906    31850    31839    31899    32016    32171 
   32373    32633    32935    33253    33558    33844    34128    34413 
   34680    34904    35043    35068    35016    34946    34847    34681 
   34464    34251    34066    33927    33850    33834    33875    33963 
   34057    34143    34248    34398    34578    34754    34895    34986 
   35035    35062    35083    35097    35082    35006    34844    34611 
   34349    34097    33883    33716    33591    33511    33464    33428 
   33405    33396    33372    33312    33235    33163    33115    33109 
   33146    33188    33202    33187    33169    33191    33294    33479 
   33713    33950    34162    34341    34501    34654    34774    34833 
   34850    34849    34806    34715    34630    34588    34576    34564 
   34512    34398    34231    34041    33857    33686    33537    33426 
   33368    33364    33402    33449    33473    33439    33337    33214 
   33117    33009    32867    32753    32708    32698    32683    32651 
   32616    32607    32638    32673    32681    32685    32712    32731 
   32724    32713    32694    32650    32593    32536    32472    32400 
   32336    32282    32246    32272    32377    32531    32713    32906 
   33078    33217    33351    33523    33750    34019    34284    34517 
   34705    34813    34830    34790    34701    34565    34400    34189 
   33935    33711    33568    33480    33393    33290    33193    33145 
   33168    33232    33299    33354    33394    33433    33479    33542 
   33652    33829    34019    34148    34207    34217    34204    34214 
   34262    34312    34348    34384    34421    34445    34448    34428 
   34395    34342    34242    34093    33920    33730    33544    33392 
   33271    33169    33099    33068    33075    33144    33282    33467 
   33679    33901    34110    34298    34473    34633    34781    34939 
   35080    35151    35157    35125    35044    34926    34794    34644 
   34464    34267    34084    33930    33792    33648    33512    33419 
   33385    33389    33417    33473    33545    33607    33661    33742 
   33864    34003    34131    34240    34313    34357    34380    34351 
   34272    34207    34190    34214    34251    34239    34170    34097 
   34020    33910    33757    33553    33315    33079    32855    32655 
   32485    32321    32190    32145    32190    32313    32509    32762 
   33056    33359    33636    33869    34051    34176    34238    34247 
   34250    34283    34331    34347    34327    34305    34296    34296 
   34330    34411    34500    34558    34585    34594    34599    34616 
   34645    34668    34657    34618    34584    34553    34511    34464 
   34428    34417    34430    34428    34398    34369    34354    34322 
   34231    34070    33869    33659    33445    33233    33022    32799 
   32599    32470    32394    32341    32324    32339    32354    32355 
   32354    32393    32523    32747    33028    33318    33558    33722 
   33840    33930    33984    33995    33974    33946    33927    33903 
   33851    33793    33774    33785    33764    33689    33582    33476 
   33392    33314    33236    33176    33107    33012    32927    32865 
   32834    32866    32952    33057    33140    33171    33183    33232 
   33313    33380    33437    33513    33592    33651    33710    33790 
   33888    33996    34108    34206    34256    34244    34182    34088 
