Origin Time       2013/10/26 02:10:00
Lat.              37.195
Long.             144.568
Depth. (km)       56
Mag.              7.1
Station Code      ABSH11
Station Lat.      43.9144
Station Long.     144.1913
Station Height(m) 40
Record Time       2013/10/26 02:11:58
Sampling Freq(Hz) 100Hz
Duration Time(s)  210
Dir.              4
Scale Factor      3920(gal)/6170801
Max. Acc. (gal)   3.297
Last Correction   2013/10/26 02:11:43
Memo.             
[...]
    9829     9418     9014     8727     8620     8724     9036     9506 
   10033    10510    10848    10982    10904    10672    10368    10067 
    9798     9550     9317     9116     8957     8849     8809     8862 
    9008     9168     9246     9203     9068     8915     8820     8827 
    8958     9224     9602    10039    10450    10726    10787    10604 
   10188     9616     9017     8506     8139     7931     7864     7894 
    7976     8092     8232     8368     8473     8557     8642     8743 
    8844     8896     8852     8689     8423     8121     7879     7787 
    7907     8238     8740     9331     9883    10280    10442    10353 
   10073     9699     9343     9116     9084     9260     9591     9965 
   10255    10341    10158     9723     9142     8558     8113     7907 
    7954     8187     8509     8842     9146     9410     9620     9739 
    9724     9585     9397     9257     9217     9269     9388     9554 
    9726     9852     9918     9942     9922     9834     9696     9556 
    9444     9382     9386     9446     9542     9648     9718     9703 
    9596     9438     9281     9143     8992     8780     8507     8222 
    7963     7768     7696     7802     8116     8619     9247     9918 
   10520    10934    11099    11005    10685    10225     9730     9279 
    8921     8675     8517     8417     8362     8367     8484     8748 
    9134     9582    10026    10392    10622    10688    10557    10207 
    9685     9107     8616     8349     8363     8602     8959     9326 
    9622     9805     9860     9800     9656     9470     9305     9202 
    9167     9186     9219     9190     9058     8846     8598     8352 
    8183     8173     8327     8587     8890     9189     9438     9616 
    9710     9701     9587     9417     9279     9265     9402     9635 
    9878    10066    10139    10051     9808     9442     9010     8616 
    8376     8336     8460     8671     8897     9079     9145     9017 
    8666     8141     7558     7062     6779     6781     7052     7505 
    8032     8530     8932     9234     9506     9838    10277    10814 
   11404    11973    12439    12728    12787    12618    12273    11826 
   11376    11019    10801    10700    10669    10642    10546    10326 
    9972     9515     9015     8560     8246     8127     8187     8380 
    8677     9049     9432     9743     9900     9860     9635     9265 
    8809     8350     7969     7731     7662     7742     7931     8191 
    8448     8627     8691     8633     8492     8358     8335     8485 
    8786     9169     9545     9803     9843     9655     9323     8964 
    8700     8625     8761     9064     9473     9915    10281    10469 
   10426    10185     9841     9485     9177     8967     8886     8936 
    9085     9289     9508     9707     9854     9940     9983     9989 
    9936     9817     9656     9490     9326     9137     8893     8592 
    8291     8096     8091     8293     8654     9074     9448     9708 
    9824     9781     9566     9179     8670     8148     7740     7532 
    7526     7665     7886     8139     8401     8678     8997     9372 
    9783    10170    10454    10558    10401     9929     9167     8209 
    7189     6272     5617     5323     5393     5744     6241     6759 
    7227     7628     7955     8223     8501     8868     9340     9861 
   10356    10772    11092    11312    11440    11500    11511    11473 
   11352    11111    10736    10247     9681     9101     8607     8325 
    8343     8648     9148     9743    10321    10774    11027    11056 
   10897    10641    10376    10139     9919     9678     9394     9094 
    8828     8639     8574     8694     9033     9540    10086    10531 
   10752    10661    10251     9600     8862     8236     7885     7850 
    8080     8512     9066     9631    10098    10417    10606    10727 
   10828    10919    10996    11047    11055    10996    10857    10653 
   10408    10162     9951     9777     9626     9478     9296     9042 
    8714     8346     7959     7566     7210     6938     6772     6732 
    6845     7115     7515     8003     8512     8964     9313     9545 
    9697     9851    10075    10384    10744    11111    11449    11743 
   11986    12165    12247    12199    12026    11762    11471    11230 
   11064    10931    10768    10531    10203     9793     9305     8744 
    8151     7611     7208     7000     7019     7256     7662     8149 
    8615     8979     9203     9264     9171     8976     8743     8490 
    8212     7930     7672     7438     7235     7091     7027     7060 
    7227     7555     8014     8530     9020     9408     9633     9677 
    9586     9448     9350     9346     9445     9649     9947    10280 
   10555    10689    10635    10376     9955     9474     9035     8718 
    8564     8577     8741     9015     9330     9595     9736     9716 
    9505     9105     8555     7930     7343     6907     6672     6630 
    6760     7036     7405     7801     8180     8530     8865     9188 
    9473     9678     9774     9745     9570     9266     8911     8558 
    8209     7872     7586     7386     7271     7214     7201     7248 
    7378     7610     7961     8413     8928     9507    10164    10900 
   11687    12436    13021    13344    13345    13016    12421    11669 
   10880    10185     9707     9521     9592     9801     9997    10052 
    9905     9574     9135     8683     8282     7978     7823     7845 
    7996     8149     8185     8072     7836     7541     7296     7195 
    7285     7561     7970     8450     8962     9464     9915    10313 
   10694    11095    11530    11988    12424    12764    12940    12917 
   12687    12286    11796    11293    10807    10355     9974     9672 
    9419     9192     8983     8785     8600     8436     8300     8199 
    8121     8046     7985     7976     8019     8070     8097     8083 
    8007     7849     7611     7345     7141     7061     7098     7227 
    7448     7759     8121     8501     8894     9298     9691    10038 
   10333    10603    10864    11128    11409    11725    12079    12454 
   12831    13189    13502    13742    13879    13873    13688    13332 
   12856    12322    11782    11290    10900    10634    10447    10263 
   10010     9626     9069     8332     7462     6561     5758     5178 
    4917     5018     5461     6163     6988     7781     8401     8748 
    8785     8527     8035     7420     6812     6333     6064     6004 
    6090     6240     6377     6463     6469     6382     6238     6101 
    6052     6168     6475     6950     7540     8163     8738     9201 
    9514     9673     9711     9695     9713     9833    10076    10400 
   10736    11038    11259    11323    11197    10921    10563    10183 
    9842     9583     9409     9290     9177     9014     8763     8426 
    8040     7669     7346     7057     6799     6576     6388     6243 
    6168     6192     6322     6542     6836     7187     7593     8082 
    8656     9267     9853    10380    10827    11194    11525    11860 
   12181    12438    12618    12755    12881    13003    13114    13189 
   13211    13179    13086    12915    12668    12367    12026    11635 
   11167    10627    10093     9666     9410     9363     9531     9859 
   10236    10529    10637    10510    10156     9649     9098     8633 
    8375     8375     8593     8940     9299     9535     9569     9404 
    9089     8696     8305     7986     7775     7666     7633     7645 
    7685     7772     7934     8181     8537     8998     9518    10052 
   10566    11022    11404    11708    11942    12123    12266    12360 
   12368    12265    12058    11759    11383    10960    10546    10207 
    9966     9785     9601     9343     8974     8524     8053     7628 
    7302     7111     7108     7314     7683     8146     8621     9022 
    9299     9438     9440     9344     9215     9106     9031     8974 
    8898     8768     8588     8400     8246     8155     8141     8189 
    8261     8315     8341     8366     8406     8477     8630     8908 
    9327     9896    10586    11309    11942    12365    12485    12268 
   11765    11083    10354     9728     9334     9209     9296     9491 
    9665     9699     9520     9119     8573     8022     7613     7434 
    7514     7823     8258     8695     9061     9318     9447     9439 
    9309     9083     8763     8324     7754     7078     6346     5630 
    5006     4563     4400     4590     5140     5966     6927     7860 
    8626     9136     9351     9288     9033     8721     8445     8234 
    8092     8011     7984     8008     8044     8049     8029     8002 
    7990     8025     8114     8224     8314     8343     8289     8161 
    8009     7894     7851     7876     7933     7952     7862     7647 
    7341     7003     6709     6551     6617     6938     7480     8166 
    8895     9565    10096    10452    10636    10694    10703    10740 
   10846    11032    11285    11578    11857    12041    12062    11890 
   11527    11031    10502    10004     9574     9252     9066     9029 
    9157     9448     9869    10381    10967    11602    12210    12686 
   12940    12933    12686    12243    11679    11106    10623    10264 
   10029     9918     9914     9961     9976     9913     9766     9553 
    9304     9051     8820     8654     8606     8694     8898     9159 
    9388     9516     9528     9425     9228     8987     8772     8652 
    8687     8917     9347     9962    10718    11520    12242    12779 
   13081    13141    12972    12629    12194    11734    11295    10914 
   10616    10427    10348    10337    10386    10506    10690    10905 
   11099    11201    11150    10911    10502     9973     9380     8792 
    8278     7903     7732     7772     7938     8117     8223     8205 
    8041     7743     7357     6947     6608     6448     6523     6817 
    7255     7728     8138     8418     8545     8509     8281     7867 
    7344     6813     6376     6124     6085     6222     6489     6842 
    7228     7612     7982     8333     8664     8955     9156     9234 
    9187     9020     8754     8442     8141     7898     7772     7828 
    8091     8524     9050     9582    10035    10355    10509    10491 
   10361    10236    10206    10323    10614    11037    11481    11841 
   12033    11990    11699    11214    10639    10102     9709     9488 
    9373     9270     9114     8865     8501     8041     7550     7105 
    6787     6671     6769     7013     7298     7537     7692     7760 
    7758     7724     7724     7804     7943     8104     8259     8360 
    8350     8239     8101     8033     8107     8322     8602     8886 
    9142     9333     9436     9451     9395     9318     9275     9299 
    9383     9491     9602     9729     9896    10125    10410    10705 
   10956    11129    11185    11086    10842    10512    10163     9872 
    9702     9665     9730     9821     9835     9713     9464     9128 
    8788     8570     8602     8943     9542    10279    11037    11720 
   12260    12616    12761    12725    12590    12421    12239    12013 
   11671    11174    10531     9790     9026     8334     7807     7510 
    7486     7744     8225     8812     9377     9801    10013    10033 
    9913     9706     9489     9352     9350     9480     9694     9916 
   10064    10053     9844     9461     8969     8467     8067     7866 
    7926     8251     8767     9363     9932    10359    10544    10459 
   10146     9661     9080     8526     8117     7925     7982     8267 
    8732     9329    10011    10720    11375    11891    12209    12307 
   12205    11953    11610    11235    10879    10573    10347    10239 
   10236    10260    10200     9961     9503     8854     8085     7282 
    6545     5992     5716     5744     6044     6523     7043     7468 
    7698     7687     7434     6995     6483     6028     5726     5610 
    5654     5820     6076     6373     6665     6952     7263     7618 
    8044     8548     9083     9562     9906    10061    10015     9791 
    9432     9009     8637     8437     8468     8709     9079     9502 
    9920    10297    10626    10907    11131    11316    11503    11705 
   11888    11987    11944    11714    11291    10705     9991     9176 
    8304     7453     6727     6209     5894     5729     5676     5681 
    5676     5617     5512     5407     5370     5471     5774     6317 
    7079     7979     8919     9839    10712    11503    12158    12641 
   12964    13169    13292    13344    13314    13207    13071    12955 
   12868    12793    12719    12660    12630    12604    12527    12375 
   12131    11769    11293    10745    10186     9674     9244     8916 
    8686     8527     8417     8333     8264     8220     8214     8220 
    8181     8062     7855     7590     7322     7108     6990     7021 
    7234     7616     8134     8742     9386     9997    10508    10890 
   11155    11317    11405    11456    11487    11503    11524    11556 
   11574    11531    11376    11069    10595     9951     9155     8274 
    7400     6614     5991     5581     5380     5356     5477     5690 
    5954     6253     6554     6798     6933     6957     6941     6966 
    7090     7334     7681     8109     8595     9082     9494     9799 
    9977    10002     9881     9649     9361     9077     8845     8701 
    8682     8821     9104     9471     9849    10168    10375    10448 
   10376    10189     9964     9797     9785    10014    10514    11246 
   12126    13027    13794    14296    14447    14219    13626    12717 
   11587    10385     9289     8442     7914     7686     7664     7731 
    7796     7796     7698     7504     7230     6898     6543     6197 
    5918     5774     5802     6009     6391     6936     7593     8265 
    8866     9349     9681     9835     9794     9574     9245     8901 
    8623     8457     8418     8491     8630     8799     8984     9148 
    9243     9245     9163     9010     8819     8653     8555     8529 
    8565     8673     8882     9183     9500     9747     9902     9993 
   10064    10162    10306    10476    10637    10759    10805    10733 
   10526    10216     9871     9564     9366     9310     9371     9520 
    9749    10038    10361    10694    11013    11287    11475    11538 
   11476    11328    11144    10968    10851    10846    10960    11146 
   11344    11472    11444    11221    10809    10249     9629     9051 
    8590     8274     8090     7975     7843     7652     7432     7250 
    7180     7262     7503     7909     8475     9137     9792    10340 
   10713    10872    10821    10594    10244     9831     9430     9105 
    8880     8745     8684     8681     8714     8768     8844     8949 
    9060     9142     9177     9156     9082     8974     8833     8650 
    8438     8223     8030     7888     7813     7811     7899     8086 
    8369     8740     9171     9611    10016    10353    10571    10639 
   10573    10410    10197     9978     9759     9527     9272     8993 
    8715     8484     8350     8343     8474     8740     9120     9549 
    9922    10126    10094     9830     9392     8857     8321     7889 
    7651     7654     7883     8260     8675     9043     9322     9491 
    9541     9458     9235     8906     8528     8166     7881     7709 
    7687     7841     8171     8654     9225     9783    10208    10401 
   10324     9993     9454     8798     8145     7602     7247     7117 
    7201     7494     7968     8549     9153     9698    10101    10323 
   10404    10411    10410    10463    10602    10797    10997    11173 
   11309    11377    11348    11227    11040    10829    10641    10495 
   10361    10175     9884     9489     9039     8598     8228     7980 
    7893     7964     8132     8311     8417     8378     8156     7767 
    7269     6734     6234     5836     5590     5521     5624     5873 
    6249     6764     7410     8147     8895     9564    10065    10348 
   10410    10289    10042     9767     9584     9579     9764    10095 
   10488    10866    11192    11442    11598    11653    11611    11467 
   11210    10851    10422     9965     9525     9148     8881     8748 
    8735     8809     8932     9054     9126     9113     9032     8944 
    8908     8984     9219     9599    10079    10616    11141    11570 
   11835    11887    11722    11389    10960    10483    10004     9566 
    9198     8915     8744     8697     8760     8924     9173     9460 
    9732     9927    10000     9954     9821     9652     9497     9374 
    9281     9227     9222     9257     9291     9263     9145     8952 
    8729     8533     8416     8410     8511     8676     8855     8990 
    9017     8903     8664     8345     7982     7606     7254     6961 
    6761     6678     6715     6860     7074     7309     7552     7813 
    8105     8430     8788     9176     9585    10012    10457    10909 
   11328    11655    11838    11850    11692    11385    10963    10489 
   10037     9659     9371     9171     9055     9012     9026     9079 
    9137     9187     9252     9351     9492     9683     9910    10160 
   10436    10703    10895    10972    10912    10685    10305     9832 
    9345     8920     8619     8486     8533     8728     8990     9209 
    9306     9241     8997     8611     8159     7706     7312     7038 
    6911     6928     7051     7227     7409     7572     7717     7847 
    7963     8071     8179     8295     8432     8613     8845     9112 
    9401     9700     9979    10207    10360    10421    10393    10294 
   10133     9912     9672     9482     9401     9460     9657     9943 
   10249    10507    10657    10668    10527    10229     9808     9334 
    8884     8550     8397     8434     8631     8938     9293     9623 
    9852     9919     9795     9503     9108     8690     8323     8077 
    8000     8083     8286     8544     8782     8949     9018     8987 
    8894     8784     8685     8612     8582     8608     8678     8755 
    8814     8867     8941     9064     9270     9591    10015    10475 
   10885    11170    11266    11138    10820    10406     9996     9644 
    9377     9227     9223     9343     9526     9706     9832     9863 
    9793     9645     9458     9265     9111     9014     8966     8974 
    9048     9169     9307     9429     9520     9595     9664     9727 
    9777     9801     9795     9744     9630     9470     9311     9188 
    9118     9116     9179     9289     9422     9545     9623     9623 
    9532     9373     9202     9087     9089     9232     9502     9859 
   10239    10561    10759    10784    10612    10251     9736     9123 
    8492     7934     7512     7242     7124     7141     7267     7470 
    7699     7898     8041     8127     8164     8179     8210     8270 
    8347     8420     8476     8491     8433     8301     8124     7933 
    7764     7662     7668     7815     8107     8512     8984     9486 
    9988    10456    10855    11154    11336    11402    11389    11340 
   11286    11274    11345    11509    11740    11979    12145    12187 
   12090    11855    11488    11015    10499    10021     9647     9419 
    9324     9303     9284     9215     9059     8800     8470     8145 
    7895     7748     7718     7803     7975     8177     8333     8388 
    8331     8166     7928     7701     7556     7523     7613     7812 
