Origin Time       2013/10/26 02:10:00
Lat.              37.195
Long.             144.568
Depth. (km)       56
Mag.              7.1
Station Code      ABSH11
Station Lat.      43.9144
Station Long.     144.1913
Station Height(m) 40
Record Time       2013/10/26 02:11:58
Sampling Freq(Hz) 100Hz
Duration Time(s)  210
Dir.              5
Scale Factor      3920(gal)/6170801
Max. Acc. (gal)   4.055
Last Correction   2013/10/26 02:11:43
Memo.             
[...]
     760      643      417      135     -132     -341     -454     -460 
    -400     -324     -262     -234     -236     -249     -262     -273 
    -270     -239     -163      -44       89      216      341      446 
     512      550      575      585      559      473      334      159 
     -58     -298     -514     -662     -715     -654     -483     -238 
      28      275      463      565      589      565      537      546 
     601      668      720      737      701      620      518      417 
     341      283      204       68     -131     -357     -556     -680 
    -686     -546     -279       39      302      411      337      128 
    -144     -406     -588     -639     -540     -305       16      354 
     634      783      753      556      261      -37     -247     -321 
    -265     -143      -44      -17      -58     -134     -192     -199 
    -152      -73      -19      -60     -207     -385     -483     -410 
    -141      287      784     1218     1458     1418     1096      585 
      37     -404     -625     -587     -358      -53      226      394 
     393      236        9     -179     -256     -212      -76       86 
     203      249      253      258      287      344      413      465 
     468      372      152     -147     -440     -639     -661     -481 
    -147      249      596      796      812      666      416      149 
     -54     -156     -149      -56       82      234      356      410 
     396      340      266      189      122       90       97      119 
     119       68      -32     -128     -166     -163     -192     -290 
    -433     -566     -636     -612     -500     -331     -149        9 
     115      155      152      165      244      415      648      874 
    1029     1049      883      546      111     -328     -671     -810 
    -695     -376       47      480      826     1006     1000      865 
     685      520      404      355      366      391      365      256 
      78     -122     -280     -349     -320     -210      -63       59 
      98       41      -85     -250     -405     -485     -460     -351 
    -158      130      481      810     1048     1161     1120      890 
     498       25     -425     -733     -825     -691     -335      180 
     704     1075     1191     1039      707      319      -25     -240 
    -270     -140       81      341      586      778      882      855 
     686      423      140      -74     -170     -140       -7      180 
     374      563      753      927     1039     1065      981      750 
     369     -103     -583     -956    -1111    -1001     -653     -168 
     321      698      874      801      515      140     -190     -412 
    -514     -509     -438     -341     -251     -188     -152     -130 
    -119     -116     -111      -93      -68      -35       24      114 
     213      306      393      459      477      445      378      293 
     197       79      -64     -210     -354     -513     -666     -763 
    -767     -661     -443     -145      153      378      498      512 
     461      429      481      619      791      912      913      761 
     467       71     -361     -736     -971    -1041     -974     -793 
    -496     -111      274      578      740      736      609      440 
     305      258      272      266      194       73      -62     -177 
    -214     -143       26      277      563      807      943      922 
     729      419       72     -252     -504     -654     -704     -675 
    -609     -545     -497     -444     -358     -242     -111       16 
     126      226      316      383      413      392      326      227 
     111        8      -39       -9       84      195      272      294 
     255      157       29      -89     -192     -282     -337     -338 
    -272     -121       91      284      384      371      265      108 
     -51     -174     -258     -333     -411     -464     -450     -340 
    -136      127      403      654      855      984     1033      992 
     846      596      285      -15     -227     -313     -292     -219 
    -146     -117     -159     -267     -414     -567     -673     -678 
    -571     -376     -132      101      243      246      119     -101 
    -350     -530     -558     -418     -146      166      397      480 
     424      287      166      155      270      441      578      613 
     489      177     -270     -727    -1074    -1230    -1152     -840 
    -355      187      657      956     1047      968      785      568 
     380      267      267      390      582      757      870      922 
     929      915      910      951     1056     1189     1295     1326 
    1238      995      599      106     -391     -814    -1113    -1242 
   -1184     -977     -694     -388      -71      244      524      734 
     850      858      747      532      267       12     -200     -348 
    -419     -428     -407     -382     -384     -447     -562     -681 
    -750     -723     -580     -346      -64      208      392      413 
     269       70      -64     -100      -37      131      377      628 
     827      953      979      889      709      496      285       85 
     -93     -228     -299     -299     -241     -133       38      273 
     545      828     1087     1261     1294     1188     1013      838 
     685      569      514      501      472      384      252      100 
     -53     -177     -263     -328     -390     -469     -583     -718 
    -823     -854     -807     -693     -528     -357     -224     -150 
    -147     -190     -192      -73      200      596     1027     1376 
    1530     1415     1041      468     -226     -910    -1445    -1752 
   -1826    -1689    -1378     -945     -446       55      489      813 
    1002     1055      997      856      653      451      321      292 
     355      481      642      805      917      935      840      632 
     352       72     -124     -178      -91       90      294      442 
     482      428      328      202       67      -37      -85      -89 
     -56        5       85      175      265      335      368      367 
     352      345      355      389      439      484      501      435 
     235      -86     -477     -887    -1263    -1565    -1780    -1916 
   -2011    -2089    -2111    -2018    -1798    -1477    -1069     -567 
      17      629     1199     1664     1980     2120     2089     1925 
    1688     1430     1207     1048      936      862      829      851 
     947     1089     1205     1234     1133      873      483       44 
    -357     -655     -820     -847     -761     -611     -468     -397 
    -425     -559     -793    -1086    -1356    -1540    -1587    -1441 
   -1072     -505      178      861     1417     1749     1826     1704 
    1501     1330     1246     1235     1239     1197     1086      922 
     744      582      432      284      139       -7     -149     -265 
    -341     -388     -431     -489     -550     -581     -563     -501 
    -415     -319     -241     -209     -208     -196     -153      -50 
     139      380      588      689      661      528      331      107 
     -86     -175     -129       12      177      309      374      367 
     287      142      -34     -193     -296     -329     -307     -252 
    -177     -101      -31       30       67       57      -18     -164 
    -355     -528     -642     -683     -643     -530     -381     -250 
    -172     -167     -236     -347     -461     -549     -569     -473 
    -250       72      432      760     1000     1122     1141     1115 
    1088     1072     1080     1115     1158     1177     1141     1020 
     811      550      283       33     -191     -373     -524     -691 
    -911    -1175    -1457    -1734    -1981    -2199    -2376    -2456 
   -2381    -2111    -1639    -1027     -368      260      800     1202 
    1449     1563     1578     1528     1435     1307     1166     1046 
     979     1011     1173     1436     1707     1875     1882     1738 
    1508     1292     1182     1218     1367     1559     1730     1813 
    1733     1450     1006      492      -37     -560    -1027    -1388 
   -1657    -1916    -2222    -2570    -2911    -3168    -3235    -3064 
   -2681    -2148    -1553     -981     -485      -91      208      459 
     700      938     1155     1315     1376     1307     1118      849 
     536      217      -50     -173      -93      157      488      824 
    1092     1238     1239     1096      835      510      169     -160 
    -450     -671     -775     -728     -534     -213      191      599 
     950     1219     1380     1416     1365     1285     1207     1152 
    1129     1104     1032      886      653      345       28     -211 
    -316     -282     -153       -1      115      157      124       64 
      38       85      235      496      829     1162     1419     1527 
    1449     1211      868      479      103     -209     -446     -633 
    -789     -919    -1028    -1114    -1154    -1124    -1003     -775 
    -449      -75      277      554      744      840      815      672 
     445      155     -191     -569     -939    -1265    -1517    -1670 
   -1725    -1691    -1560    -1334    -1043     -725     -411     -116 
     179      489      808     1102     1337     1493     1554     1493 
    1291      965      542       39     -500    -1002    -1408    -1679 
   -1796    -1748    -1535    -1172     -717     -264      104      343 
     431      362      157     -117     -356     -469     -397     -128 
     277      687      972     1083     1040      890      717      599 
     543      504      424      251      -34     -405     -800    -1170 
   -1472    -1658    -1685    -1543    -1264     -921     -584     -273 
      15      277      499      650      710      666      490      177 
    -243     -707    -1119    -1370    -1376    -1120     -690     -238 
      86      202      106     -157     -499     -810    -1004    -1026 
    -871     -613     -358     -188     -148     -228     -401     -638 
    -862     -983     -970     -837     -606     -297       62      439 
     785     1071     1314     1567     1906     2398     3055     3820 
    4582     5189     5526     5540     5195     4485     3489     2332 
    1136       30     -856    -1462    -1804    -1916    -1824    -1566 
   -1187     -744     -304       72      342      476      473      339 
      82     -253     -580     -799     -845     -700     -399       -5 
     398      721      905      954      892      737      512      232 
     -99     -445     -749     -959    -1017     -893     -605     -185 
     305      786     1195     1492     1661     1743     1806     1882 
    1977     2107     2262     2381     2394     2270     2033     1752 
    1473     1183      840      421      -95     -715    -1392    -2050 
   -2612    -3008    -3161    -3011    -2558    -1888    -1133     -411 
     192      619      851      915      867      778      699      661 
     679      753      867     1003     1116     1164     1132     1008 
     803      560      322      130       10      -34       -5       82 
     176      213      159       31     -139     -325     -508     -663 
    -772     -831     -851     -848     -836     -810     -765     -716 
    -667     -612     -544     -482     -446     -431     -419     -393 
    -331     -234     -112       52      254      452      611      712 
     744      719      662      586      517      493      528      632 
     813     1025     1183     1219     1122      933      697      429 
     152      -98     -307     -482     -624     -741     -867    -1044 
   -1285    -1569    -1877    -2193    -2463    -2592    -2532    -2288 
   -1875    -1316     -668      -17      543      937     1146     1194 
    1101      878      518       13     -607    -1268    -1843    -2200 
   -2255    -2004    -1513     -915     -383      -63       -4     -167 
    -440     -664     -716     -534      -93      575     1379     2197 
    2910     3438     3751     3838     3722     3460     3089     2612 
    2042     1421      785      171     -361     -755     -997    -1094 
   -1061     -929     -740     -538     -353     -189      -49       70 
     175      248      262      194       23     -249     -576     -886 
   -1103    -1154     -980     -586      -32      587     1141     1505 
    1614     1439     1009      409     -274     -965    -1594    -2117 
   -2477    -2610    -2492    -2154    -1649    -1029     -341      366 
    1052     1691     2248     2703     3056     3312     3505     3667 
    3785     3807     3685     3395     2935     2331     1643      955 
     335     -184     -590     -894    -1136    -1369    -1642    -1991 
   -2427    -2903    -3347    -3682    -3853    -3855    -3710    -3456 
   -3121    -2703    -2203    -1651    -1069     -458      152      694 
    1114     1395     1532     1541     1472     1382     1323     1342 
    1462     1662     1888     2051     2063     1897     1581     1173 
     731      304      -65     -361     -597     -802     -983    -1101 
   -1105     -954     -642     -216      226      576      736      657 
     369      -49     -515     -965    -1362    -1692    -1961    -2189 
   -2375    -2502    -2533    -2415    -2118    -1672    -1120     -498 
     128      666     1042     1221     1196      996      676      316 
     -32     -368     -705    -1048    -1391    -1685    -1845    -1772 
   -1368     -590      505     1799     3160     4447     5510     6215 
    6489     6349     5891     5241     4494     3707     2883     1994 
    1039       52     -926    -1807    -2495    -2928    -3083    -2967 
   -2638    -2179    -1653    -1103     -564      -47      448      910 
    1341     1754     2153     2499     2728     2808     2749     2569 
    2317     2049     1790     1552     1351     1180      998      752 
     405      -47     -588    -1180    -1771    -2324    -2806    -3157 
   -3316    -3281    -3107    -2838    -2505    -2130    -1712    -1248 
    -759     -262      239      744     1249     1725     2120     2392 
    2507     2431     2148     1661     1006      276     -417     -964 
   -1273    -1299    -1059     -622      -92      406      766      939 
     934      794      589      392      260      231      309      458 
     623      765      859      895      881      829      743      626 
     470      257      -14     -320     -663    -1041    -1422    -1771 
   -2086    -2376    -2631    -2837    -2972    -3013    -2956    -2819 
   -2629    -2398    -2132    -1863    -1621    -1409    -1214    -1015 
    -798     -549     -270       21      309      591      876     1154 
    1382     1549     1685     1820     1955     2084     2193     2232 
    2151     1932     1579     1138      697      361      224      348 
     710     1206     1711     2107     2311     2297     2098     1790 
    1442     1087      734      378       22     -307     -584     -792 
    -910     -935     -878     -769     -652     -565     -527     -556 
    -658     -823    -1035    -1266    -1454    -1550    -1543    -1442 
   -1257     -993     -659     -282       98      451      764     1025 
    1226     1372     1446     1430     1343     1203     1030      882 
     805      795      814      817      769      648      448      202 
     -32     -200     -265     -215      -72      111      300      482 
     639      768      877      971     1057     1140     1195     1171 
    1024      745      353     -112     -611    -1084    -1442    -1598 
   -1516    -1243     -889     -580     -407     -411     -584     -889 
   -1262    -1611    -1836    -1853    -1612    -1123     -456      294 
    1018     1616     2021     2216     2228     2124     2001     1930 
    1917     1924     1916     1875     1782     1623     1418     1183 
     922      648      374      111     -127     -318     -424     -424 
    -339     -215     -124     -130     -215     -296     -298     -183 
      48      371      730     1030     1180     1123      855      429 
     -56     -509     -888    -1185    -1397    -1530    -1602    -1644 
   -1680    -1723    -1771    -1800    -1799    -1771    -1719    -1647 
   -1551    -1408    -1229    -1057     -922     -836     -799     -807 
    -839     -856     -827     -747     -630     -483     -285      -24 
     282      617      970     1323     1645     1896     2046     2096 
    2062     1941     1714     1383      968      496        9     -449 
    -837    -1100    -1202    -1137     -909     -548     -118      337 
     813     1296     1739     2087     2305     2383     2334     2166 
    1869     1452      950      414      -96     -543     -914    -1218 
   -1474    -1665    -1786    -1890    -2020    -2162    -2287    -2367 
   -2349    -2169    -1801    -1262     -590      143      847     1451 
    1910     2197     2316     2297     2188     2045     1909     1791 
    1679     1552     1389     1189      970      767      623      552 
     553      615      703      786      866      958     1089     1270 
    1484     1704     1916     2118     2300     2437     2478     2357 
    2048     1576      970      272     -443    -1098    -1641    -2042 
   -2268    -2327    -2272    -2162    -2079    -2122    -2309    -2600 
   -2948    -3273    -3473    -3483    -3294    -2924    -2405    -1786 
   -1135     -531      -37      330      588      768      903     1027 
    1155     1262     1296     1216     1005      683      312      -17 
    -214     -216      -12      372      885     1456     1988     2387 
    2615     2680     2601     2409     2152     1869     1585     1314 
    1039      730      373      -31     -480     -977    -1515    -2069 
   -2612    -3129    -3605    -4012    -4320    -4508    -4553    -4414 
   -4062    -3505    -2785    -1955    -1057     -142      738     1544 
    2236     2780     3157     3342     3322     3133     2833     2498 
    2194     1949     1767     1638     1556     1521     1517     1531 
    1550     1550     1511     1430     1298     1109      878      632 
     388      119     -231     -692    -1253    -1875    -2491    -3023 
   -3405    -3600    -3603    -3435    -3120    -2691    -2203    -1723 
   -1276     -859     -508     -281     -193     -211     -269     -298 
    -244      -68      237      650     1135     1642     2125     2550 
    2903     3176     3357     3452     3488     3477     3409     3282 
    3119     2938     2743     2522     2248     1905     1504     1081 
     661      270      -59     -305     -482     -615     -753     -942 
   -1178    -1442    -1727    -2015    -2302    -2603    -2893    -3113 
   -3203    -3117    -2837    -2393    -1863    -1326     -847     -458 
    -147      136      441      801     1215     1639     2021     2324 
    2520     2603     2581     2446     2203     1881     1511     1118 
     720      338       23     -172     -217     -105      156      520 
     907     1220     1372     1327     1097      717      250     -230 
    -665    -1000    -1183    -1196    -1059     -837     -609     -433 
    -332     -283     -241     -159       24      330      705     1069 
    1348     1461     1370     1106      731      309      -88     -383 
    -516     -448     -176      269      823     1387     1869     2215 
    2384     2362     2164     1817     1372      915      556      377 
