Origin Time       2013/10/26 02:10:00
Lat.              37.195
Long.             144.568
Depth. (km)       56
Mag.              7.1
Station Code      ABSH11
Station Lat.      43.9144
Station Long.     144.1913
Station Height(m) -82
Record Time       2013/10/26 02:11:58
Sampling Freq(Hz) 100Hz
Duration Time(s)  210
Dir.              3
Scale Factor      2940(gal)/6170270
Max. Acc. (gal)   0.757
Last Correction   2013/10/26 02:11:43
Memo.             
[...]
  -38106   -38022   -37954   -37924   -37926   -37948   -37972   -37986 
  -37998   -38013   -38009   -37960   -37904   -37897   -37925   -37934 
  -37900   -37823   -37742   -37731   -37811   -37911   -37964   -37973 
  -37969   -37965   -37950   -37915   -37864   -37802   -37741   -37714 
  -37744   -37818   -37895   -37951   -37981   -37991   -38004   -38030 
  -38039   -38025   -38022   -38053   -38103   -38144   -38161   -38166 
  -38170   -38170   -38170   -38176   -38169   -38127   -38077   -38057 
  -38062   -38066   -38061   -38041   -38004   -37968   -37943   -37922 
  -37897   -37859   -37808   -37776   -37795   -37835   -37857   -37859 
  -37847   -37833   -37855   -37907   -37947   -37962   -37966   -37955 
  -37924   -37887   -37871   -37897   -37937   -37931   -37863   -37762 
  -37668   -37627   -37655   -37730   -37813   -37869   -37901   -37935 
  -37963   -37965   -37951   -37945   -37953   -37945   -37886   -37806 
  -37783   -37841   -37928   -37976   -37952   -37895   -37861   -37850 
  -37832   -37787   -37732   -37700   -37701   -37729   -37792   -37875 
  -37954   -38019   -38073   -38094   -38048   -37946   -37840   -37768 
  -37725   -37704   -37720   -37781   -37862   -37916   -37930   -37923 
  -37907   -37884   -37863   -37860   -37883   -37922   -37973   -38024 
  -38044   -38028   -38021   -38060   -38134   -38209   -38259   -38268 
  -38247   -38212   -38147   -38041   -37946   -37924   -37982   -38090 
  -38221   -38343   -38419   -38443   -38418   -38340   -38212   -38072 
  -37976   -37950   -37954   -37926   -37858   -37809   -37808   -37817 
  -37809   -37795   -37778   -37750   -37711   -37671   -37640   -37625 
  -37635   -37671   -37713   -37736   -37737   -37722   -37677   -37611 
  -37566   -37561   -37584   -37623   -37679   -37770   -37899   -38017 
  -38055   -38002   -37920   -37873   -37888   -37964   -38077   -38186 
  -38268   -38333   -38381   -38404   -38400   -38374   -38345   -38321 
  -38290   -38248   -38193   -38130   -38070   -38018   -37973   -37939 
  -37919   -37919   -37939   -37973   -37998   -37996   -37974   -37948 
  -37916   -37877   -37850   -37839   -37839   -37860   -37917   -38009 
  -38104   -38152   -38136   -38101   -38098   -38137   -38188   -38215 
  -38209   -38189   -38164   -38135   -38124   -38139   -38151   -38133 
  -38104   -38097   -38126   -38181   -38235   -38252   -38208   -38107 
  -37994   -37929   -37930   -37969   -38008   -38010   -37964   -37879 
  -37790   -37739   -37735   -37754   -37787   -37843   -37914   -37954 
  -37935   -37887   -37850   -37812   -37729   -37616   -37550   -37565 
  -37601   -37598   -37552   -37496   -37480   -37521   -37616   -37756 
  -37895   -37990   -38049   -38069   -38044   -38010   -38003   -38016 
  -38042   -38085   -38125   -38140   -38136   -38123   -38120   -38142 
  -38158   -38155   -38169   -38195   -38185   -38129   -38050   -37968 
  -37907   -37877   -37867   -37857   -37826   -37772   -37732   -37741 
  -37780   -37805   -37795   -37753   -37717   -37728   -37765   -37781 
  -37760   -37703   -37636   -37624   -37679   -37742   -37765   -37758 
  -37748   -37747   -37748   -37758   -37796   -37848   -37887   -37900 
  -37895   -37894   -37898   -37884   -37862   -37864   -37884   -37885 
  -37857   -37810   -37758   -37705   -37638   -37562   -37507   -37490 
  -37510   -37562   -37634   -37727   -37823   -37879   -37880   -37867 
  -37878   -37922   -37975   -38003   -38012   -38034   -38070   -38082 
  -38063   -38045   -38030   -38009   -37997   -37985   -37953   -37929 
  -37954   -38021   -38096   -38158   -38187   -38180   -38158   -38150 
  -38161   -38175   -38159   -38084   -37977   -37906   -37888   -37886 
  -37856   -37787   -37719   -37694   -37725   -37798   -37880   -37942 
  -37976   -37987   -37983   -37966   -37920   -37828   -37707   -37616 
  -37592   -37627   -37681   -37715   -37736   -37783   -37851   -37883 
  -37860   -37822   -37798   -37788   -37787   -37772   -37721   -37663 
  -37654   -37709   -37794   -37901   -38048   -38217   -38374   -38498 
  -38573   -38590   -38556   -38493   -38434   -38388   -38347   -38310 
  -38279   -38248   -38216   -38190   -38166   -38141   -38138   -38173 
  -38215   -38245   -38278   -38303   -38280   -38196   -38068   -37933 
  -37821   -37732   -37668   -37638   -37645   -37664   -37662   -37620 
  -37546   -37472   -37430   -37451   -37534   -37633   -37705   -37751 
  -37786   -37819   -37850   -37871   -37883   -37908   -37960   -38040 
  -38141   -38222   -38251   -38239   -38213   -38200   -38225   -38276 
  -38324   -38363   -38404   -38429   -38421   -38397   -38365   -38322 
  -38294   -38284   -38261   -38220   -38171   -38099   -37999   -37882 
  -37750   -37616   -37492   -37371   -37266   -37177   -37080   -36988 
  -36924   -36863   -36795   -36761   -36779   -36817   -36856   -36912 
  -37020   -37184   -37376   -37584   -37818   -38065   -38293   -38492 
  -38657   -38779   -38873   -38958   -39040   -39131   -39234   -39325 
  -39364   -39344   -39302   -39260   -39207   -39117   -38962   -38754 
  -38534   -38319   -38123   -37958   -37797   -37628   -37466   -37315 
  -37207   -37172   -37189   -37215   -37229   -37243   -37256   -37226 
  -37158   -37137   -37205   -37303   -37382   -37464   -37560   -37681 
  -37820   -37926   -37977   -37985   -37977   -37997   -38056   -38127 
  -38198   -38273   -38340   -38386   -38428   -38495   -38598   -38714 
  -38793   -38812   -38796   -38773   -38750   -38735   -38725   -38680 
  -38578   -38439   -38296   -38169   -38054   -37944   -37853   -37803 
  -37787   -37802   -37853   -37921   -37975   -37998   -37973   -37899 
  -37799   -37683   -37550   -37389   -37202   -37025   -36912   -36879 
  -36891   -36923   -36983   -37073   -37183   -37294   -37369   -37396 
  -37413   -37467   -37582   -37728   -37838   -37881   -37902   -37948 
  -38017   -38081   -38125   -38155   -38203   -38297   -38423   -38555 
  -38663   -38716   -38722   -38706   -38659   -38579   -38491   -38413 
  -38358   -38334   -38331   -38337   -38328   -38268   -38155   -38037 
  -37939   -37841   -37736   -37644   -37570   -37495   -37409   -37317 
  -37226   -37164   -37157   -37197   -37258   -37315   -37360   -37400 
  -37444   -37472   -37492   -37560   -37689   -37813   -37882   -37924 
  -37990   -38097   -38206   -38275   -38321   -38375   -38425   -38446 
  -38438   -38395   -38304   -38177   -38057   -37961   -37888   -37850 
  -37855   -37887   -37930   -37975   -38011   -38029   -38035   -38025 
  -38006   -38010   -38038   -38034   -37968   -37875   -37773   -37629 
  -37438   -37233   -37068   -36983   -36978   -37032   -37126   -37220 
  -37286   -37345   -37425   -37526   -37654   -37810   -37958   -38067 
  -38152   -38230   -38272   -38246   -38179   -38125   -38087   -38055 
  -38037   -38036   -38036   -38032   -38029   -38031   -38040   -38070 
  -38139   -38235   -38315   -38342   -38321   -38285   -38252   -38231 
  -38234   -38255   -38277   -38308   -38350   -38383   -38399   -38396 
  -38365   -38314   -38259   -38206   -38159   -38129   -38124   -38138 
  -38172   -38220   -38247   -38227   -38166   -38103   -38069   -38071 
  -38087   -38102   -38113   -38120   -38117   -38089   -38032   -37966 
  -37912   -37881   -37898   -37983   -38113   -38246   -38342   -38375 
  -38360   -38318   -38243   -38143   -38043   -37951   -37865   -37795 
  -37752   -37756   -37813   -37887   -37944   -37981   -38004   -38030 
  -38076   -38141   -38220   -38306   -38361   -38360   -38324   -38271 
  -38191   -38095   -38008   -37929   -37858   -37799   -37746   -37689 
  -37634   -37582   -37520   -37477   -37501   -37574   -37633   -37645 
  -37616   -37560   -37495   -37461   -37483   -37547   -37619   -37667 
  -37678   -37671   -37659   -37644   -37632   -37611   -37571   -37540 
  -37535   -37544   -37563   -37604   -37662   -37703   -37718   -37737 
  -37768   -37781   -37758   -37717   -37677   -37641   -37616   -37606 
  -37597   -37577   -37572   -37610   -37681   -37774   -37904   -38065 
  -38222   -38351   -38440   -38482   -38480   -38450   -38408   -38365 
  -38313   -38249   -38196   -38153   -38083   -37976   -37860   -37749 
  -37639   -37534   -37455   -37424   -37442   -37488   -37557   -37650 
  -37746   -37814   -37849   -37865   -37863   -37839   -37808   -37780 
  -37750   -37718   -37691   -37680   -37705   -37776   -37885   -37995 
  -38073   -38122   -38149   -38141   -38099   -38057   -38011   -37931 
  -37828   -37742   -37703   -37706   -37734   -37775   -37822   -37870 
  -37932   -38023   -38120   -38182   -38202   -38220   -38269   -38341 
  -38404   -38436   -38437   -38419   -38401   -38394   -38364   -38277 
  -38166   -38076   -38000   -37929   -37875   -37830   -37768   -37677 
  -37581   -37509   -37479   -37492   -37532   -37580   -37617   -37634 
  -37635   -37627   -37615   -37607   -37595   -37570   -37568   -37618 
  -37711   -37833   -37967   -38082   -38172   -38235   -38261   -38274 
  -38323   -38425   -38559   -38696   -38793   -38831   -38827   -38799 
  -38743   -38667   -38597   -38542   -38503   -38471   -38432   -38395 
  -38374   -38353   -38330   -38311   -38295   -38279   -38260   -38230 
  -38181   -38122   -38079   -38060   -38044   -38008   -37939   -37858 
  -37795   -37752   -37708   -37634   -37507   -37366   -37257   -37159 
  -37062   -37009   -37028   -37121   -37263   -37416   -37549   -37645 
  -37706   -37755   -37824   -37912   -37986   -38040   -38096   -38162 
  -38244   -38342   -38427   -38478   -38514   -38547   -38563   -38559 
  -38544   -38519   -38496   -38461   -38391   -38307   -38214   -38094 
  -37960   -37847   -37774   -37736   -37720   -37733   -37777   -37822 
  -37847   -37871   -37908   -37935   -37928   -37894   -37857   -37843 
  -37862   -37883   -37877   -37870   -37888   -37924   -37953   -37969 
  -37995   -38029   -38047   -38065   -38113   -38190   -38278   -38357 
  -38391   -38356   -38258   -38128   -38004   -37909   -37839   -37771 
  -37684   -37584   -37497   -37445   -37438   -37460   -37480   -37488 
  -37484   -37460   -37427   -37421   -37452   -37481   -37478   -37449 
  -37421   -37436   -37520   -37641   -37739   -37797   -37839   -37869 
  -37886   -37905   -37924   -37916   -37864   -37785   -37713   -37678 
  -37692   -37746   -37820   -37874   -37877   -37838   -37787   -37748 
  -37737   -37754   -37781   -37799   -37805   -37812   -37825   -37819 
  -37772   -37714   -37694   -37728   -37804   -37902   -38011   -38125 
  -38211   -38244   -38243   -38218   -38151   -38058   -38000   -37998 
  -38015   -38030   -38052   -38083   -38107   -38110   -38094   -38061 
  -38024   -38005   -37991   -37957   -37915   -37868   -37792   -37693 
  -37591   -37500   -37423   -37348   -37284   -37261   -37278   -37307 
  -37336   -37358   -37372   -37407   -37481   -37578   -37688   -37815 
  -37946   -38081   -38234   -38397   -38555   -38689   -38770   -38793 
  -38805   -38840   -38898   -38967   -39029   -39059   -39043   -38983 
  -38909   -38864   -38872   -38934   -39024   -39111   -39165   -39145 
  -39034   -38864   -38676   -38480   -38278   -38092   -37947   -37833 
  -37728   -37629   -37554   -37514   -37504   -37512   -37533   -37560 
  -37576   -37567   -37546   -37535   -37545   -37581   -37647   -37730 
  -37805   -37857   -37900   -37950   -37988   -37993   -37990   -38008 
  -38043   -38087   -38140   -38203   -38268   -38324   -38360   -38372 
  -38369   -38353   -38316   -38249   -38160   -38065   -37976   -37891 
  -37816   -37747   -37668   -37579   -37490   -37389   -37267   -37128 
  -36989   -36868   -36770   -36682   -36610   -36579   -36587   -36627 
  -36713   -36843   -36982   -37098   -37202   -37339   -37518   -37705 
  -37870   -38002   -38082   -38108   -38107   -38094   -38064   -38013 
  -37963   -37940   -37925   -37894   -37878   -37911   -37971   -38018 
  -38047   -38060   -38062   -38060   -38057   -38060   -38076   -38097 
  -38118   -38150   -38193   -38225   -38246   -38280   -38330   -38367 
  -38378   -38373   -38351   -38313   -38282   -38253   -38182   -38068 
  -37968   -37908   -37873   -37832   -37763   -37662   -37540   -37392 
  -37219   -37046   -36900   -36811   -36799   -36840   -36906   -36999 
  -37116   -37231   -37344   -37468   -37581   -37671   -37749   -37825 
  -37922   -38054   -38199   -38338   -38450   -38516   -38530   -38510 
  -38480   -38454   -38454   -38490   -38544   -38596   -38619   -38605 
  -38587   -38578   -38558   -38509   -38432   -38358   -38318   -38313 
  -38323   -38331   -38333   -38345   -38387   -38431   -38443   -38430 
  -38410   -38392   -38381   -38373   -38368   -38378   -38388   -38387 
  -38382   -38372   -38361   -38370   -38409   -38460   -38500   -38504 
  -38454   -38364   -38266   -38172   -38082   -38009   -37949   -37879 
  -37793   -37701   -37616   -37546   -37479   -37406   -37342   -37298 
  -37270   -37274   -37317   -37372   -37413   -37454   -37515   -37590 
  -37669   -37755   -37845   -37932   -38021   -38117   -38206   -38265 
  -38278   -38242   -38174   -38105   -38041   -37974   -37905   -37846 
  -37798   -37766   -37752   -37751   -37765   -37791   -37834   -37896 
  -37945   -37952   -37950   -37988   -38060   -38136   -38201   -38256 
  -38320   -38403   -38487   -38535   -38535   -38478   -38370   -38246 
  -38132   -38030   -37932   -37821   -37677   -37521   -37390   -37289 
  -37206   -37139   -37069   -36962   -36824   -36692   -36579   -36484 
  -36407   -36355   -36348   -36389   -36459   -36550   -36666   -36807 
  -36968   -37134   -37293   -37447   -37603   -37755   -37887   -37988 
  -38057   -38117   -38182   -38245   -38300   -38356   -38422   -38497 
  -38558   -38594   -38616   -38619   -38585   -38534   -38483   -38435 
  -38404   -38410   -38433   -38440   -38426   -38395   -38351   -38307 
  -38272   -38245   -38221   -38200   -38187   -38171   -38126   -38070 
  -38053   -38085   -38127   -38158   -38184   -38200   -38194   -38171 
  -38125   -38033   -37899   -37758   -37630   -37524   -37432   -37339 
  -37258   -37202   -37165   -37156   -37209   -37317   -37436   -37546 
  -37639   -37708   -37765   -37820   -37871   -37924   -37992   -38068 
  -38143   -38220   -38311   -38415   -38516   -38605   -38680   -38729 
  -38745   -38746   -38754   -38767   -38770   -38764   -38751   -38707 
  -38601   -38457   -38311   -38169   -38039   -37946   -37890   -37848 
  -37803   -37756   -37711   -37659   -37583   -37499   -37440   -37412 
  -37411   -37444   -37506   -37577   -37630   -37659   -37682   -37717 
  -37760   -37804   -37844   -37886   -37959   -38087   -38241   -38353 
  -38402   -38427   -38465   -38522   -38590   -38661   -38708   -38700 
  -38650   -38600   -38570   -38540   -38483   -38411   -38348   -38300 
  -38260   -38215   -38170   -38147   -38148   -38150   -38151   -38156 
  -38159   -38145   -38097   -38014   -37914   -37818   -37727   -37634 
  -37542   -37469   -37417   -37375   -37356   -37390   -37467   -37546 
  -37592   -37595   -37568   -37527   -37478   -37437   -37411   -37389 
  -37373   -37369   -37366   -37348   -37329   -37332   -37358   -37387 
  -37409   -37411   -37393   -37387   -37405   -37426   -37448   -37484 
  -37532   -37585   -37628   -37649   -37658   -37674   -37708   -37763 
  -37824   -37875   -37913   -37945   -37968   -37985   -38005   -38043 
  -38102   -38162   -38216   -38279   -38335   -38356   -38356   -38368 
  -38396   -38412   -38405   -38391   -38399   -38447   -38533   -38626 
  -38686   -38691   -38659   -38607   -38533   -38443   -38356   -38271 
  -38167   -38052   -37969   -37944   -37964   -38006   -38061   -38118 
  -38159   -38175   -38168   -38146   -38102   -38029   -37923   -37807 
  -37724   -37684   -37654   -37603   -37527   -37440   -37357   -37288 
  -37244   -37241   -37286   -37367   -37457   -37527   -37573   -37636 
  -37746   -37900   -38068   -38220   -38359   -38503   -38626   -38709 
  -38771   -38828   -38864   -38865   -38812   -38711   -38581   -38451 
  -38351   -38279   -38176   -38007   -37802   -37608   -37436   -37294 
  -37193   -37117   -37046   -36993   -36963   -36938   -36908   -36881 
  -36881   -36907   -36953   -37020   -37092   -37146   -37170   -37167 
  -37149   -37138   -37148   -37181   -37225   -37262   -37294   -37324 
  -37340   -37337   -37332   -37331   -37340   -37396   -37518   -37671 
  -37831   -37997   -38151   -38264   -38334   -38390   -38457   -38544 
  -38647   -38738   -38809   -38873   -38930   -38960   -38952   -38917 
  -38873   -38841   -38821   -38779   -38694   -38566   -38393   -38187 
  -37983   -37804   -37649   -37528   -37452   -37417   -37417   -37442 
  -37470   -37496   -37527   -37553   -37553   -37515   -37440   -37359 
  -37306   -37291   -37307   -37335   -37370   -37425   -37507   -37593 
  -37663   -37736   -37829   -37932   -38042   -38164   -38282   -38365 
  -38408   -38433   -38470   -38528   -38597   -38664   -38725   -38759 
  -38758   -38748   -38742   -38716   -38663   -38596   -38536   -38499 
  -38493   -38500   -38501   -38502   -38521   -38536   -38509   -38422 
  -38286   -38135   -37992   -37869   -37780   -37726   -37689   -37672 
  -37672   -37671   -37671   -37685   -37706   -37721   -37733   -37756 
  -37791   -37816   -37808   -37780   -37762   -37765   -37793   -37855 
  -37946   -38049   -38142   -38215   -38272   -38313   -38335   -38327 
  -38286   -38221   -38156   -38113   -38102   -38125   -38180   -38255 
  -38323   -38351   -38338   -38311   -38287   -38262   -38224   -38181 
  -38145   -38106   -38041   -37931   -37782   -37616   -37450   -37294 
  -37162   -37058   -36982   -36942   -36940   -36971   -37036   -37130 
  -37251   -37403   -37566   -37712   -37828   -37903   -37950   -37998 
  -38043   -38072   -38097   -38127   -38152   -38153   -38128   -38096 
  -38083   -38088   -38099   -38107   -38098   -38052   -37971   -37881 
  -37811   -37761   -37712   -37666   -37648   -37655   -37669   -37685 
  -37691   -37673   -37656   -37673   -37724   -37775   -37799   -37806 
  -37820   -37859   -37931   -38022   -38111   -38188   -38248   -38275 
  -38253   -38183   -38081   -37978   -37917   -37906   -37914   -37921 
  -37928   -37942   -37964   -37996   -38036   -38073   -38095   -38107 
  -38116   -38119   -38112   -38082   -38032   -37993   -37979   -37984 
  -37991   -37990   -37982   -37974   -37963   -37931   -37873   -37797 
  -37725   -37682   -37687   -37724   -37761   -37785   -37810   -37842 
  -37866   -37872   -37875   -37880   -37882   -37892   -37924   -37976 
  -38023   -38033   -37999   -37935   -37883   -37887   -37942   -38004 
  -38044   -38068   -38094   -38130   -38172   -38195   -38169   -38096 
  -38006   -37926   -37870   -37839   -37835   -37868   -37943   -38046 
  -38154   -38252   -38341   -38415   -38454   -38450   -38411   -38361 
  -38313   -38268   -38220   -38165   -38120   -38123   -38184   -38270 
  -38334   -38347   -38324   -38296   -38282   -38286   -38303   -38324 
  -38331   -38309   -38261   -38198   -38132   -38074   -38015   -37946 
  -37873   -37806   -37748   -37693   -37629   -37553   -37471   -37396 
  -37329   -37273   -37236   -37219   -37210   -37211   -37240   -37295 
  -37357   -37426   -37499   -37568   -37645   -37733   -37802   -37833 
  -37844   -37858   -37870   -37860   -37822   -37776   -37730   -37683 
