Origin Time       2013/10/26 02:10:00
Lat.              37.195
Long.             144.568
Depth. (km)       56
Mag.              7.1
Station Code      ABSH11
Station Lat.      43.9144
Station Long.     144.1913
Station Height(m) -82
Record Time       2013/10/26 02:11:58
Sampling Freq(Hz) 100Hz
Duration Time(s)  210
Dir.              1
Scale Factor      2940(gal)/6170270
Max. Acc. (gal)   1.695
Last Correction   2013/10/26 02:11:43
Memo.             
[...]
  -60089   -60071   -60035   -60015   -60031   -60061   -60073   -60066 
  -60052   -60043   -60046   -60068   -60095   -60103   -60097   -60093 
  -60090   -60086   -60086   -60077   -60050   -60018   -59987   -59958 
  -59943   -59932   -59905   -59873   -59853   -59839   -59830   -59844 
  -59883   -59924   -59963   -59991   -59991   -59974   -59954   -59926 
  -59900   -59895   -59892   -59866   -59828   -59795   -59766   -59747 
  -59741   -59740   -59750   -59778   -59829   -59914   -60013   -60077 
  -60086   -60063   -60038   -60015   -59983   -59945   -59905   -59860 
  -59825   -59812   -59809   -59829   -59892   -59969   -60016   -60028 
  -60023   -60004   -59974   -59941   -59913   -59900   -59914   -59948 
  -59983   -60027   -60088   -60137   -60150   -60133   -60106   -60088 
  -60077   -60060   -60041   -60033   -60042   -60069   -60106   -60142 
  -60168   -60176   -60173   -60170   -60152   -60112   -60067   -60031 
  -60016   -60017   -60019   -60033   -60078   -60139   -60196   -60248 
  -60290   -60325   -60359   -60380   -60376   -60356   -60334   -60308 
  -60263   -60226   -60225   -60235   -60228   -60215   -60198   -60156 
  -60091   -60020   -59956   -59910   -59897   -59917   -59950   -59990 
  -60040   -60079   -60097   -60121   -60149   -60147   -60108   -60046 
  -59990   -59983   -60026   -60077   -60106   -60118   -60121   -60122 
  -60129   -60129   -60092   -60030   -59980   -59969   -59993   -60037 
  -60071   -60063   -60018   -59961   -59898   -59851   -59839   -59851 
  -59877   -59926   -59993   -60064   -60122   -60148   -60129   -60085 
  -60051   -60041   -60037   -60030   -60024   -60020   -60003   -59970 
  -59928   -59889   -59860   -59837   -59816   -59811   -59827   -59844 
  -59857   -59876   -59906   -59953   -60005   -60019   -59983   -59932 
  -59895   -59889   -59936   -60024   -60105   -60149   -60161   -60142 
  -60109   -60091   -60079   -60050   -60011   -59983   -59967   -59958 
  -59965   -59994   -60044   -60112   -60186   -60239   -60260   -60262 
  -60257   -60227   -60163   -60084   -60021   -59982   -59942   -59866 
  -59755   -59653   -59579   -59514   -59463   -59448   -59458   -59466 
  -59486   -59527   -59579   -59642   -59710   -59759   -59786   -59796 
  -59789   -59791   -59815   -59845   -59880   -59928   -59969   -59973 
  -59940   -59889   -59821   -59724   -59624   -59572   -59580   -59624 
  -59668   -59702   -59735   -59771   -59797   -59803   -59790   -59765 
  -59745   -59739   -59754   -59817   -59921   -60015   -60075   -60117 
  -60144   -60135   -60081   -60006   -59946   -59912   -59897   -59889 
  -59871   -59828   -59778   -59765   -59794   -59820   -59807   -59758 
  -59693   -59637   -59622   -59655   -59723   -59797   -59847   -59871 
  -59905   -59963   -60030   -60100   -60162   -60189   -60160   -60092 
  -60029   -59989   -59946   -59884   -59833   -59836   -59894   -59967 
  -60010   -60015   -60015   -60037   -60084   -60123   -60110   -60061 
  -60040   -60063   -60110   -60179   -60249   -60291   -60300   -60275 
  -60207   -60106   -60011   -59970   -60010   -60113   -60236   -60335 
  -60385   -60384   -60348   -60301   -60251   -60181   -60088   -59994 
  -59938   -59929   -59941   -59960   -59986   -60019   -60054   -60090 
  -60137   -60170   -60153   -60100   -60058   -60045   -60057   -60083 
  -60097   -60068   -59998   -59920   -59886   -59925   -60011   -60082 
  -60103   -60091   -60085   -60098   -60120   -60142   -60156   -60165 
  -60169   -60164   -60161   -60168   -60172   -60168   -60159   -60131 
  -60078   -60014   -59954   -59927   -59943   -59985   -60050   -60137 
  -60221   -60273   -60295   -60289   -60260   -60215   -60150   -60060 
  -59986   -59958   -59946   -59920   -59894   -59886   -59908   -59965 
  -60028   -60066   -60078   -60085   -60104   -60145   -60214   -60290 
  -60346   -60383   -60411   -60443   -60478   -60477   -60420   -60325 
  -60212   -60099   -60019   -60002   -60055   -60144   -60220   -60270 
  -60292   -60282   -60252   -60218   -60190   -60159   -60111   -60067 
  -60060   -60085   -60096   -60056   -59985   -59934   -59921   -59935 
  -59965   -59968   -59928   -59886   -59848   -59791   -59729   -59680 
  -59641   -59620   -59624   -59655   -59708   -59776   -59856   -59926 
  -59973   -60009   -60029   -60034   -60044   -60068   -60106   -60156 
  -60198   -60205   -60171   -60102   -60012   -59940   -59931   -59979 
  -60047   -60114   -60173   -60208   -60218   -60222   -60212   -60175 
  -60120   -60051   -59976   -59903   -59810   -59669   -59510   -59395 
  -59334   -59301   -59298   -59332   -59390   -59460   -59525   -59554 
  -59558   -59576   -59617   -59651   -59684   -59742   -59797   -59802 
  -59769   -59724   -59684   -59661   -59637   -59598   -59592   -59659 
  -59766   -59872   -59972   -60062   -60130   -60172   -60195   -60206 
  -60197   -60163   -60137   -60146   -60183   -60230   -60262   -60259 
  -60208   -60115   -60035   -60007   -59997   -59962   -59899   -59825 
  -59760   -59713   -59682   -59658   -59629   -59610   -59617   -59642 
  -59691   -59773   -59880   -59995   -60096   -60168   -60230   -60289 
  -60332   -60351   -60344   -60309   -60243   -60146   -60051   -59996 
  -59979   -59997   -60059   -60158   -60265   -60347   -60369   -60314 
  -60217   -60127   -60059   -60011   -59980   -59943   -59883   -59813 
  -59750   -59706   -59705   -59757   -59843   -59931   -60007   -60055 
  -60065   -60042   -59975   -59853   -59711   -59579   -59475   -59435 
  -59458   -59489   -59510   -59540   -59567   -59584   -59607   -59644 
  -59699   -59776   -59887   -60038   -60211   -60383   -60532   -60640 
  -60704   -60708   -60648   -60552   -60464   -60427   -60450   -60500 
  -60526   -60502   -60432   -60325   -60199   -60091   -60015   -59943 
  -59863   -59799   -59775   -59792   -59845   -59931   -60009   -60043 
  -60056   -60080   -60103   -60117   -60122   -60112   -60077   -60012 
  -59921   -59822   -59738   -59688   -59664   -59660   -59683   -59726 
  -59783   -59854   -59911   -59948   -60007   -60084   -60144   -60191 
  -60210   -60177   -60118   -60051   -59970   -59900   -59872   -59881 
  -59888   -59871   -59853   -59854   -59877   -59935   -60008   -60060 
  -60109   -60182   -60267   -60337   -60367   -60346   -60296   -60249 
  -60207   -60161   -60107   -60040   -59958   -59865   -59768   -59679 
  -59610   -59573   -59571   -59583   -59601   -59651   -59728   -59794 
  -59843   -59880   -59906   -59939   -59998   -60066   -60119   -60143 
  -60139   -60135   -60138   -60142   -60150   -60160   -60159   -60134 
  -60092   -60049   -60013   -60003   -60041   -60101   -60149   -60183 
  -60200   -60188   -60157   -60140   -60146   -60144   -60113   -60070 
  -60023   -59971   -59930   -59907   -59887   -59872   -59869   -59856 
  -59828   -59790   -59719   -59622   -59550   -59517   -59521   -59563 
  -59620   -59685   -59761   -59842   -59928   -60030   -60136   -60209 
  -60253   -60308   -60378   -60446   -60525   -60628   -60733   -60815 
  -60852   -60820   -60726   -60623   -60561   -60524   -60472   -60394 
  -60312   -60245   -60203   -60170   -60115   -60041   -59980   -59945 
  -59942   -59972   -60009   -60040   -60061   -60052   -60012   -59956 
  -59875   -59789   -59754   -59775   -59816   -59871   -59933   -59981 
  -60012   -60029   -60028   -60010   -59996   -60010   -60042   -60065 
  -60070   -60048   -59978   -59874   -59769   -59676   -59619   -59608 
  -59599   -59562   -59519   -59491   -59481   -59499   -59546   -59604 
  -59648   -59663   -59653   -59652   -59683   -59716   -59720   -59720 
  -59729   -59728   -59712   -59686   -59655   -59636   -59636   -59657 
  -59726   -59855   -60032   -60246   -60456   -60623   -60743   -60795 
  -60746   -60616   -60451   -60279   -60131   -60016   -59930   -59907 
  -59972   -60095   -60236   -60381   -60525   -60651   -60725   -60730 
  -60675   -60569   -60437   -60322   -60234   -60158   -60089   -60019 
  -59967   -59942   -59904   -59839   -59782   -59732   -59672   -59619 
  -59581   -59539   -59482   -59418   -59360   -59322   -59318   -59330 
  -59327   -59316   -59295   -59245   -59186   -59149   -59127   -59111 
  -59109   -59118   -59133   -59173   -59260   -59389   -59529   -59671 
  -59817   -59964   -60115   -60278   -60446   -60607   -60753   -60881 
  -60930   -60882   -60919   -61029   -60983   -60957   -61109   -61176 
  -61201   -61360   -61466   -61478   -61520   -61499   -61380   -61259 
  -61085   -60820   -60571   -60340   -60071   -59816   -59586   -59328 
  -59080   -58878   -58681   -58495   -58363   -58262   -58165   -58066 
  -57943   -57816   -57724   -57661   -57631   -57668   -57766   -57924 
  -58144   -58395   -58646   -58889   -59127   -59362   -59594   -59818 
  -60038   -60244   -60412   -60538   -60640   -60749   -60890   -61050 
  -61191   -61298   -61358   -61376   -61382   -61382   -61366   -61350 
  -61337   -61306   -61260   -61195   -61088   -60941   -60780   -60623 
  -60474   -60332   -60204   -60108   -60044   -59997   -59975   -59982 
  -59998   -60029   -60095   -60175   -60251   -60315   -60343   -60333 
  -60303   -60252   -60182   -60108   -60031   -59954   -59884   -59820 
  -59755   -59681   -59611   -59576   -59595   -59665   -59774   -59911 
  -60071   -60250   -60429   -60588   -60733   -60874   -60996   -61097 
  -61184   -61231   -61199   -61082   -60924   -60780   -60667   -60574 
  -60509   -60472   -60432   -60384   -60345   -60306   -60245   -60159 
  -60035   -59862   -59661   -59452   -59243   -59061   -58929   -58842 
  -58794   -58788   -58818   -58885   -58963   -59007   -59023   -59044 
  -59074   -59101   -59130   -59155   -59162   -59170   -59227   -59342 
  -59502   -59707   -59941   -60179   -60418   -60639   -60819   -60968 
  -61087   -61158   -61200   -61237   -61264   -61281   -61276   -61246 
  -61228   -61223   -61189   -61124   -61043   -60950   -60830   -60648 
  -60415   -60180   -59962   -59781   -59667   -59601   -59555   -59538 
  -59550   -59572   -59608   -59657   -59682   -59655   -59570   -59433 
  -59271   -59107   -58936   -58750   -58555   -58365   -58213   -58123 
  -58094   -58126   -58226   -58391   -58605   -58840   -59060   -59249 
  -59440   -59646   -59832   -59977   -60064   -60073   -60027   -59960 
  -59880   -59823   -59818   -59844   -59884   -59936   -59970   -59976 
  -59975   -59979   -59986   -59988   -59960   -59901   -59866   -59886 
  -59934   -59992   -60073   -60182   -60307   -60431   -60529   -60591 
  -60617   -60607   -60583   -60574   -60578   -60576   -60550   -60484 
  -60378   -60227   -60037   -59856   -59718   -59604   -59491   -59378 
  -59272   -59180   -59116   -59096   -59107   -59119   -59132   -59157 
  -59181   -59212   -59285   -59421   -59598   -59770   -59905   -59997 
  -60051   -60088   -60133   -60187   -60230   -60242   -60231   -60224 
  -60237   -60275   -60347   -60443   -60532   -60601   -60642   -60659 
  -60682   -60718   -60757   -60800   -60840   -60873   -60929   -61029 
  -61142   -61228   -61257   -61209   -61096   -60952   -60784   -60599 
  -60441   -60310   -60177   -60108   -60137   -60182   -60220   -60244 
  -60208   -60155   -60141   -60146   -60152   -60159   -60156   -60140 
  -60121   -60096   -60058   -60018   -59981   -59942   -59904   -59856 
  -59786   -59699   -59585   -59449   -59320   -59214   -59146   -59154 
  -59243   -59374   -59530   -59721   -59920   -60100   -60267   -60408 
  -60497   -60552   -60601   -60620   -60584   -60499   -60358   -60163 
  -59947   -59736   -59539   -59367   -59223   -59102   -59030   -59053 
  -59175   -59359   -59583   -59814   -59997   -60138   -60267   -60377 
  -60473   -60563   -60635   -60696   -60737   -60717   -60633   -60517 
  -60392   -60298   -60257   -60242   -60231   -60217   -60188   -60161 
  -60172   -60213   -60270   -60340   -60380   -60353   -60283   -60186 
  -60066   -59936   -59802   -59677   -59565   -59452   -59340   -59244 
  -59174   -59123   -59076   -59040   -59024   -59018   -59034   -59086 
  -59158   -59225   -59281   -59319   -59335   -59344   -59353   -59349 
  -59327   -59301   -59293   -59307   -59326   -59331   -59327   -59321 
  -59293   -59209   -59088   -58984   -58933   -58947   -59017   -59123 
  -59246   -59388   -59549   -59720   -59884   -60038   -60197   -60377 
  -60564   -60740   -60919   -61118   -61329   -61542   -61749   -61946 
  -62129   -62288   -62399   -62425   -62359   -62229   -62047   -61803 
  -61513   -61214   -60928   -60649   -60373   -60122   -59928   -59776 
  -59616   -59426   -59222   -59031   -58864   -58720   -58611   -58546 
  -58511   -58488   -58496   -58554   -58653   -58799   -58995   -59210 
  -59419   -59626   -59837   -60056   -60278   -60481   -60644   -60775 
  -60902   -61042   -61188   -61311   -61395   -61455   -61500   -61524 
  -61527   -61514   -61483   -61416   -61312   -61198   -61085   -60972 
  -60876   -60798   -60726   -60678   -60679   -60724   -60811   -60950 
  -61104   -61212   -61237   -61192   -61118   -61065   -61024   -60920 
  -60733   -60502   -60246   -59970   -59696   -59444   -59206   -58966 
  -58713   -58470   -58288   -58201   -58195   -58241   -58337   -58493 
  -58701   -58936   -59181   -59427   -59664   -59909   -60174   -60431 
  -60655   -60847   -60993   -61083   -61137   -61180   -61211   -61220 
  -61203   -61166   -61117   -61057   -60977   -60896   -60834   -60761 
  -60627   -60426   -60178   -59883   -59549   -59200   -58861   -58543 
  -58234   -57914   -57582   -57258   -56957   -56701   -56519   -56435 
  -56444   -56525   -56674   -56891   -57153   -57425   -57676   -57901 
  -58130   -58366   -58572   -58736   -58881   -59009   -59123   -59248 
  -59409   -59592   -59743   -59833   -59877   -59887   -59872   -59861 
  -59880   -59927   -59990   -60049   -60086   -60108   -60149   -60225 
  -60327   -60444   -60561   -60670   -60755   -60790   -60750   -60646 
  -60521   -60396   -60265   -60142   -60044   -59978   -59972   -60027 
  -60087   -60096   -60029   -59884   -59688   -59482   -59307   -59176 
  -59077   -59017   -59012   -59040   -59072   -59118   -59206   -59323 
  -59437   -59527   -59583   -59587   -59540   -59476   -59423   -59383 
  -59351   -59339   -59365   -59437   -59566   -59767   -60029   -60337 
  -60685   -61032   -61323   -61554   -61737   -61857   -61904   -61905 
  -61888   -61861   -61826   -61795   -61793   -61849   -61956   -62063 
  -62137   -62181   -62192   -62167   -62115   -62010   -61837   -61629 
  -61400   -61143   -60867   -60579   -60300   -60045   -59809   -59608 
  -59462   -59361   -59303   -59297   -59330   -59398   -59500   -59601 
  -59678   -59723   -59690   -59590   -59534   -59578   -59686   -59832 
  -60004   -60187   -60357   -60483   -60559   -60621   -60680   -60712 
  -60713   -60687   -60639   -60598   -60580   -60590   -60635   -60709 
  -60819   -60980   -61171   -61357   -61520   -61644   -61721   -61753 
  -61734   -61690   -61662   -61645   -61632   -61639   -61648   -61624 
  -61562   -61465   -61334   -61171   -60954   -60666   -60329   -59999 
  -59723   -59514   -59374   -59308   -59309   -59359   -59441   -59530 
  -59602   -59657   -59696   -59706   -59699   -59693   -59674   -59629 
  -59569   -59501   -59426   -59344   -59272   -59230   -59217   -59208 
  -59195   -59165   -59117   -59082   -59046   -58982   -58937   -58939 
  -58965   -59014   -59082   -59142   -59183   -59201   -59192   -59180 
  -59196   -59233   -59270   -59292   -59281   -59230   -59163   -59092 
  -59018   -58955   -58924   -58939   -58997   -59091   -59201   -59292 
  -59342   -59342   -59286   -59195   -59111   -59047   -58993   -58941 
  -58884   -58801   -58667   -58495   -58335   -58237   -58217   -58252 
  -58316   -58422   -58575   -58734   -58878   -59040   -59237   -59451 
  -59660   -59837   -59946   -59997   -60023   -60020   -59980   -59908 
  -59806   -59688   -59563   -59418   -59255   -59104   -58997   -58954 
  -58986   -59094   -59274   -59494   -59716   -59921   -60102   -60256 
  -60399   -60563   -60762   -60986   -61219   -61424   -61568   -61670 
  -61755   -61795   -61768   -61687   -61561   -61414   -61281   -61171 
  -61060   -60944   -60824   -60703   -60593   -60492   -60395   -60311 
  -60258   -60244   -60255   -60267   -60258   -60213   -60148   -60092 
  -60062   -60068   -60105   -60161   -60232   -60309   -60368   -60391 
  -60377   -60343   -60316   -60318   -60355   -60427   -60534   -60676 
  -60854   -61058   -61261   -61429   -61532   -61575   -61584   -61558 
  -61487   -61377   -61240   -61083   -60940   -60848   -60799   -60757 
  -60692   -60591   -60474   -60361   -60251   -60147   -60061   -60009 
  -59986   -59972   -59972   -59988   -59996   -59992   -59988   -59992 
  -60022   -60060   -60053   -60001   -59930   -59837   -59733   -59628 
  -59516   -59395   -59268   -59145   -59052   -58993   -58922   -58808 
  -58679   -58573   -58516   -58545   -58663   -58829   -59009   -59207 
  -59415   -59597   -59726   -59807   -59878   -59962   -60042   -60087 
  -60084   -60034   -59953   -59869   -59815   -59789   -59761   -59732 
  -59708   -59691   -59702   -59761   -59851   -59948   -60044   -60132 
  -60209   -60263   -60291   -60314   -60341   -60360   -60363   -60331 
  -60248   -60137   -60030   -59941   -59874   -59835   -59815   -59804 
  -59791   -59770   -59760   -59798   -59891   -60006   -60091   -60114 
  -60082   -60015   -59940   -59884   -59844   -59823   -59833   -59841 
  -59797   -59684   -59493   -59241   -58968   -58703   -58464   -58245 
  -58037   -57852   -57712   -57648   -57686   -57809   -57983   -58185 
  -58376   -58525   -58665   -58829   -59014   -59211   -59422   -59633 
  -59839   -60039   -60225   -60373   -60469   -60512   -60506   -60465 
  -60407   -60321   -60189   -60007   -59807   -59651   -59577   -59581 
  -59634   -59707   -59782   -59873   -60011   -60216   -60484   -60770 
  -60999   -61185   -61412   -61629   -61766   -61865   -61921   -61925 
  -61886   -61781   -61662   -61544   -61407   -61320   -61276   -61226 
  -61178   -61096   -60943   -60759   -60580   -60419   -60292   -60207 
  -60150   -60115   -60111   -60143   -60209   -60298   -60383   -60451 
  -60507   -60557   -60604   -60644   -60662   -60671   -60698   -60729 
  -60734   -60698   -60618   -60520   -60436   -60361   -60274   -60177 
  -60074   -59960   -59854   -59791   -59787   -59836   -59930   -60045 
  -60140   -60188   -60212   -60234   -60238   -60227   -60221   -60205 
  -60164   -60111   -60038   -59933   -59804   -59664   -59537   -59442 
  -59372   -59333   -59339   -59382   -59471   -59622   -59834   -60086 
  -60327   -60516   -60649   -60720   -60709   -60622   -60474   -60272 
  -60033   -59777   -59515   -59270   -59070   -58934   -58873   -58882 
  -58945   -59033   -59120   -59187   -59228   -59245   -59256   -59281 
  -59327   -59394   -59485   -59592   -59686   -59752   -59812   -59887 
  -59984   -60101   -60229   -60362   -60493   -60603   -60666   -60683 
  -60652   -60554   -60386   -60186   -59991   -59817   -59663   -59505 
  -59335   -59179   -59044   -58917   -58823   -58786   -58792   -58812 
  -58826   -58852   -58949   -59131   -59338   -59509   -59595   -59593 
  -59569   -59555   -59569   -59643   -59706   -59717   -59762   -59830 
  -59877   -59948   -60017   -60059   -60110   -60127   -60088   -60055 
