Origin Time       2011/03/11 14:46:00
Lat.              38.103
Long.             142.860
Depth. (km)       24
Mag.              9.0
Station Code      EHMH08
Station Lat.      33.5388
Station Long.     133.0016
Station Height(m) 455
Record Time       2011/03/11 14:52:07
Sampling Freq(Hz) 100Hz
Duration Time(s)  120
Dir.              6
Scale Factor      3920(gal)/6170801
Max. Acc. (gal)   0.995
Last Correction   2011/03/11 14:51:52
Memo.             
[...]
   17497    17502    17515    17523    17514    17507    17514    17521 
   17523    17530    17540    17539    17534    17534    17537    17544 
   17550    17553    17552    17549    17554    17564    17577    17584 
   17577    17575    17588    17595    17599    17603    17604    17605 
   17610    17618    17625    17629    17631    17637    17648    17658 
   17663    17667    17670    17677    17686    17690    17695    17702 
   17709    17713    17726    17744    17752    17756    17762    17759 
   17756    17763    17766    17768    17780    17783    17780    17788 
   17796    17799    17800    17802    17805    17801    17796    17806 
   17815    17818    17820    17811    17809    17824    17832    17829 
   17828    17822    17819    17825    17832    17839    17839    17839 
   17842    17833    17827    17837    17838    17835    17835    17828 
   17828    17840    17852    17855    17850    17847    17844    17836 
   17838    17850    17854    17852    17852    17846    17843    17848 
   17850    17847    17850    17855    17857    17859    17863    17860 
   17854    17862    17866    17860    17861    17860    17857    17868 
   17879    17877    17875    17873    17869    17869    17874    17882 
   17892    17893    17889    17892    17898    17901    17900    17896 
   17896    17901    17899    17902    17917    17930    17935    17937 
   17940    17939    17939    17951    17966    17966    17959    17963 
   17974    17980    17987    17994    17994    18001    18011    18012 
   18016    18029    18031    18025    18033    18047    18055    18061 
   18056    18038    18039    18065    18085    18089    18079    18072 
   18079    18095    18103    18096    18095    18106    18118    18131 
   18138    18134    18135    18141    18149    18163    18180    18193 
   18195    18192    18196    18204    18215    18233    18255    18267 
   18268    18272    18283    18297    18316    18335    18342    18338 
   18346    18367    18379    18386    18398    18409    18415    18420 
   18428    18444    18459    18472    18479    18483    18493    18501 
   18510    18525    18531    18532    18539    18549    18563    18579 
   18590    18595    18600    18613    18619    18617    18629    18649 
   18658    18660    18671    18689    18701    18710    18720    18727 
   18735    18742    18747    18750    18753    18765    18784    18803 
   18813    18809    18805    18817    18835    18849    18856    18853 
   18853    18866    18885    18896    18897    18897    18902    18911 
   18921    18930    18936    18939    18949    18965    18973    18979 
   18986    18994    18999    19000    18999    18997    19009    19030 
   19037    19031    19031    19043    19057    19059    19057    19062 
   19066    19073    19085    19097    19106    19103    19101    19113 
   19121    19121    19129    19136    19137    19143    19152    19157 
   19163    19169    19166    19159    19154    19159    19171    19179 
   19186    19194    19199    19206    19210    19210    19213    19211 
   19210    19212    19211    19213    19223    19230    19234    19236 
   19239    19249    19256    19248    19241    19249    19259    19261 
   19263    19263    19263    19264    19266    19270    19269    19264 
   19262    19263    19269    19274    19276    19282    19288    19289 
   19289    19288    19288    19294    19304    19306    19297    19293 
   19305    19313    19313    19317    19323    19325    19330    19335 
   19333    19336    19347    19352    19351    19358    19368    19373 
   19377    19380    19379    19386    19401    19404    19398    19400 
   19414    19429    19435    19432    19431    19434    19442    19450 
   19453    19453    19460    19467    19469    19472    19476    19481 
   19486    19491    19489    19488    19497    19504    19504    19509 
   19515    19510    19508    19520    19525    19524    19529    19533 
   19531    19535    19545    19552    19554    19556    19558    19558 
   19563    19569    19574    19579    19579    19586    19598    19598 
   19596    19602    19612    19621    19621    19620    19624    19631 
   19636    19635    19629    19633    19651    19659    19655    19658 
   19665    19663    19666    19674    19683    19686    19682    19682 
   19684    19689    19701    19708    19706    19711    19718    19721 
   19722    19722    19722    19723    19733    19746    19751    19750 
   19746    19743    19752    19764    19765    19767    19779    19780 
   19771    19772    19781    19791    19794    19789    19786    19787 
   19791    19800    19801    19797    19799    19799    19796    19799 
   19803    19798    19789    19792    19801    19804    19804    19798 
   19789    19789    19797    19806    19805    19796    19791    19783 
   19780    19791    19795    19791    19788    19782    19779    19782 
   19782    19777    19772    19771    19772    19777    19779    19768 
   19762    19769    19777    19773    19764    19762    19765    19768 
   19770    19766    19764    19766    19766    19768    19768    19766 
   19760    19751    19749    19754    19760    19763    19760    19757 
   19759    19765    19763    19751    19746    19747    19752    19765 
   19771    19760    19749    19741    19745    19762    19772    19769 
   19758    19747    19746    19751    19751    19748    19746    19746 
   19747    19750    19744    19732    19729    19730    19730    19738 
   19744    19738    19732    19734    19733    19732    19731    19727 
   19727    19729    19727    19726    19729    19731    19726    19717 
   19716    19730    19743    19740    19725    19715    19710    19712 
   19727    19738    19732    19726    19728    19732    19737    19739 
   19734    19720    19717    19730    19743    19744    19736    19729 
   19730    19736    19740    19736    19728    19729    19732    19731 
   19736    19739    19731    19725    19729    19735    19738    19737 
   19733    19729    19732    19733    19727    19724    19733    19740 
   19738    19737    19736    19727    19722    19723    19724    19728 
   19728    19721    19718    19723    19724    19721    19723    19723 
   19718    19717    19721    19727    19732    19722    19713    19716 
   19720    19722    19722    19719    19719    19719    19719    19722 
   19722    19711    19703    19714    19722    19710    19701    19703 
   19702    19705    19707    19704    19708    19717    19712    19699 
   19697    19697    19694    19698    19699    19698    19707    19715 
   19710    19703    19704    19705    19706    19713    19715    19713 
   19716    19723    19725    19717    19709    19710    19715    19725 
   19732    19724    19719    19720    19719    19725    19730    19726 
   19719    19718    19724    19726    19727    19731    19735    19736 
   19733    19725    19719    19722    19730    19732    19731    19736 
   19741    19740    19737    19739    19742    19744    19744    19737 
   19735    19749    19757    19744    19735    19742    19753    19763 
   19761    19745    19736    19740    19744    19746    19753    19756 
   19747    19744    19750    19757    19757    19751    19752    19766 
   19776    19771    19764    19765    19774    19780    19775    19771 
   19780    19789    19789    19785    19779    19781    19797    19808 
   19805    19795    19793    19803    19804    19799    19795    19792 
   19798    19801    19793    19789    19788    19786    19785    19788 
   19790    19788    19790    19798    19796    19786    19775    19769 
   19770    19776    19777    19774    19776    19781    19775    19768 
   19765    19763    19760    19754    19752    19752    19749    19752 
   19755    19743    19732    19731    19728    19722    19717    19713 
   19709    19711    19710    19700    19691    19683    19675    19671 
   19670    19673    19673    19670    19674    19670    19661    19658 
   19651    19639    19638    19638    19627    19622    19627    19622 
   19611    19611    19609    19601    19597    19592    19588    19584 
   19573    19566    19569    19569    19562    19553    19549    19553 
   19552    19544    19542    19545    19544    19544    19539    19524 
   19515    19517    19520    19522    19513    19497    19496    19502 
   19504    19502    19493    19485    19480    19476    19473    19471 
   19468    19470    19475    19477    19473    19466    19459    19450 
   19437    19429    19429    19434    19439    19438    19428    19425 
   19427    19425    19417    19404    19393    19392    19398    19398 
   19390    19386    19384    19366    19352    19360    19367    19362 
   19357    19355    19351    19346    19350    19357    19352    19340 
   19333    19338    19344    19339    19325    19319    19331    19339 
   19327    19312    19303    19307    19322    19329    19323    19312 
   19311    19321    19322    19315    19308    19295    19289    19294 
   19290    19277    19278    19291    19297    19294    19288    19283 
   19283    19289    19294    19289    19281    19274    19270    19274 
   19280    19274    19265    19266    19271    19284    19291    19276 
   19259    19257    19262    19266    19263    19259    19257    19257 
   19263    19265    19256    19251    19256    19255    19235    19222 
   19227    19239    19256    19264    19254    19243    19250    19259 
   19251    19241    19241    19238    19236    19243    19248    19248 
   19248    19252    19259    19257    19252    19249    19248    19254 
   19259    19253    19242    19236    19242    19251    19252    19243 
   19229    19220    19220    19217    19207    19197    19185    19171 
   19169    19179    19181    19172    19157    19143    19140    19140 
   19137    19132    19125    19120    19120    19118    19114    19104 
   19094    19091    19091    19081    19066    19063    19066    19059 
   19052    19048    19028    19010    19008    19003    18993    18988 
   18981    18964    18956    18966    18967    18954    18940    18929 
   18915    18910    18916    18914    18907    18902    18889    18876 
   18875    18875    18870    18861    18846    18823    18805    18807 
   18815    18807    18784    18766    18762    18768    18763    18743 
   18729    18729    18724    18703    18678    18659    18651    18650 
   18642    18625    18609    18598    18589    18580    18571    18562 
   18547    18530    18515    18495    18474    18461    18456    18444 
   18420    18404    18394    18385    18382    18370    18350    18341 
   18328    18306    18295    18294    18286    18270    18262    18254 
   18240    18235    18230    18216    18208    18201    18183    18171 
   18168    18158    18146    18138    18130    18120    18114    18113 
   18109    18094    18077    18066    18053    18041    18037    18033 
   18029    18021    18009    18006    18007    18003    17991    17977 
   17972    17968    17958    17952    17948    17937    17930    17931 
   17930    17922    17915    17901    17890    17890    17892    17887 
   17871    17854    17858    17870    17868    17857    17841    17830 
   17836    17839    17821    17802    17796    17805    17815    17808 
   17782    17764    17775    17791    17793    17779    17756    17745 
   17753    17766    17768    17763    17758    17750    17744    17742 
   17743    17751    17753    17747    17741    17738    17743    17747 
   17736    17727    17728    17728    17727    17727    17723    17717 
   17712    17713    17715    17711    17706    17704    17702    17700 
   17701    17704    17709    17706    17694    17684    17682    17680 
   17676    17674    17673    17664    17651    17645    17650    17653 
   17650    17645    17639    17635    17636    17635    17628    17620 
   17614    17606    17595    17588    17585    17586    17591    17586 
   17566    17550    17550    17556    17556    17544    17526    17516 
   17517    17515    17505    17494    17487    17477    17464    17465 
   17474    17474    17466    17456    17449    17438    17428    17426 
   17424    17421    17419    17409    17403    17402    17396    17392 
   17386    17377    17372    17370    17364    17353    17339    17328 
   17325    17333    17340    17335    17326    17318    17312    17310 
   17308    17305    17298    17287    17283    17288    17289    17283 
   17288    17299    17296    17288    17282    17272    17266    17269 
   17274    17273    17263    17252    17245    17245    17251    17256 
   17252    17245    17236    17228    17224    17225    17223    17214 
   17210    17209    17209    17212    17212    17202    17195    17201 
   17200    17187    17184    17188    17182    17180    17184    17181 
   17179    17181    17175    17169    17175    17183    17181    17174 
   17168    17161    17159    17161    17161    17159    17155    17152 
   17151    17153    17157    17155    17150    17145    17137    17135 
   17140    17149    17148    17136    17137    17142    17131    17125 
   17132    17135    17131    17124    17120    17121    17126    17123 
   17109    17103    17110    17108    17098    17091    17089    17093 
   17102    17105    17098    17091    17086    17083    17086    17083 
   17079    17076    17070    17071    17078    17078    17076    17074 
   17071    17065    17056    17050    17051    17056    17056    17057 
   17058    17058    17058    17058    17052    17047    17041    17031 
   17022    17022    17026    17033    17038    17038    17043    17051 
   17049    17035    17016    17004    17011    17023    17025    17025 
   17026    17027    17031    17037    17043    17046    17041    17029 
   17021    17026    17033    17027    17024    17028    17026    17024 
   17025    17028    17044    17054    17044    17031    17028    17035 
   17041    17039    17029    17027    17035    17042    17041    17041 
   17042    17045    17050    17052    17054    17055    17051    17050 
   17050    17053    17061    17067    17066    17059    17057    17061 
   17062    17068    17084    17093    17090    17084    17083    17088 
   17096    17103    17099    17090    17079    17069    17078    17097 
   17112    17118    17109    17099    17105    17114    17119    17125 
   17121    17107    17103    17113    17121    17130    17139    17138 
   17134    17139    17141    17139    17137    17137    17140    17140 
   17141    17145    17144    17140    17146    17157    17155    17144 
   17141    17145    17153    17155    17146    17149    17167    17170 
   17156    17148    17148    17153    17164    17163    17147    17141 
   17155    17173    17185    17184    17174    17159    17149    17149 
   17147    17145    17155    17165    17165    17160    17161    17172 
   17183    17187    17177    17160    17153    17154    17159    17161 
   17157    17158    17162    17171    17176    17168    17161    17162 
   17161    17154    17145    17141    17141    17142    17144    17146 
   17148    17151    17146    17135    17133    17146    17158    17153 
   17144    17145    17147    17143    17132    17125    17137    17147 
   17140    17126    17127    17132    17128    17129    17126    17112 
   17111    17118    17115    17108    17103    17106    17116    17116 
   17105    17093    17090    17104    17116    17106    17089    17091 
   17107    17114    17107    17090    17078    17079    17089    17108 
   17122    17119    17111    17105    17102    17105    17114    17119 
   17111    17099    17103    17124    17143    17144    17128    17113 
   17117    17141    17164    17162    17157    17165    17177    17187 
   17195    17189    17175    17169    17176    17194    17214    17225 
   17230    17235    17238    17241    17243    17241    17253    17272 
   17278    17276    17269    17265    17290    17323    17332    17329 
   17327    17328    17343    17365    17372    17374    17384    17400 
   17421    17437    17439    17435    17436    17454    17482    17501 
   17506    17499    17496    17509    17533    17553    17560    17561 
   17571    17585    17600    17616    17623    17624    17633    17653 
   17670    17668    17664    17676    17696    17718    17737    17743 
   17748    17763    17778    17778    17774    17783    17800    17816 
   17832    17848    17861    17869    17872    17882    17896    17901 
   17896    17901    17925    17950    17963    17970    17976    17988 
   18003    18019    18029    18029    18028    18033    18054    18082 
   18088    18078    18082    18101    18115    18120    18124    18129 
   18143    18161    18151    18128    18130    18157    18185    18190 
   18177    18177    18192    18206    18207    18199    18200    18215 
   18226    18231    18235    18233    18223    18229    18241    18235 
   18222    18219    18224    18236    18242    18245    18255    18262 
   18252    18225    18206    18226    18262    18271    18265    18265 
   18271    18272    18264    18249    18248    18263    18273    18276 
   18280    18282    18294    18312    18316    18310    18302    18292 
   18288    18280    18276    18293    18310    18311    18312    18321 
   18325    18326    18323    18309    18300    18303    18307    18309 
   18311    18306    18295    18296    18319    18337    18337    18331 
   18318    18305    18308    18320    18324    18310    18296    18306 
   18335    18356    18353    18335    18322    18323    18326    18322 
   18330    18340    18329    18319    18331    18349    18361    18354 
   18335    18330    18337    18347    18362    18371    18367    18365 
   18368    18369    18369    18378    18391    18397    18398    18390 
   18376    18381    18403    18423    18427    18418    18401    18391 
   18395    18410    18429    18440    18435    18428    18427    18427 
   18432    18436    18431    18419    18412    18426    18447    18455 
   18454    18454    18455    18459    18463    18461    18460    18460 
   18448    18439    18453    18481    18503    18506    18499    18497 
   18501    18500    18490    18481    18481    18487    18495    18503 
   18501    18501    18518    18541    18557    18554    18534    18516 
   18515    18528    18537    18530    18525    18535    18542    18545 
   18553    18562    18569    18573    18573    18575    18583    18586 
   18583    18576    18576    18591    18606    18608    18612    18618 
   18620    18626    18633    18633    18628    18628    18644    18665 
   18680    18681    18666    18658    18668    18684    18691    18683 
   18667    18667    18691    18726    18745    18736    18724    18719 
   18717    18726    18740    18736    18725    18726    18737    18753 
   18763    18756    18748    18765    18788    18784    18766    18767 
   18767    18758    18763    18774    18782    18796    18803    18799 
   18792    18784    18783    18788    18784    18774    18770    18786 
   18808    18813    18805    18811    18824    18823    18811    18811 
   18819    18820    18826    18833    18826    18817    18807    18806 
   18835    18867    18867    18858    18855    18851    18854    18864 
   18869    18866    18854    18848    18855    18868    18889    18910 
   18908    18892    18878    18874    18876    18871    18861    18867 
   18881    18892    18899    18905    18913    18917    18910    18903 
   18898    18903    18917    18925    18927    18938    18946    18941 
