Origin Time       2011/03/11 14:46:00
Lat.              38.103
Long.             142.860
Depth. (km)       24
Mag.              9.0
Station Code      EHMH08
Station Lat.      33.5388
Station Long.     133.0016
Station Height(m) 355
Record Time       2011/03/11 14:52:07
Sampling Freq(Hz) 100Hz
Duration Time(s)  120
Dir.              2
Scale Factor      2940(gal)/6170270
Max. Acc. (gal)   0.863
Last Correction   2011/03/11 14:51:52
Memo.             
[...]
 -136151  -136155  -136149  -136158  -136177  -136181  -136189  -136189 
 -136171  -136181  -136214  -136220  -136211  -136213  -136219  -136225 
 -136246  -136269  -136272  -136274  -136273  -136269  -136272  -136282 
 -136307  -136315  -136301  -136307  -136318  -136319  -136324  -136328 
 -136330  -136338  -136339  -136330  -136342  -136353  -136340  -136346 
 -136351  -136329  -136330  -136348  -136353  -136353  -136343  -136336 
 -136344  -136341  -136329  -136335  -136347  -136338  -136326  -136335 
 -136343  -136320  -136303  -136312  -136311  -136311  -136324  -136314 
 -136304  -136306  -136298  -136302  -136316  -136311  -136300  -136296 
 -136302  -136304  -136300  -136307  -136300  -136278  -136283  -136294 
 -136286  -136284  -136292  -136294  -136281  -136266  -136281  -136299 
 -136290  -136290  -136305  -136294  -136273  -136282  -136298  -136303 
 -136307  -136302  -136302  -136312  -136305  -136307  -136325  -136325 
 -136322  -136332  -136336  -136336  -136346  -136357  -136352  -136343 
 -136360  -136375  -136367  -136371  -136391  -136398  -136405  -136418 
 -136416  -136416  -136437  -136447  -136447  -136458  -136462  -136462 
 -136474  -136483  -136480  -136483  -136486  -136484  -136497  -136519 
 -136527  -136531  -136525  -136512  -136520  -136535  -136529  -136531 
 -136543  -136547  -136548  -136545  -136537  -136536  -136535  -136530 
 -136527  -136537  -136549  -136541  -136536  -136537  -136530  -136533 
 -136532  -136521  -136532  -136532  -136506  -136495  -136496  -136489 
 -136492  -136498  -136487  -136472  -136467  -136466  -136471  -136478 
 -136460  -136446  -136449  -136438  -136439  -136453  -136438  -136429 
 -136435  -136430  -136437  -136447  -136429  -136411  -136414  -136424 
 -136436  -136430  -136419  -136424  -136421  -136419  -136420  -136410 
 -136416  -136424  -136401  -136393  -136413  -136401  -136377  -136383 
 -136388  -136388  -136386  -136372  -136369  -136370  -136366  -136379 
 -136380  -136354  -136348  -136347  -136328  -136327  -136330  -136318 
 -136315  -136309  -136311  -136331  -136319  -136290  -136280  -136266 
 -136265  -136277  -136275  -136267  -136247  -136244  -136265  -136259 
 -136234  -136227  -136224  -136216  -136212  -136208  -136202  -136190 
 -136181  -136185  -136189  -136178  -136161  -136152  -136143  -136141 
 -136155  -136159  -136130  -136097  -136099  -136119  -136123  -136110 
 -136091  -136073  -136065  -136068  -136078  -136083  -136077  -136074 
 -136072  -136068  -136074  -136076  -136064  -136064  -136073  -136075 
 -136077  -136075  -136076  -136079  -136072  -136065  -136069  -136070 
 -136067  -136081  -136089  -136077  -136076  -136069  -136064  -136087 
 -136097  -136075  -136067  -136080  -136084  -136079  -136078  -136072 
 -136073  -136086  -136089  -136092  -136089  -136075  -136072  -136088 
 -136106  -136104  -136096  -136088  -136064  -136063  -136089  -136099 
 -136091  -136087  -136096  -136105  -136099  -136093  -136095  -136089 
 -136086  -136091  -136089  -136096  -136103  -136076  -136064  -136085 
 -136078  -136057  -136056  -136048  -136035  -136036  -136050  -136059 
 -136033  -136017  -136033  -136020  -135993  -136002  -136009  -135983 
 -135967  -135980  -135978  -135958  -135965  -135979  -135951  -135923 
 -135940  -135954  -135942  -135952  -135964  -135945  -135932  -135929 
 -135920  -135920  -135919  -135910  -135900  -135893  -135898  -135911 
 -135913  -135906  -135894  -135872  -135874  -135901  -135886  -135856 
 -135868  -135865  -135846  -135863  -135871  -135849  -135837  -135838 
 -135835  -135829  -135834  -135842  -135821  -135807  -135817  -135808 
 -135796  -135811  -135819  -135808  -135806  -135812  -135807  -135804 
 -135803  -135809  -135819  -135815  -135814  -135825  -135837  -135841 
 -135825  -135814  -135825  -135826  -135823  -135833  -135840  -135833 
 -135824  -135827  -135850  -135857  -135834  -135840  -135859  -135843 
 -135838  -135847  -135847  -135845  -135839  -135841  -135844  -135837 
 -135834  -135845  -135857  -135846  -135841  -135847  -135836  -135837 
 -135852  -135849  -135840  -135839  -135837  -135828  -135822  -135826 
 -135823  -135827  -135846  -135854  -135850  -135833  -135808  -135815 
 -135822  -135807  -135812  -135811  -135795  -135812  -135823  -135804 
 -135796  -135792  -135794  -135807  -135794  -135778  -135786  -135777 
 -135757  -135771  -135788  -135775  -135755  -135743  -135744  -135752 
 -135751  -135751  -135742  -135724  -135720  -135726  -135722  -135713 
 -135705  -135707  -135711  -135701  -135690  -135688  -135690  -135688 
 -135682  -135676  -135673  -135656  -135639  -135652  -135667  -135667 
 -135665  -135652  -135655  -135669  -135659  -135647  -135654  -135651 
 -135643  -135642  -135641  -135640  -135636  -135638  -135650  -135659 
 -135652  -135638  -135625  -135627  -135637  -135644  -135645  -135633 
 -135616  -135617  -135621  -135621  -135636  -135636  -135615  -135616 
 -135615  -135590  -135593  -135611  -135600  -135597  -135601  -135583 
 -135580  -135593  -135586  -135581  -135579  -135579  -135584  -135567 
 -135555  -135566  -135566  -135564  -135557  -135540  -135534  -135539 
 -135541  -135535  -135546  -135559  -135541  -135529  -135538  -135555 
 -135564  -135547  -135533  -135536  -135541  -135546  -135542  -135537 
 -135540  -135545  -135546  -135542  -135549  -135566  -135564  -135545 
 -135541  -135556  -135569  -135567  -135563  -135556  -135549  -135566 
 -135583  -135571  -135550  -135559  -135589  -135597  -135602  -135615 
 -135597  -135585  -135603  -135604  -135608  -135624  -135617  -135611 
 -135631  -135638  -135627  -135642  -135650  -135631  -135632  -135643 
 -135646  -135645  -135645  -135658  -135657  -135637  -135630  -135643 
 -135661  -135664  -135648  -135629  -135632  -135649  -135644  -135645 
 -135665  -135651  -135626  -135634  -135648  -135650  -135658  -135665 
 -135647  -135628  -135635  -135649  -135657  -135663  -135659  -135652 
 -135655  -135661  -135674  -135686  -135690  -135687  -135685  -135692 
 -135696  -135694  -135699  -135698  -135699  -135718  -135734  -135745 
 -135756  -135755  -135747  -135750  -135770  -135779  -135770  -135771 
 -135765  -135759  -135778  -135792  -135789  -135783  -135778  -135777 
 -135780  -135789  -135803  -135807  -135797  -135796  -135802  -135794 
 -135786  -135791  -135786  -135778  -135779  -135771  -135756  -135755 
 -135762  -135763  -135756  -135745  -135741  -135734  -135722  -135727 
 -135738  -135733  -135710  -135691  -135693  -135705  -135704  -135681 
 -135659  -135652  -135651  -135653  -135652  -135650  -135647  -135648 
 -135646  -135623  -135616  -135633  -135620  -135603  -135619  -135622 
 -135608  -135597  -135592  -135593  -135596  -135605  -135596  -135564 
 -135566  -135585  -135573  -135560  -135556  -135541  -135533  -135536 
 -135546  -135546  -135518  -135496  -135501  -135499  -135493  -135490 
 -135486  -135489  -135484  -135472  -135465  -135446  -135441  -135444 
 -135432  -135432  -135433  -135413  -135406  -135415  -135410  -135404 
 -135403  -135394  -135381  -135376  -135380  -135380  -135369  -135364 
 -135366  -135362  -135359  -135358  -135354  -135350  -135350  -135345 
 -135339  -135339  -135341  -135335  -135335  -135346  -135333  -135303 
 -135313  -135344  -135338  -135317  -135324  -135324  -135297  -135304 
 -135337  -135329  -135313  -135306  -135287  -135290  -135311  -135314 
 -135315  -135315  -135301  -135300  -135312  -135307  -135298  -135302 
 -135298  -135295  -135300  -135299  -135288  -135280  -135289  -135306 
 -135310  -135308  -135299  -135289  -135288  -135288  -135288  -135291 
 -135290  -135289  -135284  -135285  -135301  -135287  -135262  -135281 
 -135294  -135279  -135284  -135288  -135278  -135287  -135297  -135294 
 -135301  -135293  -135276  -135294  -135306  -135292  -135302  -135306 
 -135299  -135304  -135304  -135306  -135313  -135316  -135325  -135328 
 -135330  -135333  -135321  -135323  -135335  -135325  -135333  -135348 
 -135330  -135321  -135330  -135338  -135345  -135326  -135304  -135319 
 -135331  -135309  -135302  -135326  -135321  -135297  -135297  -135282 
 -135269  -135288  -135279  -135264  -135278  -135272  -135253  -135251 
 -135252  -135253  -135242  -135236  -135243  -135240  -135238  -135238 
 -135239  -135250  -135251  -135244  -135240  -135245  -135250  -135240 
 -135241  -135252  -135250  -135253  -135254  -135243  -135248  -135270 
 -135274  -135261  -135264  -135276  -135271  -135257  -135263  -135279 
 -135276  -135270  -135276  -135282  -135283  -135282  -135284  -135287 
 -135295  -135289  -135277  -135298  -135303  -135284  -135302  -135312 
 -135294  -135313  -135342  -135321  -135294  -135303  -135318  -135329 
 -135336  -135315  -135300  -135309  -135321  -135335  -135325  -135316 
 -135329  -135332  -135329  -135324  -135319  -135317  -135313  -135319 
 -135318  -135300  -135303  -135319  -135320  -135313  -135303  -135291 
 -135288  -135286  -135285  -135288  -135284  -135283  -135281  -135272 
 -135262  -135254  -135260  -135259  -135232  -135219  -135228  -135219 
 -135212  -135220  -135223  -135220  -135206  -135193  -135189  -135176 
 -135179  -135198  -135182  -135162  -135175  -135173  -135149  -135145 
 -135142  -135121  -135114  -135122  -135125  -135125  -135119  -135108 
 -135101  -135100  -135091  -135072  -135074  -135083  -135074  -135072 
 -135059  -135030  -135032  -135043  -135041  -135026  -135011  -135012 
 -135004  -135000  -135008  -134996  -134996  -135012  -135009  -135001 
 -134990  -134981  -134998  -135006  -134992  -134988  -134986  -134984 
 -134995  -135000  -134996  -134984  -134981  -134993  -134992  -134984 
 -134997  -135000  -134980  -134978  -134983  -134979  -134978  -134971 
 -134960  -134956  -134961  -134960  -134944  -134946  -134958  -134943 
 -134930  -134932  -134936  -134936  -134922  -134914  -134926  -134934 
 -134930  -134916  -134911  -134925  -134925  -134917  -134923  -134926 
 -134918  -134916  -134926  -134936  -134937  -134937  -134944  -134947 
 -134950  -134968  -134975  -134961  -134966  -134992  -135000  -134997 
 -135002  -135013  -135020  -135021  -135030  -135043  -135043  -135046 
 -135049  -135052  -135067  -135068  -135059  -135069  -135081  -135092 
 -135104  -135098  -135087  -135099  -135113  -135105  -135096  -135103 
 -135114  -135119  -135114  -135118  -135137  -135145  -135141  -135144 
 -135142  -135142  -135153  -135166  -135177  -135174  -135172  -135183 
 -135178  -135170  -135186  -135199  -135205  -135215  -135219  -135223 
 -135236  -135241  -135227  -135223  -135248  -135275  -135272  -135258 
 -135278  -135306  -135301  -135292  -135305  -135313  -135308  -135312 
 -135323  -135336  -135344  -135341  -135347  -135348  -135329  -135337 
 -135350  -135337  -135345  -135357  -135338  -135335  -135351  -135357 
 -135358  -135346  -135342  -135360  -135363  -135357  -135360  -135362 
 -135359  -135363  -135368  -135368  -135378  -135389  -135381  -135384 
 -135396  -135394  -135409  -135434  -135428  -135418  -135423  -135421 
 -135425  -135455  -135469  -135442  -135442  -135489  -135497  -135466 
 -135478  -135501  -135481  -135471  -135492  -135499  -135497  -135498 
 -135494  -135493  -135498  -135497  -135495  -135505  -135506  -135498 
 -135499  -135487  -135480  -135504  -135504  -135495  -135516  -135507 
 -135484  -135492  -135502  -135502  -135505  -135515  -135517  -135509 
 -135511  -135512  -135509  -135513  -135518  -135520  -135525  -135527 
 -135527  -135540  -135535  -135517  -135532  -135540  -135521  -135521 
 -135528  -135529  -135533  -135522  -135517  -135520  -135502  -135499 
 -135517  -135507  -135492  -135491  -135471  -135458  -135469  -135467 
 -135451  -135436  -135432  -135440  -135433  -135415  -135414  -135417 
 -135406  -135405  -135405  -135379  -135363  -135369  -135361  -135349 
 -135355  -135356  -135337  -135324  -135331  -135329  -135314  -135320 
 -135316  -135296  -135299  -135302  -135292  -135284  -135274  -135259 
 -135253  -135253  -135236  -135226  -135233  -135211  -135185  -135194 
 -135195  -135173  -135166  -135160  -135143  -135144  -135141  -135118 
 -135096  -135086  -135080  -135070  -135061  -135051  -135045  -135041 
 -135029  -135019  -135017  -135011  -134998  -134988  -134978  -134969 
 -134962  -134951  -134944  -134936  -134932  -134934  -134922  -134902 
 -134898  -134902  -134886  -134870  -134880  -134864  -134834  -134837 
 -134829  -134810  -134802  -134782  -134772  -134776  -134771  -134765 
 -134751  -134731  -134714  -134694  -134682  -134681  -134678  -134664 
 -134645  -134626  -134605  -134590  -134583  -134575  -134559  -134539 
 -134527  -134531  -134534  -134515  -134484  -134475  -134468  -134443 
 -134436  -134448  -134429  -134383  -134364  -134375  -134370  -134350 
 -134336  -134316  -134295  -134291  -134292  -134283  -134261  -134240 
 -134237  -134232  -134211  -134201  -134194  -134175  -134166  -134153 
 -134135  -134133  -134121  -134106  -134101  -134099  -134107  -134096 
 -134074  -134081  -134070  -134036  -134033  -134036  -134018  -134007 
 -133998  -133984  -133976  -133969  -133965  -133962  -133953  -133942 
 -133926  -133907  -133903  -133911  -133913  -133899  -133887  -133879 
 -133861  -133853  -133855  -133852  -133839  -133822  -133825  -133819 
 -133805  -133823  -133810  -133780  -133801  -133806  -133788  -133787 
 -133775  -133758  -133763  -133776  -133779  -133775  -133774  -133758 
 -133745  -133753  -133760  -133762  -133764  -133756  -133756  -133763 
 -133768  -133774  -133756  -133744  -133764  -133765  -133755  -133761 
 -133761  -133753  -133757  -133764  -133753  -133750  -133761  -133763 
 -133766  -133761  -133752  -133760  -133761  -133752  -133751  -133762 
 -133766  -133753  -133756  -133764  -133758  -133765  -133777  -133777 
 -133772  -133770  -133767  -133761  -133774  -133794  -133782  -133770 
 -133794  -133802  -133783  -133801  -133832  -133811  -133782  -133800 
 -133826  -133817  -133809  -133830  -133849  -133849  -133853  -133861 
 -133861  -133863  -133866  -133879  -133900  -133899  -133895  -133906 
 -133907  -133913  -133930  -133936  -133921  -133921  -133966  -134003 
 -134008  -134009  -134011  -134029  -134043  -134045  -134071  -134082 
 -134076  -134093  -134106  -134109  -134120  -134129  -134140  -134153 
 -134160  -134172  -134189  -134195  -134195  -134217  -134251  -134266 
 -134270  -134268  -134255  -134268  -134298  -134305  -134315  -134332 
 -134339  -134363  -134386  -134387  -134389  -134411  -134435  -134442 
 -134453  -134462  -134462  -134479  -134501  -134519  -134538  -134549 
 -134558  -134579  -134614  -134627  -134615  -134621  -134638  -134660 
 -134700  -134722  -134724  -134739  -134757  -134769  -134782  -134801 
 -134822  -134841  -134859  -134876  -134890  -134901  -134913  -134929 
 -134949  -134964  -134974  -135003  -135031  -135034  -135038  -135056 
 -135081  -135101  -135097  -135092  -135134  -135158  -135129  -135147 
 -135182  -135179  -135193  -135200  -135200  -135230  -135242  -135245 
 -135266  -135270  -135253  -135247  -135268  -135282  -135282  -135293 
 -135295  -135300  -135313  -135305  -135307  -135323  -135331  -135351 
 -135358  -135344  -135350  -135359  -135355  -135360  -135358  -135362 
 -135376  -135378  -135386  -135392  -135383  -135388  -135408  -135416 
 -135416  -135413  -135407  -135411  -135427  -135432  -135427  -135424 
 -135422  -135414  -135410  -135418  -135414  -135399  -135410  -135432 
 -135431  -135412  -135393  -135404  -135423  -135411  -135405  -135406 
 -135383  -135386  -135397  -135384  -135377  -135366  -135362  -135381 
 -135384  -135370  -135365  -135362  -135360  -135367  -135373  -135364 
 -135344  -135335  -135355  -135379  -135367  -135343  -135347  -135354 
 -135341  -135337  -135344  -135334  -135314  -135307  -135319  -135322 
 -135312  -135310  -135308  -135295  -135290  -135293  -135287  -135277 
 -135271  -135268  -135270  -135266  -135253  -135247  -135234  -135219 
 -135217  -135222  -135226  -135222  -135217  -135222  -135223  -135217 
 -135212  -135206  -135199  -135201  -135206  -135201  -135191  -135185 
 -135183  -135185  -135186  -135188  -135175  -135157  -135160  -135166 
 -135178  -135191  -135168  -135150  -135157  -135153  -135149  -135154 
 -135148  -135140  -135141  -135141  -135128  -135122  -135139  -135131 
 -135102  -135101  -135104  -135103  -135114  -135104  -135093  -135106 
 -135095  -135081  -135101  -135104  -135089  -135095  -135100  -135101 
 -135103  -135099  -135108  -135106  -135091  -135100  -135107  -135094 
 -135095  -135099  -135093  -135091  -135095  -135089  -135093  -135109 
 -135098  -135083  -135093  -135095  -135094  -135105  -135105  -135099 
 -135109  -135118  -135113  -135117  -135114  -135096  -135099  -135117 
 -135129  -135133  -135134  -135142  -135147  -135146  -135156  -135162 
 -135164  -135179  -135183  -135180  -135198  -135203  -135194  -135204 
 -135216  -135218  -135224  -135236  -135253  -135258  -135250  -135273 
 -135293  -135282  -135291  -135308  -135301  -135305  -135317  -135320 
 -135333  -135349  -135347  -135347  -135374  -135390  -135376  -135384 
 -135413  -135407  -135400  -135418  -135424  -135432  -135451  -135453 
 -135455  -135465  -135473  -135481  -135487  -135500  -135516  -135513 
 -135513  -135534  -135546  -135549  -135554  -135557  -135566  -135576 
 -135583  -135590  -135590  -135597  -135614  -135623  -135629  -135646 
 -135666  -135678  -135676  -135674  -135687  -135693  -135693  -135709 
 -135719  -135711  -135733  -135764  -135747  -135749  -135787  -135784 
 -135775  -135801  -135804  -135790  -135805  -135822  -135820  -135824 
 -135836  -135846  -135852  -135855  -135854  -135852  -135863  -135866 
 -135860  -135864  -135868  -135867  -135867  -135876  -135890  -135891 
 -135884  -135895  -135893  -135871  -135880  -135890  -135878  -135883 
 -135883  -135869  -135866  -135866  -135862  -135858  -135859  -135868 
 -135861  -135856  -135868  -135855  -135837  -135845  -135840  -135819 
 -135818  -135836  -135833  -135801  -135789  -135794  -135793  -135792 
 -135783  -135773  -135780  -135781  -135768  -135758  -135758  -135749 
 -135723  -135722  -135739  -135728  -135712  -135721  -135726  -135709 
 -135702  -135702  -135681  -135676  -135688  -135675  -135663  -135669 
 -135665  -135654  -135642  -135627  -135622  -135623  -135615  -135602 
 -135596  -135602  -135603  -135578  -135553  -135556  -135561  -135553 
 -135549  -135537  -135522  -135518  -135517  -135513  -135505  -135499 
 -135484  -135471  -135482  -135483  -135461  -135440  -135431  -135426 
 -135418  -135420  -135423  -135421  -135421  -135407  -135391  -135397 
 -135402  -135385  -135364  -135368  -135387  -135388  -135375  -135360 
 -135355  -135371  -135376  -135367  -135369  -135367  -135359  -135362 
 -135370  -135362  -135340  -135345  -135364  -135349  -135335  -135345 
 -135342  -135341  -135348  -135332  -135324  -135335  -135326  -135312 
 -135315  -135319  -135316  -135315  -135316  -135309  -135305  -135300 
 -135289  -135298  -135299  -135281  -135283  -135286  -135276  -135278 
 -135288  -135278  -135267  -135274  -135273  -135267  -135269  -135265 
 -135264  -135259  -135240  -135255  -135281  -135261  -135244  -135253 
 -135251  -135241  -135245  -135251  -135247  -135237  -135235  -135231 
 -135222  -135220  -135219  -135212  -135211  -135207  -135187  -135170 
