Origin Time       2015/05/30 20:24:00
Lat.              27.860
Long.             140.682
Depth. (km)       682
Mag.              8.1
Station Code      KGS023
Station Lat.      31.1990
Station Long.     130.8490
Station Height(m) 179
Record Time       2015/05/30 20:25:24
Sampling Freq(Hz) 100Hz
Duration Time(s)  60
Dir.              E-W
Scale Factor      3920(gal)/6182761
Max. Acc. (gal)   1.977
Last Correction   2015/05/30 20:25:24
Memo.             
[...]
   21020    21016    21019    21019    21014    21015    21020    21024 
   21025    21020    21012    21013    21019    21020    21019    21020 
   21023    21022    21017    21017    21019    21018    21015    21015 
   21018    21023    21028    21027    21022    21021    21017    21012 
   21010    21012    21018    21023    21022    21025    21031    21028 
   21017    21009    21008    21014    21019    21022    21023    21022 
   21023    21024    21020    21015    21010    21010    21012    21016 
   21021    21021    21019    21022    21025    21024    21021    21019 
   21019    21021    21023    21024    21019    21015    21013    21012 
   21018    21025    21026    21021    21012    21010    21015    21019 
   21021    21020    21018    21017    21020    21022    21016    21016 
   21016    21011    21014    21021    21020    21018    21019    21017 
   21018    21023    21018    21015    21019    21023    21025    21022 
   21021    21020    21013    21014    21016    21017    21022    21020 
   21018    21018    21011    21009    21017    21021    21023    21024 
   21017    21014    21017    21020    21023    21024    21021    21015 
   21014    21023    21025    21013    21007    21015    21022    21023 
   21025    21023    21015    21015    21016    21011    21018    21028 
   21024    21019    21017    21010    21007    21011    21015    21019 
   21023    21025    21026    21027    21028    21026    21023    21017 
   21007    21008    21016    21016    21013    21018    21019    21020 
   21025    21022    21019    21020    21013    21012    21018    21020 
   21023    21022    21028    21036    21028    21021    21020    21012 
   21009    21012    21010    21010    21015    21018    21019    21023 
   21026    21021    21018    21021    21019    21020    21025    21021 
   21017    21022    21022    21018    21016    21012    21005    21007 
   21015    21018    21022    21032    21034    21024    21014    21007 
   21006    21017    21029    21031    21027    21025    21020    21013 
   21009    21006    21005    21007    21015    21024    21029    21027 
   21028    21027    21016    21009    21010    21013    21018    21020 
   21021    21021    21025    21028    21019    21011    21010    21009 
   21010    21013    21017    21022    21024    21026    21027    21021 
   21015    21012    21005    21010    21024    21027    21023    21019 
   21018    21018    21015    21011    21011    21017    21023    21022 
   21020    21024    21025    21018    21010    21007    21008    21013 
   21019    21027    21031    21032    21029    21019    21012    21009 
   21010    21016    21018    21019    21023    21022    21020    21020 
   21014    21009    21014    21019    21019    21021    21023    21023 
   21022    21018    21015    21016    21015    21015    21021    21021 
   21016    21016    21021    21024    21021    21015    21009    21008 
   21013    21021    21026    21030    21034    21028    21018    21016 
   21013    21011    21011    21013    21021    21027    21029    21024 
   21014    21011    21015    21014    21014    21021    21026    21024 
   21025    21023    21012    21011    21018    21012    21005    21011 
   21016    21017    21019    21018    21010    21002    21002    21000 
   20998    21008    21017    21017    21018    21015    21012    21014 
   21010    21006    21013    21015    21014    21017    21018    21010 
   20997    20996    21000    20999    21005    21011    21004    20997 
   20991    20982    20979    20978    20972    20974    20980    20980 
   20981    20989    20995    20993    20990    20999    21007    21010 
   21020    21030    21035    21040    21043    21040    21041    21042 
   21033    21033    21039    21029    21023    21035    21042    21035 
   21035    21037    21026    21015    21014    21013    21008    21007 
   21013    21009    20993    20987    20991    20991    20995    21007 
   21014    21019    21026    21027    21024    21027    21033    21037 
   21034    21041    21056    21060    21056    21053    21053    21050 
   21040    21033    21028    21020    21012    21001    20989    20981 
   20966    20948    20937    20931    20928    20929    20931    20936 
   20941    20947    20954    20960    20957    20943    20927    20916 
   20907    20903    20896    20877    20858    20850    20842    20838 
   20843    20846    20850    20858    20861    20861    20865    20869 
   20872    20883    20895    20900    20900    20899    20902    20916 
   20937    20961    20988    21014    21036    21063    21094    21122 
   21150    21173    21188    21199    21203    21203    21198    21186 
   21178    21173    21161    21143    21133    21125    21107    21092 
   21083    21074    21066    21064    21068    21072    21076    21085 
   21097    21103    21108    21121    21137    21149    21160    21173 
   21190    21203    21216    21233    21244    21246    21246    21243 
   21236    21230    21218    21194    21170    21147    21122    21091 
   21057    21029    21004    20976    20953    20934    20921    20911 
   20905    20906    20914    20927    20944    20961    20979    20995 
   21013    21031    21041    21048    21054    21053    21043    21024 
   21000    20974    20944    20909    20870    20834    20803    20772 
   20741    20718    20696    20674    20660    20652    20647    20648 
   20659    20675    20705    20761    20826    20890    20961    21031 
   21090    21146    21197    21235    21258    21273    21287    21297 
   21297    21294    21293    21291    21288    21287    21284    21285 
   21284    21273    21261    21247    21228    21207    21178    21146 
   21124    21101    21080    21072    21076    21077    21078    21089 
   21100    21099    21091    21085    21077    21067    21049    21024 
   21000    20972    20938    20911    20890    20871    20853    20836 
   20821    20812    20805    20791    20776    20767    20759    20750 
   20752    20765    20788    20816    20846    20873    20900    20936 
   20969    20988    21006    21021    21024    21020    21019    21025 
   21035    21054    21090    21138    21195    21264    21334    21395 
   21449    21488    21497    21485    21452    21395    21326    21246 
   21157    21071    20985    20911    20858    20815    20785    20779 
   20786    20809    20846    20876    20890    20894    20883    20857 
   20822    20793    20781    20778    20784    20811    20853    20913 
   20991    21070    21143    21217    21285    21334    21370    21388 
   21386    21372    21336    21285    21241    21203    21166    21145 
   21146    21159    21183    21217    21248    21268    21279    21276 
   21262    21239    21200    21157    21114    21060    21007    20956 
   20895    20831    20760    20674    20586    20501    20410    20320 
   20230    20135    20050    19986    19945    19929    19939    19984 
   20060    20156    20276    20421    20584    20765    20960    21158 
   21348    21519    21671    21800    21899    21965    22000    22017 
   22029    22033    22028    22020    22000    21957    21889    21786 
   21647    21486    21304    21099    20895    20702    20532    20402 
   20319    20276    20284    20350    20458    20583    20717    20861 
   20997    21098    21170    21228    21269    21292    21307    21322 
   21337    21354    21373    21381    21364    21313    21231    21113 
   20955    20774    20591    20424    20284    20166    20083    20054 
   20071    20121    20208    20322    20449    20587    20727    20861 
   20983    21095    21199    21285    21341    21366    21368    21362 
   21360    21370    21397    21437    21489    21550    21619    21688 
   21744    21771    21762    21717    21643    21555    21455    21346 
   21241    21149    21079    21034    21013    21008    21010    21013 
   21015    21007    20994    20976    20947    20904    20855    20811 
   20777    20757    20751    20760    20780    20810    20842    20864 
   20870    20860    20845    20839    20835    20833    20850    20890 
   20936    20985    21038    21100    21162    21209    21244    21279 
   21311    21336    21362    21394    21432    21469    21502    21527 
   21541    21547    21547    21535    21511    21485    21457    21428 
   21392    21340    21272    21182    21071    20941    20784    20599 
   20400    20205    20031    19888    19789    19742    19737    19778 
   19861    19964    20081    20207    20333    20467    20605    20724 
   20824    20913    20994    21066    21128    21188    21257    21334 
   21413    21494    21581    21660    21715    21752    21766    21736 
   21661    21555    21437    21303    21161    21041    20947    20880 
   20854    20863    20909    20979    21045    21096    21126    21121 
   21071    20983    20874    20764    20670    20613    20599    20625 
   20695    20794    20894    20982    21055    21100    21103    21067 
   20995    20884    20743    20577    20397    20232    20099    20014 
   19990    20027    20130    20290    20483    20690    20900    21094 
   21262    21398    21494    21540    21549    21547    21531    21501 
   21486    21497    21531    21596    21686    21796    21916    22019 
   22086    22112    22093    22020    21901    21749    21577    21397 
   21233    21097    20997    20934    20899    20894    20907    20911 
   20896    20866    20813    20739    20648    20544    20446    20375 
   20340    20345    20401    20503    20642    20810    20989    21157 
   21308    21433    21520    21577    21608    21613    21611    21610 
   21602    21592    21581    21559    21518    21459    21371    21242 
   21071    20863    20627    20377    20126    19889    19678    19507 
   19391    19336    19338    19389    19487    19637    19822    20026 
   20239    20444    20622    20770    20881    20954    21001    21038 
   21069    21110    21174    21256    21350    21459    21579    21695 
   21793    21870    21919    21938    21928    21886    21812    21720 
   21622    21533    21466    21428    21419    21436    21473    21523 
   21577    21618    21637    21637    21621    21596    21574    21551 
   21536    21549    21585    21629    21679    21723    21743    21727 
   21665    21543    21381    21198    20980    20738    20510    20302 
   20108    19939    19801    19701    19628    19586    19596    19657 
   19756    19895    20073    20272    20482    20705    20932    21133 
   21290    21414    21489    21494    21463    21409    21329    21246 
   21182    21140    21121    21119    21141    21170    21180    21178 
   21173    21159    21149    21146    21144    21148    21160    21169 
   21178    21186    21187    21173    21145    21109    21061    21008 
   20962    20929    20904    20885    20870    20851    20809    20738 
   20638    20521    20402    20291    20203    20158    20164    20219 
   20319    20454    20606    20767    20927    21062    21161    21235 
   21286    21323    21359    21411    21486    21580    21682    21781 
   21868    21934    21966    21955    21908    21835    21744    21641 
   21531    21420    21309    21204    21118    21056    21024    21018 
   21030    21055    21082    21086    21051    20980    20869    20724 
   20556    20372    20191    20032    19890    19775    19693    19639 
   19616    19627    19670    19739    19819    19905    19996    20083 
   20162    20238    20325    20434    20571    20743    20958    21215 
   21498    21802    22125    22449    22753    23017    23231    23380 
   23444    23427    23340    23185    22979    22748    22503    22241 
   21985    21778    21607    21452    21367    21336    21183    20958 
   20899    20854    20617    20431    20392    20299    20213    20250 
   20310    20364    20455    20534    20590    20658    20709    20705 
   20658    20580    20456    20293    20127    19968    19810    19659 
   19543    19472    19457    19499    19582    19716    19913    20140 
   20361    20588    20842    21101    21340    21580    21828    22072 
   22321    22563    22770    22941    23072    23138    23132    23060 
   22927    22738    22504    22253    22013    21794    21602    21440 
   21312    21221    21159    21111    21064    21016    20945    20826 
   20688    20554    20394    20216    20064    19923    19767    19651 
   19606    19593    19626    19731    19874    20043    20240    20444 
   20644    20839    21017    21162    21283    21389    21475    21551 
   21631    21707    21789    21889    21981    22056    22118    22154 
   22167    22151    22093    22005    21895    21756    21583    21375 
   21138    20882    20612    20333    20049    19775    19530    19318 
   19136    18986    18877    18816    18798    18817    18890    19028 
   19214    19437    19703    19998    20291    20569    20840    21104 
   21352    21594    21852    22126    22398    22654    22881    23069 
   23211    23290    23299    23237    23109    22934    22721    22471 
   22212    21964    21720    21478    21251    21045    20862    20712 
   20603    20534    20497    20490    20510    20560    20640    20726 
   20805    20870    20910    20914    20869    20777    20647    20482 
   20293    20098    19905    19721    19561    19421    19295    19181 
   19081    19011    18977    18970    19009    19100    19219    19368 
   19555    19769    20002    20249    20507    20786    21084    21400 
   21735    22081    22434    22790    23125    23431    23709    23924 
   24065    24137    24126    24022    23826    23548    23203    22801 
   22376    21961    21557    21171    20842    20587    20403    20288 
   20251    20263    20245    20225    20284    20336    20332    20392 
   20512    20604    20699    20818    20929    21029    21115    21169 
   21179    21145    21069    20947    20792    20613    20416    20216 
   20027    19871    19774    19745    19788    19890    20036    20210 
   20403    20610    20796    20958    21100    21176    21171    21125 
   21058    20988    20924    20877    20884    20940    21023    21141 
   21282    21424    21558    21663    21724    21747    21734    21684 
   21617    21544    21472    21410    21352    21289    21225    21166 
   21108    21044    20978    20917    20861    20814    20776    20738 
   20692    20636    20568    20485    20397    20319    20267    20243 
   20247    20285    20346    20423    20517    20623    20742    20877 
   21032    21207    21390    21600    21823    22031    22227    22384 
   22482    22520    22483    22380    22227    22013    21750    21465 
   21183    20916    20665    20445    20274    20143    20058    20038 
   20082    20188    20356    20567    20792    21020    21236    21418 
   21562    21659    21673    21604    21488    21340    21155    20961 
   20784    20612    20451    20317    20219    20163    20134    20124 
   20145    20190    20248    20321    20416    20519    20624    20724 
   20795    20841    20866    20872    20866    20848    20822    20800 
   20783    20774    20789    20820    20853    20906    20969    21027 
   21102    21197    21311    21461    21625    21785    21952    22119 
   22269    22377    22440    22456    22391    22256    22075    21841 
   21561    21262    20951    20645    20377    20152    19956    19802 
   19705    19661    19668    19729    19828    19948    20088    20255 
   20442    20639    20847    21058    21259    21453    21641    21809 
   21952    22072    22168    22224    22221    22169    22086    21972 
   21842    21709    21564    21412    21258    21090    20923    20762 
   20589    20407    20242    20091    19953    19859    19825    19858 
   19976    20167    20408    20702    21038    21389    21737    22052 
   22310    22515    22655    22715    22707    22639    22507    22309 
   22062    21798    21524    21250    21004    20808    20668    20583 
   20558    20569    20596    20651    20731    20809    20876    20935 
   20985    21021    21043    21048    21026    20987    20931    20838 
   20713    20571    20413    20240    20075    19932    19806    19706 
   19643    19613    19616    19648    19705    19794    19910    20054 
   20229    20432    20649    20867    21084    21301    21505    21681 
   21828    21955    22048    22101    22129    22130    22097    22045 
   21969    21871    21776    21683    21586    21503    21437    21380 
   21339    21324    21336    21362    21391    21422    21452    21467 
   21454    21422    21374    21304    21217    21121    21021    20925 
   20831    20734    20649    20579    20511    20446    20389    20329 
   20297    20294    20262    20197    20137    20055    19953    19870 
   19803    19766    19791    19863    19985    20167    20388    20627 
   20876    21127    21359    21557    21726    21873    21995    22093 
   22170    22222    22243    22221    22145    22019    21853    21654 
   21430    21185    20923    20670    20441    20228    20040    19884 
   19762    19671    19601    19560    19556    19573    19619    19707 
   19830    19983    20170    20383    20619    20866    21121    21388 
   21659    21922    22173    22402    22601    22762    22878    22956 
   22994    22984    22927    22823    22679    22500    22276    22016 
   21747    21475    21194    20916    20665    20445    20251    20089 
   19963    19872    19816    19797    19809    19855    19930    20034 
   20169    20321    20482    20660    20830    20978    21117    21237 
   21320    21368    21379    21351    21289    21200    21097    20981 
   20858    20759    20687    20628    20586    20563    20556    20556 
   20552    20555    20575    20600    20638    20698    20774    20855 
   20943    21041    21137    21222    21302    21375    21426    21445 
   21440    21424    21395    21347    21297    21247    21203    21178 
   21161    21149    21155    21161    21161    21167    21165    21152 
   21140    21133    21134    21133    21137    21157    21189    21231 
   21280    21331    21388    21445    21498    21550    21592    21618 
   21629    21623    21604    21583    21557    21517    21469    21429 
   21393    21351    21306    21250    21182    21119    21064    21010 
   20951    20881    20816    20765    20713    20659    20616    20577 
   20540    20523    20527    20527    20519    20539    20583    20615 
   20645    20679    20700    20715    20721    20708    20688    20677 
   20678    20691    20719    20756    20777    20777    20780    20767 
   20721    20675    20622    20544    20483    20456    20434    20437 
   20484    20535    20588    20649    20705    20750    20770    20770 
   20781    20798    20794    20785    20809    20856    20901    20955 
   21031    21118    21206    21297    21392    21497    21615    21737 
   21857    21976    22092    22192    22272    22331    22371    22391 
   22382    22340    22261    22143    21997    21836    21660    21463 
   21257    21057    20869    20695    20539    20400    20285    20197 
   20138    20113    20120    20157    20212    20271    20333    20396 
   20453    20511    20576    20636    20691    20759    20841    20926 
   21014    21097    21167    21221    21250    21255    21241    21210 
   21165    21106    21036    20952    20857    20759    20667    20574 
   20474    20379    20296    20224    20167    20128    20114    20136 
