Origin Time       2015/05/30 20:24:00
Lat.              27.860
Long.             140.682
Depth. (km)       682
Mag.              8.1
Station Code      KGS023
Station Lat.      31.1990
Station Long.     130.8490
Station Height(m) 179
Record Time       2015/05/30 20:25:24
Sampling Freq(Hz) 100Hz
Duration Time(s)  60
Dir.              N-S
Scale Factor      3920(gal)/6182761
Max. Acc. (gal)   1.507
Last Correction   2015/05/30 20:25:24
Memo.             
[...]
  -12653   -12659   -12661   -12658   -12654   -12657   -12656   -12652 
  -12653   -12654   -12651   -12652   -12654   -12655   -12654   -12652 
  -12650   -12651   -12655   -12656   -12656   -12656   -12654   -12650 
  -12649   -12653   -12654   -12650   -12649   -12653   -12654   -12651 
  -12650   -12654   -12659   -12661   -12657   -12654   -12655   -12654 
  -12651   -12650   -12649   -12649   -12653   -12656   -12656   -12653 
  -12654   -12655   -12653   -12656   -12659   -12654   -12651   -12654 
  -12653   -12650   -12652   -12655   -12655   -12656   -12653   -12647 
  -12649   -12655   -12655   -12654   -12656   -12656   -12649   -12649 
  -12657   -12655   -12649   -12656   -12664   -12659   -12655   -12659 
  -12657   -12652   -12649   -12648   -12648   -12650   -12651   -12649 
  -12654   -12662   -12662   -12658   -12657   -12654   -12652   -12652 
  -12649   -12648   -12652   -12656   -12659   -12655   -12653   -12657 
  -12657   -12654   -12657   -12658   -12653   -12652   -12653   -12651 
  -12653   -12657   -12655   -12653   -12655   -12653   -12653   -12657 
  -12656   -12654   -12655   -12656   -12658   -12651   -12649   -12654 
  -12651   -12648   -12653   -12652   -12655   -12663   -12662   -12656 
  -12655   -12656   -12655   -12652   -12648   -12651   -12652   -12649 
  -12654   -12665   -12667   -12658   -12654   -12653   -12643   -12640 
  -12649   -12653   -12654   -12659   -12656   -12652   -12659   -12657 
  -12652   -12655   -12656   -12654   -12655   -12657   -12657   -12654 
  -12650   -12653   -12660   -12659   -12652   -12650   -12650   -12653 
  -12656   -12656   -12661   -12659   -12648   -12647   -12650   -12646 
  -12651   -12659   -12656   -12651   -12655   -12657   -12656   -12655 
  -12653   -12654   -12656   -12652   -12652   -12659   -12655   -12647 
  -12654   -12657   -12651   -12654   -12657   -12652   -12650   -12657 
  -12660   -12652   -12649   -12652   -12650   -12651   -12661   -12665 
  -12658   -12652   -12652   -12653   -12653   -12651   -12648   -12648 
  -12652   -12655   -12656   -12659   -12656   -12652   -12657   -12661 
  -12654   -12649   -12656   -12659   -12653   -12651   -12655   -12658 
  -12660   -12652   -12646   -12653   -12658   -12654   -12651   -12654 
  -12658   -12657   -12657   -12660   -12652   -12643   -12647   -12651 
  -12652   -12655   -12653   -12652   -12659   -12658   -12652   -12658 
  -12661   -12656   -12655   -12650   -12651   -12661   -12660   -12659 
  -12662   -12655   -12647   -12643   -12643   -12650   -12654   -12653 
  -12654   -12659   -12662   -12659   -12652   -12650   -12655   -12656 
  -12652   -12654   -12657   -12651   -12650   -12655   -12655   -12654 
  -12659   -12661   -12654   -12648   -12648   -12649   -12648   -12653 
  -12660   -12661   -12660   -12661   -12658   -12653   -12651   -12655 
  -12657   -12651   -12647   -12649   -12650   -12650   -12652   -12657 
  -12658   -12656   -12655   -12657   -12660   -12662   -12657   -12649 
  -12652   -12659   -12652   -12647   -12653   -12652   -12647   -12651 
  -12655   -12658   -12662   -12663   -12658   -12654   -12655   -12652 
  -12644   -12644   -12650   -12654   -12658   -12660   -12661   -12662 
  -12655   -12646   -12646   -12648   -12649   -12651   -12653   -12658 
  -12664   -12665   -12661   -12659   -12655   -12650   -12648   -12652 
  -12654   -12652   -12650   -12650   -12654   -12658   -12658   -12657 
  -12656   -12659   -12660   -12655   -12653   -12656   -12655   -12653 
  -12652   -12650   -12650   -12652   -12652   -12654   -12659   -12660 
  -12653   -12651   -12657   -12661   -12656   -12649   -12648   -12652 
  -12654   -12656   -12659   -12663   -12659   -12651   -12650   -12652 
  -12653   -12655   -12657   -12655   -12653   -12656   -12656   -12648 
  -12647   -12653   -12654   -12652   -12654   -12657   -12656   -12654 
  -12654   -12653   -12652   -12655   -12657   -12656   -12655   -12657 
  -12657   -12655   -12655   -12657   -12660   -12662   -12654   -12649 
  -12650   -12651   -12649   -12645   -12649   -12659   -12661   -12656 
  -12652   -12651   -12652   -12646   -12644   -12654   -12654   -12647 
  -12648   -12654   -12660   -12659   -12651   -12652   -12655   -12646 
  -12643   -12653   -12656   -12654   -12657   -12657   -12655   -12655 
  -12650   -12642   -12639   -12641   -12638   -12633   -12633   -12634 
  -12637   -12635   -12629   -12634   -12642   -12638   -12635   -12641 
  -12649   -12651   -12648   -12652   -12659   -12658   -12659   -12660 
  -12656   -12657   -12659   -12658   -12660   -12664   -12664   -12662 
  -12666   -12671   -12668   -12665   -12669   -12668   -12659   -12654 
  -12658   -12658   -12655   -12653   -12657   -12655   -12649   -12653 
  -12657   -12651   -12651   -12654   -12650   -12654   -12657   -12649 
  -12643   -12647   -12649   -12644   -12641   -12647   -12648   -12643 
  -12650   -12656   -12651   -12653   -12661   -12666   -12668   -12666 
  -12662   -12661   -12654   -12651   -12652   -12648   -12646   -12644 
  -12642   -12644   -12646   -12639   -12629   -12623   -12621   -12623 
  -12621   -12609   -12602   -12604   -12599   -12594   -12594   -12593 
  -12589   -12586   -12584   -12587   -12593   -12592   -12590   -12592 
  -12598   -12603   -12606   -12606   -12608   -12608   -12604   -12606 
  -12612   -12612   -12611   -12614   -12623   -12630   -12632   -12637 
  -12647   -12657   -12668   -12680   -12697   -12712   -12722   -12731 
  -12737   -12739   -12738   -12727   -12712   -12702   -12694   -12685 
  -12680   -12673   -12670   -12677   -12685   -12690   -12698   -12702 
  -12697   -12695   -12696   -12697   -12701   -12707   -12712   -12722 
  -12732   -12736   -12738   -12739   -12729   -12715   -12703   -12692 
  -12683   -12675   -12668   -12667   -12668   -12668   -12674   -12679 
  -12677   -12676   -12676   -12669   -12659   -12651   -12637   -12622 
  -12617   -12620   -12620   -12623   -12635   -12650   -12666   -12677 
  -12686   -12699   -12704   -12700   -12692   -12676   -12659   -12646 
  -12629   -12615   -12616   -12625   -12628   -12627   -12628   -12632 
  -12637   -12640   -12636   -12627   -12624   -12623   -12619   -12622 
  -12628   -12628   -12625   -12623   -12624   -12623   -12617   -12615 
  -12618   -12616   -12620   -12638   -12646   -12643   -12646   -12647 
  -12639   -12630   -12621   -12608   -12595   -12591   -12593   -12599 
  -12609   -12622   -12634   -12648   -12666   -12684   -12695   -12707 
  -12727   -12749   -12772   -12794   -12811   -12822   -12826   -12822 
  -12815   -12805   -12786   -12763   -12740   -12715   -12694   -12680 
  -12667   -12654   -12641   -12635   -12629   -12616   -12602   -12593 
  -12589   -12581   -12567   -12556   -12549   -12533   -12513   -12506 
  -12512   -12527   -12546   -12562   -12583   -12603   -12609   -12613 
  -12614   -12605   -12603   -12605   -12595   -12583   -12576   -12564 
  -12547   -12529   -12517   -12511   -12509   -12522   -12560   -12610 
  -12666   -12731   -12795   -12842   -12869   -12878   -12873   -12854 
  -12826   -12794   -12769   -12757   -12756   -12767   -12784   -12800 
  -12820   -12834   -12837   -12834   -12821   -12795   -12767   -12744 
  -12725   -12712   -12702   -12694   -12689   -12686   -12674   -12657 
  -12639   -12616   -12588   -12557   -12526   -12503   -12502   -12520 
  -12545   -12580   -12619   -12639   -12642   -12640   -12620   -12583 
  -12549   -12522   -12501   -12497   -12523   -12580   -12656   -12739 
  -12828   -12915   -12981   -13012   -13010   -12972   -12905   -12829 
  -12758   -12699   -12663   -12636   -12609   -12586   -12552   -12494 
  -12418   -12322   -12211   -12103   -12014   -11956   -11937   -11964 
  -12034   -12134   -12254   -12377   -12485   -12568   -12632   -12673 
  -12687   -12694   -12711   -12726   -12741   -12764   -12788   -12805 
  -12818   -12832   -12844   -12841   -12827   -12816   -12803   -12785 
  -12771   -12761   -12751   -12738   -12726   -12724   -12737   -12767 
  -12803   -12842   -12894   -12954   -13009   -13052   -13077   -13077 
  -13054   -13016   -12966   -12902   -12827   -12749   -12682   -12632 
  -12601   -12599   -12627   -12677   -12741   -12809   -12866   -12899 
  -12908   -12903   -12887   -12855   -12807   -12757   -12712   -12669 
  -12647   -12654   -12667   -12665   -12638   -12578   -12483   -12355 
  -12201   -12040   -11889   -11758   -11661   -11616   -11634   -11708 
  -11820   -11953   -12083   -12193   -12285   -12362   -12422   -12480 
  -12555   -12654   -12780   -12929   -13090   -13243   -13373   -13468 
  -13513   -13499   -13437   -13343   -13233   -13116   -12999   -12903 
  -12840   -12795   -12772   -12782   -12804   -12812   -12809   -12801 
  -12796   -12796   -12792   -12779   -12767   -12755   -12738   -12717 
  -12693   -12663   -12631   -12598   -12564   -12527   -12487   -12449 
  -12423   -12410   -12408   -12414   -12423   -12431   -12436   -12444 
  -12461   -12488   -12523   -12573   -12640   -12709   -12774   -12849 
  -12924   -12986   -13041   -13079   -13088   -13076   -13046   -12996 
  -12939   -12879   -12799   -12699   -12596   -12484   -12363   -12258 
  -12164   -12077   -12017   -11988   -11995   -12038   -12107   -12205 
  -12337   -12489   -12650   -12813   -12963   -13079   -13142   -13147 
  -13107   -13029   -12927   -12823   -12723   -12636   -12577   -12547 
  -12542   -12550   -12555   -12553   -12532   -12486   -12429   -12362 
  -12289   -12226   -12183   -12174   -12201   -12243   -12306   -12395 
  -12488   -12579   -12676   -12776   -12874   -12964   -13043   -13112 
  -13153   -13157   -13129   -13072   -12992   -12891   -12784   -12697 
  -12630   -12582   -12577   -12614   -12665   -12727   -12790   -12844 
  -12880   -12884   -12851   -12795   -12725   -12648   -12568   -12496 
  -12462   -12475   -12514   -12585   -12695   -12811   -12914   -13000 
  -13045   -13032   -12967   -12857   -12709   -12535   -12369   -12232 
  -12118   -12031   -11967   -11913   -11870   -11828   -11771   -11715 
  -11666   -11629   -11624   -11665   -11763   -11914   -12118   -12372 
  -12653   -12934   -13199   -13429   -13618   -13756   -13837   -13876 
  -13886   -13876   -13853   -13810   -13744   -13652   -13524   -13371 
  -13199   -13006   -12803   -12605   -12422   -12265   -12141   -12059 
  -12019   -12019   -12052   -12111   -12191   -12295   -12416   -12544 
  -12687   -12854   -13035   -13228   -13420   -13584   -13704   -13761 
  -13736   -13632   -13458   -13225   -12953   -12672   -12409   -12184 
  -12010   -11893   -11832   -11820   -11836   -11857   -11871   -11868 
  -11851   -11822   -11788   -11762   -11755   -11779   -11838   -11927 
  -12046   -12181   -12306   -12420   -12516   -12586   -12644   -12685 
  -12714   -12752   -12807   -12868   -12939   -13029   -13119   -13177 
  -13196   -13171   -13101   -13001   -12876   -12739   -12623   -12549 
  -12518   -12542   -12614   -12706   -12795   -12865   -12900   -12894 
  -12854   -12787   -12714   -12662   -12640   -12652   -12699   -12780 
  -12872   -12948   -13005   -13050   -13071   -13071   -13069   -13064 
  -13068   -13110   -13163   -13186   -13208   -13238   -13224   -13150 
  -13068   -12981   -12871   -12765   -12686   -12633   -12610   -12615 
  -12626   -12628   -12623   -12602   -12534   -12416   -12272   -12108 
  -11928   -11756   -11612   -11501   -11449   -11464   -11537   -11665 
  -11841   -12037   -12242   -12450   -12631   -12776   -12900   -12993 
  -13067   -13155   -13247   -13327   -13399   -13449   -13464   -13451 
  -13393   -13281   -13130   -12944   -12734   -12527   -12341   -12188 
  -12085   -12041   -12053   -12103   -12170   -12243   -12301   -12330 
  -12341   -12343   -12345   -12366   -12415   -12482   -12563   -12649 
  -12723   -12770   -12780   -12750   -12683   -12585   -12467   -12358 
  -12284   -12262   -12304   -12413   -12577   -12776   -12990   -13199 
  -13379   -13511   -13598   -13641   -13635   -13606   -13562   -13503 
  -13441   -13384   -13319   -13232   -13120   -12981   -12799   -12581 
  -12349   -12108   -11874   -11682   -11550   -11475   -11474   -11551 
  -11673   -11825   -12007   -12201   -12397   -12591   -12769   -12924 
  -13059   -13163   -13226   -13238   -13194   -13102   -12965   -12793 
  -12610   -12419   -12228   -12052   -11889   -11745   -11640   -11568 
  -11524   -11531   -11593   -11710   -11891   -12125   -12406   -12736 
  -13097   -13462   -13813   -14128   -14392   -14595   -14711   -14734 
  -14661   -14477   -14195   -13855   -13488   -13140   -12830   -12527 
  -12264   -12060   -11851   -11685   -11630   -11585   -11502   -11487 
  -11543   -11577   -11637   -11772   -11939   -12166   -12476   -12839 
  -13245   -13669   -14056   -14375   -14617   -14762   -14786   -14698 
  -14520   -14257   -13932   -13595   -13251   -12895   -12544   -12202 
  -11879   -11581   -11301   -11036   -10806   -10652   -10576   -10562 
  -10622   -10751   -10922   -11132   -11378   -11634   -11892   -12163 
  -12438   -12710   -12987   -13258   -13500   -13704   -13872   -13995 
  -14056   -14050   -13973   -13823   -13601   -13325   -13020   -12698 
  -12384   -12091   -11826   -11605   -11426   -11309   -11274   -11280 
  -11309   -11404   -11561   -11752   -11978   -12228   -12480   -12730 
  -12983   -13213   -13419   -13622   -13804   -13953   -14095   -14225 
  -14335   -14433   -14501   -14524   -14514   -14478   -14419   -14336 
  -14220   -14081   -13926   -13746   -13531   -13273   -12978   -12654 
  -12295   -11900   -11496   -11116   -10788   -10531   -10357   -10277 
  -10287   -10363   -10482   -10620   -10752   -10876   -10989   -11085 
  -11187   -11320   -11487   -11693   -11949   -12244   -12570   -12921 
  -13277   -13620   -13952   -14255   -14491   -14639   -14703   -14687 
  -14594   -14425   -14198   -13931   -13626   -13298   -12974   -12674 
  -12410   -12192   -12022   -11897   -11819   -11787   -11810   -11888 
  -12009   -12166   -12355   -12562   -12772   -12977   -13163   -13301 
  -13382   -13419   -13404   -13342   -13264   -13178   -13085   -12999 
  -12915   -12835   -12766   -12685   -12573   -12425   -12233   -12007 
  -11761   -11504   -11254   -11034   -10876   -10795   -10789   -10864 
  -11033   -11283   -11585   -11925   -12285   -12641   -12973   -13263 
  -13501   -13676   -13773   -13789   -13726   -13596   -13421   -13220 
  -13018   -12847   -12724   -12651   -12630   -12666   -12740   -12835 
  -12935   -13007   -13040   -13044   -13017   -12968   -12930   -12925 
  -12964   -13041   -13155   -13313   -13486   -13650   -13817   -13950 
  -14026   -14048   -14007   -13936   -13830   -13666   -13474   -13257 
  -13005   -12724   -12434   -12170   -11921   -11670   -11451   -11296 
  -11193   -11119   -11076   -11064   -11056   -11063   -11102   -11149 
  -11202   -11284   -11396   -11534   -11703   -11894   -12091   -12300 
  -12513   -12720   -12923   -13114   -13285   -13442   -13590   -13725 
  -13837   -13916   -13949   -13923   -13835   -13689   -13499   -13271 
  -13019   -12774   -12540   -12323   -12149   -12007   -11895   -11831 
  -11815   -11837   -11904   -12020   -12165   -12336   -12533   -12726 
  -12901   -13053   -13171   -13251   -13293   -13308   -13303   -13271 
  -13225   -13177   -13116   -13055   -13018   -12972   -12909   -12871 
  -12840   -12795   -12765   -12748   -12733   -12713   -12678   -12645 
  -12608   -12558   -12513   -12466   -12415   -12380   -12360   -12358 
  -12382   -12424   -12473   -12527   -12581   -12634   -12683   -12724 
  -12754   -12775   -12782   -12771   -12739   -12681   -12596   -12495 
  -12383   -12272   -12177   -12106   -12068   -12073   -12105   -12149 
  -12217   -12303   -12382   -12461   -12542   -12605   -12657   -12713 
  -12762   -12801   -12835   -12852   -12846   -12818   -12764   -12697 
  -12626   -12550   -12481   -12430   -12399   -12394   -12435   -12508 
  -12579   -12659   -12750   -12830   -12897   -12939   -12958   -12968 
  -12947   -12899   -12849   -12799   -12753   -12708   -12659   -12622 
  -12590   -12556   -12520   -12474   -12436   -12412   -12387   -12386 
  -12432   -12503   -12598   -12724   -12855   -12974   -13081   -13166 
  -13232   -13286   -13323   -13345   -13361   -13370   -13363   -13340 
  -13308   -13249   -13146   -13013   -12866   -12708   -12552   -12398 
  -12250   -12127   -12027   -11934   -11862   -11820   -11796   -11798 
  -11828   -11871   -11937   -12036   -12153   -12279   -12398   -12499 
  -12579   -12625   -12627   -12603   -12565   -12513   -12469   -12429 
  -12396   -12398   -12433   -12475   -12519   -12566   -12604   -12614 
  -12607   -12596   -12572   -12542   -12527   -12533   -12565   -12633 
  -12734   -12864   -13019   -13197   -13390   -13579   -13761   -13931 
  -14077   -14199   -14284   -14309   -14274   -14196   -14081   -13919 
  -13720   -13509   -13284   -13049   -12820   -12590   -12365   -12154 
  -11953   -11765   -11598   -11462   -11366   -11321   -11332   -11392 
  -11489   -11619   -11769   -11915   -12046   -12177   -12307   -12424 
  -12532   -12640   -12744   -12840   -12919   -12970   -12988   -12968 
  -12910   -12817   -12704   -12582   -12440   -12290   -12152   -12019 
  -11894   -11789   -11701   -11642   -11620   -11619   -11643   -11709 
  -11798   -11906   -12044   -12194   -12349   -12526   -12719   -12911 
  -13105   -13301   -13490   -13657   -13799   -13923   -14018   -14075 
  -14106   -14117   -14093   -14038   -13966   -13856   -13696   -13515 
  -13312   -13076   -12836   -12604   -12382   -12210   -12092   -12018 
  -12018   -12080   -12185   -12335   -12500   -12665   -12830   -12974 
  -13087   -13167   -13209   -13214   -13191   -13139   -13067   -12975 
  -12851   -12695   -12507   -12289   -12055   -11815   -11578   -11365 
  -11195   -11082   -11031   -11044   -11118   -11240   -11390   -11550 
  -11708   -11853   -11983   -12097   -12191   -12281   -12383   -12491 
  -12597   -12708   -12822   -12923   -13001   -13051   -13075   -13070 
  -13031   -12975   -12925   -12884   -12854   -12845   -12868   -12935 
  -13044   -13181   -13338   -13511   -13683   -13828   -13935   -14001 
  -14019   -13983   -13896   -13767   -13602   -13409   -13202   -12991 
  -12784   -12594   -12437   -12328   -12268   -12250   -12280   -12358 
  -12469   -12602   -12750   -12898   -13026   -13108   -13142   -13139 
  -13088   -12981   -12844   -12690   -12512   -12324   -12146   -11980 
  -11827   -11689   -11575   -11494   -11441   -11410   -11411   -11446 
  -11508   -11598   -11709   -11836   -11985   -12141   -12303   -12476 
  -12644   -12802   -12951   -13078   -13182   -13257   -13292   -13284 
  -13238   -13157   -13047   -12916   -12767   -12609   -12460   -12322 
  -12203   -12110   -12044   -12022   -12053   -12129   -12248   -12410 
  -12610   -12834   -13063   -13296   -13523   -13722   -13893   -14020 
  -14085   -14110   -14092   -14011   -13887   -13738   -13559   -13355 
  -13144   -12936   -12727   -12535   -12381   -12262   -12177   -12146 
  -12159   -12199   -12267   -12354   -12444   -12539   -12647   -12753 
  -12850   -12945   -13031   -13096   -13134   -13134   -13097   -13029 
  -12922   -12777   -12604   -12411   -12210   -12010   -11831   -11674 
  -11527   -11428   -11377   -11332   -11311   -11337   -11369   -11391 
  -11431   -11493   -11562   -11628   -11712   -11849   -12020   -12210 
