Origin Time       2015/05/30 20:24:00
Lat.              27.860
Long.             140.682
Depth. (km)       682
Mag.              8.1
Station Code      KGS023
Station Lat.      31.1990
Station Long.     130.8490
Station Height(m) 179
Record Time       2015/05/30 20:25:24
Sampling Freq(Hz) 100Hz
Duration Time(s)  60
Dir.              U-D
Scale Factor      3920(gal)/6182761
Max. Acc. (gal)   0.970
Last Correction   2015/05/30 20:25:24
Memo.             
[...]
  -21447   -21446   -21444   -21442   -21440   -21440   -21445   -21446 
  -21439   -21435   -21439   -21444   -21451   -21456   -21450   -21443 
  -21441   -21440   -21443   -21445   -21441   -21437   -21439   -21442 
  -21444   -21444   -21446   -21447   -21442   -21441   -21447   -21446 
  -21444   -21446   -21445   -21440   -21438   -21437   -21439   -21443 
  -21445   -21448   -21450   -21449   -21448   -21446   -21439   -21432 
  -21435   -21440   -21440   -21444   -21451   -21450   -21446   -21447 
  -21444   -21437   -21436   -21441   -21443   -21444   -21444   -21442 
  -21443   -21444   -21445   -21448   -21448   -21447   -21446   -21444 
  -21440   -21439   -21442   -21442   -21440   -21440   -21441   -21442 
  -21445   -21445   -21444   -21447   -21448   -21447   -21447   -21445 
  -21441   -21440   -21441   -21441   -21439   -21439   -21443   -21448 
  -21448   -21444   -21441   -21442   -21445   -21447   -21446   -21444 
  -21443   -21443   -21445   -21445   -21443   -21445   -21451   -21452 
  -21446   -21441   -21439   -21438   -21440   -21443   -21443   -21445 
  -21445   -21441   -21440   -21444   -21442   -21437   -21443   -21451 
  -21452   -21448   -21444   -21445   -21444   -21439   -21437   -21443 
  -21448   -21448   -21446   -21445   -21446   -21445   -21440   -21437 
  -21437   -21442   -21451   -21452   -21445   -21443   -21446   -21447 
  -21447   -21444   -21439   -21437   -21443   -21445   -21440   -21439 
  -21443   -21444   -21447   -21449   -21444   -21441   -21443   -21444 
  -21445   -21449   -21448   -21443   -21441   -21439   -21435   -21434 
  -21438   -21446   -21451   -21452   -21454   -21452   -21444   -21437 
  -21433   -21432   -21436   -21439   -21443   -21450   -21454   -21447 
  -21439   -21437   -21439   -21442   -21444   -21442   -21442   -21448 
  -21448   -21444   -21442   -21442   -21439   -21440   -21441   -21442 
  -21446   -21448   -21447   -21446   -21446   -21443   -21436   -21433 
  -21439   -21441   -21441   -21449   -21453   -21445   -21438   -21445 
  -21455   -21452   -21442   -21436   -21434   -21431   -21433   -21439 
  -21442   -21444   -21448   -21450   -21446   -21443   -21442   -21441 
  -21440   -21442   -21447   -21452   -21453   -21449   -21443   -21440 
  -21438   -21435   -21436   -21442   -21444   -21444   -21445   -21447 
  -21446   -21448   -21446   -21438   -21434   -21437   -21443   -21452 
  -21455   -21449   -21446   -21443   -21435   -21431   -21435   -21437 
  -21441   -21451   -21458   -21456   -21450   -21443   -21436   -21432 
  -21434   -21436   -21440   -21445   -21450   -21455   -21455   -21447 
  -21445   -21444   -21433   -21422   -21426   -21438   -21450   -21458 
  -21460   -21453   -21440   -21434   -21437   -21437   -21433   -21437 
  -21448   -21453   -21452   -21453   -21451   -21445   -21438   -21432 
  -21436   -21441   -21440   -21445   -21453   -21450   -21443   -21440 
  -21439   -21436   -21432   -21436   -21444   -21451   -21456   -21456 
  -21452   -21447   -21439   -21431   -21429   -21433   -21438   -21444 
  -21450   -21455   -21456   -21453   -21447   -21441   -21439   -21435 
  -21431   -21435   -21440   -21440   -21443   -21446   -21445   -21446 
  -21450   -21446   -21441   -21442   -21446   -21448   -21450   -21449 
  -21444   -21435   -21428   -21428   -21431   -21439   -21447   -21448 
  -21455   -21462   -21456   -21448   -21442   -21435   -21432   -21435 
  -21438   -21441   -21447   -21450   -21448   -21442   -21437   -21439 
  -21443   -21444   -21443   -21439   -21439   -21447   -21450   -21448 
  -21449   -21445   -21438   -21435   -21430   -21426   -21433   -21438 
  -21438   -21437   -21432   -21424   -21416   -21406   -21406   -21414 
  -21414   -21414   -21419   -21416   -21410   -21408   -21403   -21392 
  -21387   -21391   -21398   -21408   -21421   -21427   -21422   -21418 
  -21417   -21414   -21415   -21427   -21432   -21426   -21426   -21431 
  -21434   -21435   -21429   -21418   -21415   -21421   -21429   -21437 
  -21439   -21438   -21438   -21436   -21435   -21444   -21451   -21446 
  -21441   -21443   -21446   -21440   -21436   -21439   -21436   -21433 
  -21446   -21457   -21461   -21466   -21460   -21454   -21453   -21450 
  -21449   -21451   -21452   -21452   -21446   -21444   -21455   -21465 
  -21467   -21466   -21468   -21472   -21469   -21459   -21456   -21453 
  -21443   -21447   -21455   -21449   -21440   -21428   -21408   -21398 
  -21398   -21396   -21398   -21407   -21409   -21406   -21400   -21391 
  -21381   -21366   -21343   -21323   -21306   -21286   -21269   -21255 
  -21242   -21234   -21229   -21228   -21237   -21246   -21247   -21246 
  -21247   -21244   -21235   -21228   -21228   -21225   -21222   -21224 
  -21231   -21244   -21260   -21274   -21288   -21301   -21314   -21338 
  -21366   -21392   -21413   -21421   -21424   -21427   -21429   -21427 
  -21420   -21415   -21415   -21419   -21428   -21446   -21461   -21467 
  -21472   -21477   -21485   -21495   -21505   -21516   -21526   -21534 
  -21547   -21563   -21574   -21584   -21589   -21585   -21580   -21577 
  -21573   -21574   -21584   -21598   -21614   -21630   -21642   -21649 
  -21651   -21646   -21636   -21622   -21607   -21592   -21577   -21570 
  -21571   -21576   -21587   -21603   -21623   -21642   -21650   -21652 
  -21653   -21648   -21636   -21620   -21603   -21585   -21566   -21553 
  -21544   -21535   -21533   -21532   -21522   -21507   -21493   -21473 
  -21444   -21410   -21373   -21333   -21297   -21269   -21250   -21241 
  -21238   -21245   -21259   -21270   -21276   -21278   -21277   -21274 
  -21269   -21262   -21256   -21255   -21260   -21269   -21285   -21311 
  -21343   -21378   -21405   -21423   -21432   -21431   -21422   -21408 
  -21393   -21380   -21375   -21378   -21394   -21417   -21444   -21470 
  -21492   -21512   -21527   -21532   -21529   -21518   -21501   -21484 
  -21470   -21468   -21473   -21479   -21494   -21519   -21543   -21564 
  -21581   -21584   -21569   -21546   -21520   -21483   -21447   -21425 
  -21405   -21389   -21387   -21398   -21420   -21449   -21479   -21508 
  -21535   -21556   -21572   -21583   -21583   -21573   -21555   -21527 
  -21500   -21477   -21453   -21436   -21427   -21423   -21426   -21436 
  -21444   -21444   -21438   -21426   -21418   -21418   -21412   -21404 
  -21405   -21409   -21409   -21414   -21429   -21445   -21457   -21471 
  -21489   -21509   -21532   -21560   -21591   -21618   -21636   -21641 
  -21627   -21595   -21549   -21492   -21431   -21380   -21348   -21337 
  -21350   -21382   -21428   -21483   -21537   -21578   -21603   -21607 
  -21589   -21553   -21504   -21447   -21394   -21351   -21317   -21292 
  -21287   -21300   -21318   -21339   -21356   -21362   -21359   -21346 
  -21322   -21299   -21284   -21284   -21302   -21336   -21372   -21410 
  -21451   -21492   -21534   -21572   -21604   -21640   -21684   -21730 
  -21772   -21810   -21845   -21866   -21862   -21839   -21795   -21723 
  -21627   -21515   -21394   -21275   -21166   -21085   -21041   -21028 
  -21042   -21085   -21143   -21194   -21225   -21235   -21218   -21178 
  -21128   -21079   -21055   -21074   -21125   -21198   -21290   -21378 
  -21447   -21501   -21531   -21533   -21516   -21475   -21414   -21347 
  -21279   -21220   -21182   -21170   -21189   -21237   -21307   -21386 
  -21475   -21570   -21652   -21712   -21755   -21768   -21754   -21730 
  -21704   -21683   -21684   -21711   -21755   -21812   -21887   -21966 
  -22018   -22035   -22023   -21973   -21883   -21768   -21637   -21498 
  -21375   -21287   -21237   -21221   -21238   -21281   -21333   -21376 
  -21396   -21383   -21333   -21255   -21159   -21058   -20976   -20931 
  -20927   -20970   -21058   -21176   -21309   -21435   -21524   -21565 
  -21553   -21486   -21379   -21257   -21144   -21055   -21009   -21022 
  -21090   -21203   -21351   -21517   -21674   -21798   -21874   -21898 
  -21857   -21758   -21637   -21513   -21401   -21321   -21279   -21276 
  -21313   -21372   -21435   -21491   -21524   -21538   -21535   -21519 
  -21503   -21494   -21495   -21520   -21569   -21628   -21695   -21761 
  -21811   -21842   -21853   -21842   -21807   -21748   -21673   -21591 
  -21503   -21412   -21331   -21271   -21235   -21224   -21236   -21272 
  -21321   -21378   -21441   -21510   -21575   -21625   -21659   -21686 
  -21709   -21729   -21754   -21793   -21858   -21944   -22038   -22123 
  -22191   -22230   -22223   -22165   -22057   -21902   -21714   -21513 
  -21320   -21162   -21053   -21010   -21042   -21131   -21250   -21375 
  -21482   -21549   -21559   -21515   -21434   -21335   -21241   -21179 
  -21163   -21201   -21290   -21412   -21544   -21674   -21781   -21834 
  -21824   -21754   -21629   -21458   -21252   -21029   -20816   -20642 
  -20522   -20469   -20481   -20547   -20660   -20806   -20963   -21112 
  -21239   -21329   -21374   -21385   -21370   -21336   -21295   -21261 
  -21247   -21258   -21294   -21350   -21430   -21534   -21642   -21740 
  -21820   -21872   -21891   -21881   -21837   -21759   -21658   -21553 
  -21453   -21366   -21303   -21267   -21253   -21257   -21276   -21294 
  -21299   -21295   -21286   -21271   -21251   -21215   -21165   -21116 
  -21075   -21042   -21020   -21018   -21036   -21074   -21134   -21211 
  -21298   -21392   -21488   -21558   -21586   -21582   -21547   -21480 
  -21397   -21316   -21255   -21226   -21242   -21300   -21384   -21485 
  -21592   -21688   -21757   -21786   -21770   -21714   -21632   -21542 
  -21467   -21429   -21435   -21491   -21589   -21709   -21832   -21947 
  -22038   -22079   -22057   -21981   -21850   -21680   -21503   -21333 
  -21186   -21088   -21040   -21035   -21074   -21153   -21256   -21368 
  -21470   -21554   -21625   -21670   -21684   -21675   -21655   -21632 
  -21617   -21618   -21632   -21661   -21692   -21707   -21699   -21669 
  -21606   -21508   -21385   -21245   -21099   -20970   -20868   -20799 
  -20773   -20796   -20860   -20958   -21082   -21210   -21319   -21396 
  -21432   -21423   -21378   -21312   -21238   -21173   -21137   -21136 
  -21162   -21216   -21293   -21372   -21438   -21482   -21491   -21460 
  -21400   -21328   -21253   -21186   -21148   -21151   -21197   -21289 
  -21407   -21536   -21667   -21774   -21836   -21857   -21850   -21821 
  -21786   -21769   -21778   -21809   -21865   -21947   -22033   -22105 
  -22151   -22152   -22105   -22019   -21901   -21759   -21612   -21484 
  -21387   -21318   -21278   -21275   -21306   -21356   -21417   -21484 
  -21546   -21602   -21651   -21691   -21722   -21741   -21751   -21744 
  -21710   -21656   -21584   -21493   -21392   -21285   -21186   -21122 
  -21106   -21133   -21201   -21293   -21378   -21440   -21466   -21442 
  -21376   -21278   -21166   -21071   -21006   -20980   -21028   -21161 
  -21352   -21577   -21834   -22092   -22300   -22443   -22515   -22499 
  -22392   -22210   -21983   -21740   -21498   -21276   -21097   -20959 
  -20864   -20823   -20823   -20837   -20862   -20897   -20918   -20904 
  -20859   -20795   -20717   -20641   -20588   -20570   -20593   -20657 
  -20758   -20884   -21030   -21181   -21313   -21408   -21464   -21479 
  -21446   -21370   -21266   -21151   -21039   -20946   -20889   -20875 
  -20905   -20978   -21086   -21207   -21322   -21427   -21525   -21610 
  -21678   -21735   -21792   -21842   -21870   -21874   -21858   -21809 
  -21731   -21634   -21532   -21437   -21363   -21319   -21303   -21305 
  -21319   -21342   -21367   -21383   -21387   -21392   -21410   -21436 
  -21477   -21552   -21662   -21807   -21985   -22181   -22375   -22550 
  -22681   -22753   -22754   -22667   -22485   -22225   -21910   -21566 
  -21223   -20924   -20700   -20572   -20554   -20648   -20840   -21099 
  -21390   -21678   -21927   -22106   -22195   -22194   -22115   -21974 
  -21805   -21644   -21508   -21416   -21377   -21383   -21424   -21473 
  -21491   -21460   -21367   -21209   -21007   -20791   -20590   -20439 
  -20376   -20426   -20588   -20856   -21218   -21617   -22004   -22354 
  -22622   -22775   -22816   -22761   -22619   -22419   -22204   -22003 
  -21830   -21710   -21639   -21585   -21532   -21472   -21360   -21188 
  -21036   -20906   -20709   -20501   -20380   -20300   -20263   -20337 
  -20483   -20674   -20936   -21220   -21485   -21731   -21931   -22056 
  -22108   -22111   -22097   -22075   -22053   -22052   -22071   -22093 
  -22112   -22118   -22093   -22024   -21914   -21771   -21618   -21478 
  -21350   -21237   -21164   -21136   -21143   -21178   -21239   -21325 
  -21422   -21521   -21616   -21683   -21705   -21697   -21663   -21610 
  -21558   -21524   -21517   -21543   -21603   -21691   -21798   -21909 
  -22004   -22069   -22099   -22092   -22049   -21966   -21843   -21686 
  -21515   -21360   -21214   -21077   -20982   -20927   -20893   -20880 
  -20886   -20911   -20943   -20958   -20968   -20977   -20966   -20961 
  -20971   -20985   -21015   -21056   -21087   -21132   -21194   -21257 
  -21323   -21405   -21500   -21603   -21717   -21822   -21894   -21928 
  -21934   -21906   -21847   -21774   -21696   -21620   -21563   -21534 
  -21538   -21565   -21599   -21628   -21644   -21637   -21592   -21499 
  -21376   -21244   -21115   -21007   -20933   -20906   -20930   -20994 
  -21087   -21200   -21312   -21422   -21521   -21583   -21609   -21602 
  -21569   -21534   -21507   -21494   -21512   -21564   -21645   -21750 
  -21861   -21947   -21979   -21936   -21813   -21626   -21387   -21112 
  -20823   -20543   -20295   -20094   -19957   -19914   -19963   -20080 
  -20260   -20487   -20726   -20943   -21127   -21271   -21364   -21409 
  -21429   -21450   -21488   -21554   -21653   -21785   -21938   -22085 
  -22199   -22273   -22300   -22268   -22186   -22073   -21943   -21808 
  -21687   -21592   -21532   -21507   -21512   -21539   -21575   -21612 
  -21658   -21709   -21762   -21815   -21854   -21876   -21887   -21880 
  -21853   -21808   -21750   -21682   -21603   -21520   -21452   -21405 
  -21372   -21351   -21340   -21337   -21331   -21313   -21283   -21236 
  -21171   -21095   -21014   -20930   -20854   -20803   -20790   -20817 
  -20879   -20982   -21116   -21271   -21448   -21621   -21744   -21840 
  -21927   -21959   -21944   -21922   -21879   -21820   -21778   -21757 
  -21742   -21749   -21781   -21802   -21803   -21781   -21708   -21573 
  -21385   -21157   -20923   -20713   -20544   -20433   -20390   -20413 
  -20509   -20659   -20826   -20993   -21149   -21284   -21383   -21440 
  -21465   -21478   -21480   -21482   -21511   -21574   -21646   -21715 
  -21780   -21815   -21814   -21792   -21743   -21667   -21580   -21488 
  -21398   -21319   -21260   -21229   -21223   -21241   -21283   -21330 
  -21375   -21418   -21438   -21434   -21417   -21380   -21319   -21253 
  -21200   -21174   -21181   -21219   -21288   -21383   -21481   -21567 
  -21636   -21682   -21703   -21695   -21652   -21598   -21551   -21505 
  -21484   -21508   -21546   -21601   -21681   -21756   -21824   -21871 
  -21870   -21828   -21742   -21614   -21472   -21329   -21204   -21119 
  -21064   -21032   -21023   -21022   -21029   -21036   -21021   -20989 
  -20956   -20920   -20892   -20897   -20931   -20981   -21051   -21135 
  -21216   -21295   -21370   -21425   -21465   -21492   -21491   -21485 
  -21498   -21504   -21508   -21533   -21563   -21606   -21654   -21680 
  -21691   -21675   -21629   -21578   -21509   -21430   -21378   -21340 
  -21316   -21333   -21374   -21423   -21496   -21571   -21631   -21681 
  -21711   -21713   -21708   -21703   -21690   -21681   -21696   -21712 
  -21720   -21725   -21706   -21669   -21627   -21568   -21504   -21444 
  -21385   -21350   -21348   -21371   -21407   -21438   -21467   -21488 
  -21477   -21449   -21410   -21332   -21233   -21147   -21073   -21017 
  -21000   -21018   -21068   -21151   -21269   -21418   -21577   -21727 
  -21855   -21951   -22014   -22048   -22050   -22019   -21969   -21917 
  -21868   -21812   -21761   -21751   -21770   -21780   -21782   -21785 
  -21770   -21738   -21689   -21605   -21496   -21362   -21200   -21049 
  -20930   -20843   -20813   -20845   -20900   -20972   -21062   -21152 
  -21235   -21306   -21362   -21416   -21461   -21491   -21524   -21566 
  -21601   -21621   -21627   -21612   -21568   -21488   -21384   -21279 
  -21170   -21066   -20995   -20953   -20934   -20951   -20992   -21039 
  -21099   -21173   -21249   -21330   -21425   -21528   -21624   -21720 
  -21830   -21932   -22001   -22041   -22045   -22005   -21934   -21839 
  -21717   -21573   -21417   -21265   -21130   -21019   -20938   -20892 
  -20888   -20919   -20965   -21015   -21074   -21137   -21193   -21241 
  -21292   -21344   -21395   -21453   -21523   -21601   -21685   -21764 
  -21832   -21894   -21942   -21961   -21963   -21945   -21888   -21798 
  -21687   -21551   -21397   -21232   -21061   -20912   -20803   -20715 
  -20659   -20660   -20705   -20780   -20893   -21032   -21179   -21327 
  -21468   -21592   -21700   -21785   -21834   -21847   -21833   -21802 
  -21762   -21708   -21647   -21612   -21595   -21581   -21582   -21580 
  -21560   -21541   -21507   -21441   -21374   -21296   -21193   -21112 
  -21060   -21021   -21025   -21082   -21171   -21286   -21414   -21554 
  -21689   -21790   -21861   -21905   -21908   -21879   -21835   -21774 
  -21703   -21631   -21564   -21506   -21445   -21374   -21311   -21262 
  -21210   -21163   -21139   -21139   -21156   -21189   -21244   -21320 
  -21400   -21474   -21537   -21577   -21596   -21592   -21561   -21513 
  -21454   -21387   -21323   -21268   -21227   -21209   -21218   -21254 
  -21314   -21395   -21489   -21591   -21688   -21769   -21822   -21840 
  -21837   -21822   -21791   -21754   -21719   -21685   -21654   -21612 
  -21553   -21483   -21396   -21299   -21204   -21109   -21022   -20962 
  -20928   -20913   -20925   -20966   -21032   -21111   -21196   -21293 
  -21396   -21490   -21578   -21660   -21724   -21768   -21797   -21806 
  -21798   -21782   -21761   -21726   -21673   -21598   -21513   -21427 
  -21345   -21278   -21242   -21229   -21231   -21249   -21284   -21334 
  -21391   -21442   -21484   -21516   -21537   -21562   -21591   -21622 
  -21670   -21735   -21800   -21861   -21919   -21957   -21968   -21952 
  -21909   -21831   -21716   -21576   -21432   -21289   -21152   -21044 
  -20970   -20929   -20927   -20962   -21020   -21087   -21159   -21225 
  -21277   -21322   -21368   -21411   -21447   -21485   -21532   -21581 
  -21628   -21671   -21702   -21712   -21703   -21675   -21624   -21552 
  -21464   -21363   -21262   -21163   -21074   -21005   -20966   -20956 
  -20971   -21011   -21078   -21160   -21243   -21329   -21412   -21492 
  -21568   -21624   -21667   -21700   -21709   -21704   -21695   -21677 
  -21649   -21616   -21593   -21585   -21569   -21539   -21501   -21454 
  -21410   -21363   -21303   -21260   -21240   -21226   -21229   -21259 
  -21304   -21352   -21400   -21465   -21551   -21621   -21673   -21734 
  -21778   -21808   -21844   -21864   -21872   -21890   -21900   -21893 
  -21870   -21827   -21766   -21686   -21595   -21520   -21460   -21392 
  -21325   -21270   -21213   -21165   -21134   -21106   -21087   -21092 
  -21111   -21135   -21172   -21224   -21285   -21350   -21421   -21499 
  -21572   -21630   -21674   -21705   -21724   -21726   -21715   -21701 
