Origin Time       2014/11/22 22:08:00
Lat.              36.692
Long.             137.890
Depth. (km)       5
Mag.              6.7
Station Code      GNM008
Station Lat.      36.3478
Station Long.     139.1368
Station Height(m) 77
Record Time       2014/11/22 22:08:40
Sampling Freq(Hz) 100Hz
Duration Time(s)  124
Dir.              U-D
Scale Factor      3920(gal)/6182761
Max. Acc. (gal)   2.170
Last Correction   2014/11/22 22:08:40
Memo.             
[...]
  -15415   -15440   -15485   -15524   -15546   -15576   -15611   -15631 
  -15644   -15660   -15683   -15697   -15699   -15702   -15706   -15710 
  -15707   -15699   -15700   -15702   -15700   -15693   -15688   -15691 
  -15683   -15672   -15680   -15694   -15702   -15709   -15734   -15775 
  -15807   -15838   -15878   -15920   -15963   -16009   -16050   -16094 
  -16145   -16190   -16238   -16299   -16352   -16398   -16452   -16515 
  -16567   -16616   -16678   -16736   -16784   -16832   -16882   -16935 
  -16987   -17033   -17088   -17147   -17195   -17246   -17305   -17361 
  -17411   -17453   -17498   -17551   -17599   -17641   -17685   -17725 
  -17769   -17814   -17852   -17897   -17942   -17983   -18033   -18087 
  -18128   -18169   -18226   -18277   -18317   -18365   -18413   -18454 
  -18504   -18550   -18580   -18623   -18670   -18702   -18740   -18790 
  -18838   -18888   -18951   -19014   -19073   -19135   -19202   -19270 
  -19332   -19391   -19446   -19498   -19552   -19606   -19656   -19696 
  -19736   -19783   -19823   -19861   -19899   -19928   -19955   -19982 
  -20002   -20023   -20048   -20076   -20099   -20112   -20126   -20142 
  -20151   -20154   -20151   -20145   -20142   -20137   -20130   -20119 
  -20103   -20081   -20066   -20055   -20028   -20001   -19996   -19984 
  -19959   -19950   -19952   -19945   -19937   -19942   -19941   -19923 
  -19911   -19901   -19872   -19844   -19821   -19792   -19763   -19731 
  -19697   -19671   -19632   -19580   -19537   -19495   -19438   -19383 
  -19335   -19282   -19228   -19183   -19134   -19085   -19048   -19004 
  -18948   -18898   -18849   -18802   -18757   -18710   -18679   -18653 
  -18608   -18562   -18531   -18503   -18468   -18433   -18407   -18389 
  -18367   -18344   -18327   -18309   -18289   -18262   -18227   -18205 
  -18188   -18154   -18120   -18096   -18066   -18028   -17993   -17955 
  -17916   -17871   -17817   -17769   -17733   -17689   -17635   -17596 
  -17568   -17527   -17484   -17447   -17405   -17362   -17317   -17268 
  -17221   -17165   -17104   -17053   -17004   -16944   -16880   -16825 
  -16773   -16708   -16656   -16626   -16593   -16553   -16517   -16482 
  -16446   -16404   -16362   -16323   -16285   -16245   -16199   -16152 
  -16105   -16057   -16021   -15990   -15946   -15909   -15886   -15867 
  -15853   -15840   -15825   -15817   -15817   -15816   -15812   -15814 
  -15817   -15815   -15813   -15810   -15810   -15812   -15807   -15797 
  -15789   -15778   -15766   -15764   -15761   -15747   -15734   -15730 
  -15724   -15715   -15706   -15699   -15689   -15683   -15686   -15686 
  -15689   -15701   -15708   -15714   -15730   -15741   -15752   -15776 
  -15795   -15814   -15849   -15879   -15902   -15938   -15980   -16016 
  -16054   -16096   -16139   -16194   -16260   -16318   -16362   -16419 
  -16496   -16566   -16623   -16682   -16739   -16790   -16838   -16881 
  -16927   -16983   -17031   -17076   -17132   -17185   -17231   -17286 
  -17340   -17383   -17434   -17486   -17534   -17600   -17670   -17725 
  -17783   -17845   -17904   -17958   -18005   -18053   -18110   -18163 
  -18211   -18266   -18324   -18377   -18429   -18484   -18540   -18595 
  -18650   -18707   -18765   -18827   -18887   -18941   -18998   -19057 
  -19106   -19154   -19214   -19270   -19316   -19372   -19437   -19493 
  -19545   -19595   -19642   -19692   -19736   -19776   -19823   -19866 
  -19905   -19943   -19969   -19994   -20023   -20052   -20081   -20109 
  -20128   -20140   -20158   -20183   -20199   -20209   -20226   -20246 
  -20267   -20288   -20304   -20307   -20297   -20281   -20272   -20274 
  -20272   -20263   -20257   -20243   -20224   -20210   -20187   -20158 
  -20139   -20115   -20091   -20074   -20053   -20030   -20008   -19981 
  -19956   -19934   -19911   -19896   -19875   -19843   -19819   -19799 
  -19767   -19733   -19704   -19672   -19636   -19598   -19562   -19536 
  -19519   -19488   -19452   -19433   -19403   -19351   -19312   -19280 
  -19226   -19168   -19119   -19058   -18995   -18940   -18872   -18798 
  -18733   -18655   -18569   -18494   -18417   -18328   -18234   -18137 
  -18045   -17957   -17858   -17760   -17672   -17581   -17487   -17398 
  -17311   -17213   -17114   -17024   -16936   -16846   -16752   -16656 
  -16571   -16495   -16419   -16349   -16283   -16221   -16170   -16123 
  -16078   -16037   -15995   -15950   -15916   -15896   -15868   -15834 
  -15817   -15802   -15773   -15742   -15724   -15715   -15707   -15691 
  -15673   -15662   -15650   -15632   -15619   -15614   -15611   -15598 
  -15582   -15568   -15552   -15543   -15556   -15577   -15582   -15580 
  -15580   -15579   -15592   -15608   -15615   -15632   -15644   -15641 
  -15654   -15685   -15712   -15737   -15759   -15774   -15798   -15823 
  -15838   -15861   -15890   -15911   -15933   -15962   -15990   -16011 
  -16028   -16047   -16066   -16088   -16120   -16150   -16173   -16207 
  -16248   -16285   -16320   -16356   -16393   -16437   -16481   -16520 
  -16559   -16602   -16648   -16689   -16726   -16768   -16804   -16833 
  -16868   -16897   -16917   -16942   -16965   -16983   -17005   -17024 
  -17042   -17060   -17069   -17076   -17093   -17105   -17111   -17126 
  -17137   -17138   -17149   -17168   -17185   -17210   -17245   -17263 
  -17271   -17295   -17321   -17342   -17364   -17381   -17398   -17423 
  -17453   -17475   -17499   -17530   -17558   -17595   -17635   -17658 
  -17684   -17721   -17751   -17779   -17809   -17832   -17859   -17890 
  -17913   -17938   -17981   -18023   -18047   -18069   -18096   -18119 
  -18139   -18154   -18170   -18191   -18206   -18216   -18228   -18245 
  -18266   -18278   -18284   -18299   -18313   -18320   -18329   -18331 
  -18325   -18326   -18328   -18324   -18321   -18314   -18300   -18296 
  -18296   -18290   -18283   -18274   -18269   -18261   -18242   -18232 
  -18230   -18217   -18206   -18212   -18209   -18197   -18202   -18210 
  -18203   -18190   -18180   -18174   -18159   -18141   -18129   -18113 
  -18102   -18094   -18077   -18068   -18068   -18057   -18046   -18049 
  -18054   -18057   -18061   -18066   -18074   -18079   -18081   -18082 
  -18084   -18091   -18096   -18096   -18102   -18112   -18116   -18118 
  -18125   -18135   -18134   -18125   -18123   -18126   -18120   -18111 
  -18118   -18128   -18128   -18130   -18144   -18158   -18175   -18200 
  -18229   -18255   -18293   -18335   -18368   -18399   -18431   -18465 
  -18508   -18550   -18586   -18628   -18668   -18705   -18747   -18774 
  -18785   -18815   -18853   -18880   -18904   -18931   -18952   -18970 
  -18997   -19026   -19049   -19071   -19091   -19107   -19129   -19154 
  -19172   -19193   -19216   -19226   -19233   -19251   -19269   -19273 
  -19272   -19276   -19282   -19282   -19283   -19286   -19284   -19280 
  -19273   -19258   -19243   -19229   -19211   -19201   -19202   -19195 
  -19182   -19171   -19159   -19150   -19132   -19109   -19105   -19110 
  -19096   -19078   -19073   -19066   -19053   -19038   -19020   -19005 
  -18992   -18972   -18960   -18956   -18936   -18904   -18886   -18862 
  -18823   -18795   -18774   -18742   -18709   -18678   -18640   -18601 
  -18557   -18504   -18457   -18419   -18374   -18311   -18252   -18207 
  -18152   -18091   -18040   -17989   -17930   -17869   -17802   -17734 
  -17669   -17598   -17528   -17465   -17395   -17320   -17255   -17195 
  -17137   -17078   -17011   -16944   -16888   -16827   -16758   -16709 
  -16668   -16607   -16554   -16515   -16461   -16413   -16382   -16343 
  -16307   -16272   -16223   -16179   -16151   -16123   -16092   -16066 
  -16039   -16005   -15973   -15943   -15915   -15896   -15882   -15865 
  -15843   -15813   -15783   -15762   -15733   -15706   -15694   -15681 
  -15664   -15654   -15647   -15635   -15626   -15618   -15613   -15618 
  -15621   -15616   -15609   -15604   -15602   -15600   -15597   -15596 
  -15599   -15610   -15621   -15627   -15637   -15649   -15660   -15671 
  -15679   -15686   -15694   -15702   -15715   -15737   -15755   -15762 
  -15780   -15814   -15832   -15843   -15876   -15904   -15916   -15934 
  -15963   -15993   -16023   -16054   -16084   -16113   -16142   -16169 
  -16195   -16217   -16242   -16264   -16277   -16305   -16343   -16363 
  -16384   -16423   -16455   -16479   -16505   -16544   -16588   -16619 
  -16650   -16693   -16736   -16782   -16822   -16859   -16908   -16953 
  -16988   -17034   -17083   -17127   -17171   -17210   -17250   -17294 
  -17335   -17376   -17421   -17461   -17499   -17541   -17579   -17612 
  -17651   -17690   -17731   -17776   -17808   -17835   -17875   -17920 
  -17960   -17996   -18027   -18062   -18105   -18146   -18182   -18227 
  -18286   -18344   -18401   -18455   -18502   -18549   -18601   -18649 
  -18697   -18749   -18808   -18868   -18915   -18950   -18999   -19060 
  -19115   -19171   -19220   -19258   -19302   -19341   -19368   -19407 
  -19458   -19499   -19543   -19598   -19643   -19678   -19728   -19777 
  -19800   -19820   -19861   -19901   -19929   -19957   -19994   -20029 
  -20048   -20056   -20069   -20096   -20123   -20145   -20162   -20166 
  -20174   -20187   -20202   -20234   -20267   -20269   -20251   -20236 
  -20218   -20189   -20163   -20149   -20145   -20130   -20095   -20065 
  -20051   -20018   -19972   -19952   -19936   -19897   -19856   -19824 
  -19794   -19760   -19708   -19644   -19591   -19546   -19498   -19446 
  -19404   -19369   -19319   -19266   -19219   -19163   -19113   -19066 
  -19014   -18975   -18934   -18863   -18798   -18759   -18711   -18669 
  -18650   -18612   -18555   -18504   -18452   -18409   -18379   -18336 
  -18281   -18236   -18190   -18134   -18090   -18061   -18021   -17967 
  -17914   -17876   -17845   -17808   -17771   -17737   -17702   -17675 
  -17647   -17614   -17578   -17531   -17485   -17466   -17447   -17402 
  -17365   -17344   -17303   -17265   -17245   -17205   -17159   -17126 
  -17093   -17063   -17028   -16979   -16946   -16934   -16903   -16846 
  -16796   -16758   -16720   -16683   -16646   -16601   -16544   -16491 
  -16448   -16401   -16349   -16301   -16261   -16218   -16168   -16119 
  -16077   -16045   -16019   -15994   -15969   -15941   -15912   -15887 
  -15866   -15844   -15820   -15792   -15771   -15753   -15735   -15729 
  -15708   -15670   -15650   -15624   -15596   -15607   -15618   -15591 
  -15581   -15615   -15638   -15636   -15642   -15663   -15686   -15704 
  -15732   -15775   -15804   -15824   -15849   -15875   -15899   -15919 
  -15938   -15971   -16019   -16055   -16059   -16057   -16078   -16127 
  -16189   -16222   -16231   -16273   -16330   -16360   -16395   -16461 
  -16528   -16592   -16645   -16687   -16745   -16804   -16864   -16940 
  -16997   -17047   -17123   -17186   -17231   -17286   -17362   -17449 
  -17507   -17550   -17614   -17681   -17744   -17820   -17901   -17983 
  -18050   -18096   -18161   -18252   -18329   -18407   -18504   -18572 
  -18615   -18688   -18785   -18873   -18946   -19003   -19067   -19139 
  -19197   -19258   -19322   -19386   -19456   -19508   -19549   -19600 
  -19643   -19681   -19727   -19761   -19797   -19846   -19879   -19906 
  -19952   -19985   -19999   -20033   -20081   -20114   -20131   -20145 
  -20172   -20197   -20198   -20194   -20196   -20198   -20195   -20187 
  -20185   -20179   -20155   -20126   -20097   -20069   -20048   -20025 
  -19997   -19972   -19938   -19898   -19871   -19844   -19815   -19787 
  -19749   -19715   -19686   -19645   -19603   -19562   -19504   -19458 
  -19421   -19351   -19268   -19192   -19131   -19091   -19023   -18942 
  -18875   -18783   -18677   -18593   -18524   -18451   -18376   -18310 
  -18243   -18167   -18084   -18001   -17919   -17852   -17806   -17743 
  -17658   -17581   -17504   -17400   -17291   -17208   -17160   -17126 
  -17075   -17020   -16964   -16888   -16808   -16747   -16700   -16647 
  -16588   -16545   -16506   -16446   -16365   -16284   -16215   -16158 
  -16121   -16078   -16027   -15986   -15927   -15864   -15821   -15771 
  -15717   -15665   -15601   -15552   -15525   -15479   -15414   -15357 
  -15322   -15317   -15312   -15273   -15225   -15189   -15154   -15106 
  -15057   -15026   -15011   -14977   -14928   -14910   -14888   -14839 
  -14809   -14794   -14780   -14772   -14758   -14734   -14714   -14707 
  -14698   -14688   -14702   -14717   -14707   -14709   -14733   -14752 
  -14767   -14792   -14831   -14882   -14922   -14919   -14924   -14980 
  -15032   -15062   -15098   -15131   -15166   -15206   -15249   -15290 
  -15314   -15351   -15417   -15486   -15541   -15592   -15640   -15670 
  -15696   -15734   -15788   -15842   -15885   -15936   -16000   -16048 
  -16085   -16118   -16157   -16221   -16291   -16336   -16374   -16429 
  -16491   -16554   -16625   -16688   -16741   -16812   -16899   -16962 
  -17018   -17096   -17176   -17243   -17289   -17333   -17409   -17494 
  -17562   -17627   -17695   -17776   -17863   -17932   -18003   -18093 
  -18166   -18217   -18301   -18411   -18483   -18542   -18641   -18742 
  -18824   -18899   -18950   -19006   -19110   -19218   -19291   -19353 
  -19419   -19478   -19527   -19597   -19673   -19734   -19805   -19875 
  -19926   -19978   -20039   -20091   -20131   -20189   -20255   -20295 
  -20336   -20396   -20435   -20451   -20497   -20566   -20606   -20628 
  -20668   -20716   -20746   -20763   -20801   -20850   -20880   -20903 
  -20936   -20973   -21001   -21016   -21036   -21069   -21091   -21098 
  -21118   -21150   -21147   -21116   -21110   -21117   -21101   -21087 
  -21092   -21091   -21084   -21080   -21061   -21027   -20995   -20969 
  -20958   -20947   -20918   -20891   -20865   -20819   -20753   -20700 
  -20690   -20684   -20637   -20559   -20491   -20476   -20452   -20354 
  -20287   -20271   -20210   -20142   -20105   -20050   -19975   -19911 
  -19860   -19815   -19752   -19684   -19642   -19619   -19572   -19476 
  -19393   -19370   -19355   -19305   -19215   -19147   -19146   -19104 
  -18997   -18940   -18930   -18898   -18830   -18763   -18731   -18697 
  -18630   -18564   -18518   -18484   -18437   -18368   -18316   -18275 
  -18196   -18110   -18073   -18030   -17947   -17876   -17837   -17795 
  -17735   -17669   -17613   -17577   -17527   -17450   -17393   -17365 
  -17334   -17284   -17227   -17185   -17158   -17125   -17079   -17030 
  -16990   -16960   -16930   -16892   -16844   -16794   -16755   -16732 
  -16717   -16686   -16620   -16560   -16547   -16523   -16462   -16420 
  -16404   -16371   -16314   -16278   -16254   -16196   -16149   -16140 
  -16120   -16086   -16052   -16010   -15976   -15967   -15960   -15951 
  -15940   -15907   -15886   -15897   -15901   -15876   -15850   -15848 
  -15843   -15827   -15834   -15855   -15849   -15821   -15815   -15815 
  -15795   -15786   -15788   -15775   -15764   -15778   -15789   -15774 
  -15790   -15825   -15817   -15806   -15825   -15820   -15804   -15828 
  -15841   -15832   -15832   -15816   -15799   -15808   -15821   -15815 
  -15812   -15846   -15853   -15836   -15847   -15844   -15847   -15870 
  -15883   -15900   -15935   -15979   -15981   -15965   -16004   -16044 
  -16051   -16063   -16094   -16117   -16117   -16131   -16161   -16181 
  -16204   -16222   -16241   -16267   -16296   -16314   -16298   -16308 
  -16354   -16362   -16356   -16383   -16411   -16425   -16453   -16473 
  -16467   -16482   -16505   -16512   -16533   -16553   -16561   -16578 
  -16601   -16604   -16592   -16607   -16634   -16652   -16673   -16679 
  -16687   -16720   -16734   -16737   -16781   -16832   -16841   -16845 
  -16874   -16907   -16928   -16923   -16923   -16961   -16992   -17007 
  -17039   -17063   -17067   -17087   -17127   -17165   -17197   -17229 
  -17264   -17292   -17309   -17323   -17324   -17318   -17334   -17366 
  -17393   -17407   -17421   -17439   -17444   -17451   -17468   -17462 
  -17452   -17462   -17462   -17461   -17470   -17465   -17454   -17446 
  -17451   -17483   -17510   -17506   -17491   -17493   -17511   -17509 
  -17494   -17501   -17519   -17531   -17552   -17591   -17621   -17605 
  -17571   -17570   -17611   -17661   -17690   -17693   -17695   -17733 
  -17785   -17807   -17806   -17809   -17833   -17871   -17890   -17898 
  -17928   -17957   -17956   -17972   -18009   -18021   -18026   -18057 
  -18101   -18152   -18196   -18214   -18229   -18263   -18315   -18380 
  -18424   -18443   -18503   -18589   -18631   -18653   -18703   -18757 
  -18790   -18821   -18861   -18920   -18982   -19018   -19057   -19124 
  -19168   -19188   -19229   -19277   -19329   -19394   -19454   -19504 
  -19546   -19568   -19587   -19620   -19663   -19717   -19746   -19754 
  -19789   -19825   -19839   -19849   -19850   -19861   -19893   -19915 
  -19932   -19960   -19983   -19981   -19961   -19953   -19978   -20033 
  -20063   -20028   -20016   -20068   -20099   -20099   -20089   -20073 
  -20088   -20116   -20104   -20086   -20091   -20105   -20113   -20094 
  -20076   -20091   -20082   -20033   -20011   -20027   -20027   -19982 
  -19937   -19929   -19930   -19908   -19862   -19806   -19757   -19710 
  -19672   -19645   -19585   -19508   -19466   -19445   -19416   -19352 
  -19282   -19271   -19260   -19174   -19083   -19031   -18992   -18951 
  -18903   -18855   -18805   -18737   -18690   -18675   -18624   -18535 
  -18473   -18444   -18419   -18399   -18370   -18321   -18272   -18240 
  -18217   -18190   -18148   -18097   -18059   -18047   -18022   -17950 
  -17899   -17906   -17901   -17861   -17810   -17752   -17718   -17722 
  -17690   -17608   -17536   -17470   -17436   -17465   -17453   -17372 
  -17341   -17349   -17297   -17206   -17156   -17157   -17137   -17073 
  -17025   -16989   -16921   -16866   -16847   -16813   -16770   -16714 
  -16645   -16618   -16597   -16542   -16501   -16469   -16445   -16452 
  -16428   -16364   -16324   -16276   -16216   -16199   -16171   -16122 
  -16130   -16150   -16134   -16111   -16065   -16004   -15981   -16002 
  -16018   -15976   -15911   -15903   -15915   -15885   -15858   -15858 
  -15851   -15841   -15840   -15845   -15863   -15863   -15828   -15823 
  -15878   -15930   -15934   -15920   -15901   -15865   -15837   -15829 
  -15841   -15874   -15903   -15930   -15973   -16017   -16051   -16055 
  -16044   -16072   -16111   -16138   -16187   -16217   -16225   -16282 
  -16329   -16336   -16384   -16451   -16497   -16530   -16543   -16570 
  -16590   -16581   -16626   -16710   -16758   -16793   -16823   -16849 
  -16908   -16974   -17019   -17051   -17066   -17107   -17207   -17287 
  -17296   -17299   -17340   -17392   -17425   -17451   -17483   -17509 
  -17546   -17586   -17599   -17590   -17580   -17600   -17649   -17690 
  -17719   -17731   -17740   -17759   -17752   -17740   -17766   -17778 
  -17777   -17805   -17833   -17842   -17831   -17825   -17863   -17887 
  -17856   -17843   -17861   -17861   -17853   -17855   -17871   -17893 
  -17904   -17917   -17936   -17944   -17946   -17943   -17922   -17907 
  -17932   -17958   -17953   -17937   -17916   -17902   -17905   -17903 
  -17889   -17893   -17951   -18001   -17935   -17829   -17847   -17931 
  -17935   -17911   -17897   -17861   -17871   -17905   -17860   -17802 
  -17829   -17868   -17842   -17801   -17784   -17777   -17791   -17827 
  -17821   -17746   -17719   -17764   -17783   -17781   -17768   -17732 
