Origin Time       2014/11/22 22:08:00
Lat.              36.692
Long.             137.890
Depth. (km)       5
Mag.              6.7
Station Code      GNM008
Station Lat.      36.3478
Station Long.     139.1368
Station Height(m) 77
Record Time       2014/11/22 22:08:40
Sampling Freq(Hz) 100Hz
Duration Time(s)  124
Dir.              E-W
Scale Factor      3920(gal)/6182761
Max. Acc. (gal)   5.957
Last Correction   2014/11/22 22:08:40
Memo.             
[...]
  -20113   -20058   -20024   -20190   -20399   -20392   -20291   -20228 
  -20120   -20047   -20131   -20294   -20431   -20469   -20424   -20413 
  -20394   -20338   -20421   -20566   -20518   -20388   -20349   -20301 
  -20298   -20418   -20451   -20406   -20398   -20268   -20115   -20179 
  -20295   -20307   -20301   -20282   -20201   -20066   -20002   -20095 
  -20125   -20018   -19992   -19961   -19838   -19850   -19930   -19830 
  -19683   -19668   -19628   -19556   -19683   -19874   -19821   -19651 
  -19610   -19583   -19463   -19435   -19479   -19415   -19435   -19606 
  -19624   -19577   -19734   -19827   -19672   -19655   -19803   -19684 
  -19538   -19782   -19996   -19947   -20015   -20068   -19877   -19906 
  -20261   -20445   -20452   -20467   -20277   -19937   -19889   -20185 
  -20486   -20642   -20703   -20667   -20458   -20133   -20015   -20137 
  -20119   -20026   -20101   -20058   -19880   -19992   -20234   -20281 
  -20333   -20362   -20137   -19867   -19731   -19652   -19689   -19889 
  -20067   -20088   -20120   -20251   -20277   -20195   -20201   -20288 
  -20345   -20313   -20217   -20119   -20006   -19897   -19857   -19810 
  -19777   -19931   -20098   -20100   -20109   -20127   -20104   -20102 
  -20070   -20054   -20054   -20008   -20035   -20062   -20024   -20102 
  -20159   -20066   -20024   -20035   -20003   -19992   -19982   -19844 
  -19591   -19447   -19417   -19253   -19087   -19129   -19190   -19244 
  -19401   -19479   -19416   -19360   -19311   -19248   -19259   -19424 
  -19612   -19616   -19624   -19769   -19712   -19439   -19303   -19327 
  -19418   -19599   -19793   -19875   -19853   -19950   -20258   -20517 
  -20630   -20688   -20516   -20152   -20024   -20112   -20137   -20198 
  -20297   -20239   -20206   -20436   -20687   -20770   -20848   -20811 
  -20468   -20135   -20022   -19940   -19902   -19958   -19930   -19840 
  -19839   -19884   -19955   -20018   -19975   -19927   -19937   -19953 
  -20037   -20053   -19792   -19457   -19195   -18898   -18710   -18742 
  -18793   -18874   -19111   -19321   -19433   -19646   -19863   -19913 
  -19983   -20085   -19997   -19835   -19852   -20068   -20348   -20584 
  -20832   -21106   -21286   -21453   -21717   -21891   -21908   -21917 
  -21776   -21381   -21098   -20996   -20764   -20596   -20706   -20738 
  -20637   -20731   -20869   -20797   -20701   -20655   -20495   -20250 
  -19988   -19662   -19388   -19284   -19170   -18986   -18920   -18948 
  -18957   -19021   -19137   -19138   -18989   -18826   -18738   -18719 
  -18678   -18487   -18192   -17980   -17852   -17735   -17790   -18069 
  -18296   -18400   -18535   -18586   -18484   -18466   -18527   -18509 
  -18506   -18536   -18481   -18406   -18455   -18658   -18962   -19337 
  -19768   -20149   -20373   -20485   -20557   -20632   -20817   -21062 
  -21140   -21054   -20957   -20852   -20748   -20771   -20984   -21281 
  -21483   -21528   -21408   -21143   -20951   -21002   -21177   -21369 
  -21546   -21582   -21435   -21280   -21252   -21282   -21328   -21389 
  -21322   -21143   -21034   -20917   -20809   -20922   -21015   -20848 
  -20706   -20634   -20467   -20350   -20268   -20073   -19911   -19859 
  -19828   -19808   -19747   -19593   -19413   -19231   -19109   -19150 
  -19123   -18873   -18717   -18729   -18669   -18687   -18912   -19026 
  -18963   -18982   -19052   -19089   -19191   -19272   -19235   -19244 
  -19376   -19462   -19470   -19572   -19750   -19859   -19943   -20057 
  -20121   -20104   -20076   -20068   -20046   -19980   -19861   -19710 
  -19598   -19567   -19552   -19556   -19658   -19727   -19606   -19484 
  -19564   -19658   -19642   -19699   -19792   -19666   -19450   -19462 
  -19617   -19750   -19951   -20166   -20260   -20385   -20542   -20506 
  -20372   -20287   -20109   -19828   -19610   -19500   -19399   -19241 
  -19160   -19241   -19324   -19350   -19409   -19444   -19401   -19372 
  -19375   -19386   -19460   -19634   -19858   -20053   -20202   -20336 
  -20435   -20423   -20291   -20149   -20042   -19890   -19687   -19546 
  -19528   -19568   -19605   -19718   -19872   -19875   -19826   -19945 
  -20062   -20022   -20050   -20199   -20256   -20293   -20432   -20515 
  -20563   -20758   -20974   -21039   -21046   -21041   -20923   -20747 
  -20646   -20558   -20347   -20061   -19800   -19489   -19137   -18946 
  -18975   -19090   -19175   -19244   -19321   -19275   -19067   -18940 
  -18961   -18909   -18723   -18535   -18420   -18400   -18465   -18542 
  -18579   -18593   -18620   -18706   -18880   -19089   -19294   -19543 
  -19758   -19800   -19803   -19857   -19762   -19591   -19587   -19607 
  -19575   -19674   -19804   -19886   -20036   -20088   -19949   -19827 
  -19678   -19441   -19292   -19163   -18954   -18874   -18916   -18825 
  -18690   -18746   -18934   -19152   -19498   -19934   -20227   -20398 
  -20651   -20986   -21327   -21641   -21822   -21814   -21688   -21545 
  -21449   -21322   -21096   -20904   -20762   -20536   -20356   -20337 
  -20294   -20137   -19949   -19806   -19803   -19895   -19880   -19776 
  -19791   -19907   -20013   -20179   -20436   -20672   -20786   -20807 
  -20834   -20841   -20836   -20899   -20860   -20660   -20550   -20545 
  -20463   -20329   -20302   -20361   -20283   -20053   -19948   -19917 
  -19652   -19333   -19212   -19089   -18943   -18959   -19009   -19028 
  -19167   -19376   -19469   -19442   -19395   -19283   -19079   -18911 
  -18769   -18667   -18732   -18808   -18787   -18868   -18974   -18895 
  -18814   -18813   -18701   -18581   -18615   -18686   -18772   -18920 
  -19030   -19075   -19125   -19235   -19366   -19446   -19555   -19707 
  -19799   -19892   -20032   -20193   -20451   -20704   -20803   -20921 
  -21116   -21164   -21116   -21140   -21096   -20962   -20952   -21011 
  -21028   -21069   -21159   -21285   -21388   -21418   -21407   -21307 
  -21110   -20955   -20885   -20843   -20792   -20716   -20643   -20618 
  -20644   -20711   -20815   -20882   -20864   -20843   -20852   -20781 
  -20587   -20404   -20294   -20115   -19915   -19868   -19795   -19521 
  -19213   -18953   -18623   -18251   -17910   -17516   -17061   -16687 
  -16443   -16299   -16285   -16348   -16368   -16397   -16501   -16632 
  -16796   -16960   -17038   -17107   -17220   -17294   -17390   -17602 
  -17868   -18177   -18537   -18869   -19209   -19636   -20072   -20444 
  -20761   -21027   -21261   -21454   -21579   -21666   -21712   -21749 
  -21878   -22096   -22289   -22438   -22575   -22657   -22692   -22776 
  -22912   -23041   -23138   -23190   -23217   -23235   -23231   -23201 
  -23128   -23020   -22906   -22707   -22422   -22172   -21942   -21679 
  -21395   -21031   -20576   -20130   -19706   -19289   -18952   -18740 
  -18590   -18432   -18273   -18142   -18034   -17975   -17966   -17954 
  -17944   -17966   -17979   -17932   -17844   -17755   -17680   -17652 
  -17715   -17876   -18101   -18332   -18503   -18665   -18891   -19065 
  -19162   -19306   -19444   -19530   -19657   -19782   -19825   -19841 
  -19890   -19998   -20156   -20359   -20670   -21059   -21369   -21605 
  -21896   -22196   -22407   -22575   -22730   -22841   -22877   -22837 
  -22765   -22699   -22672   -22680   -22682   -22705   -22719   -22632 
  -22471   -22268   -21997   -21720   -21468   -21190   -20893   -20623 
  -20389   -20177   -19954   -19733   -19555   -19330   -19011   -18734 
  -18506   -18255   -18078   -18018   -17974   -17931   -17925   -17864 
  -17720   -17647   -17664   -17677   -17714   -17777   -17811   -17842 
  -17914   -18056   -18280   -18561   -18857   -19146   -19412   -19661 
  -19953   -20314   -20691   -21047   -21395   -21702   -21901   -22028 
  -22144   -22201   -22178   -22155   -22153   -22062   -21849   -21617 
  -21379   -21068   -20715   -20403   -20155   -19881   -19523   -19191 
  -18978   -18838   -18731   -18677   -18642   -18581   -18482   -18383 
  -18369   -18434   -18492   -18582   -18781   -19006   -19175   -19412 
  -19715   -19886   -19956   -20031   -20050   -20062   -20153   -20195 
  -20157   -20193   -20240   -20214   -20251   -20323   -20275   -20202 
  -20194   -20116   -19938   -19804   -19709   -19585   -19537   -19637 
  -19774   -19895   -20036   -20197   -20398   -20645   -20926   -21182 
  -21309   -21336   -21328   -21281   -21294   -21434   -21572   -21584 
  -21510   -21424   -21343   -21291   -21293   -21279   -21173   -20984 
  -20705   -20360   -20066   -19852   -19656   -19491   -19366   -19260 
  -19255   -19379   -19505   -19606   -19739   -19816   -19783   -19782 
  -19849   -19892   -19950   -20039   -20092   -20209   -20431   -20581 
  -20688   -20910   -21122   -21219   -21316   -21392   -21361   -21295 
  -21198   -21009   -20799   -20582   -20340   -20138   -19976   -19825 
  -19727   -19698   -19696   -19652   -19560   -19452   -19325   -19217 
  -19206   -19244   -19225   -19209   -19283   -19331   -19308   -19342 
  -19417   -19466   -19571   -19717   -19807   -19878   -19975   -20067 
  -20149   -20209   -20242   -20281   -20325   -20361   -20392   -20391 
  -20365   -20351   -20365   -20418   -20493   -20575   -20653   -20639 
  -20470   -20269   -20159   -20080   -19985   -19940   -19908   -19820 
  -19797   -19914   -20007   -20066   -20217   -20340   -20359   -20428 
  -20508   -20473   -20410   -20379   -20326   -20269   -20240   -20194 
  -20074   -19897   -19727   -19580   -19429   -19267   -19101   -18948 
  -18845   -18832   -18903   -19037   -19216   -19430   -19695   -19990 
  -20254   -20489   -20711   -20906   -21064   -21151   -21158   -21151 
  -21150   -21129   -21102   -21084   -21031   -20891   -20670   -20452 
  -20296   -20179   -20066   -19929   -19753   -19611   -19565   -19567 
  -19589   -19651   -19732   -19778   -19770   -19744   -19725   -19703 
  -19656   -19621   -19678   -19751   -19716   -19672   -19741   -19855 
  -19921   -19982   -20061   -20031   -19908   -19863   -19850   -19791 
  -19781   -19812   -19741   -19569   -19425   -19343   -19283   -19250 
  -19229   -19188   -19163   -19156   -19141   -19213   -19395   -19518 
  -19560   -19607   -19615   -19595   -19610   -19627   -19637   -19675 
  -19717   -19764   -19834   -19911   -19999   -20113   -20227   -20284 
  -20241   -20114   -19973   -19871   -19807   -19782   -19784   -19776 
  -19754   -19755   -19827   -19939   -19967   -19921   -19947   -20021 
  -20074   -20175   -20313   -20400   -20426   -20419   -20431   -20457 
  -20464   -20445   -20352   -20211   -20123   -20035   -19926   -19948 
  -20044   -20051   -20055   -20099   -20068   -20014   -20055   -20160 
  -20289   -20474   -20703   -20897   -21055   -21208   -21280   -21291 
  -21342   -21329   -21210   -21114   -21004   -20830   -20716   -20709 
  -20696   -20640   -20619   -20619   -20567   -20500   -20443   -20348 
  -20210   -20020   -19764   -19498   -19256   -19028   -18787   -18524 
  -18266   -17998   -17722   -17472   -17259   -17084   -16910   -16707 
  -16605   -16710   -16870   -16971   -17064   -17154   -17279   -17498 
  -17742   -17964   -18153   -18261   -18303   -18326   -18349   -18406 
  -18505   -18610   -18676   -18686   -18691   -18724   -18783   -18925 
  -19181   -19456   -19704   -20001   -20341   -20668   -21018   -21393 
  -21698   -21910   -22107   -22314   -22499   -22682   -22839   -22890 
  -22875   -22847   -22783   -22714   -22641   -22472   -22202   -21923 
  -21687   -21485   -21310   -21154   -20993   -20836   -20684   -20516 
  -20404   -20402   -20418   -20428   -20443   -20344   -20124   -19940 
  -19763   -19517   -19311   -19166   -18985   -18823   -18741   -18667 
  -18602   -18640   -18738   -18810   -18930   -19112   -19212   -19283 
  -19461   -19630   -19690   -19709   -19677   -19554   -19397   -19277 
  -19255   -19345   -19501   -19729   -19993   -20180   -20349   -20671 
  -21082   -21399   -21624   -21775   -21762   -21637   -21488   -21249 
  -20971   -20777   -20602   -20445   -20394   -20300   -20060   -19824 
  -19674   -19606   -19590   -19469   -19148   -18711   -18304   -18015 
  -17781   -17549   -17396   -17348   -17352   -17417   -17594   -17859 
  -18092   -18245   -18342   -18341   -18322   -18429   -18518   -18433 
  -18390   -18578   -18860   -19134   -19461   -19853   -20298   -20858 
  -21583   -22376   -23041   -23508   -23809   -23936   -23861   -23588 
  -23179   -22656   -21944   -21067   -20140   -19239   -18481   -17931 
  -17554   -17359   -17302   -17189   -16949   -16736   -16656   -16711 
  -16926   -17248   -17460   -17426   -17328   -17504   -18155   -19220 
  -20353   -21157   -21566   -21783   -21985   -22264   -22570   -22744 
  -22656   -22190   -21352   -20426   -19797   -19736   -20266   -21054 
  -21672   -21910   -21802   -21607   -21570   -21718   -21963   -22126 
  -22012   -21593   -20956   -20215   -19560   -19192   -19109   -19091 
  -18975   -18775   -18511   -18151   -17780   -17588   -17579   -17640 
  -17707   -17615   -17293   -17040   -17052   -17129   -17157   -17199 
  -17200   -17211   -17450   -17863   -18228   -18514   -18719   -18816 
  -18910   -19102   -19415   -19901   -20530   -21253   -22151   -23164 
  -23993   -24500   -24824   -24966   -24695   -23956   -22960   -21992 
  -21379   -21394   -21976   -22688   -23001   -22547   -21271   -19546 
  -17946   -16878   -16458   -16520   -16788   -17014   -16930   -16491 
  -16164   -16470   -17469   -18856   -20076   -20604   -20516   -20291 
  -20250   -20608   -21489   -22737   -24121   -25568   -27020   -28282 
  -29116   -29345   -28900   -27892   -26512   -24874   -23010   -20995 
  -19086   -17596   -16572   -15797   -15186   -14826   -14633   -14376 
  -13928   -13320   -12830   -12829   -13364   -14320   -15766   -17600 
  -19341   -20688   -21710   -22434   -22798   -22835   -22599   -22172 
  -21716   -21291   -20833   -20388   -20026   -19589   -18917   -17987 
  -16842   -15749   -15083   -15006   -15525   -16573   -17922   -19287 
  -20561   -21768   -22820   -23540   -23764   -23250   -21844   -19781 
  -17433   -15151   -13351   -12174   -11473   -11260   -11555   -12253 
  -13304   -14666   -16361   -18360   -20354   -22037   -23250   -23939 
  -24256   -24372   -24363   -24330   -24285   -24029   -23319   -22285 
  -21358   -20668   -20112   -19821   -19953   -20399   -21000   -21709 
  -22402   -22853   -22963   -22816   -22466   -21939   -21336   -20861 
  -20794   -21162   -21721   -22230   -22346   -21816   -20814   -19542 
  -18091   -16721   -15589   -14689   -14162   -14022   -14112   -14474 
  -15140   -16054   -17349   -19060   -20951   -22902   -24823   -26385 
  -27387   -27913   -28001   -27730   -27332   -26832   -26049   -24987 
  -23671   -22030   -20262   -18619   -17144   -15939   -15000   -14201 
  -13647   -13400   -13405   -13801   -14548   -15300   -15944   -16531 
  -16963   -17144   -17093   -16939   -16894   -17121   -17642   -18275 
  -18764   -18935   -18816   -18740   -18990   -19635   -20702   -21926 
  -22915   -23577   -23868   -23744   -23437   -23187   -23006   -22896 
  -22768   -22375   -21697   -20942   -20319   -19949   -19810   -19846 
  -19884   -19563   -18764   -17763   -16923   -16632   -17146   -18261 
  -19487   -20497   -21143   -21419   -21491   -21539   -21645   -21848 
  -22101   -22203   -22019   -21714   -21423   -21096   -20806   -20622 
  -20518   -20646   -21060   -21537   -22000   -22417   -22624   -22643 
  -22667   -22750   -22865   -23064   -23386   -23793   -24287   -24818 
  -25217   -25428   -25512   -25533   -25526   -25367   -24862   -24012 
  -22984   -21963   -21099   -20521   -20210   -19966   -19681   -19374 
  -19018   -18624   -18316   -18258   -18561   -19105   -19661   -20132 
  -20395   -20232   -19630   -18757   -17748   -16795   -16059   -15562 
  -15338   -15366   -15512   -15746   -16081   -16441   -16822   -17269 
  -17695   -18005   -18286   -18640   -19009   -19305   -19489   -19560 
  -19530   -19397   -19222   -19113   -19092   -19115   -19168   -19295 
  -19487   -19658   -19836   -20055   -20229   -20417   -20799   -21385 
  -22080   -22786   -23341   -23693   -23978   -24246   -24380   -24358 
  -24272   -24043   -23602   -23217   -23053   -22931   -22771   -22601 
  -22351   -22049   -21786   -21525   -21250   -21002   -20750   -20446 
  -20158   -19949   -19742   -19435   -19040   -18614   -18169   -17697 
  -17227   -16762   -16284   -15833   -15398   -14910   -14370   -13829 
  -13390   -13236   -13439   -13909   -14597   -15451   -16341   -17218 
  -18106   -19002   -19916   -20850   -21719   -22387   -22761   -22759 
  -22420   -21984   -21671   -21618   -21892   -22369   -22823   -23095 
  -23095   -22840   -22507   -22275   -22149   -22037   -21889   -21606 
  -21079   -20405   -19696   -18904   -18100   -17464   -17017   -16706 
  -16558   -16601   -16767   -16961   -17125   -17168   -17044   -16859 
  -16677   -16495   -16434   -16578   -16849   -17191   -17598   -18032 
  -18467   -18916   -19373   -19827   -20231   -20538   -20790   -20976 
  -21034   -21068   -21221   -21493   -21826   -22142   -22348   -22403 
  -22248   -21836   -21287   -20735   -20151   -19512   -18804   -17928 
  -16916   -15955   -15193   -14745   -14665   -14912   -15399   -16035 
  -16773   -17543   -18288   -19087   -19994   -20959   -21917   -22760 
  -23437   -24050   -24650   -25217   -25758   -26170   -26326   -26304 
  -26177   -25916   -25576   -25166   -24556   -23724   -22799   -21885 
  -21062   -20434   -20006   -19677   -19402   -19169   -18928   -18669 
  -18470   -18356   -18244   -18102   -17958   -17776   -17540   -17297 
  -17049   -16850   -16810   -16895   -17038   -17276   -17570   -17849 
  -18219   -18759   -19393   -20072   -20764   -21373   -21851   -22249 
  -22580   -22786   -22867   -22885   -22880   -22876   -22864   -22831 
  -22758   -22592   -22332   -22059   -21852   -21727   -21627   -21468 
  -21195   -20808   -20360   -19932   -19564   -19215   -18884   -18537 
  -18101   -17642   -17265   -17006   -16937   -17087   -17375   -17710 
  -18041   -18359   -18664   -18973   -19336   -19760   -20191   -20595 
  -20943   -21193   -21339   -21389   -21330   -21178   -20980   -20708 
  -20330   -19939   -19604   -19338   -19207   -19227   -19356   -19624 
  -20031   -20506   -21027   -21577   -22033   -22308   -22407   -22298 
  -21989   -21589   -21162   -20690   -20187   -19706   -19296   -19015 
  -18871   -18768   -18660   -18557   -18386   -18086   -17741   -17412 
  -17050   -16720   -16569   -16581   -16670   -16850   -17129   -17464 
  -17843   -18283   -18802   -19356   -19864   -20313   -20699   -20997 
  -21210   -21317   -21339   -21358   -21361   -21311   -21284   -21308 
  -21300   -21259   -21247   -21243   -21217   -21192   -21148   -21002 
  -20730   -20387   -20054   -19787   -19628   -19620   -19731   -19896 
  -20103   -20334   -20577   -20841   -21080   -21227   -21283   -21235 
  -21055   -20815   -20596   -20410   -20284   -20241   -20245   -20249 
  -20247   -20248   -20230   -20207   -20199   -20194   -20188   -20137 
  -20008   -19830   -19577   -19232   -18854   -18468   -18052   -17626 
  -17216   -16824   -16471   -16191   -15996   -15874   -15845   -15940 
  -16142   -16459   -16891   -17347   -17771   -18175   -18562   -18996 
  -19555   -20178   -20770   -21297   -21703   -21990   -22216   -22368 
  -22463   -22561   -22663   -22787   -22961   -23108   -23206   -23313 
