Origin Time       2014/11/22 22:08:00
Lat.              36.692
Long.             137.890
Depth. (km)       5
Mag.              6.7
Station Code      GNM008
Station Lat.      36.3478
Station Long.     139.1368
Station Height(m) 77
Record Time       2014/11/22 22:08:40
Sampling Freq(Hz) 100Hz
Duration Time(s)  124
Dir.              N-S
Scale Factor      3920(gal)/6182761
Max. Acc. (gal)   5.952
Last Correction   2014/11/22 22:08:40
Memo.             
[...]
   -1452    -1466    -1289    -1372    -1392    -1167    -1163    -1411 
   -1435    -1212    -1086    -1047     -931     -942    -1108    -1040 
    -798     -711     -662     -637     -876    -1119    -1007     -812 
    -753     -645     -618     -869    -1082    -1026     -932     -911 
    -770     -520     -497     -687     -760     -841     -998     -912 
    -796     -965    -1097    -1078    -1225    -1419    -1253     -902 
    -815     -869     -876    -1005    -1116    -1045    -1105    -1312 
   -1397    -1360    -1220    -1051     -927     -776     -760     -884 
    -906     -916     -923     -857     -979    -1306    -1511    -1391 
   -1138    -1165    -1314    -1206    -1163    -1331    -1265     -995 
    -935    -1032     -976     -852     -890     -891     -752     -773 
    -883     -841     -864    -1078    -1250    -1336    -1411    -1360 
   -1156     -986    -1016    -1222    -1437    -1568    -1535    -1341 
   -1306    -1478    -1507    -1464    -1586    -1660    -1484    -1233 
   -1141    -1199    -1322    -1537    -1647    -1479    -1389    -1458 
   -1393    -1457    -1739    -1739    -1509    -1320    -1006     -684 
    -696     -880     -823     -476     -155      -56      -17       53 
     -14     -129      -73      -40     -164     -158       34      155 
     195      188       39      -32       74      -22     -260     -343 
    -494     -744     -803     -732     -739     -841     -942    -1023 
   -1106    -1118    -1101    -1282    -1704    -2070    -2146    -2060 
   -2005    -2010    -2044    -2131    -2260    -2286    -2115    -1823 
   -1564    -1579    -1796    -1759    -1480    -1275    -1076     -900 
    -964    -1198    -1342    -1199     -917     -845     -932     -999 
   -1145    -1323    -1318    -1199    -1244    -1507    -1694    -1596 
   -1432    -1393    -1327    -1217    -1184    -1129    -1065    -1102 
   -1163    -1278    -1482    -1576    -1510    -1469    -1550    -1644 
   -1663    -1693    -1731    -1643    -1517    -1557    -1675    -1652 
   -1522    -1389    -1255    -1196    -1203    -1091     -836     -658 
    -701     -882    -1082    -1219    -1205    -1050     -898     -850 
    -813     -682     -563     -560     -595     -589     -578     -568 
    -520     -550     -685     -671     -538     -471     -318      -95 
      25       72      -79     -407     -508     -401     -381     -393 
    -416     -521     -577     -588     -703     -868    -1020    -1189 
   -1276    -1232    -1150    -1014     -885     -857     -777     -641 
    -691     -928    -1197    -1452    -1558    -1490    -1549    -1753 
   -1908    -2115    -2334    -2359    -2242    -2111    -2069    -2196 
   -2349    -2316    -2119    -1918    -1747    -1584    -1485    -1414 
   -1264    -1084     -983     -944     -922     -935     -999    -1115 
   -1239    -1254    -1141    -1031    -1001    -1028    -1116    -1244 
   -1317    -1239    -1043     -923     -919     -904     -972    -1144 
   -1144     -947     -813     -818     -859     -895     -961     -972 
    -775     -476     -323     -314     -293     -259     -330     -512 
    -647     -647     -592     -581     -579     -499     -494     -726 
    -856     -673     -556     -679     -791     -817     -873     -951 
    -986     -992    -1031    -1215    -1561    -1823    -1847    -1800 
   -1812    -1815    -1764    -1735    -1762    -1679    -1466    -1398 
   -1479    -1461    -1460    -1672    -1878    -1898    -1851    -1801 
   -1740    -1654    -1444    -1151    -1021    -1080    -1113    -1144 
   -1297    -1395    -1323    -1291    -1312    -1199    -1070    -1063 
    -984     -793     -658     -580     -571     -697     -871    -1007 
   -1142    -1274    -1396    -1571    -1716    -1723    -1767    -1896 
   -1953    -2035    -2202    -2282    -2277    -2315    -2360    -2329 
   -2232    -2093    -1923    -1720    -1456    -1146     -934     -787 
    -482     -198     -176     -133      -18     -158     -399     -518 
    -650     -756     -721     -623     -596     -636     -635     -697 
    -877     -968    -1034    -1168    -1211    -1266    -1502    -1773 
   -1927    -1917    -1774    -1621    -1490    -1370    -1302    -1246 
   -1134     -958     -726     -547     -558     -595     -498     -467 
    -570     -614     -628     -656     -574     -413     -262     -128 
     -64      -72     -134     -247     -358     -440     -450     -394 
    -389     -425     -513     -705     -830     -860     -973    -1074 
   -1070    -1133    -1317    -1509    -1638    -1689    -1731    -1827 
   -1925    -1937    -1877    -1822    -1703    -1498    -1403    -1433 
   -1443    -1430    -1341    -1132     -925     -787     -767     -820 
    -744     -614     -581     -505     -414     -492     -617     -624 
    -578     -566     -548     -424     -288     -255     -132       84 
     126       56       96      196      198       28     -225     -465 
    -825    -1237    -1436    -1551    -1684    -1758    -1881    -1865 
   -1635    -1632    -1779    -1744    -1782    -2026    -2258    -2396 
   -2454    -2517    -2615    -2624    -2565    -2541    -2503    -2464 
   -2488    -2528    -2586    -2660    -2721    -2840    -2995    -3096 
   -3180    -3274    -3345    -3374    -3351    -3269    -3085    -2765 
   -2422    -2099    -1698    -1257     -824     -372       -1      236 
     460      670      780      872     1008     1083     1055     1031 
    1092     1200     1257     1155      945      715      427      162 
      -6     -188     -360     -474     -663     -909    -1069    -1191 
   -1305    -1360    -1404    -1450    -1464    -1476    -1510    -1540 
   -1531    -1475    -1421    -1360    -1227    -1078    -1016    -1007 
    -976     -881     -731     -619     -598     -594     -586     -639 
    -695     -686     -691     -759     -819     -848     -947    -1088 
   -1124    -1144    -1256    -1292    -1181    -1043     -901     -762 
    -678     -604     -529     -524     -517     -461     -521     -709 
    -850     -887     -818     -703     -658     -615     -488     -338 
    -192     -102     -141     -231     -330     -502     -656     -711 
    -770     -848     -891     -927     -951     -930     -903     -962 
   -1111    -1266    -1470    -1751    -1981    -2160    -2375    -2603 
   -2839    -3034    -3066    -3010    -3008    -3021    -2984    -2913 
   -2847    -2837    -2854    -2799    -2688    -2636    -2626    -2537 
   -2335    -2102    -1926    -1764    -1538    -1296    -1101     -905 
    -691     -483     -250      -37       57       99      181      262 
     306      346      392      439      475      454      398      348 
     305      269      229      197      164       69      -49     -132 
    -217     -298     -353     -381     -363     -311     -275     -299 
    -334     -299     -233     -205     -200     -214     -276     -393 
    -595     -855    -1063    -1210    -1347    -1487    -1673    -1830 
   -1862    -1886    -1979    -2053    -2081    -2080    -2069    -2096 
   -2123    -2121    -2074    -1916    -1752    -1655    -1477    -1220 
   -1056     -997     -930     -870     -882     -836     -675     -522 
    -358     -188     -190     -247      -92       93      104       92 
      95      -14     -207     -317     -303     -357     -541     -743 
    -992    -1276    -1422    -1426    -1420    -1421    -1492    -1714 
   -1924    -1966    -1967    -2028    -2020    -2008    -2143    -2188 
   -2011    -1832    -1690    -1507    -1322    -1229    -1157     -937 
    -697     -594     -512     -476     -592     -739     -839     -942 
   -1045    -1171    -1364    -1546    -1570    -1526    -1599    -1613 
   -1447    -1381    -1428    -1351    -1273    -1360    -1458    -1429 
   -1320    -1173    -1015     -896     -756     -488     -177       33 
     159      256      282      218      118      -33     -254     -398 
    -435     -538     -623     -508     -337     -253     -170      -40 
      48      104      225      291      213      122        6     -141 
    -212     -286     -456     -656     -852    -1058    -1251    -1407 
   -1541    -1673    -1779    -1799    -1786    -1821    -1829    -1768 
   -1697    -1650    -1608    -1551    -1541    -1575    -1561    -1553 
   -1598    -1586    -1506    -1486    -1530    -1527    -1496    -1529 
   -1549    -1499    -1465    -1387    -1214    -1153    -1242    -1288 
   -1281    -1284    -1252    -1159    -1053     -997    -1026    -1124 
   -1245    -1351    -1451    -1565    -1683    -1832    -1994    -2075 
   -2048    -1950    -1828    -1707    -1587    -1475    -1326    -1121 
    -983     -939     -861     -785     -777     -743     -700     -701 
    -664     -608     -606     -609     -563     -512     -538     -645 
    -774     -942    -1206    -1498    -1696    -1853    -2067    -2202 
   -2162    -2116    -2102    -1983    -1799    -1664    -1533    -1374 
   -1260    -1196    -1123    -1047    -1024    -1056    -1066    -1037 
   -1008     -962     -919     -935     -946     -871     -788     -758 
    -698     -628     -611     -579     -540     -534     -510     -470 
    -432     -426     -453     -414     -324     -275     -253     -223 
    -171     -115     -115     -184     -338     -599     -843     -937 
    -961    -1045    -1163    -1223    -1188    -1129    -1088    -1015 
    -910     -798     -685     -614     -575     -544     -538     -526 
    -482     -404     -310     -267     -269     -230     -122      -21 
      24       49       42        9       12      -13     -172     -419 
    -663     -899    -1159    -1394    -1547    -1714    -1975    -2240 
   -2418    -2544    -2667    -2769    -2837    -2889    -2918    -2959 
   -3060    -3116    -3088    -3083    -3055    -2974    -2964    -2979 
   -2897    -2747    -2559    -2378    -2249    -2124    -2002    -1869 
   -1656    -1434    -1248    -1088    -1027     -994     -884     -773 
    -678     -598     -591     -675     -855    -1055    -1234    -1480 
   -1737    -1912    -2071    -2236    -2353    -2415    -2387    -2255 
   -2127    -2041    -1951    -1876    -1763    -1553    -1334    -1171 
   -1057     -953     -817     -639     -442     -327     -323     -297 
    -254     -213      -52      155      291      431      570      657 
     720      745      678      560      454      330      177       27 
    -145     -299     -350     -381     -509     -656     -768     -962 
   -1268    -1553    -1781    -2036    -2281    -2442    -2553    -2621 
   -2600    -2459    -2224    -1998    -1824    -1628    -1394    -1187 
   -1006     -826     -740     -807     -844     -699     -512     -436 
    -406     -335     -285     -287     -221      -76       -1      -28 
     -85     -168     -245     -260     -279     -349     -422     -500 
    -596     -699     -837     -988    -1086    -1153    -1223    -1265 
   -1314    -1383    -1374    -1273    -1152    -1016     -865     -739 
    -582     -346     -163     -165     -262     -293     -276     -297 
    -288     -222     -272     -472     -651     -773     -904    -1033 
   -1151    -1265    -1371    -1476    -1555    -1550    -1486    -1439 
   -1413    -1358    -1254    -1176    -1172    -1229    -1387    -1567 
   -1583    -1472    -1374    -1284    -1194    -1175    -1267    -1369 
   -1349    -1261    -1201    -1131    -1088    -1150    -1234    -1270 
   -1308    -1348    -1298    -1190    -1215    -1385    -1514    -1593 
   -1713    -1844    -1963    -2066    -2133    -2177    -2177    -2091 
   -1930    -1738    -1565    -1441    -1379    -1370    -1384    -1413 
   -1447    -1433    -1305    -1163    -1223    -1434    -1623    -1794 
   -1906    -1906    -1913    -1987    -2070    -2162    -2258    -2302 
   -2321    -2370    -2371    -2270    -2154    -2076    -1975    -1764 
   -1396     -910     -429      -40      348      856     1437     1968 
    2391     2672     2796     2802     2654     2313     1981     1887 
    1962     1954     1725     1292      793      540      753     1147 
    1287     1092      615      -72     -743    -1164    -1182     -829 
    -445     -358     -603    -1033    -1357    -1237     -658      100 
     768     1068      787      124     -403     -503     -321      -87 
     114      208      121      -72     -192     -185     -105        1 
      16     -123     -222     -148      -29       40       52       21 
       3       -3      -30     -148     -560    -1326    -2178    -2868 
   -3435    -4050    -4787    -5612    -6427    -7054    -7334    -7266 
   -7051    -7003    -7263    -7741    -8344    -8970    -9420    -9552 
   -9371    -8916    -8123    -6903    -5408    -4083    -3306    -3087 
   -3074    -2841    -2207    -1318     -494       45      320      502 
     893     1821     3196     4488     5241     5265     4644     3757 
    2958     2541     2748     3319     3786     4086     4271     4363 
    4508     4779     5118     5421     5535     5341     4746     3730 
    2491     1446     1020     1181     1474     1725     2202     2997 
    3865     4573     4971     4980     4644     4004     3021     1696 
     119    -1490    -2823    -3704    -4228    -4703    -5431    -6402 
   -7335    -8035    -8558    -9088    -9680   -10154   -10219    -9785 
   -9155    -8669    -8367    -8257    -8333    -8391    -8395    -8552 
   -8840    -8988    -8727    -7951    -6816    -5602    -4508    -3509 
   -2387    -1088      286     1758     3298     4675     5671     6189 
    6317     6280     6306     6664     7409     8112     8311     7878 
    6817     5245     3449     1777      481     -647    -2082    -3786 
   -5387    -6788    -7773    -7967    -7514    -6696    -5568    -4386 
   -3312    -2255    -1293     -414      588     1681     2746     3737 
    4550     5218     5869     6400     6630     6420     5628     4395 
    2995     1392     -480    -2436    -4213    -5532    -6255    -6581 
   -6759    -6780    -6499    -5893    -5196    -4800    -5044    -6014 
   -7462    -8897    -9875   -10264   -10163    -9656    -8817    -7787 
   -6612    -5297    -4034    -2943    -1899     -782      336     1252 
    1806     2011     1993     1887     2029     2671     3391     3678 
    3494     2794     1606      440     -239     -375      -80      205 
     -28     -560     -932    -1091     -957     -523     -135        9 
     -53     -233     -330     -270     -140      174      753     1327 
    1742     2044     2032     1593     1140      984      963      942 
     919      918     1043     1183     1042      614       47     -611 
   -1209    -1566    -1776    -2039    -2457    -3051    -3663    -4101 
   -4414    -4778    -5342    -6286    -7574    -8819    -9698   -10110 
   -9965    -9252    -8121    -6757    -5339    -4041    -2914    -1914 
   -1100     -475      174      914     1634     2252     2589     2526 
    2257     2020     1944     2123     2459     2762     2996     3104 
    3104     3263     3657     4047     4310     4478     4468     4089 
    3262     2118      862     -336    -1308    -1965    -2339    -2470 
   -2422    -2323    -2229    -2046    -1646    -1035     -397       38 
      77     -332    -1012    -1581    -1692    -1394     -980     -562 
    -112      328      691     1035     1406     1654     1660     1465 
    1050      361     -468    -1199    -1731    -2103    -2394    -2642 
   -2780    -2753    -2628    -2487    -2409    -2527    -2813    -3092 
   -3306    -3413    -3300    -2973    -2577    -2178    -1753    -1335 
    -949     -563     -161      241      528      554      320     -117 
    -644    -1029    -1203    -1276    -1285    -1303    -1455    -1731 
   -2041    -2359    -2753    -3331    -4094    -4905    -5634    -6186 
   -6426    -6254    -5713    -4868    -3727    -2366     -979      219 
    1090     1590     1694     1442      968      396     -151     -533 
    -686     -661     -580     -540     -540     -577     -715     -910 
   -1031    -1118    -1208    -1165     -921     -522      -95      153 
     173       18     -356     -857    -1257    -1524    -1670    -1571 
   -1201     -654      -49      475      890     1227     1465     1656 
    1813     1811     1649     1454     1197      777      220     -412 
   -1042    -1557    -1929    -2177    -2266    -2231    -2186    -2170 
   -2186    -2267    -2381    -2458    -2502    -2584    -2721    -2836 
   -2859    -2745    -2460    -2095    -1769    -1471    -1214    -1099 
   -1134    -1279    -1515    -1753    -1931    -2087    -2216    -2302 
   -2406    -2582    -2806    -3007    -3143    -3250    -3337    -3365 
   -3355    -3306    -3107    -2696    -2124    -1441     -743     -158 
     264      547      774      972     1058     1024      922      739 
     562      524      543      510      445      323      205      188 
     172      124      147      168      126       97       96      166 
     362      631     1010     1558     2140     2665     3122     3374 
    3378     3297     3223     3132     2996     2765     2415     1941 
    1353      694       35     -555    -1096    -1676    -2326    -3034 
   -3758    -4412    -4941    -5355    -5686    -6005    -6366    -6738 
   -7085    -7389    -7591    -7662    -7621    -7449    -7176    -6934 
   -6739    -6558    -6446    -6338    -6086    -5742    -5374    -4887 
   -4297    -3680    -2957    -2078    -1146     -282      463     1049 
    1382     1449     1337     1084      756      486      318      202 
     137      159      241      349      471      512      427      356 
     349      340      362      431      468      444      397      454 
     685      937     1142     1345     1459     1485     1544     1608 
    1652     1731     1801     1832     1844     1741     1460     1057 
     533      -75     -629    -1075    -1402    -1607    -1777    -1923 
   -1973    -2007    -2099    -2226    -2448    -2840    -3386    -4015 
   -4623    -5159    -5617    -5927    -6063    -6096    -6053    -5948 
   -5791    -5546    -5277    -5062    -4862    -4724    -4696    -4640 
   -4505    -4329    -4037    -3614    -3126    -2573    -1929    -1201 
    -462      224      833     1313     1705     2078     2385     2648 
    2902     2973     2779     2428     1906     1212      504     -138 
    -678    -1033    -1239    -1326    -1241    -1044     -796     -446 
     -73      198      388      486      476      488      565      680 
     902     1171     1356     1506     1619     1581     1442     1299 
    1084      741      337     -118     -646    -1166    -1596    -1913 
   -2085    -2147    -2205    -2305    -2470    -2683    -2892    -3095 
   -3285    -3463    -3650    -3776    -3770    -3686    -3570    -3421 
   -3266    -3127    -3025    -2975    -2949    -2949    -2995    -3031 
   -2992    -2901    -2803    -2716    -2627    -2492    -2300    -2046 
   -1679    -1239     -819     -354      188      704     1221     1760 
    2209     2572     2881     3063     3109     3067     2928     2715 
    2481     2219     1922     1596     1256      957      701      467 
     298      206      142       75      -28     -186     -333     -431 
    -545     -625     -605     -582     -623     -681     -716     -716 
    -678     -578     -420     -317     -348     -468     -688     -984 
   -1210    -1422    -1728    -1965    -2075    -2177    -2222    -2178 
