Origin Time       2018/06/17 15:27:00
Lat.              36.455
Long.             139.172
Depth. (km)       14
Mag.              4.6
Station Code      IBR001
Station Lat.      36.7761
Station Long.     140.3569
Station Height(m) 105
Record Time       2018/06/17 15:27:54
Sampling Freq(Hz) 100Hz
Duration Time(s)  65
Dir.              U-D
Scale Factor      7845(gal)/8223790
Max. Acc. (gal)   2.111
Last Correction   2018/06/17 15:27:53
Memo.             
[...]
   15986    15639    15134    14805    14863    15321    15901    16132 
   15830    15422    15383    15614    15763    15770    15708    15543 
   15311    15238    15419    15589    15579    15523    15391    15129 
   15101    15615    16258    16282    15664    15184    15345    15878 
   16260    16202    15749    15287    15282    15642    15742    15407 
   15214    15596    16185    16298    15803    15145    14820    15003 
   15426    15664    15616    15511    15511    15546    15520    15452 
   15379    15342    15418    15638    15827    15796    15682    15728 
   15873    15884    15742    15576    15414    15354    15485    15558 
   15419    15377    15635    15915    16001    16028    15996    15719 
   15344    15202    15304    15453    15574    15634    15549    15427 
   15500    15635    15525    15302    15314    15562    15784    15759 
   15511    15313    15414    15766    16032    15924    15507    15121 
   15059    15337    15634    15688    15637    15685    15847    16036 
   16109    15939    15556    15210    15173    15457    15873    16102 
   15901    15433    15118    15175    15464    15628    15433    15074 
   15010    15379    15863    16150    16189    16024    15719    15484 
   15476    15492    15323    15186    15361    15704    15807    15560 
   15294    15327    15584    15754    15684    15553    15626    15822 
   15857    15684    15485    15422    15488    15553    15538    15457 
   15410    15468    15504    15471    15561    15803    15963    15894 
   15728    15670    15703    15669    15495    15302    15323    15558 
   15734    15709    15577    15414    15322    15434    15672    15751 
   15620    15569    15696    15738    15558    15363    15406    15632 
   15692    15412    15075    15075    15454    15855    15912    15688 
   15599    15861    16173    16108    15680    15255    15130    15396 
   15820    15992    15757    15350    15136    15244    15525    15738 
   15645    15279    15075    15441    16246    16748    16348    15449 
   14885    14945    15302    15515    15489    15329    15176    15267 
   15572    15801    15827    15693    15585    15695    15943    16055 
   15815    15414    15295    15526    15766    15688    15350    15145 
   15282    15651    15985    16040    15904    15823    15830    15834 
   15728    15488    15183    14926    14874    15066    15323    15472 
   15441    15298    15267    15476    15764    15954    16087    16178 
   16079    15834    15708    15773    15842    15807    15678    15419 
   15086    14864    14917    15269    15712    15936    15823    15573 
   15506    15641    15795    15890    15822    15562    15408    15546 
   15781    15827    15610    15313    15136    15134    15272    15404 
   15539    15846    16197    16305    16167    15957    15705    15346 
   15026    14967    15163    15495    15754    15693    15369    15217 
   15485    15850    15893    15711    15628    15731    15871    15885 
   15789    15649    15477    15371    15325    15210    15097    15142 
   15326    15469    15523    15678    15996    16241    16167    15742 
   15248    15013    15083    15334    15589    15754    15884    15915 
   15777    15615    15577    15677    15770    15698    15489    15379 
   15597    15963    16032    15704    15228    14889    14823    14962 
   15171    15296    15302    15485    15992    16417    16305    15754 
   15352    15449    15751    15835    15687    15603    15751    15932 
   15823    15411    15125    15325    15757    15917    15704    15446 
   15530    15974    16394    16431    16050    15441    14894    14724 
   14986    15282    15268    15084    15087    15371    15708    15853 
   15745    15493    15276    15215    15341    15589    15774    15816 
   15826    15873    15970    16073    15929    15434    14998    15086 
   15549    15881    15853    15642    15537    15641    15801    15742 
   15471    15360    15525    15665    15579    15344    15238    15476 
   15812    15847    15608    15434    15493    15658    15751    15697 
   15577    15596    15751    15753    15534    15398    15520    15670 
   15539    15161    14851    14889    15295    15859    16239    16213 
   15951    15789    15807    15820    15687    15476    15296    15242 
   15391    15604    15620    15414    15188    15134    15317    15653 
   15982    16117    15957    15677    15589    15804    16109    16139 
   15826    15452    15229    15167    15160    15107    15094    15269 
   15654    16077    16124    15647    15133    15149    15677    16187 
   16264    15979    15560    15175    15053    15257    15503    15519 
   15383    15334    15446    15606    15632    15487    15464    15768 
   16104    16098    15759    15424    15371    15535    15658    15549 
   15311    15291    15597    15913    15855    15406    15026    15226 
   15906    16405    16255    15677    15219    15125    15323    15572 
   15608    15460    15356    15452    15697    15828    15673    15381 
   15279    15479    15753    15916    15919    15753    15527    15398 
   15421    15462    15399    15350    15439    15589    15700    15692 
   15523    15352    15412    15719    15986    16000    15840    15684 
   15647    15746    15851    15788    15503    15199    15136    15263 
   15346    15257    15117    15175    15445    15747    15965    16071 
   16013    15800    15650    15662    15595    15348    15209    15450 
   15958    16205    15828    15167    14839    15149    15901    16426 
   16222    15533    15033    15126    15535    15772    15772    15665 
   15454    15160    15012    15264    15730    15928    15781    15646 
   15750    15938    15948    15731    15395    15120    15120    15411 
   15724    15811    15680    15471    15348    15435    15661    15785 
   15610    15250    15117    15424    15962    16343    16310    15924 
   15496    15331    15452    15561    15398    15091    15014    15311 
   15687    15746    15533    15516    15838    16075    15916    15531 
   15257    15275    15552    15884    15998    15819    15556    15380 
   15267    15252    15426    15684    15859    15969    16015    15827 
   15438    15210    15305    15513    15601    15526    15407    15360 
   15454    15676    15824    15782    15649    15479    15346    15408 
   15661    15890    15908    15701    15407    15329    15682    16050 
   15830    15173    14754    14929    15515    16079    16232    15803 
   15151    14918    15261    15817    16231    16213    15657    14991 
   14883    15384    15908    16020    15793    15499    15296    15233 
   15402    15815    16174    16178    15917    15639    15435    15352 
   15435    15558    15506    15318    15272    15426    15601    15695 
   15716    15688    15637    15568    15487    15427    15447    15539 
   15665    15769    15688    15412    15239    15377    15680    15855 
   15774    15645    15678    15838    15900    15581    15013    14779 
   15163    15840    16258    16090    15519    15086    15152    15542 
   15799    15708    15526    15628    15951    16098    15890    15464 
   15132    15147    15503    15931    15981    15525    15072    15114 
   15583    16004    15978    15620    15369    15476    15773    15815 
   15480    15183    15194    15407    15660    15776    15653    15449 
   15434    15604    15670    15579    15584    15758    15986    16178 
   16144    15647    14908    14580    14952    15546    15799    15672 
   15410    15264    15427    15769    15889    15707    15599    15776 
   16043    16185    16128    15869    15490    15155    15020    15155 
   15477    15842    15977    15599    14917    14608    15111    16094 
   16721    16468    15595    14856    14854    15453    15925    15761 
   15172    14817    15074    15700    16193    16194    15776    15442 
   15534    15835    15949    15827    15627    15453    15399    15516 
   15639    15525    15192    14958    15010    15242    15614    16110 
   16403    16210    15721    15434    15649    16012    15929    15433 
   15045    15040    15250    15480    15662    15676    15558    15534 
   15620    15646    15564    15498    15534    15643    15797    15996 
   16066    15803    15394    15178    15219    15408    15539    15446 
   15248    15264    15685    16220    16306    15844    15314    15198 
   15522    15854    15803    15466    15257    15346    15488    15502 
   15508    15601    15677    15653    15542    15368    15269    15460 
   15827    16017    15944    15714    15398    15172    15249    15624 
   15966    15912    15572    15367    15441    15611    15670    15627 
   15616    15655    15712    15786    15773    15572    15326    15333 
   15626    15819    15574    15147    15075    15427    15819    15906 
   15684    15429    15403    15614    15781    15673    15495    15471 
   15500    15526    15595    15695    15731    15583    15295    15136 
   15317    15726    15979    15865    15632    15606    15773    15843 
   15577    15210    15228    15606    15859    15790    15589    15410 
   15317    15424    15736    16002    15921    15483    15034    15007 
   15489    16025    16143    15919    15673    15500    15288    15037 
   15014    15371    15842    15986    15669    15260    15153    15348 
   15742    16144    16093    15488    15037    15353    16083    16406 
   16038    15395    15017    15132    15564    15920    15885    15502 
   15215    15387    15796    15913    15649    15404    15441    15720 
   16032    16013    15545    15103    15182    15515    15518    15244 
   15196    15466    15761    15900    15813    15522    15276    15371 
   15750    16023    15949    15641    15377    15408    15631    15688 
   15529    15431    15576    15793    15773    15490    15292    15468 
   15970    16355    16046    15160    14638    15101    15946    16036 
   15287    14727    14995    15739    16241    16119    15635    15369 
   15550    15842    15809    15488    15242    15272    15520    15788 
   15835    15529    15075    14965    15398    15967    16213    16098 
   15893    15778    15651    15530    15550    15543    15383    15241 
   15192    15256    15537    15896    15942    15535    15028    14895 
   15236    15785    16201    16157    15630    15175    15327    15846 
   16139    16017    15664    15277    15040    15097    15367    15622 
   15774    15850    15896    15890    15792    15705    15650    15529 
   15392    15376    15529    15759    15817    15568    15222    15025 
   15005    15083    15284    15642    15946    16032    16066    16174 
   16254    16152    15813    15300    14816    14739    15184    15685 
   15807    15603    15373    15392    15604    15646    15447    15426 
   15830    16278    16202    15678    15357    15515    15867    16025 
   15687    15033    14733    15086    15643    15800    15523    15252 
   15257    15515    15857    15974    15657    15176    15082    15499 
   16009    16195    16005    15716    15610    15628    15545    15353 
   15222    15248    15396    15632    15811    15723    15535    15624 
   15958    16129    15970    15700    15395    15018    14912    15321 
   15888    16147    16032    15743    15454    15295    15388    15531 
   15329    14858    14690    15134    15832    16162    15835    15130 
   14694    14940    15576    15928    15776    15502    15526    15811 
   15939    15772    15614    15660    15816    15886    15823    15811 
   15839    15745    15550    15373    15434    15797    15992    15561 
   14806    14547    15049    15654    15807    15698    15664    15746 
   15846    15867    15804    15721    15631    15490    15337    15410 
   15790    15979    15475    14619    14234    14704    15620    16293 
   16511    16426    16262    16240    16279    16154    15913    15836 
   16092    16482    16515    15840    14720    13930    13964    14623 
   15396    15892    15882    15534    15444    15927    16644    17011 
   16803    16318    15761    15070    14548    14727    15525    16063 
   15597    14499    13716    13757    14588    15723    16357    16077 
   15503    15574    16336    17047    17107    16464    15496    14863 
   14972    15369    15250    14512    13921    14189    15121    16032 
   16486    16294    15688    15358    15603    16005    16235    16330 
   16218    15695    14906    14447    14608    14889    14929    15072 
   15454    15688    15657    15727    15994    16025    15770    15754 
   16056    16166    15990    15923    16036    16020    15691    15218 
   14852    14648    14561    14604    14932    15510    15996    16174 
   16031    15700    15520    15853    16696    17490    17612    17026 
   16225    15730    15604    15522    15282    14899    14551    14543 
   14877    15187    15109    14625    14307    14759    15884    16951 
   17207    16525    15479    14929    15392    16328    16690    16127 
   15083    14330    14368    14925    15338    15288    14972    14836 
   15047    15298    15424    15703    16316    16903    16840    16135 
   15507    15407    15597    15693    15622    15384    14985    14731 
   15014    15820    16553    16544    15890    15302    15269    15581 
   15631    15271    14937    15034    15527    15880    15638    15082 
   14820    15095    15643    15986    15949    15858    16085    16454 
   16386    15772    15149    15090    15678    16195    15836    14887 
   14345    14632    15288    15684    15700    15781    16451    17443 
   17793    17132    16109    15445    15282    15334    15242    14746 
   13948    13529    13952    14790    15364    15426    15217    15248 
   15853    16808    17482    17475    16819    15701    14585    14119 
   14539    15303    15615    15348    14998    15009    15483    16166 
   16555    16217    15333    14763    15129    16078    16660    16168 
   14955    14292    14949    16291    17109    16808    15723    14742 
   14557    15163    15959    16260    15972    15566    15462    15618 
   15649    15479    15248    14870    14523    14638    15138    15531 
   15604    15592    15795    16171    16440    16478    16416    16428 
   16511    16492    16160    15449    14725    14620    15257    15905 
   15649    14604    13979    14496    15626    16426    16402    15815 
   15338    15388    15889    16306    16160    15704    15490    15610 
   15817    15894    15741    15384    14994    14813    14893    15095 
   15352    15561    15680    15827    15906    15687    15325    15218 
   15422    15688    15861    15772    15429    15246    15442    15658 
   15504    15105    14878    14991    15475    16182    16565    16341 
   15862    15490    15287    15203    15276    15488    15647    15608 
   15465    15533    16019    16549    16533    15984    15422    15103 
   14963    15095    15483    15606    15221    14944    15219    15627 
   15758    15709    15592    15438    15446    15673    15774    15646 
   15687    15977    16066    15747    15388    15495    16063    16514 
   16414    15925    15399    15074    15145    15527    15769    15549 
   15007    14577    14566    14922    15427    15859    16060    16054 
   15850    15435    15205    15643    16431    16657    16031    15284 
   15165    15620    16033    15840    15206    15012    15682    16530 
   16586    15777    15029    15018    15430    15601    15317    14835 
   14578    14797    15291    15643    15703    15678    15881    16252 
   16363    16058    15651    15419    15396    15534    15525    15006 
   14298    14133    14725    15680    16398    16497    16206    16132 
   16413    16474    15992    15419    15199    15195    15151    15167 
   15298    15307    15206    15210    15323    15526    15866    16313 
   16584    16401    15988    15773    15807    15789    15363    14608 
   14095    14277    15120    16015    16228    15695    15090    15067 
   15604    16220    16571    16522    16206    15971    16015    16222 
   16168    15601    14920    14547    14504    14747    15149    15471 
   15601    15718    16086    16548    16729    16590    16195    15566 
   14952    14686    14793    15014    15222    15367    15229    14850 
   14663    14831    15238    15728    16011    16017    16106    16478 
   16837    16860    16548    15985    15209    14450    14060    14148 
   14544    15047    15496    15807    16066    16294    16359    16276 
   16094    15809    15550    15433    15485    15688    15878    15862 
   15604    15305    15155    15101    15099    15132    15172    15422 
   15957    16421    16559    16339    15842    15418    15294    15294 
   15269    15219    15179    15130    15097    15307    15754    16000 
   15782    15404    15512    16236    16803    16556    15813    15319 
   15334    15537    15560    15327    14985    14743    14763    15103 
   15731    16279    16260    15823    15533    15577    15750    15807 
   15599    15157    14818    15049    15715    16077    15813    15403 
   15426    15830    16062    15784    15267    15045    15299    15718 
   15927    15796    15462    15336    15654    15997    15906    15588 
   15480    15622    15741    15751    15730    15603    15295    14868 
   14550    14763    15538    16144    16027    15579    15457    15761 
   16136    16299    16119    15643    15223    15233    15597    15871 
   15871    15803    15834    15850    15595    15093    14763    14881 
   15239    15516    15552    15388    15226    15250    15526    15876 
   15997    15888    15880    16151    16365    16104    15492    14955 
   14760    14944    15275    15479    15543    15658    15896    16004 
   15849    15728    15747    15588    15219    15047    15315    15792 
   16027    15840    15506    15387    15529    15715    15858    16011 
   16038    15815    15546    15496    15631    15789    15832    15531 
   14878    14439    14752    15472    15711    15311    14945    15013 
   15390    15873    16222    16268    16069    15865    15847    15882 
   15807    15757    15807    15830    15709    15546    15490    15325 
   14851    14446    14629    15348    15998    16140    15866    15499 
   15334    15496    15828    16044    15982    15716    15483    15404 
   15371    15206    15009    15239    15970    16506    16382    15967 
   15680    15446    15214    15103    15138    15333    15709    16005 
   15828    15333    15113    15326    15611    15687    15632    15711 
   16019    16343    16383    16028    15450    15026    14998    15192 
   15277    15176    15020    14918    15014    15460    16087    16436 
   16179    15417    14762    14868    15618    16297    16569    16606 
   16453    15994    15408    15048    14929    14913    15040    15218 
   15213    15183    15529    16087    16248    15867    15411    15327 
   15665    16168    16587    16711    16387    15665    14840    14396 
   14577    15002    15140    14912    14632    14714    15290    16054 
   16561    16573    16299    16244    16510    16627    16239    15539 
   15051    14972    15012    14908    14666    14551    14965    15873 
   16521    16258    15516    15291    15738    16152    16190    16160 
   16183    15952    15400    14889    14627    14554    14760    15269 
   15700    15763    15712    15832    15984    16025    16098    16152 
   15917    15430    15107    15203    15471    15490    15186    14882 
