Origin Time       2018/06/17 15:27:00
Lat.              36.455
Long.             139.172
Depth. (km)       14
Mag.              4.6
Station Code      IBR001
Station Lat.      36.7761
Station Long.     140.3569
Station Height(m) 105
Record Time       2018/06/17 15:27:54
Sampling Freq(Hz) 100Hz
Duration Time(s)  65
Dir.              E-W
Scale Factor      7845(gal)/8223790
Max. Acc. (gal)   4.392
Last Correction   2018/06/17 15:27:53
Memo.             
[...]
    -246     -244     -240     -241     -246     -251     -249     -245 
    -241     -243     -243     -243     -245     -248     -246     -245 
    -244     -245     -245     -248     -248     -244     -245     -249 
    -248     -243     -240     -241     -243     -248     -249     -243 
    -240     -244     -248     -248     -244     -243     -246     -248 
    -245     -244     -245     -246     -246     -245     -245     -245 
    -241     -243     -248     -248     -244     -243     -245     -248 
    -248     -248     -246     -246     -251     -251     -248     -251 
    -256     -259     -259     -256     -259     -263     -265     -266 
    -266     -263     -268     -276     -275     -271     -270     -266 
    -266     -268     -265     -265     -265     -259     -253     -248 
    -238     -233     -230     -224     -220     -214     -211     -212 
    -210     -201     -195     -207     -232     -255     -259     -251 
    -255     -270     -280     -291     -306     -319     -333     -332 
    -292     -220     -153     -140     -171     -202     -209     -190 
    -157     -131     -125     -121      -95      -63      -76     -156 
    -251     -280     -230     -180     -221     -321     -355     -314 
    -321     -409     -468     -434     -346     -272     -280     -360 
    -373     -241     -101      -79      -98      -47       17      -60 
    -303     -461     -309      -43       -5     -139     -214     -263 
    -326     -295     -211     -191     -186     -153     -172     -351 
    -666     -838     -664     -417     -409     -553     -646     -584 
    -367     -151      -64      -16      112      313      441      307 
      -8     -167      -41      164      199      -16     -356     -625 
    -792     -939    -1000     -869     -637     -472     -367     -266 
    -263     -417     -510     -318      -29       47      -11       13 
      97       94        1      -39        8        8      -47      -71 
    -156     -325     -306      -74      -60     -434     -772     -738 
    -504     -390     -464     -568     -513     -266       -4       59 
     -72     -141       17      199       82     -268     -464     -372 
    -256     -298     -414     -538     -616     -568     -487     -440 
    -263       37      233      284      295      183      -82     -263 
    -249     -201     -266     -444     -608     -654     -602     -481 
    -332     -255     -197      -43       23     -144     -278     -221 
    -163     -186     -286     -468     -581     -571     -573     -585 
    -453     -136      224      378      253      106       82       51 
     -79     -255     -322     -253     -230     -342     -544     -749 
    -791     -623     -448     -380     -294     -156     -109      -99 
       5       89       56      -10      -99     -175     -162     -178 
    -325     -488     -532     -425     -289     -284     -363     -418 
    -444     -387     -205      -35      -17      -79     -103     -116 
    -122      -41       41      -43     -167     -122      -81     -306 
    -673     -853     -692     -326     -106     -230     -498     -633 
    -622     -577     -538     -415     -149       74       47      -59 
     -37       52      151      190      144      194      311      193 
    -178     -525     -631     -506     -421     -587     -845     -958 
    -892     -714     -479     -259      -98       72      271      349 
     237       16     -131      -56       14     -214     -523     -607 
    -558     -519     -529     -562     -463     -186       25        8 
     -78       18      279      406      187     -183     -376     -422 
    -514     -598     -608     -603     -589     -606     -619     -469 
    -216      -94     -120     -137      -59       65       13     -266 
    -407     -229      -11       28      -70     -187     -211     -163 
    -157     -175     -116      -43      -71     -144     -268     -503 
    -722     -859     -974     -919     -673     -522     -464     -263 
      40      337      553      514      263       94       13     -133 
    -278     -317     -302     -365     -538     -735     -901     -969 
    -827     -537     -284      -81      175      429      565      564 
     405      140      -65     -144     -190     -315     -522     -695 
    -743     -724     -727     -745     -746     -693     -585     -508 
    -423     -216      -29      -32      -64       -2        5      -49 
     -47      -36       -8      118      266      388      454      359 
     144      -39     -155     -283     -521     -818     -981     -909 
    -761     -747     -818     -795     -666     -513     -406     -363 
    -225      136      476      440      159       65      162      114 
    -102     -280     -334     -294     -294     -402     -481     -475 
    -406     -203      -14      -78     -241     -321     -383     -400 
    -403     -515     -552     -409     -336     -344     -249     -190 
    -261     -263     -170      -54      162      344      283       51 
    -198     -326     -352     -499     -712     -753     -680     -610 
    -523     -436     -382     -363     -282      -32      198      147 
       8      126      402      538      386      -22     -422     -653 
    -870    -1096    -1125     -885     -487     -131       -8      -94 
    -139       10      170      136       31        4      -14      -70 
    -140     -216     -297     -472     -715     -749     -529     -369 
    -352     -259      -32      171      240      190       52     -137 
    -299     -425     -525     -496     -421     -545     -719     -619 
    -337     -164     -224     -422     -491     -275      -18       16 
     -51      -82      -91      -91     -178     -460     -750     -741 
    -418      -76       28      -51      -23      225      449      378 
      55     -228     -256     -163     -261     -553     -687     -525 
    -425     -699    -1050    -1026     -688     -351     -116        5 
      10       13      102      229      321      307      143      -71 
    -243     -460     -722     -868     -837     -631     -351     -214 
    -190     -106      -89     -206     -205       28      319      480 
     395      112     -151     -253     -298     -453     -664     -750 
    -706     -641     -566     -487     -498     -531     -376      -79 
      68      -31     -210     -317     -299     -153       37      167 
     170       17     -197     -271     -211     -240     -399     -454 
    -291      -87      -98     -406     -726     -685     -340      -65 
     -62     -206     -287     -259     -240     -272     -321     -322 
    -228     -117     -129     -307     -568     -730     -645     -399 
    -209     -149     -141     -141     -141     -112      -71      -51 
     -25       65      205      255      103     -140     -303     -418 
    -540     -576     -495     -388     -352     -422     -515     -486 
    -395     -415     -468     -334      -43      121       39     -129 
    -205     -141      -90     -157     -248     -319     -427     -558 
    -615     -552     -415     -238      -63       25       18      -59 
    -193     -279     -270     -245     -141       74      139      -27 
    -160     -207     -333     -514     -553     -333       23      252 
     143     -279     -724     -851     -637     -409     -405     -467 
    -422     -346     -333     -367     -311      -60      195      259 
     182       89       47       10      -78     -151     -152     -184 
    -338     -592     -858     -974     -847     -571     -263       16 
     172      126      -60     -183     -153      -91     -120     -268 
    -429     -425     -314     -309     -387     -445     -468     -403 
    -218      -45      -39     -121      -36      240      344       36 
    -427     -656     -616     -525     -503     -535     -514     -391 
    -280     -243     -183      -43      109      167      144      125 
      44     -135     -243     -225     -198     -241     -454     -796 
    -987     -927     -800     -675     -471     -274     -207     -187 
     -99       55      240      351      355      334      287      206 
     126      -63     -329     -400     -310     -291     -410     -684 
   -1009    -1105     -934     -688     -461     -256     -103      -45 
     -83      -86       85      252      121     -167     -230      -95 
    -103     -270     -302     -214     -266     -425     -475     -417 
    -376     -295      -90      105      133       -5     -186     -287 
    -368     -471     -475     -360     -284     -330     -409     -430 
    -407     -341     -212     -139     -203     -255     -144       29 
     101       13     -136     -246     -344     -473     -618     -714 
    -664     -395      -49       67     -103     -311     -325     -156 
     -14      -17      -76     -137     -221     -326     -445     -540 
    -491     -286      -86       51      109       -5     -210     -234 
     -20      229      280       18     -394     -642     -648     -658 
    -862    -1057     -965     -689     -519     -521     -508     -330 
     -32      295      661      907      818      560      394      261 
      90     -109     -414     -727     -858     -939    -1077    -1107 
   -1055    -1008     -864     -642     -407     -195     -162     -207 
      10      373      498      421      341      225       81        1 
     -54      -99      -23       76      -43     -380     -672     -673 
    -429     -338     -604     -909    -1000     -931     -747     -562 
    -498     -402     -102      265      499      529      360      175 
     268      546      569      205     -251     -553     -719     -858 
   -1000    -1088    -1078     -967     -747     -464     -240      -86 
      41      102       82       32       51      194      295      178 
     -13      -90      -58      -60     -211     -398     -429     -346 
    -287     -317     -446     -546     -484     -352     -322     -441 
    -591     -621     -535     -411     -246      -87      -18      -35 
    -109     -248     -334     -202        4       54        0      -40 
      -5       65      -54     -395     -672     -642     -390     -291 
    -488     -645     -510     -207       51      108      -47     -206 
    -230     -238     -330     -395     -324     -210     -167     -159 
    -152     -252     -575     -918     -881     -475      -75      140 
     230      274      297      246      117      -27     -241     -540 
    -646     -411     -187     -330     -699     -880     -737     -515 
    -454     -502     -430     -167      149      368      413      356 
     318      255       83     -151     -317     -334     -302     -344 
    -349     -222     -167     -367     -680     -855     -808     -657 
    -592     -657     -684     -619     -553     -440     -253     -137 
     -63      116      383      648      756      600      329      110 
     -32      -70     -128     -372     -681     -885     -939     -873 
    -824     -811     -660     -383     -263     -372     -448     -283 
      81      492      789      777      388     -125     -410     -446 
    -522     -714     -766     -577     -379     -395     -573     -704 
    -680     -518     -259      -52      -58     -152      -89      109 
     282      340      217      -32     -222     -251     -216     -234 
    -297     -301     -207     -176     -391     -722     -828     -642 
    -376     -212     -253     -417     -479     -422     -311      -90 
     112       98       41      199      432      379      -29     -403 
    -425     -257     -255     -612    -1142    -1323     -897     -302 
    -194     -518     -583     -139      355      445      218       95 
     268      522      532      183     -357     -734     -750     -627 
    -639     -757     -824     -793     -666     -406      -91       47 
     -49     -222     -295     -222     -121      -75      -32        9 
     -20     -156     -369     -531     -464     -232      -52      101 
     256      230       41     -109     -222     -361     -457     -421 
    -353     -477     -778     -939     -834     -661     -484     -225 
       5      103      131      153      190      259      337      375 
     298       79     -222     -556     -853    -1020    -1053     -950 
    -741     -579     -523     -410     -183       11      125      241 
     344      363      287      178       81      -49     -182     -203 
    -220     -477     -958    -1278    -1140     -735     -467     -437 
    -387      -91      229      189     -129     -295     -147       85 
     125      -78     -298     -332     -282     -318     -479     -704 
    -787     -571     -228      -23        5      -63     -121       -5 
     135      -22     -336     -471     -449     -315     -135     -155 
    -333     -423     -444     -407     -271     -198     -234     -172 
      32      310      576      556      212     -102     -302     -483 
    -531     -477     -533     -677     -783     -819     -691     -396 
    -237     -359     -453     -278       67      380      445      180 
    -225     -588     -810     -882     -993    -1206    -1262    -1053 
    -767     -502     -205      270     1026     1846     2288     2218 
    1925     1568     1057      506      178      106        5     -571 
   -1777    -3046    -3555    -3144    -2363    -1609     -708      390 
    1166     1161      584       71       -1      180      152     -375 
   -1246    -2074    -2698    -3119    -3129    -2471    -1332     -265 
     325      564      924     1732     2840     3743     4197     4359 
    4067     2948     1270     -236    -1221    -1852    -2417    -3063 
   -3661    -4074    -4437    -4746    -4629    -3669    -1880      116 
    1505     2010     1977     1682     1236     1042     1316     1610 
    1408      679      -39     -228     -178     -395     -631     -499 
    -114      370      889     1212     1165      853      569      454 
     313      -82     -741    -1506    -2111    -2323    -2172    -1984 
   -1937    -1752    -1192     -491       82      549      857      965 
    1109     1389     1497     1192      657      131     -467    -1219 
   -1806    -1962    -1958    -2062    -1958    -1413     -831     -506 
    -133      594     1401     1677     1200      454       75       58 
     -18     -205     -351     -523     -803    -1259    -1826    -2029 
   -1521     -656       13      325      425      526      743      913 
     896      837      760      542      220     -189     -548     -525 
    -159      122       25     -587    -1487    -1917    -1560    -1058 
    -915    -1090    -1333    -1209     -677     -198      106      344 
     508      791     1255     1587     1641     1547     1420     1382 
    1227      441     -778    -1745    -2297    -2511    -2525    -2632 
   -2640    -2173    -1422     -814     -454      -43      799     1831 
    2334     2141     1811     1621     1285      603     -487    -1840 
   -2899    -3438    -3677    -3430    -2521    -1503     -870     -378 
     484     1736     2758     3157     3169     2995     2782     2772 
    2681     1787       41    -1691    -2592    -2896    -3507    -4342 
   -4332    -3115    -1418     -263     -140     -481     -390      386 
    1414     2025     2034     1753     1339      708      -85     -666 
    -846     -943    -1179    -1502    -1840    -1938    -1574     -795 
     268     1219     1509     1012       -1    -1012    -1393     -882 
     120      928     1109      670      -22     -537     -691     -635 
    -621     -672     -566     -275     -139     -405     -853    -1155 
   -1217    -1038     -706     -442     -359     -328     -121      425 
    1183     1702     1622     1111      575      121     -346     -843 
   -1314    -1597    -1561    -1399    -1339    -1399    -1551    -1621 
   -1431    -1113     -630      297     1452     2276     2623     2671 
    2492     2085     1502      743      -81     -692     -966    -1036 
   -1291    -2123    -3226    -3667    -3140    -2384    -2010    -1845 
   -1391     -378      907     1949     2567     2768     2583     2177 
    1580      685     -314    -1063    -1341    -1190    -1093    -1378 
   -1672    -1632    -1444    -1224     -733       76      869     1367 
    1598     1586     1229      542     -257     -922    -1304    -1394 
   -1296    -1232    -1350    -1498    -1551    -1464    -1175     -876 
    -685     -367      118      611     1005     1182     1250     1402 
    1428     1111      841     1015     1242      824      -86     -643 
    -696     -900    -1491    -2110    -2492    -2620    -2484    -2069 
   -1516    -1004     -558      -54      584     1144     1351     1260 
    1109     1069     1127      996      490     -116     -568     -951 
   -1194    -1097     -838     -739     -918    -1142     -909     -259 
     206      305      280      270      326      388      178     -317 
    -634     -623     -662     -704     -419      -70     -110     -506 
    -800     -598      -91      129     -129     -471     -456     -178 
    -140     -569    -1059     -965     -166      737     1086      903 
     724      695      469       51     -199     -230     -275     -548 
   -1063    -1545    -1787    -1887    -1869    -1557    -1070     -823 
    -720     -256      549     1343     1907     2053     1746     1107 
     398       54       95       44     -170     -246     -333     -838 
   -1655    -2205    -2173    -1786    -1331     -761      -27      596 
     808      560       58     -395     -715     -992    -1111     -913 
    -542     -183      240      750     1005      662     -120     -654 
    -410      294      803      966      886      565       25     -765 
   -1632    -2026    -1881    -1674    -1455    -1044     -589     -203 
      63      171      365      715      903      842      715      614 
     532      326     -162     -785    -1300    -1644    -1763    -1669 
   -1470     -994      -41     1051     1687     1703     1375      938 
     525      178      -91     -178     -216     -472     -855    -1111 
   -1148    -1104    -1210    -1364    -1235     -838     -440     -128 
     159      449      602      463      133     -195     -433     -506 
    -487     -532     -610     -498     -228     -233     -614     -889 
    -791     -530     -363     -319     -236      -22      207      422 
     648      679      425      202      225      378      387      -32 
    -810    -1428    -1494    -1113     -643     -456     -770    -1185 
   -1028     -460     -102      -32       56      436     1020     1287 
     853       25     -550     -612     -395     -295     -436     -573 
    -576     -561     -522     -344     -102       27       32      -67 
    -295     -413     -255     -149     -380     -696     -684     -418 
    -391     -634     -683     -405       49      576      837      606 
     222       43       17      -37     -220     -486     -594     -402 
    -199     -344     -737    -1047    -1185    -1304    -1428    -1310 
    -784      -29      540      723      792      866      594       -5 
    -338     -155      120      162      124      128       -4     -394 
    -812     -924     -826     -913    -1291    -1605    -1371     -579 
     121      124     -301     -321      193      461      184     -117 
    -144      -44       75      211      313      299      270      329 
