Origin Time       2018/06/17 15:27:00
Lat.              36.455
Long.             139.172
Depth. (km)       14
Mag.              4.6
Station Code      IBR001
Station Lat.      36.7761
Station Long.     140.3569
Station Height(m) 105
Record Time       2018/06/17 15:27:54
Sampling Freq(Hz) 100Hz
Duration Time(s)  65
Dir.              N-S
Scale Factor      7845(gal)/8223790
Max. Acc. (gal)   4.697
Last Correction   2018/06/17 15:27:53
Memo.             
[...]
   -2747    -2772    -2759    -2677    -2614    -2641    -2682    -2658 
   -2619    -2650    -2712    -2724    -2652    -2528    -2458    -2504 
   -2605    -2677    -2717    -2743    -2758    -2799    -2832    -2775 
   -2695    -2740    -2926    -3102    -3114    -2957    -2778    -2706 
   -2733    -2770    -2743    -2647    -2558    -2550    -2594    -2575 
   -2428    -2313    -2425    -2650    -2744    -2690    -2605    -2592 
   -2654    -2698    -2714    -2805    -2960    -3059    -3028    -2929 
   -2830    -2727    -2679    -2767    -2901    -2907    -2764    -2616 
   -2525    -2417    -2322    -2357    -2512    -2685    -2797    -2811 
   -2756    -2705    -2748    -2825    -2759    -2613    -2663    -2905 
   -3041    -2971    -2785    -2529    -2396    -2573    -2825    -2808 
   -2596    -2471    -2533    -2691    -2799    -2797    -2770    -2828 
   -2941    -2956    -2805    -2606    -2490    -2501    -2625    -2762 
   -2813    -2779    -2701    -2620    -2533    -2386    -2241    -2365 
   -2833    -3223    -3237    -3118    -3073    -2965    -2758    -2640 
   -2652    -2644    -2552    -2455    -2440    -2470    -2482    -2519 
   -2589    -2658    -2767    -2882    -2890    -2855    -2813    -2662 
   -2567    -2712    -2862    -2808    -2710    -2732    -2766    -2714 
   -2685    -2737    -2702    -2546    -2512    -2629    -2686    -2668 
   -2688    -2739    -2772    -2744    -2636    -2531    -2505    -2586 
   -2787    -3007    -3125    -3144    -3056    -2860    -2663    -2535 
   -2474    -2477    -2501    -2551    -2624    -2614    -2498    -2427 
   -2502    -2640    -2759    -2847    -2835    -2785    -2841    -2959 
   -3030    -3030    -2925    -2758    -2635    -2563    -2473    -2370 
   -2381    -2584    -2852    -3021    -3001    -2762    -2528    -2542 
   -2660    -2685    -2682    -2776    -2914    -2930    -2808    -2691 
   -2625    -2550    -2543    -2654    -2747    -2820    -2896    -2840 
   -2706    -2725    -2896    -2997    -2891    -2679    -2479    -2297 
   -2157    -2111    -2196    -2404    -2644    -2843    -3011    -3126 
   -3083    -2906    -2871    -3090    -3245    -3138    -3009    -2994 
   -2902    -2605    -2253    -2045    -2064    -2253    -2446    -2497 
   -2458    -2544    -2774    -2938    -2990    -2986    -2910    -2808 
   -2803    -2971    -3090    -2886    -2563    -2435    -2455    -2508 
   -2528    -2486    -2420    -2427    -2647    -2970    -3121    -3090 
   -3018    -2975    -2940    -2857    -2718    -2481    -2211    -2153 
   -2335    -2525    -2640    -2762    -2882    -2876    -2797    -2825 
   -2903    -2863    -2776    -2825    -2963    -2947    -2808    -2764 
   -2743    -2598    -2428    -2354    -2385    -2485    -2582    -2633 
   -2702    -2840    -2956    -2952    -2802    -2574    -2430    -2457 
   -2627    -2844    -2957    -2955    -2925    -2829    -2658    -2579 
   -2671    -2759    -2808    -2933    -3036    -2986    -2853    -2702 
   -2535    -2338    -2120    -1999    -2102    -2392    -2708    -2911 
   -3015    -3084    -3063    -2959    -2889    -2857    -2789    -2679 
   -2610    -2644    -2725    -2766    -2714    -2601    -2538    -2574 
   -2700    -2889    -3029    -2967    -2710    -2494    -2501    -2625 
   -2666    -2578    -2486    -2438    -2351    -2303    -2404    -2571 
   -2795    -3057    -3183    -3167    -3146    -3156    -3083    -2837 
   -2614    -2592    -2612    -2583    -2532    -2434    -2378    -2459 
   -2582    -2623    -2593    -2616    -2710    -2847    -3076    -3338 
   -3423    -3267    -3041    -2821    -2489    -2173    -2121    -2297 
   -2539    -2733    -2844    -2882    -2789    -2586    -2370    -2178 
   -2146    -2336    -2579    -2778    -2992    -3163    -3129    -2953 
   -2853    -2837    -2817    -2805    -2830    -2925    -3028    -2988 
   -2849    -2795    -2859    -2866    -2621    -2259    -2128    -2254 
   -2389    -2466    -2538    -2558    -2558    -2609    -2582    -2439 
   -2350    -2396    -2616    -2963    -3245    -3362    -3335    -3252 
   -3175    -3024    -2721    -2349    -2158    -2327    -2578    -2546 
   -2393    -2411    -2519    -2574    -2628    -2717    -2782    -2768 
   -2712    -2720    -2833    -3022    -3180    -3161    -3044    -3010 
   -2967    -2833    -2691    -2575    -2552    -2740    -3026    -3137 
   -2978    -2691    -2502    -2475    -2431    -2227    -1996    -1935 
   -2046    -2182    -2222    -2241    -2420    -2721    -2999    -3237 
   -3395    -3402    -3380    -3437    -3451    -3377    -3319    -3246 
   -3049    -2701    -2293    -2019    -1953    -2001    -2077    -2144 
   -2205    -2316    -2506    -2695    -2789    -2772    -2700    -2700 
   -2866    -3053    -3094    -3038    -2964    -2947    -2983    -2926 
   -2825    -2813    -2743    -2536    -2411    -2506    -2681    -2710 
   -2598    -2511    -2486    -2543    -2682    -2721    -2540    -2326 
   -2328    -2539    -2740    -2817    -2848    -2890    -2906    -2901 
   -2879    -2795    -2732    -2839    -3044    -3171    -3145    -2944 
   -2650    -2436    -2361    -2413    -2598    -2790    -2840    -2791 
   -2771    -2748    -2593    -2347    -2250    -2420    -2693    -2837 
   -2785    -2633    -2539    -2644    -2914    -3109    -3103    -2907 
   -2669    -2678    -2866    -2851    -2663    -2647    -2836    -2963 
   -2863    -2600    -2369    -2257    -2155    -2130    -2311    -2533 
   -2712    -2874    -2949    -2972    -2971    -2944    -2957    -2979 
   -3002    -3059    -3100    -3073    -2975    -2798    -2536    -2312 
   -2269    -2316    -2374    -2493    -2589    -2532    -2357    -2235 
   -2319    -2539    -2681    -2695    -2737    -2830    -2891    -3011 
   -3200    -3238    -3115    -3029    -3069    -3172    -3055    -2633 
   -2324    -2343    -2463    -2543    -2562    -2504    -2413    -2300 
   -2274    -2482    -2732    -2795    -2818    -3003    -3248    -3265 
   -2953    -2565    -2396    -2469    -2667    -2901    -3030    -2967 
   -2786    -2562    -2390    -2366    -2431    -2523    -2633    -2709 
   -2733    -2740    -2783    -2886    -3022    -3078    -2944    -2729 
   -2570    -2447    -2377    -2404    -2466    -2461    -2466    -2651 
   -2905    -2963    -2852    -2825    -2947    -3067    -3134    -3177 
   -3127    -3013    -2920    -2776    -2506    -2219    -2143    -2303 
   -2457    -2458    -2349    -2249    -2270    -2396    -2552    -2697 
   -2781    -2835    -2926    -3030    -3067    -2995    -2918    -2976 
   -3082    -3065    -2955    -2809    -2631    -2486    -2475    -2565 
   -2663    -2758    -2847    -2871    -2763    -2556    -2374    -2289 
   -2335    -2474    -2536    -2492    -2465    -2489    -2550    -2709 
   -2979    -3164    -3134    -3011    -2891    -2824    -2857    -2893 
   -2882    -2906    -2922    -2875    -2792    -2678    -2558    -2539 
   -2648    -2764    -2828    -2857    -2782    -2582    -2369    -2205 
   -2111    -2158    -2328    -2421    -2373    -2455    -2772    -3009 
   -2986    -2944    -3102    -3292    -3283    -3142    -3036    -2983 
   -2909    -2786    -2687    -2633    -2533    -2358    -2247    -2285 
   -2370    -2451    -2524    -2554    -2579    -2652    -2805    -2999 
   -3095    -3036    -2820    -2571    -2559    -2821    -3087    -3136 
   -2961    -2691    -2489    -2451    -2528    -2613    -2632    -2590 
   -2621    -2725    -2706    -2521    -2276    -2133    -2277    -2678 
   -3100    -3284    -3144    -2913    -2763    -2710    -2775    -2818 
   -2805    -2878    -2943    -2882    -2778    -2648    -2497    -2424 
   -2474    -2586    -2677    -2702    -2656    -2597    -2656    -2822 
   -2853    -2733    -2768    -2905    -2802    -2546    -2401    -2366 
   -2424    -2621    -2851    -2938    -2895    -2893    -2926    -2859 
   -2794    -2855    -2868    -2782    -2837    -2986    -2880    -2523 
   -2269    -2250    -2354    -2569    -2790    -2790    -2682    -2724 
   -2786    -2709    -2639    -2681    -2736    -2732    -2732    -2744 
   -2659    -2539    -2571    -2718    -2763    -2654    -2584    -2677 
   -2783    -2763    -2691    -2698    -2740    -2768    -2889    -3009 
   -2887    -2624    -2496    -2539    -2563    -2508    -2533    -2652 
   -2758    -2867    -2952    -2914    -2836    -2841    -2855    -2747 
   -2587    -2563    -2717    -2901    -2975    -2860    -2604    -2444 
   -2492    -2551    -2515    -2524    -2629    -2762    -2906    -2882 
   -2583    -2343    -2390    -2554    -2652    -2683    -2762    -2955 
   -3107    -3048    -2920    -2898    -2891    -2847    -2798    -2759 
   -2736    -2671    -2571    -2521    -2494    -2485    -2490    -2461 
   -2409    -2369    -2424    -2644    -2880    -2967    -2956    -2986 
   -3084    -3165    -3117    -2898    -2662    -2579    -2636    -2749 
   -2801    -2714    -2606    -2592    -2623    -2636    -2624    -2640 
   -2678    -2623    -2497    -2438    -2455    -2493    -2590    -2748 
   -2786    -2617    -2466    -2533    -2779    -3056    -3217    -3172 
   -2982    -2898    -3002    -3053    -2951    -2808    -2693    -2604 
   -2559    -2608    -2610    -2389    -2096    -1965    -2085    -2389 
   -2628    -2709    -2778    -2837    -2803    -2745    -2740    -2771 
   -2833    -2921    -2971    -2988    -3036    -3082    -3057    -2978 
   -2932    -2910    -2795    -2610    -2546    -2666    -2843    -2937 
   -2835    -2457    -1982    -1740    -1764    -1878    -2026    -2209 
   -2425    -2666    -2863    -2967    -2978    -2915    -2911    -3107 
   -3481    -3852    -4003    -3865    -3586    -3308    -2995    -2625 
   -2319    -2155    -2084    -2072    -2064    -1988    -1923    -1985 
   -2168    -2367    -2490    -2544    -2567    -2602    -2789    -3094 
   -3160    -2959    -2925    -3126    -3221    -3142    -3088    -3117 
   -3096    -3013    -3036    -3106    -2886    -2403    -2134    -2249 
   -2381    -2299    -2185    -2223    -2380    -2532    -2546    -2452 
   -2442    -2578    -2743    -2868    -2990    -3092    -3086    -3053 
   -3114    -3103    -2928    -2791    -2721    -2608    -2587    -2685 
   -2624    -2451    -2479    -2669    -2770    -2697    -2504    -2354 
   -2444    -2720    -2893    -2878    -2799    -2712    -2721    -2843 
   -2802    -2592    -2569    -2795    -2967    -2913    -2752    -2669 
   -2694    -2705    -2667    -2650    -2565    -2386    -2347    -2521 
   -2712    -2789    -2763    -2775    -2910    -2953    -2759    -2573 
   -2612    -2778    -2903    -2991    -3095    -3136    -3044    -2882 
   -2663    -2326    -2019    -2015    -2276    -2529    -2633    -2619 
   -2656    -2786    -2826    -2820    -2933    -3045    -3010    -2991 
   -3103    -3122    -2928    -2744    -2721    -2740    -2632    -2370 
   -2110    -2074    -2286    -2515    -2636    -2810    -3046    -3117 
   -2999    -2860    -2690    -2465    -2367    -2540    -2847    -3036 
   -3038    -2880    -2610    -2366    -2273    -2338    -2533    -2810 
   -3048    -3123    -3092    -3052    -2944    -2736    -2582    -2523 
   -2413    -2295    -2270    -2269    -2369    -2575    -2617    -2475 
   -2389    -2505    -2668    -2569    -2358    -2469    -2843    -3129 
   -3211    -3172    -3130    -3171    -3273    -3381    -3483    -3487 
   -3291    -3045    -3003    -3123    -3084    -2825    -2681    -2729 
   -2659    -2296    -1779    -1435    -1417    -1571    -1752    -1826 
   -1765    -1788    -1926    -2074    -2367    -2816    -3198    -3440 
   -3601    -3655    -3647    -3690    -3694    -3524    -3249    -2984 
   -2833    -2801    -2731    -2509    -2236    -2230    -2708    -3427 
   -3929    -3971    -3700    -3416    -3261    -3237    -3292    -3226 
   -2843    -2284    -1761    -1223     -589       10      310      112 
    -421     -942    -1240    -1317    -1470    -1945    -2610    -3403 
   -4372    -5306    -5940    -6242    -6289    -6037    -5416    -4669 
   -4109    -3757    -3434    -2890    -1969     -955     -493     -838 
   -1485    -1811    -1831    -1919    -2058    -2134    -2338    -2674 
   -3025    -3395    -3485    -2913    -1904    -1063     -727     -986 
   -1710    -2354    -2509    -2420    -2477    -2718    -3056    -3601 
   -4425    -5277    -5875    -6091    -5752    -4814    -3715    -2903 
   -2556    -2820    -3271    -3022    -1867     -396      676     1046 
     862      256     -608    -1285    -1424    -1262    -1331    -1711 
   -2180    -2660    -3198    -3874    -4441    -4525    -4287    -4055 
   -3927    -4045    -4500    -5030    -5277    -4969    -3906    -2511 
   -1688    -1621    -1813    -2107    -2536    -2836    -2690    -1969 
    -873       32      259     -201     -850    -1258    -1679    -2421 
   -3106    -3474    -3674    -3734    -3801    -4064    -4365    -4700 
   -5267    -5680    -5265    -4159    -3241    -2957    -2953    -2847 
   -2613    -2295    -1972    -1850    -2007    -2126    -1906    -1485 
   -1301    -1822    -2860    -3364    -2752    -1692    -1102    -1167 
   -1605    -2162    -2502    -2442    -2317    -2434    -2710    -2967 
   -3032    -3003    -3314    -4039    -4762    -5092    -4984    -4841 
   -5103    -5485    -5271    -4286    -2909    -1719    -1086     -665 
     -58      550     1011     1356     1329      715     -120     -739 
   -1290    -1984    -2716    -3469    -4368    -5463    -6600    -7406 
   -7550    -7094    -6465    -5823    -4877    -3607    -2560    -1972 
   -1422     -661      190     1023     1729     2215     2114      911 
    -950    -2253    -2512    -2408    -2752    -3750    -5244    -6689 
   -7398    -7391    -6881    -5845    -4761    -3902    -2820    -1624 
   -1086    -1435    -1971    -1811     -918       32      587      587 
     -18     -841    -1394    -1852    -2627    -3443    -3762    -3736 
   -3802    -3939    -4129    -4527    -4862    -4760    -4514    -4599 
   -4908    -5042    -4611    -3496    -2276    -1491    -1000     -741 
    -733     -646     -442     -560    -1050    -1436    -1417    -1124 
    -946    -1273    -2101    -3096    -3987    -4652    -4893    -4689 
   -4599    -4830    -4718    -4129    -3707    -3670    -3828    -4152 
   -4487    -4338    -3530    -2592    -1926    -1329     -735     -349 
      63      750     1219     1050      531      -51     -762    -1506 
   -2029    -2616    -3769    -5265    -6516    -7263    -7504    -7452 
   -7321    -6845    -5765    -4475    -3167    -1516      139      935 
     923      966     1262     1132      370     -484    -1256    -2157 
   -3138    -4168    -5246    -6029    -6300    -6146    -5544    -4492 
   -3245    -2060    -1059     -589     -967    -1699    -2085    -2270 
   -2605    -2721    -2326    -1892    -1806    -1984    -2458    -3272 
   -4059    -4286    -3880    -3218    -2681    -2613    -2928    -3092 
   -3028    -3021    -2952    -2648    -2323    -2097    -1998    -2215 
   -2597    -2748    -2623    -2411    -2327    -2370    -2392    -2527 
   -2685    -2447    -1991    -1859    -2062    -2269    -2417    -2656 
   -3048    -3499    -3757    -3715    -3569    -3462    -3426    -3478 
   -3315    -2749    -2195    -1791    -1312     -919     -864    -1321 
   -2353    -3384    -3875    -3997    -3905    -3622    -3464    -3604 
   -3701    -3414    -2903    -2529    -2304    -1979    -1498    -1169 
   -1217    -1428    -1663    -2107    -2740    -3327    -3755    -3951 
   -4085    -4515    -4918    -4652    -3943    -3210    -2479    -2010 
   -1885    -1779    -1625    -1422    -1251    -1525    -2110    -2342 
   -2174    -1989    -1930    -2191    -2970    -3847    -4132    -3784 
   -3348    -3269    -3496    -3544    -3141    -2693    -2718    -3098 
   -3284    -2986    -2448    -2110    -1942    -1674    -1466    -1532 
   -1705    -1875    -2165    -2504    -2654    -2683    -2766    -2843 
   -2875    -2844    -2799    -3038    -3685    -4379    -4618    -4093 
   -3087    -2315    -2030    -1949    -2022    -2403    -2779    -2828 
   -2752    -2740    -2617    -2087    -1417    -1366    -1875    -2331 
   -2632    -2849    -3014    -3144    -3184    -3273    -3515    -3731 
   -3649    -3235    -2847    -2776    -2974    -3133    -2961    -2610 
   -2301    -1877    -1366    -1038     -895     -884    -1360    -2590 
   -3986    -4766    -4823    -4334    -3595    -3069    -2986    -3227 
   -3504    -3639    -3539    -3133    -2654    -2220    -1513     -658 
    -268     -423     -828    -1545    -2605    -3510    -3870    -3991 
   -4232    -4383    -4113    -3582    -3107    -2567    -1926    -1705 
   -2047    -2371    -2432    -2571    -2789    -2792    -2685    -2683 
   -2830    -3060    -3145    -3075    -3146    -3304    -3080    -2394 
   -1799    -1722    -1927    -2124    -2394    -2650    -2705    -2782 
   -3006    -3167    -3156    -2965    -2737    -2654    -2687    -2913 
   -3342    -3566    -3341    -3029    -2938    -2786    -2349    -2029 
   -2072    -2061    -1861    -1876    -2195    -2492    -2625    -2650 
   -2538    -2390    -2520    -2940    -3333    -3609    -3731    -3445 
   -2875    -2578    -2717    -2952    -3005    -2882    -2702    -2582 
   -2666    -2895    -2936    -2720    -2501    -2401    -2409    -2533 
   -2646    -2550    -2448    -2704    -3076    -3130    -2893    -2494 
   -1956    -1471    -1336    -1624    -2058    -2367    -2660    -3103 
   -3541    -3790    -3755    -3343    -2799    -2635    -2936    -3280 
   -3329    -3094    -2752    -2473    -2366    -2371    -2166    -1628 
   -1175    -1200    -1699    -2498    -3200    -3523    -3734    -4016 
   -3994    -3474    -2872    -2651    -2759    -2855    -2895    -3053 
   -3219    -3159    -2890    -2517    -2137    -2041    -2290    -2475 
   -2444    -2411    -2454    -2612    -2915    -3180    -3241    -3105 
   -2952    -3006    -3126    -2976    -2674    -2605    -2766    -2786 
   -2485    -2077    -1895    -2043    -2269    -2286    -2328    -2739 
   -3238    -3362    -3177    -2971    -2748    -2451    -2303    -2338 
   -2232    -2029    -2104    -2543    -3107    -3427    -3361    -3165 
   -3075    -2980    -2629    -2146    -2050    -2469    -2901    -3090 
   -3232    -3219    -2948    -2786    -2801    -2695    -2620    -2894 
   -3327    -3551    -3445    -3001    -2266    -1601    -1460    -1688 
   -1821    -1907    -2189    -2506    -2546    -2354    -2215    -2349 
   -2808    -3275    -3364    -3106    -2774    -2629    -2791    -3306 
   -4112    -4692    -4556    -3944    -3326    -2809    -2326    -1902 
   -1618    -1455    -1416    -1614    -1906    -1975    -1779    -1456 
   -1259    -1478    -2034    -2598    -3083    -3542    -4040    -4629 
   -5120    -5256    -4966    -4351    -3666    -3080    -2571    -2205 
   -2037    -1949    -1899    -1968    -2124    -2020    -1321     -390 
     -60     -631    -1769    -3090    -4225    -4816    -4734    -4200 
   -3688    -3369    -3053    -2880    -3130    -3480    -3415    -2964 
   -2442    -1907    -1439    -1489    -2162    -2791    -2763    -2286 
   -1981    -1977    -1972    -2029    -2511    -3289    -3785    -3757 
   -3495    -3267    -2956    -2338    -1737    -1823    -2490    -3030 
   -3227    -3210    -3007    -2732    -2559    -2417    -2085    -1749 
   -1892    -2386    -2752    -2922    -2860    -2600    -2529    -2783 
