Origin Time       2014/07/12 04:22:00
Lat.              37.050
Long.             142.320
Depth. (km)       33
Mag.              7.0
Station Code      SIT002
Station Lat.      36.1476
Station Long.     139.3884
Station Height(m) 28
Record Time       2014/07/12 04:23:13
Sampling Freq(Hz) 100Hz
Duration Time(s)  117
Dir.              N-S
Scale Factor      7845(gal)/8223790
Max. Acc. (gal)   4.135
Last Correction   2014/07/12 04:23:13
Memo.             
[...]
  -10743   -10744   -10805   -10891   -10956   -10996   -11013   -10996 
  -10949   -10886   -10816   -10732   -10643   -10561   -10477   -10411 
  -10389   -10388   -10381   -10388   -10422   -10462   -10488   -10532 
  -10632   -10760   -10870   -10957   -11025   -11044   -11010   -10952 
  -10887   -10829   -10795   -10771   -10727   -10679   -10670   -10686 
  -10689   -10682   -10709   -10778   -10854   -10913   -10968   -11061 
  -11213   -11392   -11549   -11657   -11726   -11772   -11780   -11729 
  -11635   -11515   -11369   -11194   -10995   -10812   -10675   -10566 
  -10455   -10377   -10377   -10455   -10584   -10728   -10874   -11049 
  -11257   -11439   -11554   -11610   -11607   -11553   -11480   -11403 
  -11296   -11149   -11017   -10959   -10959   -10960   -10928   -10860 
  -10779   -10717   -10665   -10602   -10570   -10609   -10714   -10841 
  -10937   -10978   -10982   -10974   -10943   -10890   -10827   -10740 
  -10655   -10640   -10679   -10687   -10639   -10573   -10509   -10417 
  -10288   -10181   -10162   -10215   -10291   -10366   -10434   -10481 
  -10521   -10559   -10561   -10524   -10504   -10530   -10580   -10635 
  -10696   -10771   -10867   -10972   -11052   -11070   -11039   -11005 
  -10993   -10984   -10945   -10893   -10882   -10916   -10949   -10960 
  -10974   -11017   -11065   -11084   -11095   -11136   -11196   -11249 
  -11296   -11331   -11318   -11237   -11122   -10996   -10866   -10731 
  -10597   -10474   -10392   -10368   -10389   -10412   -10417   -10426 
  -10451   -10478   -10488   -10500   -10544   -10598   -10613   -10578 
  -10525   -10498   -10509   -10554   -10615   -10658   -10678   -10710 
  -10770   -10817   -10840   -10871   -10932   -10989   -10998   -10967 
  -10933   -10908   -10860   -10794   -10747   -10743   -10754   -10752 
  -10754   -10771   -10800   -10821   -10837   -10836   -10840   -10902 
  -11010   -11060   -11009   -10928   -10879   -10835   -10746   -10629 
  -10536   -10490   -10478   -10486   -10512   -10559   -10621   -10694 
  -10768   -10844   -10944   -11057   -11132   -11153   -11165   -11181 
  -11169   -11117   -11047   -10978   -10899   -10809   -10716   -10616 
  -10521   -10449   -10393   -10355   -10328   -10303   -10296   -10339 
  -10420   -10497   -10559   -10631   -10712   -10759   -10763   -10755 
  -10760   -10774   -10798   -10835   -10849   -10817   -10764   -10751 
  -10812   -10913   -10972   -10952   -10887   -10820   -10740   -10631 
  -10509   -10438   -10459   -10551   -10651   -10740   -10845   -10968 
  -11060   -11094   -11110   -11145   -11180   -11204   -11219   -11211 
  -11169   -11122   -11075   -11003   -10925   -10887   -10887   -10891 
  -10913   -10990   -11117   -11271   -11422   -11538   -11604   -11657 
  -11706   -11716   -11673   -11608   -11521   -11394   -11241   -11094 
  -10953   -10800   -10633   -10493   -10432   -10436   -10443   -10423 
  -10384   -10304   -10193   -10131   -10158   -10216   -10255   -10280 
  -10304   -10329   -10366   -10434   -10523   -10594   -10631   -10667 
  -10728   -10793   -10812   -10760   -10677   -10606   -10550   -10484 
  -10412   -10366   -10347   -10328   -10289   -10235   -10196   -10199 
  -10226   -10241   -10230   -10203   -10191   -10226   -10300   -10366 
  -10411   -10458   -10523   -10596   -10665   -10735   -10827   -10920 
  -10957   -10943   -10935   -10970   -11020   -11049   -11070   -11110 
  -11149   -11133   -11071   -11037   -11053   -11061   -11038   -11010 
  -10983   -10941   -10897   -10852   -10790   -10721   -10679   -10659 
  -10623   -10574   -10528   -10484   -10435   -10393   -10385   -10438 
  -10546   -10656   -10741   -10790   -10801   -10795   -10797   -10790 
  -10751   -10692   -10642   -10617   -10616   -10625   -10624   -10600 
  -10547   -10466   -10385   -10359   -10399   -10466   -10534   -10598 
  -10643   -10669   -10686   -10687   -10643   -10559   -10484   -10466 
  -10509   -10571   -10612   -10646   -10722   -10837   -10941   -11003 
  -11055   -11148   -11276   -11375   -11411   -11418   -11426   -11416 
  -11354   -11252   -11138   -11037   -10949   -10868   -10806   -10794 
  -10829   -10874   -10914   -10951   -10963   -10959   -10963   -10978 
  -10966   -10941   -10941   -10941   -10905   -10848   -10805   -10775 
  -10752   -10740   -10755   -10800   -10854   -10890   -10882   -10843 
  -10810   -10824   -10882   -10939   -10953   -10926   -10881   -10818 
  -10743   -10670   -10625   -10629   -10678   -10741   -10797   -10860 
  -10959   -11056   -11091   -11060   -11024   -11029   -11068   -11082 
  -11038   -10970   -10925   -10913   -10890   -10802   -10640   -10473 
  -10368   -10318   -10281   -10284   -10354   -10438   -10481   -10528 
  -10635   -10775   -10875   -10887   -10860   -10858   -10876   -10885 
  -10886   -10891   -10883   -10854   -10821   -10782   -10710   -10617 
  -10547   -10517   -10503   -10471   -10461   -10519   -10638   -10744 
  -10773   -10751   -10764   -10818   -10827   -10779   -10767   -10840 
  -10935   -10974   -10959   -10948   -10982   -11026   -11034   -11016 
  -11011   -11026   -11025   -11010   -11024   -11071   -11113   -11125 
  -11103   -11060   -11029   -11024   -11009   -10951   -10891   -10910 
  -11010   -11105   -11124   -11080   -11048   -11078   -11138   -11160 
  -11136   -11133   -11181   -11233   -11254   -11271   -11292   -11295 
  -11267   -11217   -11156   -11099   -11083   -11121   -11176   -11209 
  -11202   -11176   -11173   -11192   -11222   -11273   -11325   -11330 
  -11275   -11196   -11114   -11011   -10878   -10716   -10542   -10374 
  -10230   -10099    -9979    -9915    -9931    -9983   -10041   -10123 
  -10257   -10420   -10554   -10621   -10640   -10659   -10705   -10759 
  -10790   -10795   -10778   -10720   -10611   -10467   -10331   -10234 
  -10201   -10235   -10329   -10477   -10658   -10833   -10971   -11052 
  -11070   -11048   -11010   -10968   -10925   -10872   -10806   -10732 
  -10651   -10547   -10432   -10349   -10312   -10326   -10404   -10530 
  -10659   -10779   -10874   -10933   -10975   -11025   -11083   -11113 
  -11101   -11076   -11049   -10982   -10848   -10683   -10516   -10365 
  -10265   -10253   -10314   -10412   -10534   -10665   -10781   -10886 
  -11011   -11163   -11310   -11442   -11550   -11612   -11618   -11561 
  -11422   -11214   -10993   -10805   -10650   -10523   -10430   -10382 
  -10382   -10420   -10478   -10540   -10602   -10665   -10731   -10790 
  -10833   -10862   -10890   -10921   -10939   -10937   -10913   -10859 
  -10793   -10751   -10746   -10750   -10737   -10741   -10795   -10878 
  -10944   -10980   -10991   -10986   -10975   -10970   -10948   -10889 
  -10810   -10737   -10670   -10582   -10466   -10357   -10280   -10243 
  -10255   -10304   -10372   -10465   -10579   -10693   -10775   -10817 
  -10840   -10859   -10860   -10849   -10839   -10820   -10786   -10746 
  -10679   -10578   -10493   -10455   -10422   -10370   -10336   -10353 
  -10399   -10432   -10436   -10444   -10503   -10596   -10648   -10631 
  -10569   -10488   -10416   -10369   -10329   -10274   -10214   -10169 
  -10160   -10201   -10287   -10388   -10481   -10562   -10646   -10746 
  -10856   -10967   -11072   -11171   -11257   -11327   -11376   -11379 
  -11330   -11269   -11256   -11272   -11257   -11213   -11209   -11249 
  -11252   -11180   -11097   -11067   -11082   -11098   -11107   -11119 
  -11152   -11213   -11259   -11254   -11219   -11181   -11141   -11092 
  -11043   -10986   -10932   -10893   -10837   -10751   -10679   -10673 
  -10719   -10763   -10783   -10801   -10836   -10875   -10906   -10929 
  -10944   -10947   -10897   -10770   -10604   -10485   -10436   -10438 
  -10492   -10582   -10658   -10716   -10788   -10871   -10939   -10993 
  -11016   -10984   -10928   -10883   -10858   -10841   -10813   -10759 
  -10686   -10606   -10520   -10424   -10328   -10258   -10241   -10266 
  -10296   -10315   -10361   -10447   -10532   -10611   -10708   -10790 
  -10793   -10736   -10689   -10669   -10646   -10600   -10546   -10508 
  -10509   -10547   -10586   -10582   -10540   -10494   -10453   -10408 
  -10401   -10459   -10555   -10636   -10681   -10701   -10689   -10646 
  -10608   -10621   -10659   -10687   -10712   -10744   -10770   -10786 
  -10806   -10843   -10870   -10876   -10882   -10897   -10922   -10928 
  -10885   -10809   -10741   -10701   -10677   -10670   -10689   -10735 
  -10787   -10817   -10809   -10798   -10813   -10821   -10795   -10762 
  -10721   -10638   -10527   -10428   -10346   -10284   -10276   -10327 
  -10382   -10397   -10376   -10350   -10343   -10342   -10309   -10265 
  -10263   -10319   -10392   -10453   -10489   -10509   -10532   -10554 
  -10567   -10597   -10660   -10733   -10794   -10854   -10912   -10948 
  -10976   -11007   -11006   -10947   -10860   -10795   -10775   -10770 
  -10737   -10689   -10669   -10678   -10697   -10729   -10802   -10905 
  -11010   -11105   -11191   -11275   -11377   -11488   -11580   -11639 
  -11659   -11630   -11570   -11496   -11406   -11288   -11152   -11029 
  -10962   -10963   -11011   -11061   -11111   -11176   -11236   -11257 
  -11260   -11292   -11368   -11452   -11493   -11483   -11449   -11431 
  -11416   -11367   -11276   -11163   -11025   -10868   -10716   -10563 
  -10393   -10247   -10183   -10173   -10146   -10081   -10014    -9965 
   -9930    -9896    -9867    -9884    -9977   -10121   -10270   -10412 
  -10557   -10685   -10755   -10782   -10808   -10848   -10886   -10889 
  -10848   -10794   -10768   -10760   -10724   -10659   -10613   -10635 
  -10729   -10847   -10941   -11024   -11133   -11280   -11403   -11422 
  -11369   -11327   -11292   -11210   -11088   -10986   -10909   -10821 
  -10712   -10623   -10585   -10592   -10604   -10598   -10580   -10570 
  -10574   -10596   -10621   -10621   -10593   -10540   -10465   -10380 
  -10326   -10327   -10336   -10315   -10285   -10276   -10291   -10342 
  -10434   -10559   -10719   -10894   -11056   -11190   -11302   -11399 
  -11481   -11541   -11561   -11549   -11538   -11549   -11564   -11557 
  -11518   -11464   -11415   -11387   -11379   -11391   -11446   -11541 
  -11619   -11649   -11659   -11709   -11797   -11855   -11848   -11828 
  -11847   -11878   -11867   -11817   -11786   -11772   -11718   -11610 
  -11495   -11407   -11326   -11218   -11099   -11026   -11024   -11049 
  -11039   -10978   -10886   -10781   -10654   -10484   -10278   -10093 
   -9953    -9826    -9686    -9555    -9475    -9441    -9428    -9418 
   -9397    -9362    -9335    -9332    -9354    -9402    -9472    -9540 
   -9602    -9659    -9705    -9759    -9842    -9964   -10099   -10203 
  -10272   -10343   -10424   -10492   -10528   -10532   -10534   -10555 
  -10582   -10606   -10650   -10710   -10768   -10816   -10875   -10963 
  -11080   -11218   -11375   -11526   -11642   -11719   -11767   -11788 
  -11757   -11677   -11595   -11533   -11485   -11445   -11407   -11379 
  -11376   -11356   -11271   -11148   -11068   -11044   -11045   -11060 
  -11088   -11119   -11157   -11200   -11241   -11271   -11291   -11298 
  -11260   -11151   -11005   -10859   -10710   -10577   -10493   -10466 
  -10490   -10580   -10733   -10895   -11018   -11113   -11188   -11233 
  -11253   -11275   -11284   -11260   -11202   -11115   -11009   -10895 
  -10786   -10698   -10654   -10673   -10759   -10886   -11038   -11236 
  -11487   -11742   -11924   -11994   -11982   -11940   -11881   -11765 
  -11584   -11418   -11352   -11379   -11448   -11515   -11566   -11597 
  -11615   -11630   -11646   -11658   -11659   -11635   -11587   -11502 
  -11349   -11138   -10921   -10739   -10590   -10430   -10247   -10112 
  -10069   -10077   -10092   -10121   -10179   -10223   -10212   -10153 
  -10071    -9954    -9771    -9505    -9174    -8820    -8474    -8159 
   -7892    -7685    -7550    -7495    -7496    -7499    -7480    -7457 
   -7439    -7431    -7426    -7391    -7325    -7254    -7186    -7099 
   -7020    -7010    -7072    -7156    -7236    -7317    -7416    -7564 
   -7754    -7981    -8267    -8642    -9088    -9536    -9934   -10274 
  -10563   -10812   -11037   -11261   -11492   -11705   -11881   -12021 
  -12147   -12276   -12434   -12634   -12883   -13189   -13541   -13895 
  -14199   -14430   -14594   -14681   -14663   -14563   -14436   -14335 
  -14269   -14214   -14149   -14067   -13967   -13886   -13868   -13911 
  -13981   -14071   -14162   -14219   -14229   -14208   -14169   -14088 
  -13929   -13693   -13402   -13059   -12650   -12206   -11807   -11519 
  -11337   -11194   -11079   -11029   -11057   -11130   -11186   -11190 
  -11194   -11250   -11319   -11340   -11276   -11111   -10870   -10585 
  -10249    -9886    -9570    -9343    -9213    -9167    -9178    -9251 
   -9404    -9603    -9804    -9999   -10180   -10316   -10396   -10413 
  -10345   -10158    -9852    -9467    -9099    -8820    -8660    -8591 
   -8581    -8631    -8752    -8927    -9113    -9283    -9479    -9725 
   -9975   -10184   -10335   -10409   -10381   -10230    -9958    -9595 
   -9211    -8895    -8657    -8464    -8306    -8199    -8149    -8135 
   -8158    -8259    -8471    -8760    -9030    -9213    -9332    -9417 
   -9440    -9363    -9198    -9007    -8858    -8766    -8687    -8604 
   -8548    -8553    -8629    -8758    -8905    -9070    -9298    -9613 
   -9965   -10296   -10584   -10828   -11032   -11221   -11416   -11600 
  -11761   -11925   -12112   -12316   -12528   -12760   -13024   -13317 
  -13649   -14004   -14326   -14592   -14813   -14985   -15090   -15126 
  -15099   -14997   -14779   -14457   -14084   -13706   -13319   -12926 
  -12580   -12310   -12074   -11823   -11558   -11313   -11105   -10906 
  -10666   -10415   -10204   -10045    -9934    -9887    -9922   -10012 
  -10080   -10076   -10019    -9944    -9853    -9713    -9510    -9292 
   -9096    -8928    -8795    -8698    -8614    -8527    -8441    -8391 
   -8394    -8417    -8446    -8515    -8645    -8833    -9069    -9343 
   -9633    -9923   -10211   -10469   -10666   -10820   -10982   -11202 
  -11469   -11716   -11929   -12163   -12451   -12791   -13149   -13475 
  -13760   -13996   -14150   -14200   -14133   -13933   -13620   -13271 
  -12992   -12834   -12779   -12776   -12772   -12745   -12687   -12557 
  -12321   -12020   -11727   -11449   -11137   -10787   -10486   -10287 
  -10142    -9977    -9765    -9552    -9391    -9273    -9123    -8876 
   -8569    -8306    -8133    -8033    -8002    -8050    -8144    -8221 
   -8225    -8170    -8106    -8078    -8093    -8162    -8324    -8591 
   -8928    -9298    -9668   -10021   -10309   -10470   -10492   -10408 
  -10277   -10192   -10219   -10342   -10532   -10775   -11024   -11223 
  -11379   -11541   -11755   -12023   -12332   -12661   -12972   -13246 
  -13483   -13697   -13896   -14046   -14104   -14112   -14125   -14154 
  -14179   -14165   -14080   -13919   -13684   -13367   -12985   -12625 
  -12376   -12259   -12241   -12283   -12345   -12387   -12384   -12322 
  -12158   -11848   -11416   -10901   -10331    -9801    -9401    -9127 
   -8920    -8733    -8540    -8344    -8164    -8055    -8082    -8278 
   -8603    -8954    -9286    -9621    -9953   -10235   -10420   -10450 
  -10312   -10054    -9717    -9327    -8955    -8702    -8610    -8655 
   -8810    -9042    -9322    -9645    -9989   -10307   -10562   -10779 
  -11010   -11253   -11443   -11570   -11689   -11815   -11911   -11952 
  -11946   -11923   -11907   -11897   -11877   -11834   -11772   -11682 
  -11524   -11275   -10991   -10712   -10409   -10098    -9833    -9625 
   -9454    -9335    -9293    -9316    -9371    -9433    -9497    -9583 
   -9675    -9714    -9679    -9629    -9620    -9661    -9768    -9945 
  -10164   -10422   -10728   -11072   -11462   -11914   -12390   -12842 
  -13247   -13588   -13872   -14121   -14324   -14453   -14461   -14338 
  -14112   -13787   -13377   -12951   -12577   -12286   -12093   -12004 
  -12023   -12152   -12340   -12480   -12515   -12439   -12239   -11909 
  -11470   -10974   -10503   -10098    -9733    -9402    -9128    -8907 
   -8706    -8510    -8344    -8245    -8221    -8237    -8294    -8441 
   -8721    -9067    -9366    -9553    -9649    -9675    -9612    -9427 
   -9123    -8810    -8631    -8615    -8711    -8918    -9250    -9676 
  -10164   -10686   -11218   -11765   -12306   -12791   -13205   -13593 
  -13957   -14262   -14480   -14617   -14683   -14670   -14572   -14412 
  -14241   -14092   -13969   -13890   -13899   -14018   -14202   -14388 
  -14546   -14662   -14712   -14689   -14604   -14480   -14315   -14072 
  -13737   -13350   -12977   -12679   -12445   -12235   -12029   -11819 
  -11637   -11539   -11488   -11389   -11213   -10963   -10646   -10257 
   -9790    -9301    -8854    -8482    -8206    -8005    -7857    -7788 
   -7786    -7804    -7850    -7940    -8054    -8155    -8226    -8289 
   -8391    -8525    -8634    -8691    -8683    -8611    -8490    -8330 
   -8120    -7851    -7542    -7249    -7013    -6875    -6893    -7067 
   -7384    -7874    -8494    -9094    -9606   -10103   -10619   -11086 
  -11439   -11695   -11875   -11994   -12052   -12051   -12001   -11901 
  -11729   -11491   -11214   -10920   -10636   -10408   -10284   -10270 
  -10316   -10372   -10453   -10570   -10683   -10747   -10746   -10665 
  -10507   -10295   -10064    -9852    -9682    -9555    -9472    -9443 
   -9477    -9563    -9688    -9813    -9891    -9904    -9861    -9795 
   -9741    -9703    -9682    -9695    -9740    -9786    -9815    -9837 
   -9856    -9855    -9846    -9865    -9926   -10019   -10133   -10277 
  -10482   -10744   -11028   -11313   -11578   -11807   -11959   -11989 
  -11928   -11857   -11780   -11666   -11530   -11395   -11302   -11280 
  -11290   -11244   -11153   -11082   -11037   -10991   -10939   -10889 
  -10836   -10750   -10624   -10494   -10388   -10296   -10215   -10162 
  -10123   -10018    -9817    -9595    -9440    -9397    -9481    -9679 
   -9971   -10345   -10777   -11183   -11506   -11794   -12110   -12413 
  -12640   -12769   -12806   -12793   -12752   -12637   -12405   -12062 
  -11645   -11173   -10669   -10191    -9803    -9535    -9388    -9350 
   -9388    -9483    -9609    -9725    -9788    -9749    -9590    -9342 
   -9055    -8776    -8522    -8306    -8167    -8137    -8215    -8380 
   -8594    -8830    -9116    -9459    -9815   -10157   -10488   -10779 
  -11018   -11241   -11455   -11608   -11681   -11749   -11877   -12046 
  -12221   -12388   -12515   -12588   -12637   -12677   -12711   -12745 
  -12779   -12798   -12783   -12713   -12573   -12355   -12089   -11877 
  -11770   -11727   -11678   -11596   -11488   -11341   -11146   -10956 
  -10833   -10771   -10712   -10642   -10601   -10621   -10686   -10750 
  -10781   -10782   -10762   -10710   -10633   -10517   -10311    -9972 
   -9497    -8949    -8436    -8021    -7708    -7514    -7460    -7550 
   -7769    -8062    -8383    -8742    -9130    -9485    -9779   -10029 
  -10242   -10404   -10514   -10584   -10623   -10628   -10593   -10551 
  -10551   -10624   -10779   -10963   -11125   -11272   -11421   -11541 
  -11604   -11635   -11682   -11778   -11878   -11878   -11739   -11518 
  -11263   -10978   -10686   -10435   -10261   -10172   -10143   -10130 
  -10134   -10196   -10309   -10438   -10577   -10748   -10967   -11200 
