Origin Time       2014/07/12 04:22:00
Lat.              37.050
Long.             142.320
Depth. (km)       33
Mag.              7.0
Station Code      SIT002
Station Lat.      36.1476
Station Long.     139.3884
Station Height(m) 28
Record Time       2014/07/12 04:23:13
Sampling Freq(Hz) 100Hz
Duration Time(s)  117
Dir.              E-W
Scale Factor      7845(gal)/8223790
Max. Acc. (gal)   3.436
Last Correction   2014/07/12 04:23:13
Memo.             
[...]
   -7094    -6725    -6457    -6299    -6239    -6273    -6388    -6546 
   -6723    -6894    -7037    -7142    -7217    -7290    -7388    -7510 
   -7643    -7750    -7808    -7832    -7834    -7805    -7751    -7684 
   -7624    -7588    -7566    -7555    -7597    -7695    -7784    -7836 
   -7885    -7950    -8037    -8159    -8302    -8449    -8625    -8866 
   -9180    -9562    -9975   -10377   -10752   -11088   -11356   -11543 
  -11632   -11615   -11514   -11354   -11130   -10840   -10497   -10139 
   -9819    -9574    -9386    -9227    -9104    -9038    -9046    -9115 
   -9202    -9283    -9360    -9431    -9490    -9524    -9510    -9443 
   -9346    -9261    -9204    -9155    -9107    -9050    -8984    -8924 
   -8868    -8810    -8777    -8797    -8884    -9026    -9192    -9354 
   -9510    -9661    -9794    -9906   -10003   -10076   -10104   -10068 
   -9953    -9756    -9493    -9205    -8935    -8704    -8532    -8418 
   -8355    -8332    -8352    -8417    -8509    -8619    -8746    -8872 
   -8951    -8966    -8915    -8797    -8638    -8469    -8314    -8189 
   -8117    -8117    -8175    -8267    -8372    -8472    -8565    -8668 
   -8800    -8961    -9121    -9265    -9371    -9406    -9331    -9155 
   -8888    -8533    -8141    -7751    -7385    -7069    -6844    -6718 
   -6677    -6713    -6821    -6966    -7121    -7269    -7399    -7514 
   -7628    -7763    -7931    -8132    -8343    -8559    -8775    -8972 
   -9115    -9185    -9177    -9104    -9005    -8918    -8849    -8803 
   -8791    -8830    -8926    -9061    -9236    -9441    -9657    -9877 
  -10095   -10291   -10458   -10600   -10708   -10793   -10863   -10887 
  -10840   -10735   -10577   -10362   -10114    -9844    -9548    -9267 
   -9059    -8934    -8838    -8735    -8634    -8549    -8483    -8430 
   -8379    -8334    -8293    -8239    -8194    -8201    -8267    -8364 
   -8469    -8577    -8676    -8754    -8816    -8870    -8928    -9012 
   -9144    -9324    -9532    -9740    -9934   -10088   -10170   -10162 
  -10085    -9979    -9872    -9764    -9671    -9617    -9610    -9664 
   -9795    -9995   -10257   -10570   -10882   -11124   -11269   -11319 
  -11287   -11190   -11029   -10798   -10496   -10138    -9715    -9220 
   -8672    -8105    -7561    -7079    -6681    -6361    -6123    -5977 
   -5927    -5954    -6019    -6085    -6146    -6186    -6195    -6177 
   -6124    -6019    -5886    -5767    -5699    -5680    -5705    -5788 
   -5921    -6075    -6264    -6494    -6762    -7068    -7404    -7744 
   -8071    -8380    -8662    -8907    -9128    -9346    -9548    -9738 
   -9923   -10087   -10227   -10362   -10489   -10567   -10578   -10519 
  -10392   -10204    -9972    -9703    -9412    -9127    -8887    -8716 
   -8630    -8617    -8661    -8746    -8862    -9013    -9190    -9371 
   -9541    -9699    -9821    -9894    -9915    -9913    -9930    -9989 
  -10076   -10181   -10309   -10457   -10631   -10831   -11038   -11237 
  -11391   -11453   -11443   -11394   -11298   -11146   -10945   -10700 
  -10413   -10118    -9840    -9606    -9445    -9370    -9373    -9440 
   -9563    -9742    -9948   -10139   -10291   -10381   -10381   -10277 
  -10083    -9821    -9501    -9140    -8776    -8444    -8163    -7951 
   -7815    -7753    -7758    -7824    -7942    -8109    -8324    -8569 
   -8815    -9038    -9212    -9301    -9288    -9177    -8986    -8730 
   -8424    -8097    -7784    -7524    -7352    -7273    -7275    -7338 
   -7453    -7614    -7825    -8091    -8365    -8604    -8806    -8961 
   -9053    -9099    -9137    -9173    -9182    -9165    -9120    -9035 
   -8915    -8787    -8675    -8612    -8633    -8723    -8862    -9030 
   -9196    -9315    -9354    -9316    -9216    -9085    -8954    -8843 
   -8768    -8746    -8776    -8829    -8876    -8904    -8905    -8874 
   -8823    -8764    -8706    -8661    -8644    -8645    -8640    -8606 
   -8530    -8424    -8310    -8205    -8117    -8059    -8039    -8063 
   -8144    -8293    -8499    -8760    -9051    -9342    -9603    -9826 
  -10014   -10168   -10300   -10430   -10554   -10659   -10722   -10701 
  -10573   -10366   -10088    -9752    -9408    -9127    -8961    -8928 
   -9008    -9171    -9385    -9607    -9799    -9937   -10027   -10083 
  -10088   -10035    -9933    -9778    -9578    -9371    -9194    -9069 
   -9005    -9015    -9108    -9294    -9576    -9940   -10355   -10787 
  -11188   -11516   -11735   -11819   -11753   -11531   -11169   -10714 
  -10223    -9745    -9320    -8964    -8669    -8426    -8233    -8094 
   -8010    -7971    -7962    -7987    -8046    -8108    -8164    -8215 
   -8244    -8235    -8176    -8062    -7894    -7709    -7551    -7434 
   -7364    -7345    -7368    -7430    -7538    -7678    -7809    -7903 
   -7951    -7950    -7912    -7847    -7756    -7635    -7495    -7349 
   -7188    -7014    -6837    -6670    -6540    -6467    -6459    -6531 
   -6687    -6898    -7132    -7383    -7627    -7823    -7950    -8007 
   -8010    -7977    -7940    -7903    -7850    -7785    -7727    -7680 
   -7651    -7651    -7685    -7749    -7852    -7969    -8056    -8104 
   -8127    -8144    -8181    -8225    -8252    -8256    -8245    -8221 
   -8189    -8163    -8163    -8202    -8289    -8418    -8572    -8738 
   -8895    -9012    -9085    -9151    -9221    -9281    -9328    -9375 
   -9444    -9549    -9694    -9877   -10103   -10366   -10651   -10922 
  -11140   -11279   -11321   -11246   -11051   -10746   -10349    -9906 
   -9468    -9061    -8694    -8374    -8095    -7842    -7595    -7371 
   -7195    -7079    -7032    -7044    -7107    -7222    -7368    -7515 
   -7655    -7770    -7827    -7809    -7716    -7564    -7377    -7196 
   -7049    -6937    -6867    -6839    -6862    -6957    -7122    -7322 
   -7535    -7765    -8010    -8263    -8513    -8762    -9007    -9235 
   -9427    -9553    -9603    -9585    -9512    -9401    -9298    -9239 
   -9239    -9304    -9432    -9605    -9792    -9965   -10088   -10145 
  -10152   -10106    -9979    -9780    -9544    -9285    -9026    -8796 
   -8592    -8408    -8256    -8137    -8052    -7997    -7952    -7924 
   -7927    -7939    -7943    -7931    -7893    -7811    -7693    -7553 
   -7416    -7310    -7246    -7225    -7258    -7338    -7452    -7611 
   -7798    -7997    -8224    -8461    -8687    -8904    -9101    -9246 
   -9355    -9463    -9562    -9632    -9670    -9672    -9653    -9649 
   -9682    -9757    -9890   -10060   -10218   -10320   -10342   -10284 
  -10160    -9981    -9764    -9528    -9290    -9067    -8874    -8708 
   -8569    -8464    -8397    -8343    -8283    -8228    -8194    -8186 
   -8189    -8181    -8151    -8101    -8046    -7994    -7958    -7956 
   -7996    -8078    -8210    -8372    -8542    -8714    -8896    -9078 
   -9221    -9306    -9332    -9305    -9236    -9127    -8993    -8861 
   -8761    -8726    -8762    -8861    -9009    -9194    -9397    -9606 
   -9809    -9998   -10145   -10222   -10215   -10142   -10027    -9888 
   -9745    -9610    -9481    -9355    -9262    -9225    -9235    -9266 
   -9315    -9404    -9524    -9625    -9687    -9717    -9711    -9668 
   -9595    -9506    -9420    -9350    -9304    -9293    -9337    -9458 
   -9664    -9948   -10261   -10567   -10863   -11118   -11291   -11368 
  -11346   -11214   -10993   -10731   -10467   -10218    -9981    -9744 
   -9487    -9232    -9009    -8837    -8707    -8611    -8536    -8474 
   -8428    -8368    -8275    -8164    -8060    -7955    -7834    -7703 
   -7573    -7458    -7384    -7352    -7348    -7364    -7392    -7422 
   -7453    -7506    -7591    -7713    -7852    -7989    -8127    -8276 
   -8421    -8552    -8669    -8764    -8816    -8851    -8904    -8984 
   -9089    -9225    -9367    -9491    -9610    -9753    -9918   -10081 
  -10223   -10342   -10442   -10511   -10535   -10527   -10493   -10431 
  -10343   -10265   -10220   -10208   -10211   -10230   -10266   -10320 
  -10395   -10477   -10531   -10547   -10537   -10493   -10392   -10253 
  -10106    -9968    -9850    -9749    -9651    -9544    -9445    -9377 
   -9331    -9288    -9243    -9198    -9143    -9066    -8982    -8893 
   -8807    -8727    -8652    -8590    -8553    -8549    -8579    -8631 
   -8694    -8772    -8872    -8984    -9084    -9159    -9211    -9246 
   -9265    -9251    -9204    -9157    -9146    -9167    -9185    -9180 
   -9155    -9123    -9094    -9084    -9096    -9117    -9137    -9157 
   -9173    -9185    -9184    -9147    -9080    -9000    -8916    -8841 
   -8775    -8714    -8661    -8626    -8604    -8595    -8588    -8573 
   -8532    -8464    -8383    -8293    -8182    -8051    -7902    -7753 
   -7634    -7557    -7522    -7530    -7570    -7626    -7681    -7736 
   -7792    -7836    -7867    -7894    -7925    -7973    -8024    -8054 
   -8052    -8035    -8023    -8024    -8052    -8125    -8257    -8426 
   -8590    -8741    -8896    -9063    -9238    -9408    -9574    -9720 
   -9813    -9847    -9828    -9759    -9662    -9547    -9427    -9329 
   -9271    -9243    -9242    -9269    -9319    -9381    -9440    -9479 
   -9493    -9470    -9398    -9248    -9003    -8688    -8357    -8029 
   -7723    -7460    -7245    -7082    -6960    -6864    -6795    -6779 
   -6835    -6948    -7098    -7290    -7515    -7755    -7982    -8181 
   -8352    -8499    -8621    -8719    -8797    -8854    -8901    -8972 
   -9082    -9232    -9400    -9578    -9779   -10018   -10276   -10521 
  -10739   -10937   -11114   -11246   -11327   -11360   -11350   -11319 
  -11277   -11223   -11153   -11060   -10948   -10818   -10679   -10537 
  -10390   -10242   -10111    -9999    -9896    -9787    -9647    -9494 
   -9350    -9205    -9053    -8885    -8707    -8520    -8330    -8144 
   -7974    -7838    -7746    -7705    -7711    -7736    -7771    -7813 
   -7850    -7871    -7881    -7878    -7854    -7805    -7736    -7654 
   -7553    -7443    -7337    -7236    -7134    -7048    -7005    -7013 
   -7076    -7192    -7346    -7530    -7727    -7919    -8095    -8248 
   -8357    -8413    -8424    -8410    -8380    -8347    -8321    -8314 
   -8341    -8394    -8456    -8529    -8612    -8698    -8784    -8872 
   -8946    -8991    -9015    -9027    -9001    -8912    -8776    -8606 
   -8406    -8185    -7951    -7735    -7564    -7442    -7360    -7311 
   -7298    -7312    -7356    -7420    -7487    -7535    -7557    -7538 
   -7465    -7335    -7153    -6947    -6752    -6583    -6443    -6339 
   -6273    -6241    -6249    -6313    -6460    -6689    -6967    -7268 
   -7568    -7851    -8097    -8276    -8398    -8499    -8599    -8698 
   -8814    -8959    -9126    -9292    -9463    -9645    -9841   -10050 
  -10270   -10501   -10736   -10956   -11144   -11295   -11414   -11514 
  -11600   -11663   -11701   -11709   -11696   -11674   -11641   -11601 
  -11566   -11545   -11546   -11569   -11601   -11639   -11676   -11701 
  -11711   -11689   -11624   -11523   -11402   -11250   -11065   -10858 
  -10632   -10397   -10161    -9922    -9679    -9448    -9236    -9047 
   -8884    -8752    -8654    -8587    -8536    -8490    -8437    -8360 
   -8260    -8159    -8051    -7927    -7797    -7669    -7548    -7456 
   -7395    -7365    -7368    -7391    -7426    -7482    -7565    -7655 
   -7744    -7827    -7894    -7943    -7958    -7931    -7875    -7808 
   -7744    -7685    -7627    -7577    -7548    -7545    -7558    -7577 
   -7597    -7635    -7701    -7771    -7817    -7842    -7847    -7827 
   -7777    -7695    -7595    -7504    -7414    -7312    -7222    -7169 
   -7150    -7152    -7165    -7198    -7253    -7325    -7406    -7500 
   -7619    -7777    -7958    -8158    -8378    -8602    -8807    -8980 
   -9117    -9223    -9302    -9371    -9445    -9522    -9605    -9695 
   -9784    -9865    -9929    -9956    -9944    -9915    -9879    -9834 
   -9795    -9771    -9765    -9775    -9801    -9840    -9882    -9911 
   -9917    -9910    -9915    -9944    -9981   -10037   -10138   -10299 
  -10504   -10728   -10943   -11129   -11272   -11365   -11396   -11360 
  -11268   -11122   -10924   -10705   -10482   -10254   -10037    -9846 
   -9691    -9570    -9478    -9412    -9373    -9355    -9369    -9409 
   -9477    -9562    -9640    -9693    -9717    -9717    -9697    -9657 
   -9616    -9594    -9595    -9607    -9620    -9633    -9645    -9652 
   -9651    -9633    -9593    -9532    -9458    -9367    -9265    -9154 
   -9043    -8937    -8841    -8752    -8655    -8550    -8440    -8317 
   -8179    -8033    -7874    -7690    -7491    -7300    -7127    -6961 
   -6793    -6635    -6500    -6389    -6300    -6222    -6161    -6126 
   -6095    -6039    -5977    -5925    -5887    -5875    -5890    -5923 
   -5983    -6070    -6186    -6338    -6524    -6717    -6879    -7007 
   -7114    -7196    -7244    -7261    -7257    -7257    -7269    -7292 
   -7335    -7395    -7460    -7545    -7649    -7758    -7890    -8046 
   -8202    -8359    -8517    -8653    -8760    -8857    -8939    -9003 
   -9050    -9088    -9130    -9192    -9271    -9364    -9472    -9586 
   -9701    -9817    -9915    -9988   -10045   -10085   -10106   -10106 
  -10093   -10081   -10080   -10099   -10145   -10228   -10368   -10543 
  -10728   -10929   -11155   -11389   -11611   -11809   -11979   -12117 
  -12209   -12249   -12239   -12191   -12128   -12062   -12002   -11963 
  -11961   -12002   -12077   -12160   -12241   -12320   -12395   -12452 
  -12475   -12468   -12424   -12326   -12185   -12025   -11865   -11703 
  -11537   -11365   -11184   -11002   -10835   -10678   -10525   -10372 
  -10227   -10102    -9979    -9850    -9694    -9494    -9248    -8965 
   -8664    -8368    -8085    -7811    -7553    -7330    -7153    -7028 
   -6964    -6956    -6999    -7079    -7171    -7250    -7302    -7315 
   -7291    -7236    -7160    -7082    -6994    -6872    -6725    -6583 
   -6458    -6349    -6254    -6173    -6110    -6068    -6029    -5989 
   -5965    -5967    -5992    -6043    -6134    -6268    -6440    -6637 
   -6829    -6985    -7101    -7172    -7210    -7245    -7294    -7344 
   -7384    -7420    -7460    -7506    -7569    -7666    -7798    -7979 
   -8214    -8499    -8814    -9136    -9445    -9728    -9969   -10169 
  -10324   -10436   -10504   -10536   -10543   -10539   -10530   -10503 
  -10459   -10430   -10427   -10435   -10444   -10461   -10481   -10501 
  -10514   -10516   -10511   -10494   -10455   -10400   -10336   -10277 
  -10218   -10138   -10039    -9937    -9833    -9736    -9664    -9617 
   -9571    -9521    -9470    -9418    -9381    -9348    -9310    -9271 
   -9246    -9228    -9204    -9165    -9117    -9065    -9023    -9018 
   -9057    -9135    -9234    -9333    -9432    -9539    -9649    -9745 
   -9817    -9872    -9909    -9913    -9879    -9807    -9711    -9607 
   -9497    -9371    -9239    -9108    -8984    -8863    -8737    -8612 
   -8510    -8424    -8344    -8275    -8237    -8235    -8248    -8274 
   -8293    -8299    -8302    -8299    -8281    -8256    -8228    -8198 
   -8167    -8139    -8129    -8137    -8144    -8144    -8155    -8172 
   -8182    -8177    -8154    -8106    -8050    -7989    -7913    -7817 
   -7709    -7588    -7454    -7315    -7177    -7060    -6980    -6947 
   -6957    -6998    -7048    -7094    -7137    -7168    -7183    -7173 
   -7134    -7076    -7007    -6928    -6841    -6764    -6713    -6701 
   -6743    -6840    -6987    -7176    -7398    -7628    -7844    -8043 
   -8221    -8387    -8540    -8680    -8807    -8918    -9001    -9063 
   -9113    -9166    -9248    -9364    -9510    -9688    -9900   -10127 
  -10358   -10585   -10793   -10971   -11119   -11237   -11327   -11389 
  -11427   -11427   -11375   -11292   -11206   -11110   -11002   -10886 
  -10773   -10662   -10540   -10386   -10203   -10017    -9834    -9641 
   -9444    -9251    -9059    -8877    -8716    -8563    -8413    -8278 
   -8168    -8093    -8040    -7996    -7960    -7948    -7951    -7956 
   -7952    -7929    -7875    -7799    -7713    -7608    -7477    -7325 
   -7169    -7033    -6926    -6848    -6794    -6770    -6789    -6836 
   -6893    -6960    -7047    -7149    -7268    -7393    -7507    -7593 
   -7642    -7646    -7614    -7569    -7518    -7477    -7461    -7462 
   -7466    -7466    -7458    -7444    -7427    -7406    -7378    -7354 
   -7342    -7340    -7358    -7391    -7441    -7522    -7643    -7816 
   -8032    -8262    -8484    -8704    -8918    -9099    -9235    -9329 
   -9397    -9452    -9487    -9489    -9441    -9347    -9223    -9088 
   -8966    -8873    -8812    -8787    -8806    -8874    -8988    -9130 
   -9270    -9401    -9533    -9652    -9737    -9786    -9791    -9749 
   -9664    -9537    -9371    -9189    -9013    -8862    -8735    -8633 
   -8545    -8467    -8401    -8359    -8334    -8328    -8333    -8337 
   -8337    -8340    -8337    -8324    -8318    -8317    -8329    -8365 
   -8421    -8494    -8584    -8688    -8807    -8929    -9051    -9170 
   -9283    -9378    -9445    -9477    -9459    -9391    -9286    -9165 
   -9050    -8949    -8854    -8775    -8714    -8671    -8646    -8646 
   -8664    -8699    -8757    -8838    -8924    -9005    -9076    -9134 
   -9178    -9208    -9223    -9229    -9228    -9212    -9182    -9147 
   -9119    -9108    -9112    -9127    -9139    -9147    -9153    -9147 
   -9117    -9063    -8982    -8876    -8764    -8653    -8540    -8434 
   -8337    -8248    -8176    -8117    -8064    -8025    -8012    -8037 
   -8098    -8167    -8232    -8294    -8349    -8397    -8436    -8460 
   -8471    -8471    -8453    -8421    -8382    -8344    -8307    -8278 
   -8266    -8276    -8298    -8317    -8333    -8332    -8307    -8264 
   -8208    -8148    -8091    -8043    -8007    -7981    -7958    -7938 
   -7927    -7924    -7928    -7944    -7960    -7974    -7992    -8024 
   -8077    -8151    -8257    -8395    -8553    -8725    -8910    -9103 
   -9288    -9454    -9606    -9741    -9855    -9948   -10026   -10096 
  -10152   -10189   -10218   -10235   -10249   -10269   -10299   -10329 
  -10357   -10380   -10386   -10359   -10305   -10239   -10168   -10095 
  -10022    -9952    -9888    -9845    -9828    -9840    -9886    -9965 
  -10081   -10214   -10349   -10471   -10570   -10646   -10702   -10731 
  -10733   -10710   -10656   -10571   -10462   -10326   -10161    -9979 
   -9786    -9601    -9441    -9315    -9208    -9116    -9027    -8934 
   -8842    -8754    -8665    -8579    -8506    -8441    -8385    -8340 
   -8302    -8274    -8272    -8301    -8356    -8436    -8527    -8629 
   -8731    -8818    -8893    -8962    -9018    -9054    -9069    -9067 
   -9058    -9031    -8977    -8911    -8851    -8792    -8731    -8675 
   -8634    -8614    -8619    -8646    -8681    -8723    -8777    -8827 
   -8861    -8881    -8880    -8857    -8816    -8764    -8711    -8671 
   -8644    -8622    -8595    -8571    -8550    -8533    -8523    -8522 
   -8525    -8530    -8552    -8606    -8696    -8811    -8934    -9051 
   -9170    -9285    -9378    -9441    -9475    -9493    -9505    -9506 
   -9494    -9483    -9467    -9441    -9410    -9382    -9359    -9350 
   -9362    -9390    -9421    -9444    -9447    -9423    -9366    -9285 
   -9201    -9124    -9057    -9009    -8982    -8978    -9008    -9059 
