Origin Time       2014/07/12 04:22:00
Lat.              37.050
Long.             142.320
Depth. (km)       33
Mag.              7.0
Station Code      SIT002
Station Lat.      36.1476
Station Long.     139.3884
Station Height(m) 28
Record Time       2014/07/12 04:23:13
Sampling Freq(Hz) 100Hz
Duration Time(s)  117
Dir.              U-D
Scale Factor      7845(gal)/8223790
Max. Acc. (gal)   1.542
Last Correction   2014/07/12 04:23:13
Memo.             
[...]
   19526    19639    19753    19823    19804    19718    19616    19531 
   19487    19510    19597    19720    19842    19931    19971    19982 
   20007    20050    20073    20042    19978    19931    19935    19993 
   20092    20193    20277    20366    20467    20521    20467    20333 
   20177    20004    19809    19627    19510    19485    19538    19620 
   19678    19684    19666    19684    19728    19750    19747    19784 
   19890    20031    20173    20294    20385    20466    20536    20540 
   20472    20405    20364    20297    20177    20073    20073    20160 
   20214    20159    20052    19989    19982    19982    19959    19942 
   19973    20077    20228    20385    20499    20525    20460    20364 
   20293    20236    20183    20160    20185    20272    20420    20580 
   20710    20785    20790    20783    20838    20931    20960    20854 
   20676    20550    20483    20378    20233    20159    20194    20256 
   20281    20313    20429    20625    20823    20965    21041    21074 
   21069    20991    20834    20668    20548    20476    20420    20363 
   20336    20386    20506    20595    20545    20385    20220    20101 
   20031    20034    20104    20191    20250    20268    20266    20272 
   20286    20267    20164    20015    19884    19784    19720    19701 
   19715    19758    19839    19920    19947    19928    19907    19873 
   19803    19728    19708    19751    19792    19786    19777    19807 
   19850    19886    19930    19974    19978    19938    19873    19778 
   19669    19579    19506    19429    19365    19368    19448    19542 
   19612    19692    19811    19930    19979    19943    19870    19830 
   19830    19832    19822    19826    19853    19862    19827    19786 
   19793    19826    19832    19836    19872    19886    19835    19770 
   19757    19777    19789    19791    19809    19859    19946    20092 
   20286    20475    20609    20688    20767    20848    20829    20655 
   20412    20214    20108    20086    20132    20213    20299    20370 
   20425    20483    20536    20547    20518    20499    20515    20522 
   20490    20463    20459    20410    20298    20205    20185    20189 
   20154    20100    20105    20220    20406    20596    20771    20923 
   21023    21065    21060    20999    20899    20803    20748    20753 
   20792    20806    20781    20757    20737    20710    20688    20704 
   20740    20729    20629    20456    20283    20183    20154    20140 
   20123    20116    20129    20142    20121    20066    20024    20035 
   20074    20098    20108    20097    20035    19916    19782    19642 
   19495    19390    19386    19469    19534    19511    19471    19530 
   19695    19850    19917    19948    20007    20047    20016    19951 
   19911    19899    19893    19905    19957    20073    20233    20406 
   20567    20694    20767    20804    20872    20977    21012    20895 
   20679    20466    20278    20097    19940    19859    19865    19911 
   19959    20009    20073    20146    20179    20156    20123    20116 
   20128    20133    20119    20106    20133    20213    20309    20347 
   20302    20252    20256    20267    20228    20173    20170    20256 
   20362    20355    20237    20154    20200    20305    20375    20430 
   20547    20715    20848    20912    20972    21060    21108    21051 
   20907    20744    20584    20409    20235    20117    20063    20016 
   19939    19854    19827    19889    19990    20056    20083    20115 
   20151    20164    20151    20128    20110    20094    20071    20036 
   19993    19940    19870    19784    19711    19656    19626    19651 
   19711    19745    19743    19750    19792    19854    19885    19865 
   19822    19789    19782    19808    19890    20050    20231    20313 
   20243    20097    19965    19865    19743    19607    19557    19657 
   19843    20036    20236    20460    20657    20733    20690    20625 
   20602    20595    20559    20513    20540    20667    20819    20908 
   20903    20823    20702    20561    20397    20231    20117    20079 
   20063    20013    19950    19917    19919    19938    19984    20073 
   20190    20279    20336    20422    20537    20607    20617    20602 
   20583    20524    20385    20223    20120    20062    19985    19890 
   19827    19807    19789    19772    19800    19907    20063    20198 
   20278    20318    20333    20332    20324    20306    20291    20302 
   20351    20439    20499    20464    20383    20360    20397    20391 
   20279    20106    19958    19854    19780    19746    19791    19907 
   19996    19998    19979    20038    20160    20289    20416    20561 
   20690    20740    20700    20596    20455    20306    20182    20067 
   19942    19858    19872    19958    20075    20232    20422    20576 
   20615    20517    20325    20133    19996    19881    19757    19672 
   19678    19743    19788    19777    19735    19712    19734    19793 
   19854    19889    19923    20007    20094    20104    20058    20047 
   20065    20002    19795    19541    19431    19506    19635    19718 
   19765    19813    19861    19889    19893    19874    19827    19788 
   19809    19878    19913    19884    19839    19823    19846    19901 
   19985    20098    20240    20386    20501    20575    20617    20617 
   20548    20418    20313    20286    20302    20318    20351    20451 
   20625    20784    20826    20730    20509    20205    19905    19669 
   19514    19477    19608    19893    20240    20538    20725    20818 
   20881    20937    20945    20926    20930    20933    20869    20740 
   20601    20515    20510    20570    20686    20866    21092    21304 
   21467    21567    21587    21520    21373    21173    20964    20752 
   20515    20277    20121    20110    20217    20380    20542    20657 
   20702    20692    20664    20634    20602    20547    20444    20309 
   20194    20124    20070    19982    19832    19649    19499    19418 
   19365    19290    19184    19079    19022    19052    19183    19400 
   19669    19909    20040    20068    20068    20044    19969    19890 
   19877    19948    20071    20150    20120    20038    19971    19919 
   19818    19620    19391    19257    19256    19309    19349    19377 
   19438    19564    19704    19791    19849    19921    19998    20051 
   20061    20017    19936    19818    19647    19472    19373    19398 
   19525    19722    19963    20186    20314    20340    20344    20409 
   20499    20497    20383    20250    20160    20104    20029    19892 
   19714    19572    19535    19583    19649    19712    19791    19882 
   19974    20039    20078    20127    20228    20364    20497    20642 
   20833    21001    21066    21047    21009    20991    20953    20841 
   20715    20691    20754    20804    20811    20834    20906    20989 
   20997    20876    20696    20586    20561    20553    20498    20370 
   20210    20142    20209    20324    20398    20437    20461    20449 
   20362    20191    19970    19761    19654    19691    19792    19874 
   19931    19984    20044    20129    20233    20313    20332    20304 
   20277    20294    20348    20382    20374    20355    20387    20501 
   20640    20696    20642    20557    20486    20401    20306    20255 
   20266    20282    20268    20290    20397    20582    20802    20985 
   21120    21227    21273    21217    21089    20937    20779    20590 
   20331    20044    19832    19730    19689    19658    19596    19491 
   19392    19361    19406    19477    19535    19608    19738    19927 
   20166    20412    20572    20586    20437    20163    19866    19658 
   19586    19643    19780    19923    20059    20252    20545    20860 
   21042    21026    20889    20742    20634    20557    20490    20413 
   20313    20220    20218    20314    20380    20317    20169    20050 
   19996    19946    19859    19786    19811    19930    20043    20063 
   20027    20048    20164    20281    20320    20328    20372    20445 
   20457    20351    20179    20031    19954    19943    19950    19973 
   20052    20159    20206    20194    20225    20309    20352    20291 
   20167    20077    20032    19994    20012    20152    20398    20636 
   20757    20792    20825    20865    20900    20939    20953    20922 
   20884    20850    20791    20690    20540    20333    20098    19873 
   19657    19481    19421    19502    19670    19834    19897    19886 
   19901    19973    20063    20132    20128    20048    19953    19862 
   19766    19689    19666    19708    19765    19764    19710    19693 
   19781    19959    20143    20245    20264    20254    20256    20299 
   20387    20503    20601    20633    20636    20676    20723    20665 
   20483    20314    20279    20348    20430    20503    20595    20699 
   20757    20727    20646    20593    20580    20545    20455    20364 
   20329    20329    20318    20254    20129    19998    19866    19711 
   19581    19546    19627    19778    19911    19966    20008    20125 
   20282    20383    20420    20413    20374    20325    20294    20285 
   20278    20262    20262    20290    20331    20395    20509    20657 
   20800    20887    20880    20790    20659    20522    20390    20248 
   20089    19947    19859    19827    19847    19920    20058    20254 
   20453    20605    20688    20699    20655    20553    20366    20100 
   19786    19458    19201    19071    19060    19174    19396    19666 
   19926    20143    20324    20452    20488    20433    20332    20213 
   20040    19769    19453    19209    19075    18998    18966    19014 
   19124    19215    19276    19387    19614    19912    20175    20368 
   20553    20742    20827    20725    20502    20298    20175    20113 
   20085    20089    20159    20309    20472    20582    20668    20781 
   20888    20906    20784    20570    20360    20175    19953    19675 
   19438    19291    19205    19155    19153    19211    19329    19477 
   19620    19769    19947    20104    20179    20205    20241    20281 
   20243    20119    20013    20019    20121    20258    20422    20652 
   20926    21141    21246    21276    21285    21293    21262    21147 
   21004    20891    20792    20710    20645    20588    20557    20545 
   20484    20358    20235    20191    20250    20368    20491    20596 
   20694    20776    20784    20667    20495    20379    20309    20251 
   20220    20240    20291    20339    20360    20362    20345    20286 
   20164    20005    19877    19795    19699    19573    19503    19531 
   19596    19643    19660    19620    19548    19516    19565    19673 
   19797    19916    20023    20102    20137    20089    19936    19728 
   19535    19384    19272    19218    19255    19402    19627    19901 
   20220    20513    20673    20675    20548    20341    20106    19899 
   19770    19718    19691    19651    19596    19566    19586    19584 
   19496    19384    19313    19273    19259    19267    19265    19268 
   19305    19364    19444    19545    19616    19597    19489    19364 
   19279    19228    19180    19132    19097    19078    19076    19091 
   19111    19144    19182    19193    19179    19170    19149    19068 
   18931    18817    18810    18916    19070    19215    19349    19489 
   19614    19680    19722    19827    20015    20217    20345    20395 
   20449    20540    20590    20536    20429    20359    20362    20393 
   20375    20301    20240    20256    20339    20452    20590    20729 
   20852    20992    21170    21325    21371    21282    21134    20993 
   20854    20710    20609    20602    20706    20881    21043    21130 
   21155    21136    21009    20740    20426    20197    20094    20083 
   20097    20096    20106    20166    20266    20356    20405    20414 
   20397    20344    20271    20224    20232    20282    20335    20349 
   20331    20309    20320    20389    20518    20706    20974    21308 
   21606    21764    21760    21631    21421    21188    20949    20718 
   20529    20418    20399    20466    20576    20684    20734    20717 
   20687    20664    20579    20394    20166    19961    19795    19692 
   19691    19757    19820    19873    19932    19982    19965    19840 
   19650    19485    19399    19349    19264    19143    19037    18982 
   18990    19076    19261    19529    19804    20029    20239    20470 
   20686    20825    20865    20834    20773    20690    20595    20522 
   20483    20466    20461    20455    20457    20493    20498    20406 
   20237    20044    19877    19780    19723    19656    19584    19530 
   19488    19464    19467    19479    19460    19395    19341    19350 
   19395    19404    19371    19344    19368    19433    19506    19586 
   19688    19777    19813    19822    19889    20052    20237    20325 
   20272    20150    20056    20011    19959    19903    19878    19888 
   19893    19858    19791    19747    19761    19813    19892    20024 
   20237    20504    20734    20866    20933    20991    21026    20996 
   20919    20865    20869    20881    20834    20727    20621    20563 
   20517    20413    20255    20120    20035    19984    20013    20198 
   20494    20765    20941    21049    21114    21109    21011    20838 
   20642    20468    20343    20295    20325    20351    20305    20225 
   20179    20209    20309    20429    20545    20714    20950    21168 
   21273    21250    21141    20980    20776    20515    20243    20043 
   19965    20008    20136    20326    20572    20833    21080    21319 
   21541    21714    21793    21739    21577    21371    21153    20920 
   20672    20414    20182    20036    20001    20016    20027    20045 
   20079    20106    20147    20227    20339    20459    20569    20675 
   20767    20822    20831    20768    20611    20412    20241    20101 
   19927    19689    19465    19373    19379    19364    19340    19349 
   19381    19440    19511    19548    19554    19575    19583    19543 
   19500    19510    19568    19604    19568    19491    19442    19440 
   19468    19502    19546    19634    19754    19869    19988    20113 
   20198    20181    20035    19830    19687    19651    19666    19675 
   19705    19797    19928    20021    20025    19961    19873    19799 
   19720    19630    19584    19634    19765    19931    20102    20256 
   20403    20526    20544    20429    20272    20175    20160    20194 
   20248    20362    20575    20830    21038    21176    21263    21308 
   21277    21143    20929    20699    20565    20563    20601    20636 
   20714    20827    20899    20875    20773    20659    20570    20493 
   20426    20417    20504    20672    20833    20922    20935    20862 
   20682    20399    20045    19675    19391    19269    19305    19446 
   19677    19979    20305    20578    20740    20798    20802    20776 
   20706    20576    20439    20371    20386    20444    20525    20638 
   20761    20846    20895    20935    20949    20899    20783    20625 
   20464    20322    20217    20140    20055    19926    19761    19603 
   19477    19399    19371    19408    19507    19637    19765    19876 
   19942    19913    19781    19611    19471    19356    19236    19125 
   19045    18981    18932    18937    19017    19138    19240    19286 
   19306    19338    19356    19368    19452    19597    19711    19711 
   19623    19522    19425    19318    19230    19193    19191    19222 
   19330    19512    19695    19843    19984    20144    20302    20391 
   20355    20225    20073    19928    19804    19708    19668    19687 
   19722    19738    19743    19753    19793    19904    20085    20267 
   20397    20494    20614    20753    20845    20837    20761    20694 
   20650    20583    20464    20322    20208    20136    20085    20073 
   20170    20371    20548    20610    20592    20580    20588    20559 
   20460    20339    20262    20232    20175    20066    19990    20017 
   20109    20202    20264    20290    20286    20260    20208    20159 
   20144    20177    20271    20414    20555    20655    20710    20753 
   20822    20912    20993    21052    21097    21116    21100    21049 
   20962    20846    20715    20609    20567    20588    20630    20669 
   20713    20783    20883    20979    21039    21049    20991    20858 
   20671    20460    20267    20123    20042    20021    20038    20032 
   19965    19853    19712    19552    19414    19338    19311    19291 
   19245    19184    19147    19167    19255    19377    19487    19585 
   19695    19801    19870    19893    19886    19880    19874    19865 
   19876    19930    20017    20090    20079    19997    19950    20002 
   20089    20137    20159    20212    20325    20459    20549    20584 
   20579    20548    20483    20374    20210    20017    19855    19765 
   19764    19839    19928    20000    20079    20177    20245    20237 
   20158    20048    19975    19954    19950    19953    19971    20016 
   20094    20205    20325    20422    20474    20491    20490    20474 
   20448    20434    20444    20471    20520    20598    20675    20702 
   20684    20669    20676    20676    20648    20619    20636    20699 
   20776    20846    20923    21020    21124    21200    21236    21232 
   21193    21145    21114    21103    21088    21047    20972    20844 
   20652    20426    20220    20090    20066    20090    20066    19982 
   19919    19913    19917    19893    19865    19866    19905    19963 
   20001    20001    19975    19958    19982    20045    20121    20186 
   20235    20274    20326    20407    20517    20657    20811    20907 
   20896    20819    20740    20684    20648    20593    20501    20426 
   20420    20457    20503    20540    20561    20575    20602    20673 
   20783    20881    20919    20891    20817    20713    20588    20461 
   20356    20286    20243    20229    20254    20335    20472    20619 
   20715    20745    20741    20742    20753    20737    20690    20638 
   20591    20524    20437    20356    20281    20177    20040    19927 
   19897    19938    19982    20005    20019    20031    20047    20058 
   20042    19993    19950    19943    19954    19942    19893    19845 
   19807    19737    19604    19476    19433    19464    19496    19503 
   19525    19560    19566    19537    19498    19485    19507    19548 
   19592    19626    19651    19693    19754    19807    19859    19934 
   20024    20100    20146    20160    20160    20156    20144    20096 
   20020    19975    19993    20042    20071    20066    20045    20013 
   19967    19950    20000    20098    20190    20225    20223    20245 
   20320    20405    20459    20472    20474    20507    20598    20725 
   20856    20945    20996    21029    21012    20904    20736    20563 
   20398    20240    20105    20007    19942    19913    19917    19931 
   19947    19990    20045    20065    20028    19959    19890    19834 
   19773    19705    19664    19674    19724    19765    19776    19776 
   19781    19789    19784    19747    19710    19723    19793    19892 
   19998    20109    20237    20386    20511    20574    20572    20549 
   20538    20536    20511    20436    20331    20236    20154    20067 
   19965    19867    19795    19727    19658    19588    19511    19446 
   19418    19411    19408    19403    19388    19386    19396    19402 
   19413    19449    19496    19519    19494    19427    19345    19268 
