Origin Time       2015/01/03 04:55:00
Lat.              36.522
Long.             140.572
Depth. (km)       58
Mag.              3.7
Station Code      CHBH19
Station Lat.      35.5943
Station Long.     140.5107
Station Height(m) 1
Record Time       2015/01/03 04:55:53
Sampling Freq(Hz) 100Hz
Duration Time(s)  120
Dir.              4
Scale Factor      3920(gal)/6170801
Max. Acc. (gal)   1.021
Last Correction   2015/01/03 04:55:38
Memo.             
[...]
   -7542    -7546    -7528    -7515    -7502    -7485    -7461    -7445 
   -7433    -7413    -7440    -7512    -7538    -7534    -7542    -7533 
   -7506    -7488    -7499    -7534    -7537    -7501    -7462    -7419 
   -7378    -7392    -7490    -7611    -7643    -7574    -7481    -7405 
   -7370    -7390    -7432    -7486    -7548    -7566    -7553    -7561 
   -7557    -7496    -7429    -7415    -7455    -7523    -7576    -7569 
   -7508    -7419    -7351    -7353    -7408    -7500    -7608    -7638 
   -7571    -7516    -7499    -7458    -7410    -7423    -7486    -7522 
   -7514    -7501    -7503    -7497    -7478    -7472    -7496    -7541 
   -7557    -7498    -7435    -7457    -7480    -7433    -7423    -7502 
   -7583    -7614    -7607    -7569    -7490    -7401    -7391    -7437 
   -7447    -7464    -7543    -7589    -7531    -7447    -7438    -7503 
   -7551    -7541    -7521    -7499    -7445    -7414    -7467    -7528 
   -7485    -7408    -7438    -7523    -7566    -7589    -7552    -7453 
   -7423    -7452    -7490    -7598    -7661    -7548    -7455    -7498 
   -7510    -7471    -7487    -7493    -7446    -7423    -7431    -7459 
   -7488    -7458    -7446    -7527    -7573    -7528    -7522    -7559 
   -7544    -7489    -7456    -7469    -7505    -7506    -7488    -7523 
   -7509    -7373    -7355    -7515    -7572    -7492    -7470    -7487 
   -7454    -7445    -7530    -7619    -7585    -7472    -7425    -7451 
   -7483    -7526    -7588    -7621    -7551    -7407    -7339    -7372 
   -7384    -7392    -7468    -7553    -7580    -7565    -7572    -7590 
   -7518    -7409    -7384    -7399    -7451    -7590    -7695    -7658 
   -7535    -7402    -7337    -7397    -7498    -7517    -7476    -7439 
   -7391    -7397    -7546    -7661    -7578    -7473    -7442    -7392 
   -7438    -7624    -7704    -7616    -7489    -7382    -7408    -7526 
   -7487    -7376    -7422    -7502    -7489    -7465    -7447    -7452 
   -7546    -7619    -7599    -7624    -7666    -7562    -7405    -7361 
   -7403    -7465    -7500    -7469    -7427    -7450    -7499    -7513 
   -7488    -7444    -7438    -7502    -7556    -7523    -7462    -7470 
   -7545    -7589    -7555    -7526    -7549    -7574    -7572    -7531 
   -7414    -7299    -7347    -7499    -7549    -7514    -7490    -7416 
   -7349    -7473    -7678    -7699    -7576    -7536    -7548    -7490 
   -7438    -7415    -7353    -7334    -7403    -7485    -7564    -7615 
   -7569    -7464    -7433    -7534    -7645    -7648    -7575    -7481 
   -7398    -7397    -7473    -7516    -7513    -7523    -7502    -7439 
   -7441    -7492    -7469    -7396    -7415    -7518    -7513    -7402 
   -7420    -7610    -7768    -7714    -7520    -7395    -7344    -7327 
   -7400    -7472    -7494    -7537    -7515    -7435    -7480    -7586 
   -7591    -7551    -7519    -7490    -7487    -7494    -7521    -7536 
   -7430    -7300    -7347    -7519    -7598    -7523    -7460    -7474 
   -7466    -7500    -7607    -7596    -7459    -7410    -7478    -7537 
   -7552    -7543    -7514    -7479    -7445    -7417    -7437    -7543 
   -7614    -7536    -7442    -7408    -7382    -7410    -7456    -7445 
   -7470    -7544    -7623    -7701    -7628    -7403    -7302    -7369 
   -7402    -7403    -7507    -7659    -7678    -7567    -7465    -7439 
   -7499    -7545    -7453    -7334    -7365    -7494    -7577    -7601 
   -7603    -7579    -7541    -7489    -7399    -7351    -7413    -7471 
   -7474    -7527    -7602    -7614    -7591    -7508    -7409    -7435 
   -7484    -7411    -7406    -7565    -7634    -7490    -7324    -7361 
   -7571    -7707    -7692    -7626    -7531    -7429    -7356    -7356 
   -7478    -7579    -7546    -7497    -7458    -7383    -7380    -7478 
   -7555    -7542    -7515    -7557    -7609    -7609    -7552    -7433 
   -7388    -7517    -7616    -7546    -7456    -7402    -7338    -7354 
   -7468    -7558    -7615    -7638    -7554    -7450    -7472    -7562 
   -7590    -7531    -7440    -7391    -7430    -7522    -7603    -7641 
   -7579    -7426    -7356    -7407    -7394    -7321    -7338    -7458 
   -7622    -7753    -7744    -7614    -7510    -7490    -7457    -7359 
   -7346    -7446    -7451    -7388    -7451    -7562    -7584    -7553 
   -7526    -7524    -7522    -7496    -7501    -7560    -7593    -7546 
   -7485    -7499    -7480    -7351    -7296    -7393    -7488    -7536 
   -7569    -7576    -7537    -7467    -7422    -7414    -7440    -7527 
   -7625    -7680    -7678    -7546    -7358    -7306    -7376    -7442 
   -7461    -7457    -7484    -7492    -7453    -7476    -7556    -7582 
   -7542    -7491    -7491    -7512    -7488    -7485    -7531    -7557 
   -7555    -7483    -7339    -7297    -7418    -7545    -7570    -7537 
   -7547    -7566    -7472    -7370    -7407    -7458    -7466    -7541 
   -7618    -7599    -7544    -7496    -7438    -7378    -7352    -7413 
   -7528    -7570    -7519    -7453    -7466    -7582    -7638    -7542 
   -7463    -7472    -7448    -7397    -7439    -7544    -7552    -7453 
   -7381    -7365    -7396    -7500    -7577    -7545    -7506    -7541 
   -7616    -7626    -7527    -7480    -7523    -7442    -7290    -7301 
   -7403    -7480    -7554    -7610    -7645    -7616    -7495    -7404 
   -7395    -7433    -7521    -7555    -7497    -7447    -7422    -7442 
   -7552    -7663    -7679    -7605    -7474    -7349    -7312    -7361 
   -7422    -7455    -7462    -7477    -7545    -7638    -7672    -7610 
   -7495    -7389    -7355    -7427    -7529    -7552    -7525    -7517 
   -7483    -7400    -7382    -7470    -7536    -7516    -7486    -7507 
   -7571    -7588    -7529    -7495    -7478    -7420    -7426    -7485 
   -7487    -7513    -7597    -7589    -7484    -7414    -7406    -7429 
   -7482    -7509    -7464    -7434    -7473    -7525    -7567    -7581 
   -7571    -7590    -7586    -7533    -7496    -7418    -7306    -7338 
   -7470    -7502    -7456    -7471    -7545    -7565    -7498    -7451 
   -7493    -7536    -7508    -7504    -7533    -7469    -7435    -7592 
   -7673    -7509    -7400    -7441    -7417    -7344    -7356    -7471 
   -7630    -7681    -7604    -7542    -7481    -7393    -7363    -7396 
   -7472    -7554    -7533    -7454    -7479    -7553    -7498    -7430 
   -7524    -7604    -7533    -7435    -7366    -7381    -7512    -7568 
   -7494    -7474    -7535    -7558    -7507    -7468    -7493    -7530 
   -7528    -7480    -7422    -7425    -7483    -7536    -7558    -7570 
   -7603    -7592    -7494    -7456    -7511    -7470    -7357    -7367 
   -7468    -7539    -7544    -7481    -7466    -7566    -7617    -7526 
   -7446    -7444    -7427    -7414    -7496    -7635    -7692    -7610 
   -7486    -7405    -7342    -7323    -7405    -7537    -7625    -7646 
   -7604    -7497    -7402    -7411    -7443    -7446    -7475    -7476 
   -7467    -7550    -7592    -7513    -7515    -7613    -7601    -7483 
   -7413    -7425    -7411    -7340    -7327    -7387    -7481    -7639 
   -7751    -7690    -7526    -7387    -7350    -7428    -7535    -7588 
   -7599    -7581    -7496    -7407    -7428    -7470    -7443    -7473 
   -7553    -7480    -7332    -7347    -7449    -7474    -7498    -7571 
   -7607    -7668    -7748    -7641    -7418    -7314    -7308    -7367 
   -7497    -7597    -7630    -7603    -7532    -7450    -7362    -7373 
   -7492    -7464    -7325    -7355    -7553    -7754    -7774    -7608 
   -7475    -7395    -7340    -7392    -7501    -7629    -7690    -7517 
   -7284    -7250    -7336    -7463    -7606    -7623    -7542    -7524 
   -7552    -7570    -7574    -7561    -7552    -7496    -7365    -7306 
   -7397    -7515    -7551    -7538    -7530    -7502    -7440    -7410 
   -7478    -7600    -7633    -7524    -7416    -7447    -7492    -7461 
   -7511    -7582    -7508    -7444    -7476    -7538    -7632    -7627 
   -7505    -7461    -7444    -7358    -7364    -7520    -7643    -7630 
   -7577    -7554    -7500    -7403    -7373    -7427    -7437    -7389 
   -7428    -7555    -7600    -7542    -7504    -7500    -7465    -7420 
   -7454    -7545    -7558    -7504    -7484    -7479    -7472    -7549 
   -7674    -7648    -7492    -7389    -7321    -7353    -7559    -7621 
   -7437    -7364    -7491    -7591    -7538    -7426    -7431    -7497 
   -7526    -7601    -7634    -7529    -7444    -7406    -7383    -7466 
   -7547    -7529    -7538    -7558    -7486    -7375    -7344    -7415 
   -7461    -7478    -7588    -7664    -7594    -7537    -7532    -7522 
   -7573    -7662    -7654    -7499    -7285    -7182    -7298    -7541 
   -7658    -7543    -7406    -7419    -7483    -7507    -7545    -7581 
   -7504    -7366    -7352    -7477    -7598    -7638    -7598    -7539 
   -7494    -7439    -7424    -7445    -7436    -7450    -7491    -7465 
   -7450    -7541    -7604    -7545    -7459    -7393    -7364    -7445 
   -7606    -7697    -7640    -7500    -7399    -7392    -7413    -7443 
   -7561    -7678    -7623    -7443    -7305    -7320    -7415    -7433 
   -7438    -7538    -7651    -7711    -7651    -7530    -7541    -7555 
   -7415    -7348    -7426    -7451    -7416    -7466    -7593    -7622 
   -7515    -7438    -7442    -7467    -7492    -7488    -7488    -7551 
   -7570    -7493    -7432    -7394    -7380    -7449    -7506    -7509 
   -7558    -7616    -7597    -7498    -7376    -7353    -7446    -7525 
   -7575    -7656    -7668    -7533    -7406    -7390    -7409    -7462 
   -7514    -7461    -7391    -7434    -7521    -7573    -7615    -7606 
   -7481    -7356    -7324    -7306    -7343    -7506    -7657    -7665 
   -7549    -7445    -7453    -7446    -7365    -7389    -7537    -7606 
   -7541    -7490    -7515    -7550    -7615    -7648    -7474    -7313 
   -7412    -7518    -7493    -7449    -7379    -7386    -7516    -7564 
   -7490    -7460    -7516    -7531    -7494    -7551    -7629    -7557 
   -7448    -7412    -7394    -7407    -7453    -7500    -7546    -7520 
   -7413    -7317    -7321    -7497    -7667    -7623    -7541    -7495 
   -7432    -7549    -7751    -7631    -7217    -7012    -7292    -7632 
   -7638    -7622    -7751    -7726    -7526    -7364    -7307    -7334 
   -7360    -7386    -7505    -7649    -7691    -7643    -7578    -7526 
   -7468    -7384    -7333    -7376    -7437    -7476    -7555    -7572 
   -7444    -7356    -7414    -7535    -7615    -7537    -7338    -7234 
   -7291    -7433    -7582    -7610    -7532    -7559    -7713    -7795 
   -7730    -7635    -7590    -7532    -7383    -7224    -7320    -7675 
   -7726    -7297    -7017    -7039    -7027    -7277    -7935    -8327 
   -8112    -7583    -7024    -6724    -6827    -7154    -7588    -8046 
   -8190    -7932    -7766    -7905    -7913    -7613    -7350    -7274 
   -7227    -7112    -6946    -6832    -6867    -7063    -7472    -8038 
   -8387    -8332    -8165    -8008    -7566    -6910    -6694    -7091 
   -7455    -7448    -7429    -7580    -7691    -7743    -7856    -7904 
   -7772    -7544    -7223    -6811    -6617    -6892    -7351    -7672 
   -7917    -8094    -8063    -7786    -7384    -7190    -7372    -7581 
   -7575    -7575    -7607    -7445    -7154    -6949    -7023    -7542 
   -8222    -8474    -8101    -7500    -7203    -7158    -6980    -6823 
   -6948    -7089    -7103    -7314    -7925    -8654    -8863    -8339 
   -7780    -7535    -7108    -6585    -6463    -6620    -6986    -7688 
   -8310    -8339    -7896    -7574    -7600    -7474    -7059    -7010 
   -7498    -7788    -7431    -6987    -6922    -6942    -7190    -8001 
   -8647    -8445    -7755    -7110    -6934    -7392    -7839    -7806 
   -7732    -7708    -7319    -6880    -7063    -7688    -8048    -7949 
   -7763    -7698    -7470    -6899    -6555    -6929    -7405    -7454 
   -7518    -7686    -7547    -7407    -7666    -7924    -7907    -7894 
   -7903    -7650    -7123    -6629    -6496    -6778    -7235    -7754 
   -8335    -8620    -8345    -7867    -7487    -7123    -6832    -6751 
   -6796    -6842    -7015    -7577    -8335    -8622    -8263    -7727 
   -7254    -6958    -7112    -7490    -7594    -7563    -7723    -7884 
   -7726    -7263    -6906    -7087    -7533    -7524    -7136    -7157 
   -7621    -7858    -7799    -7733    -7584    -7388    -7401    -7478 
   -7369    -7346    -7610    -7801    -7722    -7684    -7839    -7835 
   -7340    -6613    -6374    -6968    -7767    -8023    -7973    -8100 
   -8156    -7821    -7262    -6728    -6441    -6663    -7250    -7616 
   -7663    -7922    -8409    -8528    -8194    -7890    -7705    -7319 
   -6882    -6724    -6670    -6674    -6991    -7501    -7935    -8200 
   -8151    -7769    -7329    -7085    -7226    -7746    -8040    -7632 
   -7036    -6827    -6879    -7087    -7573    -8153    -8404    -8179 
   -7788    -7466    -7139    -6989    -7275    -7570    -7326    -6967 
   -7222    -7784    -7945    -7868    -7977    -8076    -7866    -7385 
   -6833    -6577    -6867    -7348    -7542    -7499    -7436    -7446 
   -7603    -7807    -7853    -7791    -7776    -7764    -7650    -7393 
   -7049    -6903    -7145    -7563    -7893    -8065    -8075    -7886 
   -7436    -6872    -6687    -7086    -7402    -7124    -6992    -7585 
   -8147    -8176    -8052    -7802    -7335    -6987    -6815    -6780 
   -7157    -7698    -7817    -7745    -7996    -8362    -8417    -8056 
   -7344    -6712    -6736    -7233    -7567    -7631    -7521    -7114 
   -6648    -6575    -6813    -7245    -8051    -8907    -9101    -8472 
   -7475    -6614    -6230    -6536    -7382    -8125    -8186    -7735 
   -7354    -7244    -7315    -7547    -7798    -7818    -7538    -7077 
   -6720    -6790    -7288    -7860    -8134    -8014    -7700    -7417 
   -7274    -7329    -7619    -8066    -8271    -7787    -6861    -6263 
   -6378    -7019    -7778    -8231    -8183    -7839    -7558    -7492 
   -7549    -7579    -7470    -7253    -7146    -7255    -7377    -7381 
   -7429    -7549    -7545    -7483    -7547    -7665    -7766    -7816 
   -7664    -7389    -7294    -7370    -7363    -7257    -7240    -7399 
   -7624    -7741    -7723    -7716    -7744    -7592    -7213    -6947 
   -7043    -7342    -7623    -7901    -8204    -8319    -8027    -7463 
   -6982    -6793    -6863    -7045    -7267    -7429    -7367    -7167 
   -7109    -7337    -7792    -8212    -8371    -8355    -8252    -7921 
   -7360    -6809    -6516    -6692    -7216    -7510    -7406    -7392 
   -7562    -7633    -7814    -8199    -8190    -7570    -6949    -6726 
   -6783    -7010    -7403    -7870    -8164    -8136    -7978    -7808 
   -7500    -7188    -7180    -7402    -7561    -7554    -7406    -7212 
   -7091    -7092    -7276    -7624    -7892    -7900    -7807    -7813 
   -7743    -7418    -7100    -7055    -7214    -7513    -7837    -7819 
   -7414    -7135    -7196    -7303    -7429    -7755    -8009    -7850 
   -7473    -7229    -7274    -7556    -7751    -7675    -7601    -7614 
   -7430    -7130    -7136    -7458    -7661    -7561    -7450    -7459 
   -7328    -7091    -7105    -7382    -7752    -8147    -8333    -8095 
   -7607    -7286    -7401    -7724    -7756    -7455    -7215    -7159 
   -7038    -6725    -6486    -6750    -7521    -8222    -8350    -7996 
   -7602    -7475    -7587    -7766    -7869    -7805    -7578    -7276 
   -7047    -7046    -7256    -7505    -7652    -7613    -7422    -7304 
   -7352    -7311    -7138    -7191    -7515    -7829    -8055    -8110 
   -7862    -7486    -7208    -7087    -7216    -7568    -7856    -7857 
   -7644    -7434    -7326    -7283    -7237    -7154    -7112    -7209 
   -7365    -7493    -7669    -7964    -8193    -8062    -7634    -7252 
   -7040    -7040    -7354    -7738    -7856    -7834    -7799    -7532 
   -7102    -6926    -7028    -7128    -7234    -7466    -7728    -7944 
   -8089    -8004    -7703    -7401    -7146    -6963    -7001    -7275 
   -7602    -7743    -7638    -7512    -7525    -7521    -7415    -7469 
   -7810    -8093    -7983    -7595    -7250    -7110    -7135    -7216 
   -7310    -7421    -7496    -7501    -7486    -7432    -7335    -7367 
   -7591    -7845    -7949    -7810    -7536    -7374    -7373    -7457 
   -7592    -7642    -7591    -7645    -7710    -7420    -6939    -6866 
   -7256    -7568    -7536    -7403    -7388    -7421    -7361    -7303 
   -7517    -7908    -8030    -7803    -7582    -7561    -7626    -7610 
   -7455    -7256    -7180    -7291    -7520    -7729    -7761    -7603 
   -7383    -7169    -6985    -6887    -6925    -7127    -7473    -7832 
   -8014    -8023    -8056    -8142    -8119    -7860    -7382    -6962 
   -6887    -7054    -7245    -7423    -7511    -7479    -7456    -7474 
   -7494    -7557    -7629    -7607    -7562    -7608    -7640    -7554 
   -7436    -7413    -7517    -7574    -7382    -7104    -7026    -7132 
   -7347    -7711    -8092    -8236    -8114    -7859    -7564    -7330 
   -7247    -7333    -7477    -7421    -7084    -6781    -6837    -7206 
   -7630    -7935    -8047    -7933    -7677    -7461    -7402    -7553 
   -7862    -8016    -7784    -7354    -6975    -6760    -6871    -7266 
   -7608    -7744    -7767    -7707    -7590    -7540    -7638    -7779 
   -7792    -7637    -7359    -7075    -6979    -7088    -7226    -7349 
   -7503    -7634    -7717    -7771    -7757    -7672    -7614    -7621 
   -7558    -7339    -7173    -7281    -7498    -7554    -7509    -7511 
   -7536    -7536    -7453    -7274    -7201    -7382    -7658    -7807 
   -7806    -7707    -7484    -7250    -7239    -7440    -7629    -7671 
   -7596    -7565    -7662    -7747    -7681    -7511    -7324    -7121 
   -6966    -7014    -7271    -7601    -7890    -8017    -7901    -7659 
   -7490    -7421    -7362    -7358    -7532    -7730    -7632    -7300 
   -7119    -7183    -7290    -7362    -7361    -7257    -7223    -7367 
   -7529    -7677    -7941    -8218    -8254    -8045    -7781    -7529 
   -7256    -7018    -6912    -6937    -7037    -7159    -7277    -7401 
   -7543    -7731    -7933    -7974    -7805    -7643    -7597    -7551 
   -7491    -7490    -7492    -7480    -7488    -7412    -7282    -7308 
   -7403    -7297    -7038    -6931    -7132    -7463    -7669    -7745 
   -7831    -7908    -7871    -7746    -7602    -7428    -7300    -7331 
   -7387    -7298    -7222    -7362    -7550    -7537    -7455    -7555 
   -7690    -7600    -7394    -7296    -7359    -7554    -7733    -7768 
   -7769    -7794    -7718    -7551    -7411    -7302    -7235    -7283 
   -7405    -7475    -7453    -7345    -7216    -7213    -7402    -7672 
   -7874    -7948    -7956    -7935    -7776    -7496    -7302    -7252 
   -7223    -7203    -7310    -7505    -7552    -7397    -7272    -7311 
   -7359    -7319    -7383    -7630    -7786    -7689    -7573    -7644 
   -7770    -7742    -7549    -7324    -7230    -7323    -7469    -7555 
   -7642    -7673    -7494    -7179    -6928    -6857    -7015    -7324 
   -7633    -7863    -7961    -7940    -7944    -7982    -7914    -7729 
   -7501    -7261    -7060    -6977    -7030    -7100    -7116    -7196 
   -7379    -7569    -7751    -7899    -7909    -7792    -7682    -7646 
   -7615    -7515    -7374    -7294    -7330    -7417    -7458    -7423 
   -7344    -7308    -7384    -7532    -7655    -7719    -7765    -7817 
