Origin Time       2015/01/03 04:55:00
Lat.              36.522
Long.             140.572
Depth. (km)       58
Mag.              3.7
Station Code      CHBH19
Station Lat.      35.5943
Station Long.     140.5107
Station Height(m) 1
Record Time       2015/01/03 04:55:53
Sampling Freq(Hz) 100Hz
Duration Time(s)  120
Dir.              5
Scale Factor      3920(gal)/6170801
Max. Acc. (gal)   0.720
Last Correction   2015/01/03 04:55:38
Memo.             
[...]
   -2338    -2366    -2384    -2375    -2360    -2349    -2339    -2341 
   -2350    -2355    -2352    -2354    -2371    -2392    -2388    -2355 
   -2336    -2360    -2388    -2372    -2326    -2294    -2295    -2325 
   -2385    -2428    -2414    -2368    -2321    -2311    -2348    -2379 
   -2377    -2368    -2365    -2372    -2378    -2361    -2343    -2343 
   -2343    -2358    -2383    -2369    -2335    -2327    -2349    -2378 
   -2375    -2339    -2334    -2385    -2433    -2409    -2336    -2287 
   -2286    -2325    -2382    -2416    -2407    -2386    -2373    -2355 
   -2341    -2356    -2368    -2345    -2325    -2343    -2359    -2351 
   -2346    -2368    -2394    -2381    -2353    -2378    -2414    -2383 
   -2329    -2317    -2332    -2355    -2374    -2357    -2308    -2285 
   -2319    -2375    -2408    -2413    -2421    -2417    -2347    -2267 
   -2269    -2325    -2368    -2389    -2385    -2358    -2338    -2342 
   -2369    -2408    -2405    -2335    -2286    -2317    -2356    -2359 
   -2348    -2327    -2299    -2307    -2374    -2448    -2440    -2357 
   -2300    -2311    -2345    -2358    -2337    -2326    -2341    -2349 
   -2354    -2360    -2354    -2350    -2366    -2393    -2390    -2348 
   -2308    -2284    -2296    -2362    -2414    -2395    -2348    -2325 
   -2330    -2358    -2384    -2379    -2357    -2343    -2329    -2302 
   -2305    -2371    -2440    -2436    -2365    -2314    -2334    -2351 
   -2331    -2340    -2358    -2327    -2262    -2237    -2340    -2487 
   -2502    -2419    -2356    -2307    -2294    -2373    -2438    -2364 
   -2257    -2276    -2390    -2434    -2338    -2238    -2267    -2347 
   -2387    -2461    -2552    -2496    -2320    -2218    -2235    -2308 
   -2374    -2372    -2339    -2360    -2406    -2393    -2319    -2266 
   -2296    -2366    -2426    -2460    -2424    -2339    -2307    -2320 
   -2301    -2312    -2388    -2382    -2309    -2360    -2491    -2516 
   -2425    -2324    -2277    -2291    -2346    -2360    -2310    -2311 
   -2394    -2444    -2405    -2326    -2275    -2279    -2316    -2395 
   -2496    -2481    -2323    -2220    -2271    -2377    -2436    -2413 
   -2365    -2375    -2405    -2384    -2359    -2386    -2361    -2257 
   -2251    -2393    -2500    -2443    -2333    -2340    -2388    -2292 
   -2161    -2227    -2431    -2549    -2498    -2368    -2272    -2246 
   -2314    -2463    -2530    -2429    -2326    -2307    -2284    -2284 
   -2357    -2411    -2389    -2329    -2306    -2381    -2466    -2431 
   -2339    -2327    -2397    -2434    -2353    -2220    -2207    -2346 
   -2459    -2482    -2484    -2435    -2315    -2237    -2293    -2403 
   -2415    -2356    -2345    -2377    -2383    -2331    -2269    -2289 
   -2369    -2407    -2412    -2440    -2441    -2383    -2324    -2302 
   -2319    -2380    -2442    -2406    -2266    -2225    -2378    -2476 
   -2379    -2322    -2402    -2425    -2365    -2340    -2340    -2355 
   -2394    -2396    -2362    -2330    -2300    -2313    -2353    -2371 
   -2426    -2480    -2428    -2345    -2327    -2332    -2302    -2307 
   -2397    -2452    -2418    -2382    -2356    -2303    -2261    -2329 
   -2450    -2435    -2340    -2330    -2361    -2382    -2397    -2370 
   -2310    -2288    -2348    -2454    -2479    -2377    -2267    -2256 
   -2319    -2393    -2431    -2388    -2315    -2319    -2347    -2347 
   -2425    -2547    -2516    -2325    -2181    -2205    -2318    -2411 
   -2458    -2451    -2394    -2308    -2235    -2229    -2304    -2429 
   -2482    -2375    -2303    -2369    -2361    -2308    -2420    -2528 
   -2419    -2265    -2258    -2343    -2393    -2407    -2407    -2345 
   -2294    -2334    -2324    -2249    -2309    -2487    -2542    -2402 
   -2272    -2313    -2407    -2402    -2359    -2339    -2308    -2291 
   -2343    -2460    -2530    -2420    -2228    -2175    -2267    -2350 
   -2371    -2415    -2491    -2442    -2264    -2204    -2350    -2481 
   -2469    -2448    -2435    -2317    -2226    -2316    -2405    -2319 
   -2207    -2259    -2428    -2522    -2475    -2384    -2302    -2227 
   -2224    -2303    -2391    -2453    -2456    -2379    -2323    -2363 
   -2387    -2354    -2339    -2317    -2307    -2357    -2403    -2435 
   -2451    -2397    -2316    -2261    -2206    -2158    -2208    -2405 
   -2578    -2558    -2429    -2333    -2323    -2355    -2338    -2300 
   -2294    -2284    -2283    -2349    -2442    -2462    -2425    -2418 
   -2367    -2267    -2304    -2402    -2372    -2333    -2350    -2306 
   -2250    -2301    -2393    -2382    -2320    -2340    -2406    -2412 
   -2367    -2343    -2355    -2377    -2400    -2410    -2404    -2420 
   -2406    -2308    -2244    -2270    -2295    -2316    -2350    -2360 
   -2350    -2355    -2391    -2418    -2397    -2354    -2325    -2321 
   -2335    -2373    -2443    -2450    -2323    -2228    -2282    -2352 
   -2376    -2413    -2414    -2371    -2393    -2419    -2303    -2195 
   -2299    -2442    -2408    -2331    -2355    -2414    -2428    -2380 
   -2327    -2324    -2321    -2279    -2283    -2392    -2485    -2413 
   -2290    -2308    -2379    -2349    -2303    -2341    -2418    -2471 
   -2452    -2372    -2301    -2281    -2333    -2407    -2396    -2356 
   -2408    -2450    -2346    -2193    -2159    -2254    -2361    -2387 
   -2352    -2356    -2423    -2463    -2433    -2396    -2409    -2412 
   -2370    -2369    -2387    -2336    -2279    -2259    -2231    -2266 
   -2407    -2499    -2432    -2314    -2263    -2286    -2374    -2469 
   -2458    -2359    -2294    -2331    -2436    -2478    -2418    -2346 
   -2293    -2270    -2317    -2402    -2427    -2347    -2246    -2226 
   -2287    -2385    -2455    -2439    -2332    -2240    -2301    -2437 
   -2473    -2456    -2450    -2371    -2259    -2256    -2321    -2355 
   -2378    -2370    -2325    -2363    -2448    -2414    -2316    -2300 
   -2351    -2380    -2355    -2323    -2312    -2317    -2385    -2483 
   -2447    -2309    -2266    -2334    -2396    -2415    -2412    -2372 
   -2299    -2270    -2312    -2416    -2524    -2482    -2300    -2182 
   -2218    -2329    -2385    -2378    -2378    -2370    -2331    -2285 
   -2325    -2485    -2571    -2453    -2299    -2267    -2284    -2237 
   -2235    -2377    -2444    -2327    -2283    -2393    -2430    -2370 
   -2392    -2441    -2373    -2285    -2342    -2481    -2473    -2305 
   -2225    -2284    -2321    -2296    -2282    -2341    -2442    -2459 
   -2380    -2323    -2333    -2355    -2336    -2299    -2313    -2372 
   -2437    -2479    -2451    -2381    -2344    -2315    -2279    -2261 
   -2251    -2290    -2388    -2435    -2425    -2421    -2373    -2310 
   -2324    -2334    -2277    -2289    -2405    -2472    -2449    -2397 
   -2337    -2319    -2357    -2399    -2438    -2415    -2261    -2144 
   -2215    -2354    -2451    -2476    -2412    -2331    -2301    -2337 
   -2408    -2453    -2434    -2361    -2299    -2269    -2249    -2316 
   -2432    -2428    -2370    -2385    -2377    -2291    -2243    -2288 
   -2354    -2360    -2376    -2498    -2567    -2422    -2227    -2190 
   -2294    -2398    -2427    -2405    -2361    -2326    -2340    -2381 
   -2410    -2389    -2293    -2208    -2237    -2347    -2464    -2503 
   -2410    -2294    -2277    -2362    -2472    -2494    -2395    -2279 
   -2265    -2329    -2350    -2344    -2395    -2414    -2336    -2317 
   -2397    -2406    -2362    -2408    -2487    -2444    -2282    -2188 
   -2260    -2343    -2340    -2372    -2430    -2362    -2267    -2340 
   -2478    -2474    -2378    -2361    -2429    -2436    -2345    -2300 
   -2359    -2381    -2283    -2229    -2315    -2388    -2408    -2443 
   -2415    -2350    -2345    -2348    -2351    -2373    -2327    -2280 
   -2379    -2522    -2549    -2473    -2339    -2214    -2194    -2257 
   -2343    -2454    -2520    -2433    -2238    -2110    -2161    -2348 
   -2558    -2679    -2619    -2428    -2267    -2202    -2212    -2269 
   -2309    -2325    -2384    -2454    -2437    -2352    -2289    -2292 
   -2326    -2325    -2330    -2404    -2470    -2445    -2360    -2313 
   -2373    -2451    -2420    -2334    -2313    -2327    -2296    -2266 
   -2284    -2318    -2368    -2424    -2435    -2421    -2410    -2382 
   -2390    -2435    -2371    -2257    -2251    -2269    -2289    -2422 
   -2569    -2544    -2370    -2241    -2236    -2257    -2284    -2389 
   -2499    -2435    -2236    -2214    -2450    -2594    -2467    -2316 
   -2307    -2341    -2355    -2331    -2248    -2187    -2230    -2349 
   -2461    -2531    -2557    -2442    -2248    -2244    -2355    -2324 
   -2289    -2399    -2470    -2376    -2273    -2336    -2467    -2458 
   -2360    -2308    -2247    -2156    -2197    -2403    -2554    -2511 
   -2418    -2366    -2319    -2337    -2403    -2374    -2280    -2275 
   -2361    -2450    -2514    -2491    -2333    -2214    -2294    -2412 
   -2403    -2375    -2389    -2307    -2160    -2204    -2445    -2548 
   -2417    -2356    -2467    -2499    -2373    -2298    -2347    -2344 
   -2271    -2279    -2308    -2301    -2352    -2412    -2416    -2430 
   -2427    -2336    -2201    -2148    -2273    -2436    -2471    -2513 
   -2561    -2445    -2314    -2318    -2353    -2373    -2355    -2290 
   -2251    -2239    -2259    -2338    -2407    -2428    -2420    -2395 
   -2365    -2305    -2270    -2342    -2418    -2404    -2362    -2350 
   -2367    -2356    -2316    -2349    -2443    -2451    -2367    -2313 
   -2304    -2264    -2177    -2141    -2275    -2521    -2605    -2430 
   -2293    -2340    -2361    -2329    -2366    -2419    -2431    -2423 
   -2393    -2295    -2140    -2085    -2226    -2445    -2531    -2450 
   -2408    -2444    -2388    -2299    -2302    -2284    -2238    -2297 
   -2412    -2457    -2448    -2417    -2368    -2372    -2414    -2369 
   -2277    -2289    -2341    -2316    -2322    -2404    -2454    -2433 
   -2338    -2238    -2222    -2274    -2406    -2505    -2454    -2407 
   -2384    -2272    -2190    -2232    -2332    -2408    -2363    -2265 
   -2291    -2421    -2550    -2587    -2468    -2295    -2222    -2273 
   -2355    -2371    -2304    -2232    -2262    -2389    -2491    -2486 
   -2369    -2283    -2354    -2441    -2434    -2371    -2229    -2143 
   -2311    -2586    -2668    -2493    -2279    -2232    -2273    -2292 
   -2294    -2279    -2307    -2430    -2525    -2440    -2266    -2234 
   -2326    -2319    -2213    -2197    -2325    -2499    -2597    -2576 
   -2499    -2416    -2316    -2185    -2117    -2233    -2402    -2400 
   -2317    -2372    -2507    -2525    -2377    -2250    -2310    -2411 
   -2453    -2461    -2310    -2125    -2194    -2365    -2390    -2394 
   -2467    -2435    -2308    -2312    -2418    -2478    -2491    -2387 
   -2180    -2139    -2344    -2552    -2576    -2466    -2338    -2193 
   -2093    -2210    -2429    -2488    -2468    -2454    -2374    -2287 
   -2230    -2229    -2376    -2491    -2392    -2282    -2293    -2342 
   -2380    -2383    -2388    -2368    -2219    -2127    -2279    -2408 
   -2349    -2341    -2386    -2273    -2163    -2275    -2502    -2674 
   -2686    -2580    -2547    -2587    -2571    -2645    -2874    -2829 
   -2293    -1753    -1617    -1702    -1736    -1720    -1778    -1982 
   -2239    -2456    -2758    -3084    -3102    -2888    -2773    -2645 
   -2356    -2058    -1803    -1703    -2033    -2588    -2837    -2854 
   -2956    -2948    -2730    -2498    -2095    -1517    -1290    -1562 
   -1997    -2416    -2674    -2591    -2361    -2434    -2889    -3204 
   -2875    -2210    -1921    -2104    -2348    -2431    -2376    -2227 
   -2146    -2278    -2266    -1797    -1504    -1952    -2541    -2763 
   -3016    -3303    -3091    -2610    -2438    -2394    -2140    -1820 
   -1703    -1935    -2369    -2687    -2866    -2888    -2448    -1781 
   -1554    -1691    -1847    -2182    -2633    -2833    -2805    -2770 
   -2738    -2644    -2462    -2293    -2334    -2413    -2231    -2100 
   -2307    -2398    -2167    -2012    -2080    -2301    -2575    -2589 
   -2377    -2302    -2309    -2256    -2226    -2202    -2374    -2917 
   -3168    -2530    -1739    -1698    -2087    -2356    -2562    -2590 
   -2315    -2197    -2424    -2497    -2202    -2006    -2235    -2631 
   -2922    -3014    -2879    -2786    -2777    -2442    -1889    -1612 
   -1643    -1818    -2049    -2164    -2205    -2341    -2481    -2652 
   -2898    -2921    -2714    -2487    -2163    -1856    -1832    -2111 
   -2530    -2656    -2375    -2407    -3010    -3302    -2855    -2320 
   -1992    -1604    -1424    -1796    -2226    -2154    -1835    -1911 
   -2505    -3067    -3163    -2964    -2647    -2140    -1705    -1685 
   -1875    -2090    -2478    -2887    -3022    -3030    -3077    -2949 
   -2536    -2161    -2083    -2101    -1999    -1915    -2074    -2474 
   -2787    -2691    -2308    -2016    -2007    -2115    -2078    -1901 
   -1814    -2090    -2711    -3129    -2929    -2518    -2415    -2394 
   -2128    -2010    -2480    -3143    -3302    -2897    -2328    -1803 
   -1418    -1359    -1617    -1967    -2316    -2712    -2990    -3013 
   -2999    -2929    -2596    -2275    -2132    -1948    -1881    -2133 
   -2342    -2245    -2124    -2204    -2375    -2522    -2580    -2445 
   -2214    -2255    -2542    -2550    -2290    -2355    -2756    -2989 
   -2951    -2840    -2598    -2086    -1547    -1323    -1272    -1225 
   -1478    -2067    -2597    -2957    -3248    -3349    -3189    -2958 
   -2739    -2539    -2478    -2450    -2306    -2226    -2297    -2339 
   -2231    -1932    -1549    -1374    -1520    -1818    -2226    -2789 
   -3167    -2981    -2562    -2570    -2932    -3041    -2841    -2628 
   -2297    -1884    -1829    -2091    -2178    -2051    -2103    -2471 
   -2808    -2627    -1949    -1461    -1619    -2114    -2608    -3081 
   -3326    -3023    -2403    -2108    -2234    -2189    -1802    -1735 
   -2218    -2502    -2213    -1988    -2355    -2979    -3304    -3220 
   -2805    -2170    -1694    -1719    -2098    -2372    -2366    -2375 
   -2481    -2282    -1723    -1485    -2046    -2934    -3395    -3255 
   -2733    -2071    -1598    -1609    -2070    -2624    -2944    -2948 
   -2657    -2242    -1997    -2019    -2209    -2406    -2489    -2505 
   -2467    -2290    -2102    -2179    -2567    -2980    -2984    -2422 
   -1734    -1475    -1588    -1718    -1943    -2394    -2809    -3022 
   -3032    -2758    -2423    -2416    -2596    -2572    -2341    -2065 
   -1861    -1923    -2195    -2303    -2227    -2318    -2618    -2880 
   -2940    -2757    -2414    -2096    -1955    -1998    -2113    -2188 
   -2200    -2187    -2220    -2397    -2610    -2629    -2514    -2472 
   -2508    -2525    -2430    -2180    -1997    -2192    -2572    -2551 
   -2067    -1792    -2074    -2425    -2514    -2624    -2756    -2500 
   -1993    -1904    -2393    -2953    -3099    -2827    -2579    -2624 
   -2672    -2444    -2057    -1708    -1545    -1640    -1858    -2089 
   -2402    -2705    -2785    -2679    -2573    -2547    -2594    -2601 
   -2488    -2486    -2731    -2810    -2378    -1738    -1423    -1632 
   -2116    -2471    -2661    -2845    -2809    -2452    -2183    -2084 
   -1911    -1904    -2304    -2744    -2825    -2567    -2298    -2371 
   -2686    -2811    -2621    -2295    -2006    -1864    -1858    -1924 
   -2059    -2275    -2507    -2576    -2464    -2443    -2522    -2405 
   -2221    -2330    -2666    -2912    -2897    -2725    -2609    -2471 
   -2087    -1667    -1596    -1800    -2110    -2597    -3041    -3002 
   -2445    -1717    -1250    -1346    -1963    -2737    -3232    -3249 
   -2928    -2522    -2268    -2285    -2475    -2727    -2915    -2754 
   -2236    -1823    -1751    -1866    -2115    -2450    -2603    -2472 
   -2344    -2477    -2656    -2542    -2225    -2006    -1931    -1912 
   -1923    -1982    -2243    -2727    -3033    -2924    -2743    -2790 
   -2866    -2694    -2330    -1981    -1788    -1767    -1808    -1887 
   -2045    -2176    -2281    -2524    -2857    -3019    -2847    -2545 
   -2428    -2399    -2238    -2131    -2275    -2476    -2505    -2339 
   -2092    -1993    -2122    -2317    -2526    -2749    -2758    -2419 
   -2005    -1819    -1904    -2204    -2498    -2491    -2309    -2312 
   -2475    -2578    -2657    -2767    -2731    -2486    -2291    -2278 
   -2315    -2373    -2435    -2318    -2052    -1941    -2019    -2016 
   -1934    -2043    -2366    -2687    -2840    -2773    -2622    -2598 
   -2713    -2760    -2539    -2127    -1826    -1770    -1893    -2085 
   -2209    -2298    -2505    -2696    -2646    -2488    -2422    -2405 
   -2423    -2485    -2458    -2274    -2013    -1894    -2097    -2366 
   -2431    -2503    -2692    -2773    -2676    -2513    -2366    -2264 
   -2148    -2039    -2120    -2378    -2569    -2584    -2474    -2368 
   -2388    -2456    -2436    -2366    -2325    -2246    -2099    -2089 
   -2306    -2456    -2312    -2053    -2007    -2249    -2549    -2708 
   -2680    -2524    -2421    -2506    -2652    -2569    -2273    -2122 
   -2190    -2223    -2214    -2356    -2545    -2484    -2200    -2021 
   -2100    -2278    -2365    -2307    -2198    -2236    -2485    -2715 
   -2642    -2314    -2082    -2125    -2334    -2633    -2861    -2721 
   -2304    -2058    -2111    -2260    -2402    -2528    -2546    -2345 
   -2034    -1904    -2025    -2245    -2525    -2771    -2782    -2616 
   -2520    -2529    -2527    -2490    -2417    -2282    -2151    -2103 
   -2123    -2171    -2227    -2260    -2235    -2250    -2424    -2597 
   -2557    -2351    -2174    -2174    -2365    -2640    -2792    -2629 
   -2249    -1996    -2059    -2310    -2496    -2517    -2447    -2312 
   -2086    -1935    -2120    -2569    -2824    -2627    -2275    -2122 
   -2139    -2193    -2303    -2466    -2562    -2577    -2565    -2452 
   -2286    -2284    -2448    -2550    -2421    -2105    -1783    -1578 
   -1604    -1974    -2529    -2950    -3142    -3158    -3011    -2783 
   -2577    -2384    -2184    -1980    -1804    -1755    -1841    -1974 
   -2190    -2568    -2918    -2939    -2677    -2452    -2448    -2548 
   -2509    -2335    -2248    -2243    -2158    -2080    -2148    -2269 
   -2331    -2360    -2377    -2394    -2459    -2553    -2572    -2544 
   -2598    -2663    -2521    -2243    -2094    -2050    -1923    -1785 
   -1826    -2026    -2231    -2422    -2704    -2996    -3039    -2776 
   -2397    -2137    -2126    -2255    -2322    -2276    -2225    -2277 
   -2341    -2281    -2237    -2355    -2461    -2437    -2439    -2508 
   -2488    -2387    -2341    -2350    -2298    -2102    -1895    -1973 
   -2365    -2734    -2810    -2660    -2480    -2348    -2273    -2286 
   -2355    -2367    -2304    -2316    -2468    -2592    -2574    -2454 
   -2223    -1960    -1880    -2004    -2186    -2378    -2597    -2784 
   -2803    -2593    -2324    -2223    -2275    -2334    -2388    -2431 
   -2363    -2238    -2230    -2345    -2433    -2393    -2271    -2216 
   -2337    -2544    -2643    -2584    -2440    -2273    -2160    -2148 
   -2150    -2133    -2222    -2437    -2551    -2452    -2325    -2320 
