Origin Time       2015/01/03 04:55:00
Lat.              36.522
Long.             140.572
Depth. (km)       58
Mag.              3.7
Station Code      CHBH19
Station Lat.      35.5943
Station Long.     140.5107
Station Height(m) -1629
Record Time       2015/01/03 04:55:53
Sampling Freq(Hz) 100Hz
Duration Time(s)  120
Dir.              2
Scale Factor      2940(gal)/6170270
Max. Acc. (gal)   0.242
Last Correction   2015/01/03 04:55:38
Memo.             
[...]
   90820    90820    90820    90821    90821    90819    90820    90820 
   90819    90821    90820    90820    90821    90819    90817    90821 
   90821    90820    90820    90821    90821    90821    90821    90820 
   90819    90821    90820    90819    90819    90819    90820    90820 
   90820    90819    90820    90822    90823    90821    90819    90819 
   90818    90819    90821    90820    90820    90821    90821    90821 
   90820    90820    90819    90820    90821    90821    90821    90821 
   90820    90819    90821    90820    90819    90820    90820    90819 
   90821    90821    90817    90819    90822    90820    90819    90820 
   90820    90823    90823    90820    90820    90820    90821    90821 
   90820    90820    90822    90821    90818    90819    90821    90820 
   90819    90819    90820    90820    90821    90821    90820    90819 
   90820    90821    90821    90819    90820    90820    90819    90820 
   90821    90820    90821    90821    90820    90820    90819    90819 
   90821    90823    90822    90821    90820    90820    90822    90823 
   90821    90821    90821    90820    90820    90820    90821    90821 
   90820    90820    90821    90820    90820    90821    90821    90821 
   90821    90820    90820    90821    90820    90820    90821    90819 
   90819    90821    90821    90819    90819    90821    90821    90820 
   90821    90822    90820    90820    90820    90819    90820    90822 
   90821    90820    90820    90821    90822    90821    90821    90822 
   90823    90821    90818    90820    90822    90820    90821    90822 
   90821    90820    90820    90820    90820    90819    90820    90821 
   90820    90820    90820    90820    90821    90819    90819    90821 
   90821    90820    90819    90820    90821    90821    90821    90822 
   90821    90821    90820    90820    90820    90821    90821    90820 
   90818    90820    90822    90821    90821    90821    90821    90820 
   90821    90822    90821    90822    90823    90821    90820    90820 
   90821    90821    90821    90821    90823    90822    90821    90820 
   90820    90821    90822    90822    90822    90822    90821    90821 
   90821    90821    90821    90821    90821    90821    90821    90820 
   90819    90820    90822    90821    90820    90820    90820    90821 
   90821    90818    90817    90819    90820    90821    90820    90820 
   90822    90822    90820    90821    90825    90829    90829    90827 
   90824    90818    90811    90808    90806    90806    90814    90824 
   90828    90831    90836    90838    90831    90822    90819    90821 
   90821    90818    90810    90802    90803    90809    90817    90826 
   90834    90843    90840    90818    90799    90807    90817    90811 
   90811    90824    90832    90829    90828    90830    90827    90828 
   90831    90820    90807    90819    90829    90807    90786    90800 
   90829    90839    90836    90832    90824    90824    90834    90827 
   90807    90804    90811    90819    90827    90812    90809    90839 
   90827    90805    90837    90847    90811    90809    90838    90828 
   90802    90817    90821    90801    90824    90853    90835    90814 
   90815    90816    90806    90811    90838    90824    90791    90823 
   90845    90818    90825    90833    90822    90828    90814    90801 
   90817    90814    90802    90795    90796    90824    90828    90812 
   90826    90833    90827    90835    90832    90831    90838    90833 
   90841    90843    90817    90800    90794    90790    90806    90818 
   90824    90833    90819    90807    90831    90838    90802    90794 
   90821    90831    90837    90846    90824    90807    90828    90828 
   90798    90805    90833    90835    90830    90826    90810    90799 
   90804    90815    90837    90856    90837    90793    90790    90837 
   90856    90833    90815    90797    90786    90799    90822    90852 
   90854    90817    90809    90820    90800    90807    90842    90833 
   90822    90826    90807    90815    90842    90829    90806    90801 
   90809    90827    90829    90819    90811    90812    90823    90822 
   90835    90855    90827    90807    90824    90812    90800    90830 
   90852    90829    90783    90787    90831    90824    90796    90820 
   90849    90839    90825    90822    90823    90825    90813    90809 
   90823    90807    90800    90845    90852    90813    90821    90844 
   90826    90824    90836    90800    90776    90811    90826    90824 
   90849    90837    90805    90826    90831    90799    90811    90825 
   90800    90800    90815    90821    90831    90820    90808    90840 
   90866    90856    90842    90820    90799    90820    90839    90813 
   90799    90809    90796    90791    90811    90810    90815    90860 
   90870    90830    90815    90816    90811    90834    90850    90810 
   90778    90802    90827    90831    90815    90775    90786    90853 
   90871    90860    90847    90814    90822    90834    90793    90783 
   90818    90840    90833    90807    90806    90826    90822    90820 
   90837    90841    90818    90790    90780    90802    90836    90842 
   90834    90816    90799    90833    90844    90796    90804    90845 
   90835    90827    90828    90808    90810    90823    90821    90826 
   90816    90805    90830    90848    90832    90801    90804    90841 
   90849    90830    90812    90792    90788    90810    90843    90857 
   90824    90799    90811    90799    90802    90860    90875    90827 
   90805    90805    90800    90816    90818    90799    90835    90871 
   90824    90780    90812    90836    90810    90824    90856    90820 
   90796    90821    90815    90804    90815    90823    90834    90824 
   90797    90810    90836    90824    90815    90834    90830    90812 
   90827    90846    90838    90813    90819    90849    90831    90793 
   90785    90782    90783    90794    90820    90846    90846    90845 
   90840    90828    90821    90805    90813    90847    90842    90824 
   90829    90811    90797    90813    90798    90794    90849    90849 
   90796    90806    90829    90821    90838    90841    90818    90811 
   90794    90791    90825    90827    90812    90829    90833    90823 
   90836    90840    90835    90824    90778    90785    90857    90854 
   90789    90784    90818    90822    90825    90845    90837    90809 
   90801    90814    90823    90834    90845    90821    90796    90811 
   90818    90803    90818    90852    90849    90833    90834    90819 
   90814    90824    90793    90764    90793    90829    90842    90823 
   90796    90822    90852    90838    90820    90793    90790    90843 
   90857    90826    90828    90847    90839    90810    90797    90801 
   90778    90768    90821    90868    90867    90840    90809    90801 
   90818    90822    90803    90809    90833    90820    90816    90842 
   90823    90801    90819    90802    90795    90830    90821    90814 
   90838    90812    90808    90858    90849    90817    90821    90795 
   90772    90829    90873    90834    90814    90835    90806    90775 
   90812    90821    90805    90841    90845    90799    90803    90837 
   90844    90836    90824    90804    90807    90824    90798    90786 
   90841    90863    90830    90831    90832    90803    90786    90792 
   90815    90822    90813    90828    90831    90830    90844    90830 
   90834    90849    90802    90760    90793    90838    90832    90806 
   90807    90820    90820    90824    90842    90846    90826    90820 
   90823    90822    90828    90812    90793    90815    90814    90793 
   90831    90845    90795    90788    90826    90843    90828    90808 
   90821    90842    90849    90840    90792    90777    90829    90824 
   90787    90828    90856    90828    90825    90826    90800    90788 
   90819    90853    90825    90792    90816    90832    90832    90847 
   90828    90789    90789    90789    90790    90829    90848    90827 
   90830    90848    90831    90810    90810    90816    90807    90803 
   90841    90840    90782    90793    90837    90837    90851    90858 
   90812    90787    90808    90819    90811    90814    90821    90811 
   90814    90841    90834    90802    90819    90848    90828    90803 
   90811    90832    90850    90845    90797    90765    90804    90829 
   90807    90816    90837    90852    90853    90812    90797    90816 
   90805    90804    90822    90820    90831    90847    90822    90801 
   90821    90826    90802    90811    90837    90836    90822    90816 
   90819    90826    90822    90810    90809    90821    90845    90838 
   90787    90797    90851    90832    90799    90810    90812    90816 
   90831    90827    90826    90830    90820    90816    90801    90786 
   90821    90835    90803    90814    90839    90835    90836    90818 
   90786    90808    90847    90836    90821    90833    90813    90785 
   90815    90834    90805    90816    90857    90850    90832    90840 
   90834    90823    90818    90788    90779    90807    90808    90784 
   90804    90868    90880    90816    90776    90799    90825    90839 
   90845    90820    90797    90825    90855    90827    90802    90826 
   90832    90824    90839    90817    90776    90798    90829    90822 
   90814    90813    90830    90847    90820    90796    90801    90805 
   90825    90849    90851    90843    90823    90801    90805    90831 
   90832    90805    90802    90800    90787    90825    90859    90849 
   90848    90827    90804    90836    90836    90796    90811    90829 
   90795    90772    90804    90863    90860    90801    90810    90856 
   90826    90783    90791    90807    90826    90847    90841    90828 
   90844    90854    90815    90788    90803    90799    90815    90857 
   90842    90825    90832    90799    90795    90823    90796    90788 
   90840    90864    90850    90819    90786    90796    90847    90851 
   90807    90827    90854    90800    90787    90828    90798    90763 
   90804    90844    90841    90852    90856    90813    90815    90845 
   90797    90789    90855    90839    90787    90809    90824    90804 
   90820    90844    90818    90796    90832    90856    90832    90815 
   90820    90824    90815    90800    90802    90817    90816    90817 
   90844    90846    90814    90812    90827    90829    90834    90832 
   90828    90848    90847    90808    90802    90805    90767    90785 
   90852    90828    90803    90859    90847    90784    90812    90841 
   90811    90821    90823    90793    90814    90806    90772    90842 
   90890    90814    90780    90829    90842    90826    90841    90851 
   90810    90761    90767    90816    90845    90836    90831    90855 
   90860    90816    90789    90807    90813    90794    90805    90844 
   90797    90733    90809    90896    90866    90825    90829    90831 
   90813    90807    90814    90799    90800    90836    90859    90854 
   90825    90809    90806    90771    90775    90851    90858    90815 
   90830    90824    90810    90851    90834    90780    90783    90792 
   90813    90845    90823    90806    90844    90857    90816    90814 
   90847    90802    90776    90853    90850    90780    90795    90836 
   90835    90831    90832    90824    90822    90819    90811    90827 
   90812    90761    90803    90865    90817    90781    90820    90842 
   90842    90826    90818    90857    90856    90796    90809    90859 
   90808    90751    90809    90863    90829    90807    90827    90833 
   90842    90843    90819    90833    90840    90767    90754    90831 
   90848    90822    90818    90795    90775    90808    90865    90888 
   90851    90802    90783    90792    90828    90859    90847    90815 
   90781    90764    90803    90843    90838    90831    90844    90857 
   90839    90802    90797    90816    90835    90838    90811    90803 
   90829    90843    90839    90826    90788    90770    90816    90830 
   90788    90831    90900    90836    90765    90827    90877    90810 
   90760    90802    90839    90821    90783    90779    90831    90855 
   90845    90880    90887    90830    90795    90797    90796    90781 
   90758    90771    90861    90920    90862    90823    90862    90853 
   90778    90758    90786    90774    90788    90832    90812    90819 
   90899    90890    90824    90849    90836    90740    90753    90808 
   90793    90779    90809    90875    90877    90830    90849    90855 
   90837    90829    90765    90747    90827    90853    90807    90816 
   90854    90829    90815    90839    90820    90795    90814    90851 
   90870    90841    90795    90791    90807    90798    90798    90811 
   90818    90838    90859    90843    90819    90829    90829    90801 
   90820    90856    90818    90778    90810    90802    90761    90826 
   90898    90859    90830    90860    90847    90801    90804    90816 
   90826    90848    90838    90836    90815    90727    90677    90692 
   90713    90739    90768    90778    90798    90886    90998    91045 
   91062    91111    91099    90910    90692    90624    90572    90432 
   90441    90669    90811    90883    91122    91297    91171    90943 
   90800    90718    90574    90436    90546    90707    90596    90560 
   90916    91205    91141    91081    91129    91052    90867    90681 
   90509    90436    90551    90742    90840    90908    91028    91027 
   90891    90859    90844    90668    90605    90743    90795    90899 
   91236    91329    90955    90614    90544    90530    90508    90562 
   90691    90841    91005    91183    91247    90979    90509    90422 
   90755    90867    90739    90806    90956    90985    91009    90987 
   90838    90690    90604    90596    90707    90836    90897    90918 
   90910    90870    90864    90948    90966    90786    90649    90748 
   90829    90715    90616    90698    90878    91018    91079    91032 
   90799    90594    90698    90837    90771    90779    90912    90834 
   90638    90740    91045    91109    90943    90808    90673    90588 
   90733    90871    90776    90681    90750    90910    90995    90852 
   90698    90776    90865    90825    90853    90915    90786    90653 
   90813    90971    90872    90853    90994    90932    90688    90621 
   90722    90730    90768    90994    91082    90882    90683    90634 
   90716    90850    90811    90700    90849    91013    90855    90731 
   90864    90934    90875    90876    90899    90860    90815    90827 
   90841    90798    90756    90786    90876    90890    90794    90735 
   90694    90645    90723    90836    90839    90808    90807    90871 
   90956    90873    90711    90739    90870    90931    90918    90835 
   90796    90881    90905    90806    90773    90827    90889    90949 
   90865    90652    90605    90712    90712    90665    90783    90965 
   91015    90955    90873    90875    90983    91012    90889    90718 
   90565    90521    90661    90856    90896    90777    90762    90882 
   90910    90904    90842    90645    90702    91032    91114    90889 
   90692    90722    90866    90871    90807    90815    90805    90791 
   90777    90729    90737    90731    90706    90857    91016    90982 
   90955    90916    90802    90903    91037    90778    90465    90493 
   90663    90830    90946    90907    90842    90808    90756    90819 
   90939    90908    90781    90702    90789    91007    91066    90879 
   90699    90734    90863    90820    90674    90646    90698    90812 
   90951    90878    90732    90833    90955    90884    90811    90821 
   90891    90928    90821    90728    90768    90844    90900    90835 
   90624    90554    90730    90833    90793    90909    91166    91198 
   90924    90653    90600    90625    90599    90707    90977    91054 
   90881    90795    90865    90903    90856    90782    90724    90716 
   90738    90767    90842    90924    90927    90871    90835    90833 
   90794    90751    90806    90849    90788    90709    90681    90753 
   90854    90925    91048    91096    90923    90727    90708    90752 
   90705    90678    90808    90906    90806    90748    90845    90848 
   90742    90717    90777    90854    90932    90958    90917    90895 
   90890    90822    90731    90730    90845    90912    90802    90696 
   90781    90911    90865    90743    90761    90837    90832    90808 
   90755    90695    90758    90859    90891    90910    90889    90823 
   90771    90759    90864    90947    90816    90704    90778    90829 
   90817    90841    90835    90801    90835    90852    90787    90797 
   90904    90908    90810    90772    90792    90796    90804    90851 
   90852    90796    90833    90920    90880    90775    90769    90824 
   90780    90662    90662    90779    90852    90878    90935    90984 
   90909    90797    90858    90946    90825    90674    90686    90740 
   90778    90853    90875    90807    90779    90836    90878    90836 
   90778    90810    90902    90900    90770    90708    90823    90910 
   90874    90850    90834    90797    90778    90719    90684    90786 
   90908    90986    91014    90883    90693    90646    90724    90837 
   90931    90942    90862    90747    90703    90795    90895    90858 
   90783    90780    90781    90768    90777    90778    90772    90806 
   90871    90908    90894    90875    90881    90892    90879    90810 
   90757    90819    90844    90726    90702    90855    90921    90810 
   90725    90753    90822    90898    90909    90832    90793    90815 
   90821    90796    90819    90917    90923    90780    90680    90669 
   90679    90758    90886    90949    90930    90890    90879    90884 
   90839    90765    90756    90793    90809    90803    90810    90856 
   90868    90778    90768    90890    90891    90812    90806    90753 
   90719    90818    90871    90795    90730    90784    90882    90886 
   90846    90877    90925    90869    90755    90741    90790    90804 
   90843    90863    90794    90763    90795    90817    90857    90877 
   90824    90792    90832    90852    90831    90836    90825    90772 
   90775    90853    90901    90858    90797    90769    90762    90785 
   90790    90770    90807    90835    90778    90729    90749    90846 
   90998    91067    90977    90848    90808    90818    90773    90721 
   90743    90762    90730    90741    90827    90874    90827    90815 
   90871    90893    90871    90840    90800    90788    90827    90861 
   90842    90811    90800    90780    90768    90809    90864    90887 
   90928    90954    90874    90760    90684    90658    90702    90738 
   90747    90778    90780    90789    90870    90942    90957    90937 
   90881    90810    90781    90807    90841    90846    90833    90828 
   90795    90721    90720    90841    90939    90902    90811    90785 
   90797    90786    90801    90844    90812    90750    90771    90826 
   90848    90849    90845    90856    90876    90854    90805    90793 
   90815    90824    90795    90771    90818    90867    90847    90836 
   90840    90833    90843    90829    90801    90801    90803    90809 
   90818    90803    90809    90839    90839    90822    90797    90767 
   90800    90881    90922    90899    90823    90764    90787    90820 
   90792    90768    90773    90766    90781    90825    90806    90754 
