Origin Time       2015/01/03 04:55:00
Lat.              36.522
Long.             140.572
Depth. (km)       58
Mag.              3.7
Station Code      CHBH19
Station Lat.      35.5943
Station Long.     140.5107
Station Height(m) -1629
Record Time       2015/01/03 04:55:53
Sampling Freq(Hz) 100Hz
Duration Time(s)  120
Dir.              1
Scale Factor      2940(gal)/6170270
Max. Acc. (gal)   0.156
Last Correction   2015/01/03 04:55:38
Memo.             
[...]
 -119779  -119778  -119777  -119779  -119779  -119778  -119779  -119779 
 -119778  -119778  -119778  -119779  -119779  -119779  -119780  -119781 
 -119780  -119779  -119780  -119779  -119777  -119779  -119779  -119778 
 -119780  -119780  -119778  -119778  -119778  -119780  -119782  -119780 
 -119779  -119780  -119779  -119779  -119780  -119780  -119778  -119778 
 -119778  -119779  -119780  -119779  -119779  -119781  -119780  -119780 
 -119779  -119779  -119781  -119780  -119778  -119779  -119780  -119778 
 -119779  -119782  -119780  -119777  -119778  -119779  -119779  -119780 
 -119779  -119778  -119779  -119779  -119778  -119777  -119777  -119778 
 -119779  -119780  -119780  -119779  -119779  -119778  -119778  -119780 
 -119779  -119776  -119778  -119780  -119780  -119779  -119778  -119779 
 -119780  -119779  -119779  -119780  -119779  -119777  -119779  -119781 
 -119780  -119779  -119779  -119779  -119780  -119780  -119780  -119778 
 -119778  -119780  -119781  -119779  -119779  -119781  -119780  -119779 
 -119779  -119780  -119779  -119779  -119780  -119779  -119778  -119779 
 -119780  -119779  -119779  -119780  -119779  -119779  -119780  -119780 
 -119781  -119780  -119779  -119778  -119778  -119779  -119779  -119780 
 -119781  -119779  -119779  -119780  -119779  -119778  -119778  -119779 
 -119780  -119779  -119779  -119779  -119779  -119780  -119780  -119779 
 -119779  -119780  -119779  -119780  -119780  -119780  -119780  -119779 
 -119778  -119780  -119781  -119779  -119779  -119781  -119780  -119780 
 -119780  -119781  -119780  -119779  -119780  -119781  -119779  -119778 
 -119780  -119779  -119779  -119781  -119781  -119779  -119779  -119780 
 -119781  -119780  -119779  -119779  -119780  -119780  -119780  -119780 
 -119779  -119780  -119780  -119779  -119780  -119778  -119777  -119780 
 -119781  -119779  -119779  -119780  -119781  -119780  -119780  -119780 
 -119781  -119781  -119780  -119780  -119779  -119778  -119779  -119780 
 -119780  -119780  -119779  -119780  -119780  -119778  -119778  -119778 
 -119777  -119778  -119779  -119779  -119779  -119779  -119780  -119780 
 -119779  -119779  -119780  -119781  -119780  -119779  -119779  -119779 
 -119779  -119781  -119781  -119780  -119781  -119781  -119780  -119780 
 -119779  -119780  -119780  -119780  -119780  -119779  -119779  -119779 
 -119779  -119779  -119778  -119778  -119779  -119779  -119779  -119780 
 -119780  -119779  -119779  -119779  -119780  -119780  -119782  -119781 
 -119779  -119779  -119779  -119778  -119779  -119780  -119780  -119780 
 -119780  -119779  -119779  -119780  -119780  -119781  -119782  -119779 
 -119777  -119779  -119781  -119783  -119788  -119794  -119798  -119795 
 -119781  -119762  -119753  -119758  -119757  -119754  -119769  -119781 
 -119784  -119807  -119829  -119808  -119780  -119772  -119769  -119792 
 -119819  -119784  -119722  -119705  -119738  -119791  -119811  -119779 
 -119762  -119804  -119842  -119803  -119736  -119730  -119767  -119782 
 -119780  -119788  -119798  -119796  -119789  -119777  -119781  -119821 
 -119821  -119744  -119721  -119799  -119831  -119761  -119707  -119725 
 -119770  -119817  -119829  -119782  -119760  -119801  -119820  -119803 
 -119784  -119740  -119729  -119786  -119786  -119752  -119798  -119802 
 -119737  -119767  -119824  -119804  -119786  -119783  -119782  -119778 
 -119758  -119768  -119775  -119758  -119788  -119813  -119792  -119787 
 -119778  -119763  -119767  -119779  -119802  -119787  -119744  -119761 
 -119783  -119781  -119810  -119810  -119783  -119785  -119753  -119738 
 -119808  -119809  -119726  -119713  -119750  -119785  -119818  -119793 
 -119752  -119771  -119787  -119779  -119799  -119815  -119781  -119776 
 -119835  -119829  -119762  -119763  -119775  -119746  -119735  -119759 
 -119810  -119822  -119749  -119718  -119783  -119803  -119751  -119745 
 -119780  -119793  -119826  -119847  -119802  -119786  -119776  -119723 
 -119750  -119818  -119805  -119785  -119772  -119710  -119708  -119779 
 -119791  -119775  -119812  -119839  -119797  -119749  -119783  -119843 
 -119812  -119740  -119727  -119742  -119760  -119786  -119778  -119768 
 -119803  -119818  -119789  -119771  -119767  -119761  -119771  -119801 
 -119811  -119773  -119763  -119809  -119799  -119742  -119740  -119757 
 -119771  -119806  -119802  -119774  -119770  -119764  -119778  -119809 
 -119809  -119782  -119738  -119738  -119813  -119822  -119766  -119802 
 -119828  -119727  -119699  -119807  -119830  -119757  -119762  -119795 
 -119761  -119759  -119817  -119820  -119777  -119771  -119783  -119798 
 -119777  -119707  -119750  -119844  -119782  -119712  -119792  -119882 
 -119865  -119788  -119729  -119726  -119765  -119770  -119756  -119788 
 -119799  -119777  -119766  -119752  -119789  -119832  -119767  -119714 
 -119767  -119790  -119754  -119781  -119828  -119765  -119706  -119788 
 -119878  -119862  -119815  -119781  -119756  -119766  -119767  -119746 
 -119769  -119744  -119675  -119752  -119842  -119816  -119842  -119831 
 -119730  -119759  -119826  -119786  -119778  -119802  -119765  -119728 
 -119739  -119766  -119759  -119744  -119787  -119790  -119733  -119805 
 -119925  -119874  -119762  -119733  -119756  -119788  -119760  -119706 
 -119781  -119881  -119813  -119709  -119698  -119733  -119823  -119864 
 -119783  -119761  -119776  -119724  -119757  -119833  -119802  -119776 
 -119788  -119752  -119748  -119787  -119773  -119768  -119759  -119730 
 -119822  -119886  -119785  -119735  -119778  -119794  -119793  -119790 
 -119760  -119728  -119786  -119871  -119807  -119707  -119748  -119789 
 -119777  -119819  -119786  -119669  -119711  -119833  -119845  -119814 
 -119763  -119720  -119781  -119846  -119818  -119790  -119805  -119792 
 -119731  -119710  -119779  -119825  -119782  -119739  -119759  -119795 
 -119794  -119748  -119714  -119762  -119820  -119791  -119764  -119794 
 -119805  -119774  -119775  -119803  -119781  -119756  -119766  -119760 
 -119771  -119801  -119785  -119779  -119815  -119808  -119758  -119747 
 -119766  -119772  -119785  -119817  -119835  -119806  -119757  -119746 
 -119765  -119765  -119752  -119719  -119712  -119793  -119822  -119768 
 -119791  -119834  -119807  -119805  -119803  -119766  -119795  -119830 
 -119761  -119698  -119724  -119772  -119774  -119774  -119811  -119782 
 -119738  -119785  -119806  -119799  -119813  -119763  -119739  -119789 
 -119783  -119770  -119795  -119779  -119768  -119787  -119789  -119792 
 -119781  -119747  -119763  -119814  -119805  -119767  -119770  -119785 
 -119782  -119759  -119746  -119782  -119794  -119758  -119782  -119825 
 -119777  -119757  -119809  -119796  -119766  -119797  -119773  -119715 
 -119759  -119808  -119771  -119777  -119827  -119807  -119779  -119796 
 -119807  -119791  -119741  -119696  -119723  -119790  -119824  -119797 
 -119754  -119774  -119823  -119809  -119756  -119728  -119747  -119791 
 -119808  -119807  -119821  -119816  -119780  -119769  -119780  -119751 
 -119723  -119770  -119806  -119785  -119800  -119824  -119797  -119760 
 -119742  -119757  -119797  -119786  -119734  -119770  -119835  -119782 
 -119729  -119767  -119797  -119798  -119801  -119757  -119717  -119782 
 -119822  -119780  -119808  -119818  -119757  -119788  -119809  -119714 
 -119703  -119799  -119809  -119766  -119795  -119815  -119766  -119758 
 -119787  -119765  -119763  -119821  -119829  -119773  -119731  -119742 
 -119784  -119801  -119813  -119805  -119748  -119743  -119766  -119736 
 -119781  -119853  -119791  -119741  -119798  -119814  -119781  -119766 
 -119763  -119775  -119782  -119780  -119803  -119807  -119756  -119741 
 -119788  -119784  -119749  -119771  -119793  -119811  -119824  -119758 
 -119719  -119782  -119798  -119743  -119756  -119826  -119823  -119782 
 -119783  -119775  -119744  -119747  -119792  -119819  -119766  -119727 
 -119808  -119829  -119732  -119752  -119821  -119772  -119760  -119798 
 -119779  -119779  -119820  -119807  -119728  -119727  -119829  -119815 
 -119734  -119777  -119804  -119751  -119772  -119827  -119806  -119775 
 -119788  -119775  -119742  -119763  -119766  -119742  -119807  -119869 
 -119814  -119758  -119735  -119719  -119756  -119781  -119779  -119800 
 -119789  -119792  -119862  -119830  -119683  -119680  -119811  -119821 
 -119752  -119764  -119786  -119778  -119795  -119819  -119814  -119793 
 -119796  -119802  -119765  -119738  -119735  -119744  -119795  -119800 
 -119778  -119823  -119811  -119736  -119741  -119794  -119805  -119756 
 -119736  -119816  -119846  -119782  -119766  -119774  -119764  -119770 
 -119756  -119755  -119809  -119841  -119815  -119758  -119724  -119761 
 -119791  -119768  -119767  -119770  -119778  -119832  -119817  -119747 
 -119756  -119788  -119778  -119764  -119776  -119805  -119790  -119764 
 -119787  -119797  -119785  -119804  -119799  -119746  -119743  -119784 
 -119764  -119753  -119817  -119834  -119781  -119758  -119742  -119728 
 -119780  -119835  -119802  -119743  -119761  -119800  -119768  -119766 
 -119825  -119793  -119714  -119753  -119820  -119806  -119766  -119743 
 -119758  -119786  -119796  -119827  -119828  -119751  -119714  -119770 
 -119820  -119817  -119788  -119773  -119804  -119828  -119803  -119793 
 -119772  -119717  -119727  -119758  -119736  -119744  -119759  -119733 
 -119793  -119889  -119838  -119749  -119731  -119747  -119816  -119865 
 -119803  -119731  -119746  -119781  -119788  -119803  -119788  -119732 
 -119733  -119785  -119804  -119797  -119794  -119778  -119760  -119762 
 -119758  -119765  -119833  -119855  -119749  -119689  -119765  -119834 
 -119827  -119795  -119806  -119808  -119730  -119697  -119761  -119809 
 -119788  -119731  -119737  -119791  -119794  -119805  -119829  -119810 
 -119808  -119802  -119754  -119748  -119780  -119767  -119727  -119726 
 -119751  -119759  -119764  -119808  -119852  -119809  -119789  -119843 
 -119780  -119685  -119735  -119775  -119768  -119807  -119843  -119840 
 -119809  -119769  -119727  -119712  -119768  -119810  -119802  -119801 
 -119775  -119777  -119820  -119764  -119716  -119793  -119784  -119706 
 -119785  -119859  -119769  -119739  -119792  -119774  -119791  -119838 
 -119774  -119723  -119767  -119785  -119757  -119736  -119748  -119778 
 -119780  -119793  -119837  -119817  -119756  -119774  -119823  -119781 
 -119719  -119769  -119849  -119826  -119775  -119761  -119730  -119718 
 -119785  -119864  -119828  -119711  -119725  -119811  -119779  -119769 
 -119832  -119809  -119775  -119804  -119767  -119711  -119764  -119823 
 -119791  -119728  -119737  -119813  -119821  -119765  -119769  -119797 
 -119791  -119816  -119819  -119763  -119745  -119719  -119703  -119790 
 -119834  -119774  -119744  -119787  -119830  -119795  -119773  -119805 
 -119793  -119780  -119761  -119731  -119793  -119800  -119709  -119767 
 -119862  -119783  -119722  -119775  -119800  -119810  -119819  -119770 
 -119741  -119759  -119770  -119778  -119782  -119796  -119809  -119799 
 -119777  -119737  -119760  -119831  -119781  -119712  -119810  -119879 
 -119748  -119695  -119808  -119805  -119744  -119756  -119735  -119738 
 -119815  -119851  -119815  -119747  -119731  -119798  -119801  -119756 
 -119799  -119821  -119747  -119731  -119814  -119838  -119751  -119747 
 -119810  -119770  -119765  -119813  -119759  -119748  -119780  -119742 
 -119781  -119824  -119744  -119730  -119798  -119812  -119788  -119758 
 -119755  -119768  -119777  -119800  -119805  -119788  -119783  -119807 
 -119833  -119795  -119755  -119781  -119795  -119796  -119788  -119738 
 -119721  -119744  -119739  -119760  -119802  -119757  -119737  -119846 
 -119878  -119793  -119778  -119795  -119745  -119713  -119767  -119809 
 -119771  -119753  -119779  -119784  -119789  -119808  -119804  -119802 
 -119816  -119763  -119712  -119783  -119812  -119735  -119754  -119818 
 -119777  -119753  -119770  -119752  -119795  -119866  -119829  -119769 
 -119787  -119781  -119718  -119747  -119816  -119801  -119804  -119808 
 -119719  -119670  -119747  -119799  -119766  -119783  -119819  -119796 
 -119806  -119796  -119731  -119773  -119848  -119808  -119781  -119807 
 -119772  -119761  -119840  -119800  -119644  -119667  -119811  -119835 
 -119797  -119796  -119831  -119813  -119710  -119731  -119832  -119784 
 -119722  -119759  -119755  -119742  -119831  -119883  -119777  -119697 
 -119766  -119837  -119840  -119815  -119728  -119671  -119745  -119798 
 -119807  -119829  -119802  -119783  -119805  -119812  -119806  -119775 
 -119715  -119665  -119720  -119836  -119818  -119717  -119703  -119783 
 -119879  -119875  -119839  -119856  -119758  -119659  -119743  -119751 
 -119689  -119795  -119873  -119800  -119780  -119829  -119816  -119752 
 -119709  -119694  -119729  -119779  -119791  -119846  -119870  -119786 
 -119759  -119758  -119718  -119785  -119856  -119760  -119723  -119838 
 -119835  -119746  -119752  -119761  -119770  -119810  -119755  -119705 
 -119792  -119813  -119745  -119795  -119853  -119782  -119747  -119822 
 -119842  -119752  -119717  -119766  -119774  -119744  -119718  -119757 
 -119848  -119800  -119690  -119761  -119821  -119717  -119707  -119813 
 -119844  -119813  -119806  -119856  -119842  -119747  -119801  -119908 
 -119847  -119792  -119803  -119746  -119739  -119810  -119767  -119646 
 -119578  -119551  -119553  -119637  -119837  -120055  -120105  -119972 
 -119808  -119674  -119581  -119597  -119693  -119755  -119837  -119952 
 -119894  -119818  -120017  -120041  -119642  -119519  -119811  -119907 
 -119841  -119838  -119694  -119477  -119452  -119600  -119792  -119935 
 -120011  -120067  -120058  -119891  -119683  -119577  -119524  -119559 
 -119703  -119806  -119837  -119834  -119797  -119838  -119937  -119837 
 -119579  -119558  -119803  -119906  -119797  -119781  -119869  -119904 
 -119880  -119756  -119623  -119642  -119717  -119840  -120029  -119984 
 -119702  -119613  -119711  -119688  -119700  -119861  -119822  -119597 
 -119625  -119883  -120003  -119943  -119845  -119698  -119560  -119603 
 -119712  -119789  -119919  -119919  -119838  -119921  -119859  -119588 
 -119555  -119767  -119923  -119880  -119719  -119651  -119688  -119760 
 -119869  -119906  -119819  -119709  -119706  -119813  -119842  -119775 
 -119740  -119670  -119622  -119754  -119852  -119774  -119822  -120001 
 -119886  -119577  -119584  -119843  -120002  -120062  -120036  -119858 
 -119672  -119602  -119647  -119772  -119812  -119713  -119665  -119740 
 -119805  -119747  -119668  -119754  -119861  -119746  -119585  -119632 
 -119853  -119994  -119865  -119703  -119785  -119899  -119880  -119850 
 -119796  -119716  -119731  -119808  -119782  -119700  -119783  -119924 
 -119851  -119657  -119579  -119694  -119798  -119742  -119767  -119862 
 -119805  -119703  -119626  -119682  -119934  -119964  -119741  -119764 
 -119931  -119904  -119829  -119817  -119796  -119798  -119827  -119793 
 -119636  -119486  -119571  -119803  -119931  -119917  -119819  -119758 
 -119812  -119917  -119956  -119758  -119526  -119674  -119902  -119738 
 -119469  -119527  -119794  -119946  -119947  -119878  -119820  -119870 
 -119901  -119780  -119646  -119655  -119784  -119862  -119762  -119654 
 -119762  -119926  -119884  -119740  -119675  -119660  -119701  -119841 
 -119958  -119896  -119738  -119745  -119890  -119907  -119829  -119744 
 -119598  -119532  -119650  -119791  -119819  -119770  -119704  -119657 
 -119732  -119956  -120096  -119978  -119825  -119879  -119910  -119673 
 -119463  -119539  -119670  -119663  -119710  -119939  -120038  -119803 
 -119648  -119812  -119881  -119726  -119748  -119965  -119970  -119773 
 -119698  -119709  -119632  -119600  -119786  -119974  -119883  -119733 
 -119733  -119706  -119645  -119711  -119893  -120010  -119848  -119632 
 -119725  -119815  -119747  -119847  -119877  -119647  -119581  -119716 
 -119795  -119885  -119977  -119880  -119681  -119639  -119738  -119832 
 -119929  -119959  -119781  -119562  -119586  -119780  -119895  -119896 
 -119840  -119723  -119642  -119736  -119826  -119735  -119682  -119768 
 -119847  -119895  -119894  -119825  -119758  -119691  -119639  -119722 
 -119863  -119865  -119789  -119791  -119854  -119856  -119751  -119660 
 -119668  -119746  -119844  -119881  -119848  -119778  -119685  -119623 
 -119628  -119763  -119937  -119851  -119680  -119717  -119765  -119801 
 -119912  -119915  -119841  -119835  -119810  -119724  -119685  -119738 
 -119784  -119804  -119841  -119827  -119784  -119760  -119644  -119539 
 -119654  -119832  -119829  -119742  -119801  -119941  -119914  -119786 
 -119810  -119897  -119812  -119668  -119684  -119770  -119758  -119725 
 -119781  -119832  -119804  -119769  -119796  -119847  -119791  -119672 
 -119676  -119731  -119769  -119883  -119934  -119803  -119704  -119747 
 -119799  -119771  -119713  -119698  -119730  -119827  -119934  -119877 
 -119711  -119680  -119779  -119849  -119845  -119796  -119761  -119762 
 -119753  -119745  -119747  -119697  -119667  -119778  -119919  -119913 
 -119813  -119753  -119737  -119742  -119779  -119791  -119766  -119756 
 -119782  -119833  -119824  -119781  -119815  -119831  -119805  -119800 
 -119725  -119649  -119692  -119741  -119741  -119754  -119776  -119809 
 -119833  -119812  -119814  -119869  -119884  -119806  -119686  -119632 
 -119686  -119775  -119825  -119794  -119724  -119739  -119829  -119849 
 -119791  -119770  -119814  -119869  -119873  -119805  -119732  -119720 
 -119731  -119754  -119804  -119796  -119727  -119742  -119827  -119838 
 -119791  -119726  -119640  -119679  -119870  -119952  -119871  -119836 
 -119798  -119629  -119539  -119665  -119798  -119844  -119902  -119919 
 -119810  -119735  -119800  -119817  -119715  -119694  -119796  -119843 
 -119793  -119749  -119733  -119736  -119795  -119833  -119776  -119761 
 -119819  -119805  -119755  -119748  -119735  -119759  -119856  -119899 
 -119854  -119797  -119741  -119753  -119841  -119814  -119674  -119629 
 -119690  -119768  -119812  -119772  -119694  -119727  -119840  -119850 
 -119807  -119829  -119835  -119794  -119762  -119767  -119817  -119839 
 -119757  -119668  -119706  -119774  -119773  -119799  -119837  -119804 
 -119792  -119805  -119763  -119741  -119755  -119719  -119702  -119770 
 -119828  -119856  -119891  -119877  -119820  -119779  -119737  -119679 
 -119665  -119738  -119832  -119865  -119839  -119785  -119745  -119758 
 -119785  -119795  -119788  -119706  -119641  -119721  -119810  -119829 
 -119832  -119801  -119824  -119868  -119750  -119640  -119723  -119801 
 -119794  -119793  -119757  -119733  -119818  -119870  -119812  -119798 
 -119829  -119817  -119816  -119808  -119749  -119718  -119715  -119702 
 -119729  -119803  -119849  -119836  -119779  -119732  -119765  -119811 
 -119768  -119729  -119736  -119727  -119760  -119804  -119802  -119859 
 -119891  -119769  -119695  -119744  -119746  -119736  -119803  -119877 
 -119932  -119938  -119855  -119744  -119661  -119652  -119727  -119751 
 -119701  -119714  -119763  -119735  -119726  -119820  -119846  -119796 
 -119833  -119842  -119771  -119760  -119757  -119751  -119822  -119867 
 -119820  -119744  -119700  -119740  -119795  -119786  -119744  -119739 
 -119804  -119850  -119830  -119828  -119799  -119748  -119802  -119826 
 -119726  -119683  -119719  -119755  -119813  -119836  -119805  -119787 
 -119782  -119777  -119752  -119724  -119738  -119726  -119712  -119828 
