Origin Time       2015/01/03 04:55:00
Lat.              36.522
Long.             140.572
Depth. (km)       58
Mag.              3.7
Station Code      CHBH19
Station Lat.      35.5943
Station Long.     140.5107
Station Height(m) -1629
Record Time       2015/01/03 04:55:53
Sampling Freq(Hz) 100Hz
Duration Time(s)  120
Dir.              3
Scale Factor      2940(gal)/6170270
Max. Acc. (gal)   0.142
Last Correction   2015/01/03 04:55:38
Memo.             
[...]
  -39524   -39523   -39523   -39523   -39524   -39526   -39526   -39525 
  -39526   -39526   -39525   -39524   -39525   -39525   -39523   -39523 
  -39523   -39523   -39524   -39524   -39523   -39525   -39524   -39523 
  -39525   -39525   -39524   -39524   -39523   -39521   -39521   -39522 
  -39524   -39525   -39524   -39523   -39524   -39524   -39523   -39522 
  -39521   -39524   -39525   -39523   -39523   -39523   -39523   -39524 
  -39524   -39523   -39523   -39523   -39522   -39523   -39524   -39522 
  -39524   -39526   -39524   -39522   -39523   -39524   -39524   -39524 
  -39525   -39524   -39524   -39524   -39523   -39523   -39525   -39524 
  -39523   -39524   -39523   -39523   -39525   -39525   -39524   -39524 
  -39525   -39523   -39521   -39524   -39526   -39524   -39523   -39524 
  -39525   -39524   -39523   -39526   -39527   -39525   -39523   -39524 
  -39526   -39526   -39524   -39524   -39524   -39524   -39524   -39524 
  -39524   -39524   -39526   -39525   -39523   -39523   -39525   -39524 
  -39525   -39526   -39526   -39524   -39524   -39524   -39523   -39523 
  -39523   -39522   -39523   -39521   -39512   -39503   -39498   -39503 
  -39524   -39555   -39573   -39567   -39553   -39539   -39520   -39507 
  -39501   -39482   -39465   -39485   -39533   -39575   -39576   -39522 
  -39465   -39473   -39547   -39621   -39621   -39538   -39457   -39464 
  -39520   -39528   -39494   -39502   -39561   -39594   -39578   -39539 
  -39492   -39461   -39467   -39494   -39516   -39539   -39548   -39513 
  -39497   -39557   -39592   -39532   -39471   -39490   -39556   -39604 
  -39585   -39512   -39468   -39491   -39510   -39503   -39512   -39515 
  -39514   -39552   -39572   -39533   -39518   -39527   -39494   -39488 
  -39542   -39556   -39534   -39537   -39529   -39502   -39502   -39535 
  -39553   -39527   -39501   -39505   -39512   -39526   -39534   -39523 
  -39519   -39526   -39546   -39547   -39509   -39506   -39535   -39523 
  -39528   -39562   -39526   -39468   -39476   -39518   -39564   -39581 
  -39547   -39501   -39505   -39567   -39591   -39536   -39486   -39471 
  -39484   -39538   -39575   -39549   -39514   -39503   -39497   -39491 
  -39480   -39480   -39508   -39550   -39571   -39562   -39558   -39545 
  -39494   -39484   -39545   -39575   -39545   -39530   -39536   -39512 
  -39496   -39527   -39525   -39477   -39460   -39465   -39513   -39606 
  -39618   -39543   -39480   -39444   -39466   -39585   -39673   -39610 
  -39502   -39460   -39459   -39469   -39497   -39542   -39545   -39490 
  -39477   -39533   -39579   -39594   -39594   -39555   -39474   -39426 
  -39455   -39495   -39521   -39578   -39602   -39553   -39527   -39528 
  -39485   -39459   -39503   -39541   -39553   -39581   -39583   -39544 
  -39504   -39465   -39440   -39459   -39528   -39607   -39601   -39547 
  -39548   -39540   -39505   -39506   -39480   -39440   -39482   -39538 
  -39564   -39606   -39602   -39524   -39479   -39483   -39487   -39508 
  -39535   -39543   -39534   -39513   -39516   -39540   -39530   -39489 
  -39489   -39562   -39599   -39536   -39504   -39542   -39514   -39435 
  -39430   -39470   -39535   -39635   -39642   -39555   -39511   -39498 
  -39479   -39479   -39513   -39554   -39534   -39515   -39576   -39595 
  -39507   -39473   -39525   -39530   -39506   -39516   -39504   -39489 
  -39513   -39513   -39484   -39496   -39539   -39536   -39524   -39557 
  -39557   -39565   -39632   -39591   -39463   -39424   -39424   -39467 
  -39582   -39609   -39541   -39521   -39547   -39550   -39511   -39493 
  -39534   -39537   -39508   -39535   -39539   -39506   -39540   -39544 
  -39450   -39408   -39472   -39555   -39606   -39613   -39573   -39529 
  -39504   -39452   -39414   -39488   -39602   -39631   -39575   -39514 
  -39475   -39460   -39521   -39563   -39511   -39503   -39514   -39477 
  -39505   -39581   -39611   -39601   -39551   -39488   -39485   -39521 
  -39511   -39488   -39501   -39500   -39507   -39539   -39530   -39502 
  -39530   -39580   -39563   -39493   -39469   -39518   -39559   -39547 
  -39522   -39493   -39494   -39572   -39591   -39509   -39477   -39490 
  -39514   -39560   -39549   -39512   -39503   -39479   -39485   -39529 
  -39560   -39582   -39544   -39487   -39517   -39555   -39535   -39511 
  -39515   -39559   -39597   -39548   -39458   -39443   -39489   -39523 
  -39534   -39544   -39549   -39520   -39485   -39522   -39600   -39588 
  -39494   -39451   -39484   -39539   -39555   -39531   -39538   -39542 
  -39503   -39481   -39486   -39498   -39509   -39522   -39545   -39559 
  -39567   -39549   -39506   -39526   -39565   -39521   -39490   -39532 
  -39536   -39503   -39522   -39545   -39512   -39468   -39468   -39505 
  -39522   -39538   -39595   -39626   -39589   -39522   -39467   -39472 
  -39516   -39541   -39551   -39521   -39468   -39489   -39524   -39510 
  -39523   -39554   -39555   -39542   -39506   -39489   -39521   -39522 
  -39509   -39550   -39554   -39489   -39484   -39535   -39543   -39553 
  -39581   -39543   -39495   -39508   -39510   -39519   -39567   -39569 
  -39522   -39481   -39460   -39476   -39506   -39517   -39525   -39561 
  -39596   -39584   -39541   -39489   -39441   -39456   -39531   -39579 
  -39563   -39528   -39518   -39555   -39586   -39518   -39431   -39478 
  -39546   -39511   -39502   -39556   -39587   -39605   -39579   -39505 
  -39461   -39438   -39441   -39491   -39550   -39605   -39602   -39549 
  -39545   -39530   -39457   -39441   -39493   -39531   -39539   -39558 
  -39582   -39555   -39491   -39472   -39520   -39542   -39509   -39502 
  -39529   -39559   -39579   -39550   -39507   -39501   -39506   -39497 
  -39516   -39535   -39501   -39508   -39565   -39563   -39538   -39544 
  -39545   -39504   -39478   -39528   -39543   -39494   -39508   -39553 
  -39559   -39539   -39506   -39497   -39483   -39476   -39544   -39596 
  -39563   -39503   -39458   -39495   -39586   -39605   -39578   -39552 
  -39481   -39434   -39479   -39516   -39517   -39530   -39532   -39539 
  -39564   -39551   -39524   -39505   -39482   -39500   -39534   -39533 
  -39543   -39561   -39540   -39521   -39512   -39474   -39469   -39525 
  -39554   -39538   -39534   -39541   -39542   -39549   -39528   -39481 
  -39483   -39513   -39541   -39581   -39544   -39466   -39524   -39599 
  -39516   -39453   -39511   -39534   -39521   -39542   -39546   -39527 
  -39502   -39491   -39519   -39539   -39551   -39555   -39510   -39515 
  -39551   -39502   -39490   -39534   -39508   -39492   -39545   -39556 
  -39529   -39547   -39557   -39529   -39511   -39494   -39475   -39495 
  -39530   -39546   -39571   -39591   -39557   -39509   -39504   -39511 
  -39483   -39452   -39469   -39524   -39596   -39622   -39543   -39470 
  -39498   -39543   -39537   -39513   -39495   -39496   -39527   -39545 
  -39528   -39525   -39529   -39507   -39525   -39567   -39547   -39534 
  -39534   -39500   -39518   -39556   -39543   -39508   -39470   -39495 
  -39552   -39510   -39462   -39522   -39591   -39578   -39521   -39483 
  -39482   -39509   -39529   -39530   -39550   -39567   -39549   -39519 
  -39498   -39506   -39523   -39532   -39531   -39490   -39475   -39533 
  -39581   -39575   -39539   -39508   -39491   -39492   -39532   -39554 
  -39530   -39512   -39513   -39523   -39526   -39517   -39513   -39513 
  -39528   -39550   -39540   -39503   -39507   -39550   -39561   -39557 
  -39549   -39483   -39434   -39468   -39504   -39541   -39611   -39605 
  -39501   -39474   -39537   -39536   -39505   -39523   -39526   -39502 
  -39503   -39519   -39506   -39474   -39496   -39562   -39587   -39545 
  -39490   -39490   -39540   -39570   -39534   -39478   -39467   -39494 
  -39546   -39596   -39582   -39540   -39547   -39551   -39522   -39543 
  -39546   -39444   -39412   -39516   -39581   -39576   -39561   -39492 
  -39431   -39467   -39522   -39557   -39576   -39544   -39508   -39520 
  -39556   -39569   -39527   -39490   -39496   -39517   -39554   -39553 
  -39517   -39520   -39500   -39459   -39501   -39573   -39566   -39489 
  -39476   -39532   -39504   -39473   -39563   -39647   -39626   -39519 
  -39435   -39483   -39562   -39552   -39501   -39461   -39463   -39518 
  -39558   -39539   -39508   -39512   -39540   -39564   -39584   -39574 
  -39503   -39473   -39536   -39539   -39481   -39492   -39495   -39487 
  -39547   -39581   -39586   -39629   -39602   -39478   -39370   -39360 
  -39463   -39579   -39640   -39626   -39542   -39508   -39502   -39459 
  -39499   -39548   -39488   -39512   -39624   -39586   -39493   -39510 
  -39521   -39489   -39509   -39523   -39495   -39506   -39525   -39534 
  -39558   -39537   -39500   -39523   -39548   -39554   -39557   -39522 
  -39503   -39535   -39524   -39495   -39514   -39493   -39453   -39526 
  -39616   -39572   -39501   -39532   -39545   -39490   -39510   -39552 
  -39501   -39453   -39505   -39588   -39597   -39557   -39535   -39518 
  -39495   -39496   -39511   -39493   -39490   -39558   -39587   -39507 
  -39477   -39549   -39547   -39493   -39512   -39515   -39483   -39515 
  -39555   -39527   -39502   -39527   -39546   -39552   -39565   -39548 
  -39494   -39473   -39530   -39562   -39511   -39502   -39537   -39539 
  -39541   -39529   -39516   -39524   -39504   -39502   -39528   -39508 
  -39504   -39560   -39588   -39550   -39504   -39470   -39455   -39499 
  -39550   -39551   -39549   -39546   -39527   -39538   -39530   -39470 
  -39484   -39590   -39593   -39477   -39483   -39582   -39549   -39470 
  -39490   -39526   -39513   -39499   -39518   -39559   -39604   -39567 
  -39470   -39483   -39531   -39507   -39498   -39488   -39485   -39523 
  -39524   -39528   -39582   -39589   -39530   -39492   -39525   -39549 
  -39542   -39550   -39493   -39427   -39480   -39540   -39567   -39603 
  -39561   -39502   -39547   -39588   -39516   -39431   -39450   -39515 
  -39517   -39496   -39505   -39537   -39585   -39613   -39586   -39511 
  -39440   -39440   -39491   -39520   -39524   -39531   -39544   -39550 
  -39566   -39588   -39551   -39517   -39524   -39491   -39472   -39498 
  -39499   -39526   -39568   -39540   -39532   -39568   -39503   -39422 
  -39492   -39582   -39577   -39546   -39518   -39496   -39515   -39525 
  -39466   -39475   -39590   -39575   -39490   -39558   -39595   -39516 
  -39520   -39527   -39472   -39508   -39532   -39463   -39509   -39602 
  -39559   -39527   -39551   -39519   -39503   -39509   -39460   -39462 
  -39553   -39606   -39593   -39549   -39503   -39496   -39494   -39477 
  -39484   -39536   -39584   -39530   -39446   -39479   -39555   -39582 
  -39599   -39554   -39446   -39454   -39587   -39626   -39508   -39440 
  -39485   -39503   -39505   -39558   -39593   -39548   -39502   -39523 
  -39542   -39526   -39495   -39464   -39502   -39588   -39610   -39574 
  -39520   -39451   -39430   -39477   -39545   -39604   -39609   -39538 
  -39471   -39452   -39426   -39443   -39539   -39572   -39552   -39582 
  -39613   -39608   -39570   -39498   -39443   -39456   -39521   -39546 
  -39514   -39496   -39472   -39476   -39563   -39615   -39594   -39567 
  -39518   -39478   -39471   -39464   -39492   -39522   -39497   -39492 
  -39554   -39632   -39617   -39530   -39488   -39493   -39509   -39493 
  -39458   -39515   -39620   -39611   -39504   -39478   -39543   -39517 
  -39451   -39503   -39561   -39551   -39536   -39508   -39538   -39589 
  -39511   -39467   -39515   -39501   -39495   -39511   -39518   -39569 
  -39573   -39508   -39488   -39522   -39556   -39582   -39599   -39536 
  -39426   -39403   -39438   -39465   -39515   -39561   -39576   -39588 
  -39554   -39511   -39525   -39507   -39515   -39615   -39637   -39582 
  -39558   -39511   -39461   -39427   -39420   -39498   -39546   -39536 
  -39560   -39516   -39451   -39509   -39596   -39621   -39607   -39569 
  -39486   -39372   -39329   -39370   -39459   -39548   -39556   -39594 
  -39734   -39788   -39707   -39572   -39403   -39297   -39379   -39534 
  -39548   -39534   -39596   -39537   -39393   -39394   -39517   -39614 
  -39653   -39668   -39628   -39544   -39465   -39402   -39426   -39520 
  -39522   -39430   -39395   -39460   -39554   -39608   -39598   -39558 
  -39564   -39633   -39590   -39441   -39426   -39461   -39446   -39521 
  -39582   -39502   -39432   -39504   -39675   -39722   -39613   -39604 
  -39585   -39387   -39326   -39455   -39525   -39554   -39519   -39395 
  -39442   -39664   -39718   -39612   -39579   -39517   -39363   -39329 
  -39428   -39499   -39541   -39617   -39692   -39664   -39516   -39400 
  -39427   -39525   -39544   -39506   -39559   -39586   -39467   -39443 
  -39560   -39562   -39500   -39546   -39606   -39584   -39523   -39474 
  -39425   -39433   -39504   -39487   -39493   -39649   -39675   -39510 
  -39422   -39464   -39537   -39537   -39506   -39562   -39594   -39555 
  -39539   -39533   -39562   -39595   -39563   -39525   -39478   -39450 
  -39494   -39544   -39515   -39433   -39437   -39491   -39478   -39490 
  -39561   -39574   -39514   -39477   -39515   -39551   -39521   -39531 
  -39633   -39643   -39531   -39495   -39529   -39520   -39499   -39484 
  -39479   -39527   -39596   -39601   -39552   -39529   -39503   -39479 
  -39524   -39561   -39545   -39530   -39463   -39386   -39441   -39508 
  -39486   -39514   -39565   -39572   -39611   -39649   -39626   -39541 
  -39404   -39343   -39432   -39551   -39595   -39528   -39437   -39504 
  -39627   -39623   -39584   -39551   -39549   -39672   -39706   -39461 
  -39227   -39294   -39504   -39603   -39603   -39554   -39464   -39482 
  -39567   -39507   -39433   -39509   -39605   -39637   -39554   -39376 
  -39370   -39555   -39635   -39564   -39484   -39503   -39618   -39652 
  -39573   -39492   -39438   -39447   -39562   -39687   -39661   -39530 
  -39447   -39417   -39425   -39465   -39502   -39517   -39501   -39495 
  -39520   -39509   -39479   -39523   -39641   -39745   -39671   -39446 
  -39379   -39479   -39460   -39403   -39504   -39609   -39596   -39537 
  -39495   -39506   -39510   -39471   -39523   -39648   -39654   -39542 
  -39502   -39488   -39383   -39407   -39585   -39635   -39585   -39560 
  -39494   -39368   -39322   -39469   -39662   -39720   -39699   -39649 
  -39516   -39409   -39454   -39529   -39529   -39516   -39515   -39504 
  -39480   -39453   -39443   -39451   -39490   -39546   -39572   -39595 
  -39639   -39609   -39472   -39393   -39435   -39475   -39555   -39697 
  -39669   -39478   -39386   -39390   -39402   -39505   -39629   -39628 
  -39605   -39633   -39611   -39548   -39495   -39435   -39436   -39496 
  -39499   -39479   -39506   -39545   -39556   -39518   -39484   -39506 
  -39567   -39623   -39602   -39551   -39551   -39522   -39404   -39299 
  -39383   -39605   -39680   -39569   -39477   -39477   -39523   -39616 
  -39677   -39605   -39568   -39599   -39511   -39431   -39457   -39425 
  -39401   -39500   -39603   -39634   -39590   -39491   -39417   -39418 
  -39505   -39589   -39565   -39545   -39566   -39492   -39428   -39521 
  -39627   -39602   -39527   -39525   -39574   -39564   -39481   -39437 
  -39460   -39454   -39460   -39578   -39694   -39687   -39575   -39420 
  -39339   -39385   -39484   -39586   -39589   -39486   -39495   -39569 
  -39506   -39484   -39586   -39614   -39584   -39571   -39532   -39476 
  -39467   -39547   -39602   -39529   -39493   -39530   -39536   -39535 
  -39497   -39457   -39499   -39507   -39468   -39495   -39556   -39594 
  -39592   -39557   -39541   -39526   -39495   -39480   -39467   -39476 
  -39519   -39552   -39595   -39618   -39568   -39522   -39527   -39551 
  -39531   -39448   -39407   -39435   -39458   -39496   -39569   -39597 
  -39588   -39612   -39647   -39644   -39572   -39439   -39332   -39308 
  -39377   -39493   -39538   -39541   -39598   -39620   -39552   -39528 
  -39609   -39664   -39610   -39533   -39486   -39445   -39408   -39394 
  -39459   -39587   -39637   -39593   -39547   -39511   -39497   -39516 
  -39535   -39513   -39480   -39509   -39548   -39539   -39555   -39568 
  -39537   -39549   -39569   -39490   -39404   -39448   -39534   -39533 
  -39516   -39532   -39535   -39534   -39557   -39564   -39513   -39475 
  -39513   -39525   -39493   -39507   -39544   -39559   -39553   -39539 
  -39522   -39513   -39514   -39500   -39530   -39605   -39611   -39582 
  -39548   -39461   -39430   -39478   -39498   -39526   -39543   -39499 
  -39491   -39519   -39513   -39515   -39532   -39539   -39556   -39571 
  -39542   -39488   -39461   -39489   -39533   -39522   -39503   -39535 
  -39540   -39510   -39524   -39574   -39595   -39566   -39516   -39477 
  -39481   -39529   -39546   -39497   -39454   -39462   -39508   -39562 
  -39596   -39605   -39596   -39575   -39572   -39570   -39505   -39448 
  -39480   -39486   -39428   -39450   -39532   -39535   -39511   -39546 
  -39571   -39548   -39513   -39477   -39471   -39513   -39531   -39518 
  -39528   -39574   -39619   -39594   -39530   -39507   -39501   -39500 
  -39515   -39516   -39534   -39573   -39552   -39489   -39460   -39466 
  -39504   -39533   -39496   -39460   -39483   -39523   -39567   -39601 
  -39594   -39575   -39577   -39550   -39487   -39501   -39555   -39525 
  -39483   -39470   -39438   -39475   -39565   -39580   -39603   -39631 
  -39532   -39448   -39479   -39464   -39426   -39505   -39596   -39569 
  -39518   -39539   -39580   -39567   -39532   -39537   -39549   -39520 
  -39496   -39502   -39481   -39450   -39489   -39550   -39558   -39544 
  -39541   -39540   -39517   -39481   -39477   -39501   -39544   -39567 
  -39532   -39513   -39525   -39510   -39499   -39490   -39463   -39496 
  -39606   -39653   -39584   -39532   -39553   -39550   -39497   -39487 
  -39516   -39482   -39446   -39499   -39566   -39590   -39587   -39567 
  -39529   -39499   -39514   -39513   -39445   -39419   -39481   -39545 
  -39575   -39573   -39555   -39548   -39536   -39523   -39539   -39539 
  -39496   -39455   -39455   -39503   -39549   -39563   -39589   -39599 
  -39557   -39528   -39511   -39455   -39401   -39432   -39536   -39610 
  -39601   -39563   -39553   -39567   -39553   -39487   -39461   -39515 
  -39544   -39512   -39511   -39533   -39510   -39496   -39528   -39542 
  -39550   -39576   -39555   -39507   -39480   -39464   -39484   -39531 
  -39535   -39519   -39519   -39507   -39495   -39499   -39495   -39490 
  -39517   -39579   -39626   -39616   -39586   -39558   -39513   -39474 
  -39456   -39463   -39487   -39500   -39512   -39517   -39501   -39511 
  -39557   -39586   -39581   -39573   -39564   -39537   -39499   -39476 
  -39495   -39499   -39469   -39506   -39586   -39588   -39566   -39581 
  -39557   -39478   -39403   -39380   -39424   -39499   -39574   -39629 
  -39632   -39585   -39521   -39505   -39514   -39493   -39508   -39549 
  -39535   -39490   -39470   -39529   -39579   -39515   -39484   -39546 
  -39534   -39482   -39512   -39555   -39564   -39563   -39535   -39501 
  -39507   -39546   -39561   -39536   -39514   -39498   -39473   -39485 
  -39514   -39516   -39543   -39579   -39567   -39521   -39463   -39437 
  -39457   -39485   -39523   -39573   -39601   -39593   -39565   -39548 
  -39543   -39532   -39520   -39510   -39508   -39529   -39550   -39545 
  -39549   -39555   -39525   -39505   -39525   -39519   -39473   -39449 
  -39476   -39514   -39533   -39524   -39482   -39444   -39460   -39534 
