Origin Time       2015/01/03 04:55:00
Lat.              36.522
Long.             140.572
Depth. (km)       58
Mag.              3.7
Station Code      CHBH19
Station Lat.      35.5943
Station Long.     140.5107
Station Height(m) 1
Record Time       2015/01/03 04:55:53
Sampling Freq(Hz) 100Hz
Duration Time(s)  120
Dir.              6
Scale Factor      3920(gal)/6170801
Max. Acc. (gal)   0.539
Last Correction   2015/01/03 04:55:38
Memo.             
[...]
  -36181   -36187   -36189   -36189   -36192   -36191   -36189   -36189 
  -36190   -36192   -36190   -36186   -36179   -36164   -36151   -36146 
  -36153   -36182   -36220   -36249   -36265   -36261   -36236   -36209 
  -36180   -36158   -36137   -36096   -36088   -36140   -36209   -36247 
  -36224   -36166   -36154   -36229   -36323   -36333   -36237   -36115 
  -36074   -36124   -36171   -36169   -36154   -36180   -36262   -36309 
  -36265   -36183   -36120   -36111   -36148   -36166   -36139   -36113 
  -36118   -36174   -36257   -36281   -36227   -36173   -36190   -36234 
  -36247   -36245   -36203   -36124   -36110   -36157   -36184   -36201 
  -36186   -36146   -36181   -36247   -36245   -36201   -36155   -36147 
  -36181   -36197   -36205   -36215   -36168   -36113   -36143   -36195 
  -36198   -36200   -36212   -36191   -36173   -36162   -36149   -36196 
  -36226   -36201   -36215   -36210   -36160   -36145   -36138   -36138 
  -36177   -36199   -36199   -36233   -36250   -36190   -36149   -36193 
  -36225   -36209   -36173   -36157   -36202   -36245   -36231   -36185 
  -36138   -36141   -36166   -36175   -36220   -36222   -36124   -36087 
  -36138   -36154   -36158   -36193   -36238   -36275   -36251   -36201 
  -36190   -36181   -36181   -36207   -36223   -36211   -36170   -36130 
  -36105   -36124   -36224   -36275   -36196   -36080   -36040   -36145 
  -36284   -36294   -36238   -36212   -36184   -36158   -36188   -36243 
  -36235   -36186   -36198   -36205   -36140   -36123   -36145   -36084 
  -36069   -36188   -36296   -36342   -36306   -36218   -36195   -36154 
  -36079   -36117   -36177   -36173   -36188   -36205   -36207   -36198 
  -36161   -36183   -36253   -36217   -36116   -36123   -36238   -36324 
  -36285   -36168   -36083   -36087   -36160   -36231   -36224   -36172 
  -36168   -36203   -36234   -36243   -36201   -36144   -36127   -36145 
  -36177   -36218   -36218   -36189   -36217   -36237   -36201   -36170 
  -36161   -36203   -36246   -36152   -36031   -36080   -36198   -36250 
  -36274   -36272   -36246   -36221   -36163   -36137   -36180   -36161 
  -36096   -36100   -36148   -36223   -36289   -36240   -36168   -36210 
  -36245   -36215   -36206   -36185   -36173   -36207   -36200   -36189 
  -36204   -36194   -36220   -36268   -36241   -36151   -36058   -36035 
  -36122   -36239   -36271   -36186   -36065   -36053   -36159   -36260 
  -36334   -36365   -36314   -36264   -36206   -36132   -36126   -36116 
  -36109   -36164   -36133   -36066   -36151   -36281   -36324   -36300 
  -36228   -36190   -36231   -36208   -36116   -36120   -36164   -36175 
  -36210   -36183   -36137   -36205   -36190   -36060   -36104   -36266 
  -36311   -36254   -36206   -36208   -36203   -36214   -36248   -36173 
  -36078   -36119   -36202   -36221   -36165   -36127   -36205   -36252 
  -36159   -36132   -36240   -36279   -36219   -36184   -36196   -36194 
  -36139   -36104   -36156   -36207   -36221   -36221   -36167   -36136 
  -36217   -36269   -36204   -36161   -36141   -36098   -36119   -36180 
  -36220   -36248   -36243   -36220   -36209   -36188   -36161   -36143 
  -36161   -36250   -36290   -36115   -35917   -36013   -36250   -36294 
  -36235   -36250   -36256   -36207   -36143   -36131   -36203   -36240 
  -36218   -36195   -36154   -36173   -36223   -36170   -36117   -36169 
  -36221   -36231   -36248   -36200   -36083   -36060   -36117   -36174 
  -36275   -36310   -36203   -36129   -36153   -36190   -36218   -36218 
  -36178   -36164   -36166   -36100   -36063   -36166   -36257   -36221 
  -36207   -36253   -36223   -36156   -36158   -36196   -36236   -36257 
  -36202   -36084   -36050   -36180   -36294   -36245   -36169   -36119 
  -36063   -36089   -36199   -36282   -36283   -36222   -36189   -36215 
  -36229   -36232   -36254   -36208   -36068   -36024   -36171   -36305 
  -36287   -36189   -36099   -36128   -36208   -36192   -36185   -36192 
  -36183   -36258   -36304   -36234   -36154   -36066   -36014   -36104 
  -36241   -36306   -36321   -36257   -36128   -36093   -36168   -36259 
  -36330   -36274   -36094   -36021   -36097   -36185   -36270   -36296 
  -36259   -36247   -36189   -36138   -36181   -36165   -36119   -36145 
  -36192   -36252   -36248   -36177   -36167   -36161   -36163   -36250 
  -36293   -36260   -36208   -36124   -36095   -36149   -36173   -36204 
  -36282   -36261   -36158   -36070   -36014   -36131   -36345   -36371 
  -36239   -36147   -36152   -36164   -36160   -36216   -36225   -36130 
  -36127   -36209   -36199   -36181   -36243   -36246   -36170   -36138 
  -36166   -36209   -36235   -36220   -36135   -36097   -36207   -36267 
  -36205   -36165   -36137   -36144   -36216   -36242   -36232   -36209 
  -36118   -36090   -36154   -36163   -36174   -36236   -36257   -36243 
  -36220   -36203   -36197   -36153   -36113   -36140   -36197   -36213 
  -36175   -36150   -36134   -36125   -36219   -36301   -36256   -36212 
  -36172   -36111   -36075   -36021   -36079   -36266   -36331   -36312 
  -36275   -36189   -36201   -36215   -36134   -36172   -36233   -36134 
  -36080   -36136   -36126   -36111   -36200   -36287   -36295   -36212 
  -36099   -36087   -36170   -36282   -36361   -36332   -36255   -36183 
  -36083   -36034   -36084   -36184   -36303   -36293   -36122   -36072 
  -36184   -36213   -36159   -36150   -36190   -36240   -36263   -36260 
  -36198   -36086   -36089   -36201   -36258   -36234   -36165   -36121 
  -36167   -36252   -36255   -36158   -36120   -36178   -36196   -36179 
  -36196   -36237   -36253   -36190   -36095   -36099   -36216   -36274 
  -36210   -36146   -36139   -36218   -36329   -36278   -36134   -36101 
  -36132   -36157   -36195   -36241   -36268   -36218   -36128   -36121 
  -36154   -36176   -36239   -36254   -36180   -36133   -36137   -36208 
  -36280   -36209   -36137   -36149   -36146   -36211   -36278   -36211 
  -36184   -36220   -36185   -36168   -36224   -36265   -36220   -36142 
  -36163   -36200   -36135   -36103   -36159   -36215   -36224   -36196 
  -36198   -36189   -36154   -36200   -36199   -36132   -36219   -36303 
  -36240   -36192   -36186   -36218   -36222   -36100   -36029   -36080 
  -36150   -36245   -36293   -36259   -36230   -36170   -36140   -36216 
  -36209   -36163   -36244   -36241   -36113   -36086   -36115   -36119 
  -36157   -36217   -36277   -36312   -36250   -36161   -36159   -36174 
  -36188   -36243   -36224   -36162   -36192   -36222   -36175   -36123 
  -36117   -36160   -36186   -36147   -36130   -36208   -36289   -36268 
  -36184   -36127   -36092   -36080   -36145   -36199   -36191   -36239 
  -36280   -36211   -36142   -36155   -36196   -36163   -36081   -36117 
  -36242   -36294   -36265   -36209   -36181   -36243   -36301   -36222 
  -36108   -36072   -36119   -36228   -36252   -36183   -36164   -36154 
  -36145   -36151   -36103   -36095   -36196   -36260   -36244   -36244 
  -36230   -36182   -36214   -36262   -36188   -36127   -36202   -36271 
  -36185   -36060   -36079   -36177   -36198   -36137   -36123   -36208 
  -36236   -36161   -36145   -36224   -36285   -36271   -36219   -36153 
  -36080   -36115   -36253   -36281   -36207   -36164   -36124   -36114 
  -36140   -36146   -36166   -36189   -36194   -36253   -36317   -36286 
  -36199   -36155   -36163   -36176   -36167   -36123   -36097   -36139 
  -36188   -36227   -36266   -36248   -36213   -36192   -36130   -36089 
  -36105   -36146   -36252   -36357   -36309   -36169   -36100   -36121 
  -36174   -36183   -36159   -36161   -36179   -36277   -36402   -36339 
  -36132   -36009   -36071   -36171   -36137   -36106   -36189   -36228 
  -36198   -36227   -36273   -36303   -36302   -36188   -36150   -36270 
  -36226   -36039   -36002   -36117   -36249   -36283   -36189   -36102 
  -36150   -36258   -36289   -36262   -36208   -36151   -36169   -36165 
  -36074   -36099   -36210   -36224   -36253   -36267   -36163   -36134 
  -36221   -36293   -36300   -36216   -36153   -36178   -36144   -36028 
  -36009   -36126   -36236   -36265   -36235   -36215   -36210   -36199 
  -36223   -36202   -36175   -36275   -36283   -36152   -36156   -36244 
  -36257   -36257   -36253   -36181   -36072   -36008   -36047   -36098 
  -36096   -36219   -36407   -36375   -36229   -36175   -36105   -36024 
  -36115   -36274   -36307   -36258   -36186   -36124   -36118   -36153 
  -36207   -36229   -36178   -36138   -36174   -36206   -36175   -36139 
  -36146   -36182   -36234   -36250   -36199   -36156   -36164   -36246 
  -36346   -36288   -36126   -36061   -36105   -36171   -36161   -36135 
  -36212   -36301   -36325   -36271   -36096   -35948   -36003   -36179 
  -36307   -36308   -36232   -36164   -36126   -36135   -36207   -36313 
  -36372   -36272   -36125   -36105   -36137   -36148   -36089   -36010 
  -36108   -36283   -36403   -36479   -36307   -36001   -35988   -36165 
  -36216   -36154   -36118   -36226   -36339   -36220   -36072   -36112 
  -36235   -36324   -36225   -36033   -36018   -36121   -36248   -36341 
  -36331   -36282   -36188   -36095   -36147   -36254   -36227   -36154 
  -36188   -36172   -36091   -36139   -36168   -36118   -36172   -36258 
  -36256   -36203   -36200   -36271   -36250   -36133   -36124   -36196 
  -36208   -36166   -36123   -36174   -36298   -36287   -36185   -36156 
  -36179   -36239   -36227   -36115   -36091   -36100   -36120   -36285 
  -36383   -36267   -36154   -36135   -36125   -36103   -36096   -36149 
  -36255   -36295   -36259   -36195   -36098   -36134   -36316   -36301 
  -36159   -36181   -36137   -35981   -36062   -36247   -36288   -36270 
  -36241   -36222   -36226   -36211   -36176   -36107   -36060   -36071 
  -36107   -36191   -36234   -36216   -36236   -36237   -36250   -36258 
  -36152   -36150   -36279   -36248   -36153   -36106   -36019   -36074 
  -36252   -36291   -36243   -36201   -36205   -36257   -36200   -36115 
  -36089   -36006   -36013   -36139   -36143   -36143   -36292   -36370 
  -36281   -36239   -36286   -36242   -36140   -36171   -36221   -36046 
  -35886   -36058   -36268   -36261   -36247   -36281   -36246   -36199 
  -36207   -36208   -36161   -36144   -36182   -36155   -36079   -36120 
  -36245   -36249   -36144   -36168   -36265   -36216   -36186   -36225 
  -36155   -36117   -36193   -36256   -36235   -36121   -36073   -36086 
  -36052   -36154   -36342   -36362   -36325   -36338   -36284   -36158 
  -36022   -35953   -36041   -36184   -36261   -36255   -36130   -36068 
  -36216   -36306   -36193   -36151   -36277   -36338   -36276   -36113 
  -35920   -36038   -36298   -36249   -36165   -36219   -36202   -36191 
  -36212   -36232   -36294   -36274   -36235   -36296   -36295   -36242 
  -36198   -36043   -35919   -35993   -36077   -36086   -36121   -36230 
  -36455   -36608   -36456   -36139   -35947   -36016   -36120   -36018 
  -35955   -36121   -36317   -36336   -36224   -36240   -36361   -36365 
  -36285   -36231   -36247   -36258   -36115   -35987   -36037   -36099 
  -36126   -36135   -36150   -36221   -36233   -36242   -36286   -36226 
  -36188   -36254   -36374   -36466   -36332   -36039   -35804   -35788 
  -36037   -36252   -36271   -36269   -36268   -36249   -36245   -36195 
  -36184   -36205   -36125   -36129   -36284   -36340   -36217   -36043 
  -36046   -36201   -36246   -36215   -36206   -36242   -36420   -36512 
  -36274   -35986   -35891   -35940   -36035   -36094   -36217   -36382 
  -36383   -36261   -36153   -36149   -36238   -36257   -36191   -36146 
  -36170   -36254   -36219   -36091   -36173   -36225   -36041   -36086 
  -36288   -36260   -36190   -36122   -36068   -36205   -36284   -36125 
  -35989   -36116   -36376   -36436   -36289   -36109   -36012   -36077 
  -36179   -36224   -36237   -36155   -36083   -36156   -36175   -36118 
  -36293   -36519   -36391   -36148   -36089   -36082   -36115   -36198 
  -36176   -36114   -36133   -36155   -36149   -36139   -36131   -36186 
  -36266   -36161   -35969   -36071   -36352   -36448   -36368   -36165 
  -35967   -36007   -36156   -36223   -36283   -36318   -36232   -36151 
  -36171   -36182   -36192   -36218   -36177   -36171   -36226   -36156 
  -36073   -36163   -36189   -36076   -36091   -36198   -36276   -36362 
  -36321   -36140   -36058   -36071   -36014   -36048   -36316   -36486 
  -36381   -36174   -35972   -35887   -35968   -36181   -36450   -36521 
  -36328   -36150   -36204   -36381   -36382   -36140   -35910   -35882 
  -36016   -36180   -36331   -36483   -36466   -36161   -35874   -35898 
  -36081   -36152   -36087   -35999   -35990   -36152   -36385   -36466 
  -36498   -36674   -36802   -36598   -36044   -35507   -35419   -35666 
  -35870   -35969   -36077   -36309   -36680   -36936   -36845   -36491 
  -36142   -36031   -36095   -36084   -35916   -35740   -35725   -35815 
  -35987   -36358   -36749   -36913   -36832   -36527   -36182   -35975 
  -35834   -35754   -35731   -35763   -35989   -36240   -36309   -36368 
  -36349   -36182   -36193   -36314   -36319   -36398   -36479   -36318 
  -36032   -35779   -35725   -35952   -36283   -36541   -36482   -36146 
  -36048   -36226   -36404   -36620   -36692   -36366   -35808   -35438 
  -35584   -35966   -36136   -36308   -36568   -36525   -36317   -36340 
  -36375   -36191   -36002   -35949   -36002   -36093   -36135   -36198 
  -36296   -36281   -36275   -36430   -36371   -35945   -35721   -35889 
  -36028   -36039   -36076   -36168   -36426   -36807   -36949   -36694 
  -36239   -35950   -35950   -35894   -35671   -35518   -35613   -36069 
  -36619   -36949   -37035   -36702   -36154   -35996   -36124   -36061 
  -35757   -35486   -35593   -35995   -36270   -36413   -36622   -36766 
  -36724   -36592   -36348   -36070   -35981   -35947   -35810   -35785 
  -35974   -36258   -36452   -36289   -35918   -35897   -36170   -36197 
  -36072   -36179   -36405   -36524   -36471   -36175   -35809   -35758 
  -36033   -36278   -36260   -36104   -36176   -36451   -36535   -36462 
  -36484   -36500   -36316   -35965   -35652   -35557   -35774   -36160 
  -36328   -36287   -36312   -36336   -36352   -36429   -36439   -36389 
  -36253   -35916   -35572   -35532   -35865   -36323   -36633   -36773 
  -36745   -36554   -36378   -36283   -36110   -35803   -35546   -35575 
  -35919   -36292   -36326   -36021   -35855   -36148   -36617   -36841 
  -36679   -36339   -36072   -35753   -35520   -35792   -36259   -36418 
  -36338   -36230   -36265   -36396   -36413   -36494   -36674   -36525 
  -36096   -35787   -35667   -35737   -36029   -36312   -36292   -36085 
  -36031   -36193   -36436   -36574   -36478   -36266   -36073   -35906 
  -35795   -35755   -35792   -35913   -36115   -36445   -36793   -36916 
  -36778   -36521   -36251   -35996   -35812   -35774   -35787   -35738 
  -35792   -36066   -36339   -36457   -36561   -36641   -36462   -36156 
  -36135   -36315   -36367   -36363   -36293   -35925   -35588   -35740 
  -36076   -36239   -36372   -36471   -36316   -35942   -35623   -35710 
  -36305   -36881   -36903   -36563   -36275   -36126   -36055   -35981 
  -35822   -35714   -35817   -35978   -36155   -36453   -36580   -36350 
  -36189   -36283   -36322   -36290   -36324   -36330   -36292   -36225 
  -36024   -35710   -35541   -35793   -36346   -36626   -36386   -36101 
  -36126   -36205   -36155   -36220   -36459   -36498   -36254   -36132 
  -36308   -36497   -36415   -36160   -36077   -36206   -36192   -35861 
  -35494   -35452   -35759   -36105   -36339   -36518   -36573   -36520 
  -36474   -36415   -36340   -36277   -36243   -36236   -36153   -36027 
  -35936   -35814   -35789   -35955   -36159   -36345   -36476   -36580 
  -36688   -36563   -36237   -36071   -36112   -36135   -36067   -36017 
  -35975   -35896   -35893   -36019   -36254   -36532   -36658   -36540 
  -36256   -35961   -35829   -35917   -36196   -36530   -36598   -36298 
  -35910   -35699   -35697   -35796   -35966   -36260   -36572   -36683 
  -36546   -36262   -35978   -35929   -36153   -36400   -36511   -36475 
  -36262   -35960   -35824   -35903   -36008   -36183   -36439   -36478 
  -36290   -36148   -36068   -36000   -36098   -36347   -36446   -36282 
  -36014   -35894   -36091   -36357   -36412   -36387   -36358   -36212 
  -36048   -36026   -36111   -36168   -36178   -36193   -36088   -35876 
  -35872   -36105   -36359   -36492   -36385   -36235   -36239   -36188 
  -36075   -36158   -36344   -36415   -36383   -36185   -35826   -35696 
  -35935   -36150   -36116   -36079   -36237   -36440   -36533   -36537 
  -36412   -36144   -35931   -35913   -36041   -36252   -36431   -36430 
  -36281   -36151   -36142   -36211   -36204   -36047   -35825   -35720 
  -35884   -36231   -36529   -36640   -36535   -36344   -36230   -36191 
  -36139   -36070   -36062   -36107   -36100   -36013   -35951   -36046 
  -36273   -36496   -36594   -36502   -36295   -36091   -35950   -35920 
  -35935   -35903   -35919   -36063   -36263   -36446   -36519   -36373 
  -36142   -36134   -36347   -36470   -36422   -36352   -36210   -35908 
  -35680   -35782   -36070   -36266   -36356   -36386   -36318   -36193 
  -36075   -36040   -36152   -36330   -36450   -36420   -36237   -36080 
  -36075   -36122   -36081   -35940   -35864   -36002   -36246   -36389 
  -36410   -36403   -36368   -36267   -36145   -36110   -36165   -36179 
  -36139   -36128   -36145   -36187   -36233   -36265   -36310   -36298 
  -36180   -36072   -36029   -36009   -35967   -35923   -35993   -36196 
  -36431   -36570   -36487   -36243   -36001   -35863   -35945   -36197 
  -36387   -36397   -36266   -36133   -36118   -36209   -36306   -36286 
  -36130   -35993   -36029   -36192   -36320   -36324   -36214   -36082 
  -36037   -36070   -36109   -36157   -36260   -36394   -36495   -36487 
  -36333   -36130   -35999   -36016   -36133   -36146   -36042   -35956 
  -35927   -36091   -36432   -36620   -36602   -36568   -36447   -36124 
  -35758   -35562   -35614   -35848   -36109   -36254   -36292   -36346 
  -36461   -36555   -36573   -36516   -36393   -36248   -36096   -35899 
  -35704   -35612   -35694   -35947   -36253   -36523   -36721   -36777 
  -36648   -36375   -36091   -35905   -35849   -35924   -36011   -36004 
  -35971   -35971   -36058   -36316   -36610   -36708   -36630   -36459 
  -36221   -35991   -35808   -35705   -35756   -35933   -36139   -36356 
  -36552   -36553   -36350   -36222   -36241   -36278   -36295   -36230 
  -36126   -36082   -36027   -35976   -36034   -36131   -36160   -36185 
  -36296   -36392   -36347   -36257   -36239   -36272   -36244   -36079 
  -35978   -36116   -36256   -36220   -36115   -35983   -35860   -35876 
  -36093   -36409   -36594   -36523   -36259   -36014   -36012   -36153 
  -36206   -36223   -36235   -36175   -36171   -36251   -36218   -36142 
  -36207   -36290   -36248   -36145   -36057   -36039   -36153   -36317 
  -36365   -36324   -36309   -36290   -36210   -36097   -36033   -36042 
  -36070   -36123   -36158   -36102   -36101   -36257   -36411   -36445 
  -36378   -36266   -36191   -36155   -36092   -36012   -35987   -36013 
  -36035   -36098   -36261   -36398   -36369   -36257   -36154   -36089 
  -36110   -36133   -36056   -35976   -36036   -36208   -36303   -36257 
  -36269   -36406   -36462   -36383   -36310   -36267   -36220   -36176 
  -36112   -36069   -36109   -36145   -36087   -35987   -35939   -35968 
  -36055   -36221   -36424   -36516   -36428   -36247   -36133   -36136 
