Origin Time       2014/02/16 17:13:00
Lat.              31.733
Long.             130.873
Depth. (km)       8
Mag.              2.7
Station Code      MYZ015
Station Lat.      31.7185
Station Long.     131.0621
Station Height(m) 159
Record Time       2014/02/16 17:14:02
Sampling Freq(Hz) 100Hz
Duration Time(s)  60
Dir.              E-W
Scale Factor      7845(gal)/8223790
Max. Acc. (gal)   4.122
Last Correction   2014/02/16 17:13:47
Memo.             
[...]
   -4725    -4719    -4738    -4754    -4707    -4661    -4660    -4683 
   -4718    -4730    -4730    -4727    -4730    -4734    -4699    -4671 
   -4687    -4703    -4715    -4707    -4700    -4731    -4741    -4731 
   -4722    -4689    -4688    -4714    -4695    -4676    -4712    -4742 
   -4730    -4699    -4687    -4704    -4707    -4687    -4688    -4704 
   -4723    -4741    -4720    -4684    -4684    -4720    -4756    -4741 
   -4688    -4675    -4707    -4729    -4725    -4707    -4691    -4696 
   -4710    -4698    -4677    -4693    -4720    -4720    -4710    -4712 
   -4707    -4687    -4693    -4726    -4714    -4683    -4702    -4733 
   -4748    -4741    -4707    -4704    -4716    -4707    -4706    -4710 
   -4696    -4666    -4666    -4703    -4729    -4738    -4720    -4675 
   -4671    -4710    -4729    -4720    -4710    -4712    -4716    -4710 
   -4708    -4699    -4696    -4704    -4693    -4689    -4716    -4743 
   -4747    -4729    -4688    -4679    -4710    -4719    -4712    -4714 
   -4699    -4695    -4706    -4695    -4692    -4699    -4702    -4712 
   -4714    -4695    -4698    -4723    -4729    -4716    -4707    -4698 
   -4700    -4702    -4696    -4714    -4731    -4729    -4742    -4764 
   -4741    -4692    -4684    -4680    -4645    -4649    -4698    -4714 
   -4710    -4718    -4725    -4719    -4702    -4702    -4725    -4712 
   -4676    -4687    -4730    -4741    -4716    -4707    -4715    -4716 
   -4735    -4743    -4714    -4689    -4677    -4676    -4688    -4706 
   -4727    -4731    -4698    -4669    -4704    -4743    -4718    -4704 
   -4716    -4684    -4662    -4688    -4722    -4735    -4719    -4708 
   -4722    -4723    -4700    -4683    -4689    -4722    -4733    -4700 
   -4703    -4720    -4692    -4688    -4708    -4716    -4745    -4741 
   -4691    -4704    -4743    -4722    -4680    -4665    -4676    -4696 
   -4714    -4720    -4712    -4700    -4704    -4747    -4757    -4700 
   -4677    -4707    -4714    -4689    -4676    -4703    -4723    -4689 
   -4683    -4738    -4739    -4692    -4696    -4725    -4727    -4719 
   -4704    -4693    -4706    -4725    -4733    -4712    -4673    -4661 
   -4693    -4715    -4707    -4691    -4688    -4727    -4766    -4750 
   -4729    -4714    -4684    -4666    -4689    -4716    -4691    -4679 
   -4733    -4739    -4687    -4665    -4687    -4737    -4747    -4707 
   -4700    -4699    -4672    -4688    -4731    -4735    -4727    -4725 
   -4687    -4652    -4681    -4752    -4792    -4738    -4662    -4683 
   -4729    -4720    -4681    -4639    -4656    -4708    -4725    -4742 
   -4748    -4722    -4720    -4735    -4715    -4673    -4649    -4687 
   -4747    -4753    -4726    -4710    -4699    -4679    -4675    -4684 
   -4685    -4719    -4758    -4742    -4693    -4658    -4675    -4712 
   -4714    -4719    -4741    -4734    -4699    -4672    -4691    -4714 
   -4692    -4684    -4707    -4716    -4726    -4753    -4758    -4710 
   -4657    -4673    -4716    -4718    -4689    -4652    -4658    -4726 
   -4773    -4762    -4719    -4696    -4702    -4706    -4706    -4703 
   -4702    -4692    -4687    -4693    -4702    -4727    -4733    -4688 
   -4685    -4712    -4692    -4692    -4729    -4730    -4729    -4715 
   -4685    -4710    -4708    -4676    -4703    -4722    -4720    -4730 
   -4698    -4665    -4696    -4723    -4714    -4707    -4708    -4716 
   -4735    -4726    -4698    -4688    -4696    -4702    -4696    -4716 
   -4725    -4700    -4714    -4729    -4699    -4685    -4700    -4726 
   -4722    -4680    -4675    -4712    -4733    -4722    -4702    -4706 
   -4746    -4750    -4706    -4695    -4698    -4677    -4685    -4699 
   -4710    -4734    -4722    -4688    -4689    -4719    -4723    -4700 
   -4685    -4684    -4710    -4731    -4703    -4691    -4716    -4715 
   -4704    -4722    -4738    -4725    -4700    -4707    -4730    -4704 
   -4665    -4683    -4727    -4738    -4698    -4672    -4689    -4703 
   -4719    -4735    -4706    -4683    -4702    -4710    -4699    -4704 
   -4737    -4750    -4720    -4695    -4689    -4677    -4680    -4716 
   -4730    -4700    -4704    -4734    -4725    -4710    -4700    -4702 
   -4720    -4706    -4676    -4680    -4710    -4739    -4730    -4720 
   -4733    -4722    -4688    -4672    -4680    -4683    -4702    -4746 
   -4750    -4707    -4679    -4680    -4695    -4699    -4707    -4741 
   -4768    -4748    -4683    -4642    -4666    -4699    -4726    -4754 
   -4741    -4704    -4689    -4702    -4712    -4679    -4642    -4679 
   -4745    -4745    -4702    -4703    -4737    -4734    -4716    -4710 
   -4698    -4688    -4698    -4715    -4726    -4710    -4679    -4679 
   -4725    -4739    -4688    -4658    -4680    -4726    -4770    -4747 
   -4691    -4664    -4649    -4669    -4726    -4745    -4729    -4734 
   -4739    -4722    -4703    -4693    -4688    -4700    -4712    -4719 
   -4734    -4710    -4668    -4685    -4725    -4742    -4735    -4706 
   -4698    -4700    -4685    -4680    -4692    -4704    -4710    -4720 
   -4722    -4708    -4706    -4708    -4695    -4689    -4707    -4716 
   -4710    -4720    -4737    -4729    -4730    -4725    -4699    -4689 
   -4676    -4664    -4699    -4733    -4723    -4716    -4718    -4703 
   -4696    -4698    -4693    -4703    -4708    -4696    -4702    -4726 
   -4738    -4738    -4718    -4688    -4692    -4692    -4684    -4715 
   -4723    -4689    -4687    -4700    -4716    -4746    -4743    -4722 
   -4716    -4695    -4673    -4692    -4704    -4693    -4704    -4737 
   -4750    -4720    -4689    -4688    -4684    -4683    -4704    -4707 
   -4691    -4706    -4743    -4746    -4714    -4708    -4710    -4689 
   -4692    -4712    -4710    -4722    -4742    -4718    -4672    -4654 
   -4666    -4700    -4730    -4730    -4731    -4741    -4725    -4706 
   -4716    -4715    -4691    -4695    -4706    -4679    -4671    -4691 
   -4704    -4723    -4719    -4693    -4716    -4757    -4735    -4681 
   -4677    -4700    -4702    -4696    -4704    -4719    -4735    -4738 
   -4720    -4692    -4668    -4688    -4735    -4747    -4720    -4691 
   -4673    -4673    -4679    -4696    -4726    -4730    -4722    -4735 
   -4743    -4722    -4693    -4679    -4681    -4691    -4695    -4698 
   -4710    -4723    -4720    -4706    -4710    -4727    -4720    -4714 
   -4708    -4683    -4685    -4716    -4716    -4693    -4680    -4693 
   -4729    -4737    -4725    -4737    -4742    -4726    -4710    -4676 
   -4646    -4665    -4689    -4689    -4703    -4726    -4727    -4731 
   -4737    -4722    -4712    -4714    -4712    -4706    -4687    -4684 
   -4718    -4725    -4688    -4677    -4710    -4727    -4712    -4706 
   -4727    -4752    -4720    -4665    -4677    -4716    -4719    -4704 
   -4669    -4648    -4695    -4756    -4768    -4742    -4708    -4693 
   -4689    -4684    -4693    -4703    -4704    -4718    -4738    -4738 
   -4714    -4695    -4702    -4708    -4699    -4680    -4683    -4723 
   -4747    -4708    -4660    -4661    -4687    -4702    -4718    -4739 
   -4742    -4745    -4750    -4725    -4693    -4665    -4633    -4650 
   -4722    -4769    -4748    -4703    -4685    -4699    -4710    -4702 
   -4706    -4726    -4712    -4695    -4722    -4727    -4691    -4680 
   -4702    -4726    -4734    -4718    -4710    -4719    -4707    -4681 
   -4680    -4684    -4680    -4696    -4710    -4707    -4726    -4747 
   -4726    -4698    -4700    -4707    -4708    -4704    -4702    -4707 
   -4715    -4707    -4683    -4679    -4710    -4726    -4707    -4707 
   -4741    -4723    -4676    -4702    -4731    -4710    -4683    -4691 
   -4731    -4743    -4707    -4688    -4700    -4689    -4676    -4688 
   -4698    -4725    -4760    -4746    -4718    -4698    -4679    -4676 
   -4687    -4700    -4714    -4720    -4727    -4738    -4733    -4719 
   -4710    -4685    -4664    -4684    -4707    -4715    -4719    -4714 
   -4702    -4702    -4710    -4707    -4712    -4738    -4746    -4710 
   -4666    -4677    -4704    -4693    -4699    -4747    -4757    -4712 
   -4677    -4679    -4703    -4714    -4700    -4710    -4719    -4683 
   -4675    -4719    -4725    -4699    -4696    -4712    -4738    -4743 
   -4722    -4699    -4702    -4703    -4676    -4661    -4669    -4700 
   -4768    -4781    -4720    -4691    -4693    -4685    -4696    -4715 
   -4708    -4684    -4685    -4729    -4747    -4712    -4707    -4720 
   -4702    -4693    -4700    -4712    -4723    -4696    -4683    -4715 
   -4723    -4700    -4687    -4692    -4719    -4745    -4743    -4720 
   -4710    -4707    -4683    -4666    -4668    -4687    -4715    -4726 
   -4742    -4748    -4710    -4683    -4707    -4710    -4680    -4688 
   -4725    -4727    -4710    -4710    -4716    -4716    -4704    -4687 
   -4681    -4680    -4683    -4699    -4715    -4730    -4750    -4758 
   -4733    -4687    -4658    -4685    -4741    -4734    -4677    -4675 
   -4742    -4777    -4727    -4693    -4699    -4661    -4669    -4735 
   -4727    -4683    -4666    -4684    -4746    -4752    -4666    -4648 
   -4729    -4752    -4702    -4715    -4756    -4743    -4710    -4684 
   -4684    -4702    -4687    -4681    -4729    -4746    -4710    -4696 
   -4710    -4731    -4725    -4657    -4614    -4675    -4741    -4723 
   -4720    -4757    -4742    -4702    -4699    -4712    -4720    -4707 
   -4680    -4708    -4731    -4677    -4652    -4693    -4692    -4669 
   -4727    -4792    -4768    -4738    -4727    -4685    -4653    -4637 
   -4633    -4685    -4752    -4761    -4746    -4750    -4743    -4699 
   -4648    -4648    -4687    -4703    -4693    -4702    -4734    -4773 
   -4773    -4714    -4679    -4687    -4669    -4657    -4689    -4720 
   -4737    -4746    -4753    -4761    -4727    -4653    -4645    -4696 
   -4696    -4685    -4729    -4753    -4720    -4688    -4699    -4712 
   -4693    -4689    -4688    -4677    -4707    -4747    -4766    -4779 
   -4737    -4657    -4637    -4672    -4702    -4729    -4741    -4727 
   -4726    -4722    -4680    -4653    -4672    -4688    -4698    -4722 
   -4735    -4737    -4742    -4727    -4692    -4687    -4719    -4726 
   -4706    -4706    -4707    -4695    -4695    -4704    -4710    -4710 
   -4710    -4730    -4737    -4707    -4677    -4681    -4702    -4714 
   -4715    -4704    -4706    -4719    -4708    -4703    -4707    -4687 
   -4702    -4734    -4710    -4700    -4730    -4720    -4696    -4710 
   -4727    -4723    -4722    -4706    -4648    -4568    -4518    -4541 
   -4672    -4923    -5239    -5354    -4854    -3910    -3666    -4577 
   -5451    -5404    -4866    -4369    -3998    -4217    -5709    -6696 
   -4646    -2144    -2992    -5556    -6635    -5844    -4590    -3809 
   -3503    -4212    -5181    -4567    -3743    -4498    -5354    -5485 
   -5634    -5370    -4642    -4383    -4243    -3796    -3932    -5135 
   -6412    -6384    -5422    -4773    -4036    -2920    -2602    -3300 
   -3974    -4563    -5798    -6890    -6289    -4793    -4199    -4270 
   -4220    -4313    -4812    -5244    -4985    -4774    -5370    -5416 
   -4612    -4190    -3709    -3400    -4417    -5585    -5495    -4494 
   -3948    -4873    -5907    -5389    -4256    -3856    -4077    -4461 
   -4687    -4575    -4549    -5009    -5420    -5310    -5150    -5209 
   -4993    -4418    -4116    -4251    -4315    -3984    -3615    -4243 
   -5702    -6133    -5250    -4456    -4382    -4850    -5003    -4411 
   -4158    -4440    -4530    -4861    -5408    -5298    -4726    -4330 
   -4266    -4535    -4893    -4862    -4610    -4861    -5445    -5503 
   -4675    -3620    -3600    -4429    -4719    -4603    -4993    -5360 
   -5062    -4634    -4491    -4507    -4567    -4538    -4407    -4228 
   -4306    -5140    -6123    -5871    -4716    -4364    -4828    -4735 
   -4159    -4071    -4293    -4488    -5049    -5549    -5073    -4315 
   -4334    -4529    -4255    -3996    -4050    -4444    -5206    -5771 
   -5776    -5427    -4773    -4297    -4483    -4772    -4656    -4386 
   -4351    -4626    -4974    -5123    -4758    -4155    -4240    -4756 
   -4649    -4340    -4649    -4828    -4409    -4580    -5447    -5505 
   -4820    -4646    -4953    -4961    -4540    -4332    -4515    -4617 
   -4743    -4942    -4855    -4703    -4557    -4255    -4213    -4541 
   -4658    -4426    -4353    -4788    -5414    -5535    -5027    -4584 
   -4735    -4916    -4402    -3928    -4383    -5213    -5374    -4657 
   -4147    -4526    -5005    -5157    -5058    -4537    -4139    -4502 
   -5003    -5008    -4888    -4746    -4401    -4202    -4369    -4704 
   -4839    -4619    -4587    -5032    -5351    -5093    -4558    -4391 
   -4552    -4325    -4140    -4684    -5078    -4982    -5089    -5138 
   -4795    -4552    -4571    -4448    -4140    -4178    -4720    -5182 
   -5219    -5012    -4645    -4363    -4571    -4861    -4734    -4672 
   -4846    -4833    -4762    -4797    -4792    -4779    -4672    -4491 
   -4487    -4484    -4375    -4476    -4739    -4841    -4758    -4750 
   -4965    -5076    -4761    -4407    -4606    -5127    -5085    -4444 
   -4263    -4752    -4949    -4554    -4212    -4436    -4961    -5108 
   -4892    -4765    -4689    -4588    -4619    -4783    -4868    -4684 
   -4387    -4299    -4352    -4131    -3518    -2990    -3042    -3676 
   -4588    -5759    -7302    -8614    -8988    -8546    -7474    -5633 
   -3231    -1156     -386     -996    -2253    -3647    -5004    -5914 
   -5952    -5224    -4170    -3103    -2469    -2844    -4338    -6424 
   -8190    -8996    -8708    -7246    -5115    -3507    -2915    -3042 
   -3535    -3776    -3404    -3192    -3962    -5302    -6095    -5637 
   -4178    -2740    -2253    -2667    -3362    -4355    -5877    -7082 
   -7263    -7067    -6748    -5908    -5078    -4905    -5152    -5371 
   -5128    -4191    -3145    -2628    -2389    -2338    -2843    -3761 
   -4864    -6089    -6809    -6115    -4215    -2811    -3304    -4874 
   -5572    -5138    -4766    -4826    -5073    -5722    -6799    -7628 
   -7527    -6604    -5501    -4480    -3511    -2713    -2114    -1858 
   -2273    -3011    -3397    -3649    -4153    -4537    -4577    -4565 
   -4936    -6115    -7542    -8062    -7659    -6845    -5783    -4756 
   -3847    -2983    -2477    -2385    -2478    -2882    -3715    -4752 
   -5583    -5856    -5694    -5432    -5182    -5038    -5032    -5013 
   -5054    -5347    -5543    -5173    -4475    -4029    -3998    -4110 
   -4156    -4228    -4247    -3894    -3442    -3568    -4348    -5470 
   -6687    -7510    -7466    -6671    -5611    -4675    -3954    -3331 
   -2790    -2593    -3084    -4132    -4904    -4823    -4279    -3855 
   -3724    -3984    -4615    -5239    -5540    -5699    -5977    -6107 
   -5792    -5381    -5262    -5343    -5390    -5367    -5352    -5186 
   -4660    -4055    -3700    -3310    -2652    -1987    -1706    -2144 
   -3173    -4260    -5273    -6359    -7345    -7767    -7340    -6369 
   -5390    -4683    -4363    -4483    -4926    -5313    -5387    -5281 
   -5024    -4507    -3871    -3379    -3192    -3360    -3697    -3808 
   -3505    -3203    -3393    -3908    -4411    -5162    -6338    -7460 
   -8046    -8013    -7508    -6768    -5837    -4546    -2975    -1671 
   -1190    -1509    -2193    -3024    -4033    -5032    -5736    -6077 
   -5995    -5536    -5121    -5067    -5202    -5316    -5472    -5678 
   -5634    -5178    -4592    -4180    -3937    -3778    -3684    -3711 
   -3880    -4032    -4097    -4270    -4611    -4935    -5142    -5290 
   -5414    -5502    -5544    -5525    -5470    -5398    -5278    -5128 
   -4897    -4459    -4016    -3834    -3763    -3604    -3438    -3416 
   -3576    -3913    -4452    -5101    -5678    -6070    -6318    -6426 
   -6214    -5674    -5103    -4646    -4320    -4233    -4289    -4291 
   -4327    -4472    -4558    -4482    -4344    -4307    -4356    -4307 
   -4143    -3986    -3869    -3955    -4480    -5244    -5813    -6000 
   -5871    -5533    -5049    -4517    -4101    -3870    -3867    -4213 
   -4849    -5336    -5436    -5433    -5481    -5418    -5205    -4803 
   -4176    -3599    -3369    -3411    -3487    -3601    -3877    -4280 
   -4746    -5220    -5526    -5552    -5435    -5371    -5341    -5278 
   -5273    -5371    -5410    -5255    -4976    -4725    -4595    -4541 
   -4502    -4500    -4475    -4418    -4433    -4461    -4367    -4212 
   -4101    -4032    -4055    -4178    -4284    -4365    -4456    -4546 
   -4703    -4962    -5314    -5679    -5925    -6069    -6114    -5960 
   -5687    -5370    -4918    -4355    -3870    -3546    -3314    -3136 
   -3064    -3179    -3485    -3904    -4344    -4756    -5151    -5548 
   -5880    -5999    -5836    -5518    -5167    -4754    -4410    -4368 
   -4530    -4683    -4806    -4870    -4914    -5000    -4982    -4862 
   -4823    -4862    -4903    -4918    -4852    -4708    -4560    -4414 
   -4251    -4072    -3925    -3929    -4144    -4475    -4764    -4926 
   -5003    -5050    -5073    -5032    -4918    -4769    -4612    -4492 
   -4473    -4573    -4766    -4966    -5089    -5131    -5082    -4895 
   -4645    -4455    -4307    -4145    -3997    -3937    -3977    -4060 
   -4218    -4560    -5071    -5525    -5749    -5822    -5838    -5763 
   -5533    -5151    -4729    -4383    -4140    -4003    -3962    -3983 
   -4035    -4128    -4289    -4511    -4708    -4834    -4973    -5111 
   -5146    -5177    -5281    -5331    -5267    -5147    -5008    -4860 
   -4704    -4584    -4558    -4577    -4556    -4487    -4368    -4225 
   -4128    -4139    -4248    -4364    -4436    -4518    -4611    -4666 
   -4702    -4726    -4710    -4676    -4669    -4725    -4838    -4966 
   -5043    -5039    -5027    -5058    -5032    -4904    -4772    -4722 
   -4725    -4733    -4731    -4726    -4718    -4677    -4567    -4429 
   -4329    -4298    -4317    -4382    -4510    -4656    -4766    -4841 
   -4861    -4835    -4819    -4835    -4864    -4834    -4731    -4658 
   -4645    -4592    -4488    -4452    -4540    -4712    -4903    -5054 
   -5157    -5231    -5266    -5217    -5076    -4888    -4696    -4537 
   -4464    -4457    -4415    -4338    -4315    -4353    -4405    -4480 
   -4612    -4768    -4892    -4961    -4989    -5003    -4943    -4756 
   -4514    -4311    -4228    -4282    -4405    -4560    -4722    -4868 
   -5027    -5154    -5158    -5071    -4956    -4819    -4669    -4576 
   -4554    -4565    -4594    -4634    -4672    -4726    -4785    -4831 
   -4865    -4880    -4881    -4881    -4885    -4904    -4880    -4781 
   -4681    -4587    -4459    -4333    -4253    -4228    -4220    -4228 
   -4310    -4410    -4441    -4464    -4588    -4791    -4953    -5093 
   -5293    -5493    -5623    -5628    -5466    -5215    -4931    -4634 
   -4407    -4263    -4170    -4147    -4217    -4344    -4475    -4558 
   -4563    -4550    -4579    -4611    -4653    -4720    -4770    -4812 
   -4837    -4788    -4685    -4573    -4476    -4431    -4467    -4581 
   -4738    -4858    -4918    -4939    -4911    -4850    -4795    -4768 
   -4765    -4787    -4842    -4918    -4982    -4977    -4866    -4737 
   -4653    -4564    -4455    -4367    -4359    -4445    -4572    -4679 
