Origin Time       2014/02/16 17:13:00
Lat.              31.733
Long.             130.873
Depth. (km)       8
Mag.              2.7
Station Code      MYZ015
Station Lat.      31.7185
Station Long.     131.0621
Station Height(m) 159
Record Time       2014/02/16 17:14:02
Sampling Freq(Hz) 100Hz
Duration Time(s)  60
Dir.              U-D
Scale Factor      7845(gal)/8223790
Max. Acc. (gal)   6.352
Last Correction   2014/02/16 17:13:47
Memo.             
[...]
   10642    10629    10643    10669    10678    10673    10644    10619 
   10638    10662    10658    10659    10675    10681    10665    10639 
   10621    10617    10629    10658    10685    10686    10667    10644 
   10623    10621    10652    10685    10678    10644    10624    10627 
   10640    10662    10666    10656    10679    10701    10682    10665 
   10646    10604    10592    10616    10644    10670    10683    10683 
   10677    10659    10646    10648    10635    10616    10628    10654 
   10679    10696    10660    10617    10621    10646    10674    10683 
   10655    10640    10646    10651    10671    10667    10640    10646 
   10659    10660    10663    10646    10624    10615    10633    10678 
   10706    10687    10651    10633    10633    10642    10660    10669 
   10662    10665    10659    10640    10628    10631    10646    10655 
   10655    10667    10687    10673    10646    10650    10659    10651 
   10650    10644    10631    10643    10666    10670    10667    10655 
   10635    10639    10663    10666    10658    10660    10658    10650 
   10648    10642    10631    10625    10633    10651    10667    10694 
   10714    10693    10654    10632    10613    10602    10615    10640 
   10673    10692    10682    10670    10673    10665    10644    10633 
   10640    10655    10659    10648    10639    10644    10665    10663 
   10639    10639    10656    10674    10689    10667    10625    10613 
   10632    10669    10686    10663    10646    10652    10665    10670 
   10667    10659    10627    10605    10646    10686    10679    10660 
   10642    10621    10621    10654    10682    10687    10678    10656 
   10633    10639    10656    10644    10625    10640    10674    10694 
   10674    10633    10631    10654    10666    10660    10644    10638 
   10656    10677    10677    10654    10627    10619    10642    10669 
   10667    10656    10662    10667    10662    10658    10652    10632 
   10617    10646    10689    10682    10650    10652    10660    10651 
   10650    10648    10638    10638    10650    10662    10669    10655 
   10656    10683    10679    10643    10623    10623    10628    10633 
   10648    10665    10665    10673    10700    10701    10660    10612 
   10601    10635    10658    10659    10673    10673    10658    10658 
   10658    10659    10660    10643    10633    10642    10651    10652 
   10639    10632    10654    10685    10687    10662    10646    10642 
   10640    10642    10639    10636    10640    10659    10696    10706 
   10681    10655    10623    10596    10613    10659    10687    10683 
   10677    10679    10678    10652    10608    10598    10629    10654 
   10667    10673    10659    10646    10658    10671    10669    10651 
   10636    10638    10646    10642    10646    10673    10696    10685 
   10659    10640    10615    10601    10632    10675    10687    10681 
   10677    10660    10629    10609    10632    10685    10689    10639 
   10621    10650    10656    10651    10670    10682    10655    10635 
   10646    10651    10640    10644    10655    10651    10646    10663 
   10683    10682    10670    10648    10631    10646    10656    10627 
   10623    10660    10693    10687    10646    10624    10643    10638 
   10631    10654    10666    10669    10674    10660    10644    10639 
   10627    10633    10665    10678    10674    10674    10663    10643 
   10643    10651    10658    10673    10667    10644    10631    10619 
   10623    10655    10667    10658    10659    10666    10655    10629 
   10629    10659    10673    10662    10660    10678    10685    10652 
   10628    10642    10646    10636    10646    10662    10671    10673 
   10666    10646    10627    10642    10671    10670    10648    10632 
   10628    10633    10643    10650    10658    10667    10677    10687 
   10685    10651    10609    10601    10628    10667    10698    10689 
   10648    10625    10635    10650    10666    10673    10669    10666 
   10662    10654    10628    10590    10589    10640    10704    10736 
   10717    10666    10615    10582    10586    10629    10671    10682 
   10674    10666    10679    10693    10662    10616    10594    10602 
   10652    10704    10706    10682    10646    10617    10628    10658 
   10667    10656    10646    10648    10643    10629    10642    10669 
   10681    10670    10639    10613    10621    10638    10655    10686 
   10693    10665    10656    10671    10660    10625    10606    10632 
   10675    10692    10683    10660    10636    10631    10639    10654 
   10682    10692    10659    10624    10612    10613    10629    10655 
   10666    10675    10678    10652    10640    10665    10677    10652 
   10632    10631    10629    10644    10677    10693    10670    10644 
   10644    10644    10644    10655    10656    10659    10663    10650 
   10643    10650    10646    10631    10620    10638    10679    10704 
   10673    10625    10628    10651    10650    10666    10698    10681 
   10640    10623    10611    10633    10692    10700    10652    10640 
   10648    10621    10611    10636    10646    10659    10694    10697 
   10670    10642    10624    10640    10650    10638    10639    10651 
   10665    10678    10677    10658    10631    10624    10642    10663 
   10678    10670    10651    10652    10650    10636    10658    10692 
   10678    10629    10594    10611    10656    10675    10674    10666 
   10639    10633    10667    10683    10666    10640    10632    10636 
   10635    10642    10659    10666    10671    10671    10655    10648 
   10655    10655    10655    10644    10621    10623    10669    10705 
   10675    10631    10621    10623    10639    10681    10693    10667 
   10643    10621    10617    10638    10655    10670    10677    10677 
   10675    10655    10635    10646    10650    10629    10631    10652 
   10674    10693    10670    10625    10623    10639    10651    10673 
   10697    10694    10650    10601    10598    10628    10650    10654 
   10666    10687    10693    10682    10648    10605    10606    10632 
   10642    10673    10702    10674    10638    10646    10655    10658 
   10660    10652    10648    10656    10652    10638    10629    10639 
   10651    10654    10666    10679    10667    10639    10616    10619 
   10654    10681    10671    10660    10651    10639    10650    10671 
   10675    10656    10620    10615    10656    10697    10706    10685 
   10635    10596    10597    10632    10670    10675    10659    10652 
   10655    10671    10682    10658    10623    10619    10644    10667 
   10667    10660    10659    10655    10646    10643    10640    10640 
   10654    10666    10667    10677    10673    10646    10635    10642 
   10646    10644    10644    10652    10656    10654    10658    10659 
   10644    10636    10656    10679    10663    10639    10639    10646 
   10652    10656    10654    10648    10652    10663    10669    10665 
   10670    10679    10667    10632    10611    10629    10654    10656 
   10643    10644    10679    10697    10666    10636    10625    10623 
   10644    10673    10677    10673    10666    10642    10619    10625 
   10651    10670    10674    10665    10654    10655    10658    10644 
   10642    10655    10656    10659    10658    10646    10650    10658 
   10642    10638    10654    10663    10662    10656    10658    10666 
   10651    10633    10644    10651    10652    10671    10681    10669 
   10646    10625    10629    10643    10650    10670    10682    10667 
   10650    10638    10650    10675    10667    10646    10638    10627 
   10627    10646    10654    10654    10655    10663    10693    10700 
   10662    10627    10616    10625    10656    10679    10659    10628 
   10640    10671    10689    10683    10648    10616    10621    10638 
   10646    10663    10674    10666    10656    10655    10663    10666 
   10648    10633    10635    10633    10643    10663    10674    10686 
   10696    10685    10662    10635    10604    10593    10621    10666 
   10686    10681    10667    10654    10644    10644    10650    10654 
   10654    10654    10660    10679    10686    10658    10623    10620 
   10638    10658    10665    10650    10648    10673    10677    10659 
   10648    10644    10642    10643    10643    10650    10667    10674 
   10670    10665    10651    10632    10619    10613    10633    10677 
   10712    10710    10666    10615    10602    10628    10650    10662 
   10675    10669    10648    10656    10658    10632    10620    10631 
   10643    10669    10714    10732    10685    10609    10566    10578 
   10628    10677    10706    10714    10687    10642    10624    10640 
   10654    10644    10639    10651    10658    10659    10659    10654 
   10652    10651    10646    10648    10646    10646    10670    10694 
   10669    10628    10621    10633    10646    10665    10669    10652 
   10644    10658    10673    10665    10642    10636    10654    10662 
   10651    10654    10673    10677    10651    10621    10612    10625 
   10659    10698    10704    10673    10652    10651    10639    10617 
   10619    10639    10659    10681    10701    10697    10667    10629 
   10596    10593    10635    10678    10689    10685    10671    10658 
   10656    10639    10608    10611    10644    10666    10682    10696 
   10682    10648    10627    10629    10643    10650    10658    10663 
   10646    10629    10650    10685    10698    10683    10654    10629 
   10635    10651    10642    10611    10611    10660    10709    10714 
   10687    10643    10611    10609    10629    10660    10681    10662 
   10633    10636    10670    10697    10678    10632    10609    10642 
   10693    10689    10640    10615    10624    10650    10666    10662 
   10663    10671    10678    10679    10659    10621    10593    10594 
   10631    10686    10724    10716    10663    10621    10621    10638 
   10644    10658    10678    10678    10655    10640    10650    10656 
   10640    10625    10635    10663    10705    10716    10659    10592 
   10592    10642    10682    10689    10669    10654    10658    10658 
   10644    10638    10639    10639    10646    10659    10675    10681 
   10670    10652    10631    10611    10617    10651    10679    10692 
   10682    10651    10631    10635    10652    10667    10658    10643 
   10650    10667    10669    10650    10632    10639    10658    10667 
   10660    10646    10646    10655    10662    10667    10651    10623 
   10625    10662    10694    10683    10640    10613    10619    10651 
   10693    10698    10671    10646    10631    10631    10644    10656 
   10662    10651    10633    10642    10666    10683    10696    10678 
   10627    10592    10606    10656    10692    10675    10638    10636 
   10663    10678    10662    10631    10617    10643    10689    10700 
   10669    10639    10632    10635    10648    10663    10660    10651 
   10654    10660    10670    10669    10640    10624    10635    10643 
   10658    10674    10665    10642    10639    10667    10700    10683 
   10631    10611    10633    10646    10654    10685    10687    10646 
   10627    10644    10662    10660    10651    10646    10644    10636 
   10642    10665    10671    10659    10656    10656    10646    10640 
   10648    10654    10644    10633    10643    10673    10694    10696 
   10686    10651    10601    10579    10602    10659    10704    10696 
   10678    10674    10646    10628    10638    10638    10629    10633 
   10646    10678    10700    10682    10640    10615    10619    10643 
   10673    10687    10669    10639    10632    10636    10648    10662 
   10656    10640    10632    10648    10692    10709    10666    10619 
   10615    10627    10644    10674    10679    10646    10638    10654 
   10660    10674    10669    10640    10638    10659    10658    10625 
   10633    10679    10685    10658    10615    10593    10652    10705 
   10689    10673    10651    10629    10665    10682    10638    10615 
   10628    10652    10671    10662    10655    10666    10656    10654 
   10689    10685    10627    10606    10616    10624    10666    10696 
   10662    10640    10667    10667    10628    10628    10659    10660 
   10678    10693    10650    10619    10627    10617    10633    10686 
   10704    10689    10656    10612    10616    10658    10674    10670 
   10655    10639    10639    10635    10633    10658    10675    10677 
   10678    10655    10632    10644    10646    10617    10604    10643 
   10696    10717    10714    10689    10632    10580    10582    10633 
   10671    10674    10677    10660    10639    10662    10673    10640 
   10648    10673    10658    10658    10648    10611    10620    10656 
   10662    10669    10687    10677    10651    10639    10643    10654 
   10652    10642    10642    10646    10650    10667    10679    10671 
   10652    10642    10643    10651    10650    10646    10643    10636 
   10646    10673    10677    10662    10654    10644    10640    10650 
   10662    10667    10662    10652    10652    10655    10650    10646 
   10648    10648    10640    10642    10663    10681    10669    10643 
   10628    10636    10662    10682    10675    10640    10617    10633 
   10665    10675    10671    10656    10644    10651    10656    10643 
   10636    10671    10794    11130    11727    12314    12275    10828 
    7770     5023     5702     9383    12409    14285    16322    16431 
   13084     8527     5680     5205     5806     9007    15159    17311 
   14014    11389     9054     6554     7997    11057    11317    10127 
    9810    11047    13126    13613    11919    10424     9371     7815 
    8212    10450    10739    10530    11772    11963    12062    12858 
   10989     8365     8586     9337     9849    11570    12278    11038 
   10597    11349    11484    10543     9447     9506    10066    10273 
   11743    13207    11681     9432     9020     9279     9867    11017 
   11704    11427    10841    10862    11329    11160    10552    10593 
   10612     9475     8780    10019    11365    11507    11353    11164 
   10886    10821    10494     9814     9895    10617    10840    11018 
   11176    10318     9670    10498    11596    11739    10814     9918 
   10195    10694    10794    11180    11283    10686    10335    10669 
   10841    10166     9869    10503    10324     9741    10624    11477 
   10706    10251    11341    12363    12002    10675     9516     9111 
    9252    10006    11350    11880    11105    10725    10829    10521 
   10627    10963    10670    10187    10021    10748    11402    10372 
    9590    10689    11708    11353    10525    10285    10334    10048 
   10291    11204    11323    10609    10392    10881    11133    10957 
   10762    10154     9504     9846    10759    11437    11240    10597 
   10980    11145    10179    10218    10655    10164    10289    10735 
   10666    11056    11627    11618    10851     9796     9718    10060 
   10069    10655    11308    11313    11330    11250    10836    10299 
    9713     9572    10058    10735    11173    11009    10827    11191 
   11204    10709    10492    10324    10077    10255    10679    10836 
   10990    11306    10933    10075    10127    10786    10901    10696 
   10675    10689    10513    10309    10665    11129    10578    10042 
   10503    10635    10528    11129    11247    10643    10558    10621 
   10519    10875    11083    10786    10584    10180     9871    10474 
   10908    10659    10917    11192    10589    10196    10440    10615 
   10728    10876    11059    11242    10810     9823     9433    10025 
   10805    11340    11831    11900    11055    10027     9601     9683 
   10157    10743    11226    11688    11695    11164    10507     9576 
    9022     9749    10758    11060    11128    11114    10714    10258 
   10393    10895    10893    10485    10362    10696    11157    11175 
   10984    11045    10656     9936    10134    10748    10629    10438 
   10712    10832    10719    10739    10974    11284    11225    10670 
    9967     9278     9007     9690    10891    11742    12150    12106 
   11160     9894     9574    10053    10496    10735    11033    11531 
   11659    11168    10729    10376     9771     9309     9310     9788 
   10721    11457    11587    11666    11669    11160    10511     9860 
    9354     9911    11148    11659    11612    11375    10288     8702 
    7967     8645    10435    12499    13722    13718    12756    11160 
    9683     8992     9084     9960    11365    12310    11961    10403 
    8520     7202     6840     7465     8993    11300    13595    14845 
   15013    14102    11954     9717     8494     8125     8854    10709 
   12177    12370    11908    11002     9825     9297     9521     9865 
   10289    10646    10615    10539    10481    10134     9913     9971 
   10017    10600    11685    12135    11935    11646    11076    10473 
   10324    10438    10551    10523    10419    10519    10652    10675 
   10885    11167    11146    10876    10435     9737     9166     9328 
   10127    10920    11349    11524    11585    11403    10949    10500 
   10035     9479     9337     9888    10740    11720    12529    12395 
   11450    10504     9714     9408    10003    10773    11052    11144 
   11200    11163    11043    10528     9651     9047     8961     9309 
   10172    11164    11785    12195    12351    11900    11145    10501 
   10022     9946    10396    10824    10639    10154    10071    10335 
   10580    10728    10667    10503    10574    10735    10665    10422 
   10084     9856    10035    10444    10918    11624    12221    12268 
   12006    11535    10729    10012     9699     9653     9931    10474 
   10835    10829    10419     9655     9223     9575    10309    11204 
   12036    12225    11820    11290    10746    10250     9952     9895 
   10073    10380    10731    11065    11180    11052    10944    10924 
   10837    10652    10478    10311    10048     9863    10049    10431 
   10636    10654    10537    10335    10399    10812    11155    11265 
   11252    11163    11191    11340    11245    10891    10582    10237 
    9776     9513     9593     9902    10331    10788    11356    11952 
   12029    11487    10845    10249     9718     9632    10017    10544 
   11061    11371    11308    11007    10558     9965     9408     9130 
    9312     9987    10851    11558    12073    12316    12093    11507 
   10818    10285    10214    10542    10813    10806    10663    10446 
   10130     9892     9873    10034    10315    10666    11082    11445 
   11514    11280    10909    10524    10324    10404    10524    10404 
   10180    10230    10490    10608    10621    10671    10616    10434 
   10334    10431    10669    10957    11233    11422    11430    11237 
   11003    10706    10316    10216    10444    10438    10127     9953 
   10102    10484    10929    11272    11398    11265    10974    10646 
   10328    10079     9949     9900     9995    10455    11095    11345 
   11098    10754    10575    10580    10677    10708    10613    10498 
   10558    10804    10984    10983    10918    10858    10839    10920 
   10967    10758    10358    10156    10331    10598    10655    10512 
   10323    10220    10324    10593    10764    10719    10624    10621 
