Origin Time       2014/02/16 17:13:00
Lat.              31.733
Long.             130.873
Depth. (km)       8
Mag.              2.7
Station Code      MYZ015
Station Lat.      31.7185
Station Long.     131.0621
Station Height(m) 159
Record Time       2014/02/16 17:14:02
Sampling Freq(Hz) 100Hz
Duration Time(s)  60
Dir.              N-S
Scale Factor      7845(gal)/8223790
Max. Acc. (gal)   9.844
Last Correction   2014/02/16 17:13:47
Memo.             
[...]
   -7449    -7480    -7489    -7491    -7510    -7496    -7493    -7528 
   -7522    -7488    -7496    -7531    -7534    -7484    -7458    -7508 
   -7542    -7519    -7496    -7485    -7472    -7460    -7464    -7481 
   -7481    -7477    -7504    -7530    -7530    -7526    -7520    -7500 
   -7477    -7474    -7484    -7488    -7496    -7522    -7537    -7528 
   -7515    -7504    -7484    -7468    -7477    -7492    -7489    -7495 
   -7508    -7492    -7484    -7503    -7508    -7528    -7543    -7488 
   -7461    -7488    -7461    -7457    -7506    -7503    -7493    -7515 
   -7508    -7497    -7519    -7539    -7537    -7497    -7476    -7514 
   -7520    -7474    -7474    -7497    -7469    -7450    -7497    -7547 
   -7527    -7482    -7480    -7487    -7488    -7515    -7535    -7508 
   -7469    -7458    -7488    -7526    -7515    -7489    -7500    -7510 
   -7507    -7514    -7507    -7504    -7499    -7469    -7474    -7506 
   -7504    -7504    -7508    -7489    -7484    -7507    -7519    -7503 
   -7481    -7481    -7495    -7499    -7510    -7522    -7506    -7489 
   -7496    -7518    -7528    -7480    -7438    -7488    -7539    -7530 
   -7508    -7500    -7497    -7480    -7474    -7510    -7510    -7468 
   -7462    -7485    -7501    -7530    -7539    -7518    -7510    -7520 
   -7530    -7523    -7495    -7465    -7444    -7439    -7481    -7512 
   -7482    -7474    -7508    -7508    -7506    -7518    -7499    -7500 
   -7534    -7528    -7510    -7491    -7465    -7479    -7503    -7504 
   -7501    -7512    -7539    -7520    -7469    -7470    -7473    -7449 
   -7482    -7531    -7515    -7493    -7514    -7538    -7528    -7481 
   -7456    -7480    -7493    -7487    -7499    -7515    -7519    -7510 
   -7497    -7497    -7500    -7493    -7489    -7506    -7515    -7493 
   -7495    -7515    -7512    -7520    -7531    -7510    -7484    -7479 
   -7472    -7466    -7491    -7495    -7450    -7449    -7520    -7522 
   -7452    -7469    -7527    -7535    -7538    -7531    -7515    -7507 
   -7499    -7523    -7541    -7503    -7477    -7501    -7515    -7482 
   -7462    -7482    -7480    -7476    -7512    -7518    -7510    -7507 
   -7458    -7447    -7515    -7523    -7480    -7493    -7518    -7491 
   -7472    -7497    -7510    -7520    -7548    -7514    -7438    -7457 
   -7527    -7542    -7524    -7510    -7507    -7510    -7519    -7518 
   -7492    -7485    -7487    -7466    -7472    -7480    -7469    -7496 
   -7523    -7499    -7477    -7484    -7497    -7499    -7488    -7479 
   -7501    -7537    -7530    -7500    -7503    -7515    -7499    -7492 
   -7510    -7510    -7481    -7482    -7520    -7541    -7514    -7482 
   -7495    -7507    -7489    -7489    -7504    -7500    -7492    -7492 
   -7485    -7461    -7464    -7515    -7524    -7482    -7474    -7479 
   -7480    -7488    -7501    -7548    -7546    -7474    -7499    -7562 
   -7539    -7519    -7506    -7477    -7485    -7482    -7482    -7504 
   -7481    -7469    -7491    -7484    -7512    -7561    -7524    -7491 
   -7481    -7437    -7454    -7499    -7492    -7519    -7530    -7487 
   -7488    -7524    -7548    -7537    -7493    -7464    -7453    -7473 
   -7527    -7542    -7519    -7499    -7480    -7504    -7547    -7528 
   -7491    -7479    -7474    -7503    -7512    -7464    -7452    -7469 
   -7468    -7501    -7523    -7497    -7500    -7506    -7493    -7501 
   -7510    -7515    -7510    -7496    -7523    -7538    -7515    -7507 
   -7482    -7464    -7510    -7527    -7515    -7523    -7470    -7462 
   -7530    -7499    -7462    -7501    -7488    -7462    -7482    -7479 
   -7491    -7533    -7515    -7461    -7474    -7523    -7519    -7515 
   -7537    -7499    -7468    -7510    -7523    -7510    -7526    -7515 
   -7491    -7503    -7506    -7482    -7474    -7466    -7457    -7489 
   -7522    -7512    -7499    -7484    -7487    -7524    -7510    -7464 
   -7485    -7507    -7479    -7487    -7520    -7508    -7481    -7482 
   -7510    -7534    -7519    -7522    -7560    -7546    -7501    -7480 
   -7438    -7423    -7476    -7499    -7499    -7533    -7537    -7515 
   -7523    -7507    -7474    -7485    -7508    -7487    -7466    -7487 
   -7504    -7496    -7484    -7479    -7472    -7474    -7510    -7546 
   -7528    -7501    -7504    -7493    -7500    -7547    -7531    -7474 
   -7479    -7485    -7481    -7518    -7519    -7479    -7489    -7522 
   -7501    -7472    -7468    -7474    -7503    -7539    -7522    -7464 
   -7454    -7477    -7485    -7508    -7535    -7542    -7526    -7484 
   -7480    -7515    -7508    -7499    -7528    -7522    -7488    -7482 
   -7479    -7472    -7485    -7510    -7533    -7514    -7481    -7474 
   -7477    -7488    -7504    -7510    -7514    -7514    -7507    -7515 
   -7527    -7501    -7447    -7430    -7460    -7479    -7493    -7537 
   -7557    -7533    -7527    -7528    -7487    -7453    -7488    -7530 
   -7520    -7493    -7499    -7527    -7530    -7497    -7466    -7457 
   -7462    -7474    -7514    -7553    -7518    -7460    -7480    -7522 
   -7504    -7457    -7453    -7495    -7508    -7503    -7528    -7542 
   -7523    -7514    -7506    -7506    -7526    -7527    -7495    -7466 
   -7470    -7495    -7510    -7510    -7491    -7464    -7469    -7499 
   -7489    -7469    -7489    -7514    -7515    -7512    -7512    -7522 
   -7515    -7500    -7510    -7510    -7480    -7479    -7507    -7499 
   -7474    -7487    -7510    -7503    -7481    -7482    -7515    -7548 
   -7543    -7506    -7465    -7450    -7468    -7503    -7533    -7537 
   -7515    -7493    -7482    -7462    -7441    -7457    -7512    -7547 
   -7537    -7527    -7527    -7487    -7435    -7452    -7515    -7541 
   -7519    -7522    -7528    -7492    -7464    -7470    -7473    -7488 
   -7522    -7506    -7473    -7495    -7527    -7510    -7495    -7500 
   -7500    -7497    -7500    -7496    -7482    -7477    -7504    -7520 
   -7493    -7484    -7499    -7495    -7501    -7522    -7499    -7472 
   -7497    -7519    -7510    -7523    -7530    -7500    -7474    -7481 
   -7493    -7484    -7481    -7503    -7512    -7504    -7501    -7497 
   -7495    -7518    -7515    -7462    -7460    -7514    -7515    -7499 
   -7515    -7506    -7479    -7488    -7493    -7488    -7510    -7518 
   -7491    -7496    -7533    -7537    -7518    -7496    -7472    -7454 
   -7458    -7487    -7512    -7497    -7487    -7519    -7548    -7547 
   -7514    -7458    -7442    -7460    -7479    -7500    -7491    -7474 
   -7510    -7550    -7547    -7519    -7489    -7487    -7481    -7468 
   -7493    -7530    -7533    -7512    -7487    -7482    -7495    -7501 
   -7514    -7520    -7506    -7493    -7487    -7474    -7495    -7515 
   -7487    -7464    -7487    -7527    -7550    -7507    -7438    -7437 
   -7468    -7473    -7480    -7499    -7510    -7526    -7557    -7568 
   -7543    -7519    -7493    -7472    -7493    -7507    -7497    -7508 
   -7489    -7446    -7460    -7495    -7500    -7508    -7520    -7503 
   -7473    -7487    -7510    -7481    -7472    -7500    -7504    -7519 
   -7543    -7501    -7462    -7493    -7512    -7514    -7534    -7512 
   -7466    -7482    -7518    -7520    -7512    -7499    -7482    -7482 
   -7496    -7503    -7476    -7446    -7468    -7508    -7523    -7543 
   -7534    -7461    -7435    -7499    -7537    -7510    -7472    -7472 
   -7515    -7531    -7504    -7499    -7512    -7510    -7497    -7481 
   -7484    -7512    -7527    -7504    -7466    -7462    -7507    -7537 
   -7526    -7508    -7477    -7444    -7449    -7488    -7539    -7546 
   -7496    -7476    -7510    -7510    -7470    -7466    -7507    -7527 
   -7515    -7510    -7496    -7484    -7506    -7504    -7479    -7473 
   -7476    -7520    -7584    -7573    -7503    -7438    -7426    -7468 
   -7474    -7469    -7524    -7537    -7492    -7491    -7481    -7469 
   -7507    -7510    -7485    -7514    -7538    -7530    -7520    -7497 
   -7472    -7454    -7460    -7518    -7565    -7526    -7476    -7495 
   -7519    -7493    -7473    -7487    -7507    -7537    -7528    -7461 
   -7446    -7504    -7518    -7497    -7504    -7497    -7476    -7492 
   -7515    -7504    -7484    -7480    -7499    -7520    -7524    -7527 
   -7515    -7481    -7470    -7497    -7492    -7460    -7487    -7541 
   -7537    -7510    -7506    -7489    -7464    -7465    -7506    -7541 
   -7523    -7487    -7484    -7503    -7495    -7465    -7479    -7508 
   -7503    -7493    -7508    -7530    -7524    -7499    -7492    -7499 
   -7493    -7487    -7474    -7487    -7522    -7510    -7474    -7482 
   -7496    -7507    -7542    -7535    -7481    -7470    -7497    -7495 
   -7480    -7506    -7527    -7492    -7468    -7485    -7487    -7497 
   -7539    -7545    -7515    -7479    -7446    -7473    -7503    -7476 
   -7488    -7528    -7519    -7522    -7534    -7507    -7482    -7456 
   -7443    -7489    -7531    -7520    -7504    -7506    -7480    -7450 
   -7479    -7500    -7497    -7546    -7572    -7484    -7458    -7585 
   -7565    -7399    -7427    -7541    -7510    -7456    -7473    -7515 
   -7527    -7503    -7515    -7538    -7488    -7449    -7482    -7496 
   -7479    -7487    -7499    -7515    -7512    -7470    -7495    -7569 
   -7545    -7482    -7499    -7501    -7476    -7500    -7500    -7460 
   -7470    -7512    -7500    -7454    -7501    -7580    -7526    -7453 
   -7491    -7542    -7510    -7447    -7474    -7543    -7510    -7481 
   -7547    -7533    -7437    -7438    -7488    -7488    -7496    -7512 
   -7515    -7531    -7530    -7514    -7504    -7469    -7442    -7456 
   -7489    -7547    -7576    -7530    -7492    -7485    -7464    -7458 
   -7485    -7472    -7457    -7522    -7553    -7503    -7515    -7543 
   -7497    -7488    -7520    -7530    -7504    -7437    -7437    -7528 
   -7538    -7477    -7480    -7507    -7507    -7512    -7514    -7499 
   -7487    -7491    -7506    -7519    -7522    -7496    -7454    -7456 
   -7495    -7503    -7500    -7515    -7512    -7497    -7501    -7500 
   -7485    -7485    -7507    -7524    -7515    -7501    -7515    -7531 
   -7503    -7465    -7480    -7512    -7503    -7484    -7499    -7514 
   -7510    -7501    -7480    -7462    -7476    -7497    -7504    -7515 
   -7522    -7508    -7507    -7507    -7473    -7468    -7501    -7515 
   -7527    -7527    -7487    -7470    -7491    -7506    -7508    -7504 
   -7508    -7515    -7503    -7492    -7491    -7480    -7482    -7504 
   -7518    -7510    -7501    -7510    -7515    -7507    -7464    -7365 
   -7310    -7477    -7838    -8127    -7997    -7280    -6492    -6316 
   -6523    -7164    -8988   -10671    -9683    -6667    -4745    -5286 
   -6793    -7652    -8411    -8981    -7631    -5946    -6997    -9050 
   -9322    -8182    -6656    -6096    -6895    -7195    -7180    -8001 
   -7964    -7364    -8214    -8286    -6489    -6238    -7443    -7419 
   -7453    -8447    -8463    -7767    -7450    -7037    -7383    -8378 
   -7534    -5884    -6218    -7186    -7288    -7678    -8487    -8542 
   -7593    -7030    -8009    -8955    -8306    -7317    -6825    -6367 
   -6409    -7028    -7487    -7692    -7823    -8081    -8125    -7222 
   -6222    -6637    -8007    -8515    -7852    -7497    -7758    -7730 
   -7547    -7442    -7245    -7399    -7593    -6928    -6199    -6650 
   -8000    -9139    -9004    -7986    -7652    -7555    -6648    -6369 
   -7287    -7622    -6998    -6659    -7248    -8194    -8205    -7365 
   -7203    -7816    -8043    -7689    -7496    -7716    -7778    -7704 
   -7707    -7240    -6814    -7138    -7125    -6615    -7061    -8202 
   -8506    -7784    -7080    -7221    -7619    -7331    -7391    -8497 
   -8627    -7406    -7025    -7389    -7302    -7076    -6930    -6940 
   -7233    -7519    -7825    -8040    -7852    -7798    -8137    -7773 
   -6605    -6460    -7557    -8085    -7711    -7550    -7871    -7711 
   -6847    -6772    -7639    -7774    -7148    -6997    -7530    -7943 
   -7701    -7586    -7927    -7754    -7411    -7685    -7747    -7434 
   -7484    -7296    -6640    -6771    -7678    -8063    -7763    -7426 
   -7406    -7696    -7777    -7378    -7056    -7248    -7817    -8324 
   -8271    -7747    -7115    -6601    -6582    -7001    -7344    -7441 
   -7411    -7501    -7954    -8560    -8634    -7871    -7045    -6960 
   -7183    -7173    -7295    -7514    -7510    -7466    -7177    -6840 
   -7302    -8035    -8075    -7777    -7639    -7749    -8016    -7956 
   -7439    -7087    -7056    -6910    -6961    -7507    -7738    -7510 
   -7604    -7769    -7506    -7203    -7213    -7522    -7723    -7593 
   -7727    -7923    -7450    -7168    -7618    -7601    -7192    -7503 
   -7812    -7420    -7271    -7570    -7688    -7746    -7807    -7589 
   -7304    -7145    -7086    -7249    -7438    -7277    -7111    -7479 
   -7969    -7878    -7450    -7364    -7634    -7830    -7873    -7959 
   -7867    -7283    -6777    -7010    -7446    -7547    -7650    -7704 
   -7481    -7418    -7543    -7466    -7433    -7573    -7465    -7134 
   -7022    -7231    -7619    -7890    -7834    -7843    -7931    -7411 
   -6839    -7314    -8040    -7927    -7601    -7555    -7302    -6997 
   -7215    -7824    -8095    -7514    -6891    -7202    -7611    -7321 
   -7153    -7477    -7672    -7547    -7348    -7352    -7634    -7885 
   -7848    -7614    -7612    -8129    -8780    -9373   -10405   -11705 
  -12078   -10962    -8680    -5278    -1196     1949     2820     1206 
   -2100    -5456    -7843    -9379    -9991    -9737    -9444    -9656 
  -10481   -11982   -13547   -14393   -14605   -13996   -11691    -7838 
   -3609      -18     1915     1513     -888    -4549    -8352   -10642 
  -10947   -10358    -9474    -8337    -7562    -7373    -7272    -7375 
   -7948    -8490    -8673    -8324    -7360    -6845    -7187    -7053 
   -6289    -5968    -6235    -7152    -8723   -10039   -10701   -10812 
   -9705    -7422    -5248    -3582    -2322    -2322    -4071    -6847 
   -9470   -10694   -10473   -10255   -10341    -9732    -8567    -7398 
   -6339    -5844    -5952    -6174    -6446    -6771    -7115    -7612 
   -8193    -8746    -9096    -8849    -8278    -8073    -7843    -6790 
   -5459    -5070    -5755    -6643    -7099    -7118    -7107    -7466 
   -8071    -8526    -8725    -8839    -8942    -8806    -8463    -8385 
   -8584    -8579    -8252    -7773    -7233    -6552    -5513    -4340 
   -3859    -4415    -5547    -6970    -8645   -10076   -10743   -10665 
   -9929    -8731    -7468    -6160    -5030    -4870    -5827    -7105 
   -8000    -8494    -8918    -9242    -9150    -8573    -7666    -6673 
   -5908    -5741    -6421    -7543    -8355    -8579    -8301    -7713 
   -7115    -6536    -5867    -5381    -5456    -6060    -6961    -7951 
   -8702    -9036    -9158    -9212    -9097    -8812    -8444    -8002 
   -7612    -7385    -7203    -7052    -7011    -6922    -6663    -6432 
   -6507    -6921    -7369    -7614    -7813    -8023    -8156    -8352 
   -8472    -8104    -7365    -6654    -6157    -5944    -5775    -5514 
   -5652    -6505    -7742    -9031   -10147   -10779   -10712    -9979 
   -8896    -7834    -6921    -6176    -5603    -5310    -5603    -6480 
   -7391    -7844    -7807    -7612    -7496    -7339    -7114    -7086 
   -7279    -7447    -7643    -7950    -8078    -8028    -8060    -8010 
   -7719    -7415    -7229    -7176    -7248    -7331    -7508    -7811 
   -7882    -7619    -7391    -7264    -6936    -6403    -6110    -6338 
   -6825    -7317    -7897    -8529    -8951    -9053    -8900    -8573 
   -8133    -7586    -7015    -6785    -7164    -7738    -7906    -7726 
   -7419    -6936    -6439    -6166    -6050    -6088    -6430    -7052 
   -7785    -8441    -8903    -9109    -9062    -8868    -8712    -8702 
   -8688    -8424    -7964    -7481    -6949    -6420    -6079    -5934 
   -5863    -5849    -5942    -6156    -6556    -7173    -7824    -8372 
   -8837    -9221    -9396    -9113    -8473    -7928    -7496    -6960 
   -6528    -6415    -6462    -6631    -7032    -7487    -7715    -7638 
   -7364    -7156    -7160    -7264    -7378    -7499    -7614    -7801 
   -8040    -8175    -8147    -7963    -7753    -7700    -7715    -7650 
   -7593    -7538    -7338    -7005    -6621    -6289    -6201    -6372 
   -6664    -7176    -7928    -8543    -8718    -8557    -8319    -8171 
   -8083    -7884    -7548    -7306    -7306    -7429    -7496    -7499 
   -7415    -7164    -6878    -6779    -6864    -6988    -7160    -7444 
   -7751    -8006    -8186    -8128    -7862    -7636    -7512    -7426 
   -7344    -7250    -7242    -7373    -7564    -7723    -7766    -7707 
   -7651    -7531    -7296    -7083    -6945    -6837    -6798    -6919 
   -7225    -7564    -7726    -7738    -7808    -7947    -8025    -8009 
   -7931    -7888    -7881    -7789    -7657    -7623    -7654    -7636 
   -7592    -7595    -7573    -7488    -7454    -7411    -7268    -7175 
   -7160    -7157    -7264    -7443    -7578    -7654    -7543    -7200 
   -6898    -6790    -6771    -6804    -6902    -7063    -7322    -7651 
   -7974    -8295    -8552    -8604    -8513    -8382    -8127    -7736 
   -7338    -7075    -7009    -6987    -6912    -6925    -7088    -7252 
   -7306    -7306    -7314    -7280    -7219    -7241    -7361    -7514 
   -7649    -7777    -7929    -8090    -8160    -8073    -7935    -7844 
   -7715    -7479    -7245    -7150    -7157    -7159    -7203    -7340 
   -7446    -7481    -7548    -7704    -7889    -7971    -7912    -7830 
   -7749    -7593    -7385    -7214    -7101    -7006    -6944    -6952 
   -6998    -7068    -7198    -7366    -7524    -7685    -7854    -8002 
   -8136    -8245    -8275    -8155    -7857    -7468    -7105    -6844 
   -6696    -6621    -6642    -6804    -7061    -7365    -7704    -7996 
   -8111    -8052    -7969    -7919    -7827    -7701    -7577    -7416 
   -7254    -7140    -7072    -7079    -7183    -7318    -7437    -7555 
   -7670    -7753    -7774    -7736    -7717    -7771    -7823    -7813 
   -7801    -7820    -7817    -7761    -7632    -7365    -7001    -6698 
   -6543    -6555    -6709    -6918    -7203    -7591    -7906    -8067 
   -8189    -8262    -8214    -8128    -8028    -7869    -7730    -7641 
   -7496    -7298    -7106    -6885    -6671    -6633    -6750    -6872 
   -7048    -7335    -7604    -7798    -7951    -8002    -7993    -8023 
   -8014    -7900    -7747    -7624    -7528    -7415    -7298    -7256 
   -7275    -7283    -7296    -7339    -7373    -7406    -7504    -7635 
   -7723    -7751    -7699    -7578    -7458    -7385    -7326    -7288 
   -7323    -7385    -7398    -7375    -7346    -7362    -7450    -7537 
   -7600    -7727    -7873    -7921    -7931    -7924    -7788    -7573 
   -7406    -7254    -7092    -7007    -7030    -7117    -7250    -7406 
   -7555    -7692    -7786    -7807    -7728    -7589    -7468    -7384 
   -7358    -7435    -7523    -7537    -7533    -7501    -7406    -7300 
   -7218    -7157    -7127    -7146    -7196    -7256    -7365    -7538 
   -7722    -7857    -7881    -7831    -7827    -7852    -7854    -7871 
   -7903    -7897    -7851    -7792    -7738    -7614    -7352    -7067 
   -6902    -6874    -6966    -7132    -7292    -7410    -7515    -7614 
