Origin Time       2015/02/17 08:06:00
Lat.              39.872
Long.             143.192
Depth. (km)       13
Mag.              6.9
Station Code      NGNH54
Station Lat.      35.4489
Station Long.     138.0058
Station Height(m) 1064.5
Record Time       2015/02/17 08:09:33
Sampling Freq(Hz) 100Hz
Duration Time(s)  120
Dir.              3
Scale Factor      2940(gal)/6170270
Max. Acc. (gal)   0.116
Last Correction   2015/02/17 08:09:18
Memo.             
[...]
    4332     4335     4338     4341     4344     4347     4349     4349 
    4350     4353     4355     4356     4359     4361     4363     4366 
    4366     4365     4367     4369     4368     4367     4372     4377 
    4381     4385     4388     4393     4398     4400     4402     4406 
    4408     4409     4412     4412     4412     4414     4413     4414 
    4416     4415     4413     4412     4411     4410     4410     4408 
    4407     4410     4409     4405     4403     4403     4402     4401 
    4400     4401     4401     4400     4401     4404     4404     4405 
    4408     4410     4413     4416     4417     4417     4419     4419 
    4419     4420     4418     4415     4415     4412     4408     4408 
    4405     4399     4396     4393     4390     4389     4388     4386 
    4386     4384     4382     4381     4379     4379     4378     4377 
    4376     4376     4374     4375     4377     4377     4376     4376 
    4375     4376     4376     4376     4378     4379     4383     4386 
    4386     4388     4392     4393     4396     4401     4406     4408 
    4410     4415     4421     4423     4426     4430     4433     4434 
    4439     4447     4454     4458     4462     4465     4469     4473 
    4476     4475     4475     4478     4477     4476     4476     4474 
    4470     4467     4464     4461     4458     4455     4451     4448 
    4448     4448     4446     4447     4447     4448     4450     4449 
    4448     4449     4449     4449     4449     4449     4450     4449 
    4449     4452     4453     4451     4452     4453     4454     4455 
    4456     4456     4456     4456     4454     4451     4447     4444 
    4442     4437     4432     4427     4423     4418     4409     4401 
    4396     4390     4382     4376     4370     4364     4359     4356 
    4350     4347     4345     4342     4337     4335     4336     4337 
    4337     4338     4339     4341     4342     4344     4349     4352 
    4354     4357     4359     4362     4365     4367     4370     4371 
    4372     4376     4378     4376     4376     4379     4377     4376 
    4377     4375     4372     4369     4365     4362     4360     4356 
    4350     4345     4344     4342     4339     4335     4333     4332 
    4329     4326     4325     4324     4328     4331     4332     4337 
    4339     4341     4346     4349     4351     4352     4353     4355 
    4357     4358     4361     4362     4362     4360     4358     4358 
    4359     4357     4354     4351     4348     4346     4343     4338 
    4334     4329     4322     4318     4313     4307     4302     4298 
    4293     4290     4286     4281     4276     4274     4271     4268 
    4265     4264     4264     4264     4266     4268     4270     4274 
    4278     4281     4287     4293     4298     4306     4315     4321 
    4329     4338     4346     4352     4357     4365     4371     4374 
    4378     4381     4384     4388     4388     4389     4388     4383 
    4381     4382     4379     4376     4375     4372     4367     4360 
    4355     4350     4346     4342     4338     4333     4330     4326 
    4322     4320     4320     4322     4323     4322     4323     4327 
    4332     4338     4341     4344     4350     4359     4367     4372 
    4381     4389     4393     4399     4406     4410     4415     4421 
    4424     4425     4428     4432     4434     4435     4435     4437 
    4438     4440     4439     4439     4442     4444     4443     4444 
    4446     4446     4444     4445     4447     4450     4452     4453 
    4456     4461     4464     4465     4466     4468     4470     4471 
    4470     4466     4463     4461     4455     4446     4440     4436 
    4432     4427     4421     4415     4408     4405     4402     4398 
    4394     4391     4387     4384     4383     4379     4377     4376 
    4374     4372     4374     4375     4375     4376     4378     4380 
    4382     4385     4388     4390     4392     4395     4398     4400 
    4401     4403     4403     4404     4406     4405     4406     4407 
    4404     4404     4406     4406     4406     4406     4407     4408 
    4407     4407     4408     4404     4401     4401     4398     4395 
    4393     4387     4383     4382     4380     4379     4376     4373 
    4372     4369     4368     4369     4368     4366     4365     4365 
    4364     4363     4361     4359     4356     4353     4351     4348 
    4344     4341     4337     4332     4329     4327     4325     4323 
    4321     4320     4320     4320     4319     4318     4317     4318 
    4318     4317     4317     4317     4317     4316     4314     4312 
    4313     4314     4316     4317     4317     4316     4316     4319 
    4321     4320     4320     4320     4320     4320     4322     4325 
    4329     4331     4334     4341     4345     4347     4351     4355 
    4357     4359     4359     4361     4362     4358     4355     4356 
    4355     4352     4350     4349     4346     4343     4343     4339 
    4336     4337     4340     4336     4332     4331     4330     4329 
    4328     4325     4323     4322     4319     4315     4314     4312 
    4309     4305     4302     4300     4296     4293     4292     4290 
    4290     4289     4287     4288     4290     4292     4296     4299 
    4301     4307     4312     4315     4321     4326     4330     4336 
    4343     4346     4350     4358     4363     4366     4370     4374 
    4377     4378     4383     4389     4391     4393     4397     4398 
    4399     4400     4400     4399     4402     4404     4402     4403 
    4403     4403     4402     4403     4405     4407     4409     4413 
    4415     4416     4418     4420     4420     4422     4426     4430 
    4430     4429     4430     4432     4432     4431     4433     4433 
    4431     4431     4432     4432     4433     4434     4433     4433 
    4434     4433     4431     4430     4428     4427     4426     4425 
    4423     4422     4423     4422     4420     4421     4423     4421 
    4422     4426     4425     4424     4428     4429     4429     4433 
    4436     4440     4445     4449     4453     4457     4462     4467 
    4473     4478     4482     4486     4490     4494     4498     4503 
    4507     4509     4512     4516     4519     4521     4525     4528 
    4527     4527     4530     4530     4529     4531     4530     4528 
    4527     4525     4518     4512     4507     4501     4494     4486 
    4478     4470     4463     4457     4451     4442     4437     4434 
    4428     4420     4415     4410     4407     4404     4400     4400 
    4400     4397     4395     4395     4395     4394     4394     4394 
    4393     4393     4391     4389     4389     4387     4385     4384 
    4382     4381     4380     4377     4374     4371     4369     4367 
    4365     4364     4363     4361     4361     4360     4360     4361 
    4361     4362     4363     4363     4366     4366     4363     4362 
    4363     4362     4360     4359     4357     4355     4353     4353 
    4351     4350     4352     4352     4351     4353     4357     4360 
    4364     4370     4374     4379     4383     4387     4392     4398 
    4401     4403     4407     4410     4410     4410     4412     4411 
    4410     4407     4404     4402     4400     4397     4393     4389 
    4387     4383     4378     4376     4374     4370     4370     4370 
    4368     4366     4364     4364     4364     4362     4359     4357 
    4357     4355     4354     4354     4354     4353     4354     4354 
    4352     4355     4359     4359     4360     4365     4367     4366 
    4369     4373     4377     4382     4387     4389     4392     4396 
    4400     4405     4409     4409     4411     4416     4417     4417 
    4420     4422     4423     4427     4428     4427     4430     4431 
    4427     4427     4429     4427     4423     4418     4415     4413 
    4410     4408     4406     4401     4396     4393     4389     4385 
    4382     4379     4374     4369     4366     4363     4362     4358 
    4355     4356     4356     4353     4353     4351     4352     4354 
    4353     4352     4353     4355     4358     4359     4358     4359 
    4362     4362     4360     4364     4369     4368     4366     4368 
    4369     4371     4373     4372     4372     4377     4379     4377 
    4378     4383     4383     4383     4385     4387     4388     4388 
    4385     4385     4384     4381     4380     4378     4374     4373 
    4372     4368     4363     4360     4358     4356     4351     4348 
    4349     4347     4343     4342     4341     4340     4339     4338 
    4337     4336     4335     4334     4334     4332     4329     4326 
    4324     4320     4315     4311     4308     4305     4301     4296 
    4293     4288     4284     4285     4282     4278     4276     4275 
    4274     4273     4272     4271     4273     4275     4276     4279 
    4282     4284     4288     4293     4298     4303     4306     4313 
    4320     4323     4325     4329     4331     4333     4335     4334 
    4335     4337     4335     4335     4338     4338     4336     4338 
    4340     4338     4336     4338     4340     4341     4342     4341 
    4339     4342     4344     4342     4344     4348     4347     4346 
    4348     4349     4350     4352     4353     4354     4356     4358 
    4360     4360     4361     4364     4364     4364     4367     4366 
    4365     4365     4361     4357     4355     4353     4349     4344 
    4342     4339     4334     4330     4326     4321     4318     4316 
    4315     4314     4314     4313     4313     4314     4317     4321 
    4324     4326     4329     4333     4336     4339     4342     4348 
    4355     4361     4367     4370     4374     4380     4387     4395 
    4402     4406     4411     4419     4425     4431     4437     4442 
    4445     4448     4451     4454     4459     4463     4465     4466 
    4469     4470     4470     4473     4474     4474     4475     4474 
    4472     4469     4468     4467     4467     4468     4466     4462 
    4461     4462     4464     4466     4467     4469     4473     4475 
    4476     4480     4482     4483     4487     4489     4490     4491 
    4493     4494     4494     4493     4494     4491     4488     4485 
    4482     4478     4476     4470     4463     4459     4455     4448 
    4441     4436     4430     4422     4414     4406     4399     4393 
    4388     4381     4374     4368     4361     4354     4349     4343 
    4336     4332     4327     4323     4320     4318     4314     4312 
    4311     4310     4309     4309     4310     4311     4313     4316 
    4318     4322     4327     4331     4335     4338     4342     4346 
    4350     4353     4356     4360     4364     4368     4370     4372 
    4375     4378     4380     4381     4385     4387     4384     4384 
    4386     4385     4382     4379     4376     4373     4369     4364 
    4361     4360     4357     4353     4349     4346     4343     4339 
    4336     4334     4331     4329     4329     4328     4327     4325 
    4323     4321     4320     4318     4319     4318     4316     4319 
    4321     4323     4328     4332     4334     4341     4347     4350 
    4356     4363     4369     4378     4386     4392     4401     4409 
    4414     4420     4427     4432     4436     4441     4445     4448 
    4449     4449     4449     4450     4450     4449     4446     4447 
    4448     4443     4440     4441     4438     4434     4433     4430 
    4426     4422     4420     4417     4413     4409     4405     4401 
    4397     4393     4389     4386     4382     4380     4377     4374 
    4372     4372     4369     4366     4367     4367     4366     4365 
    4365     4364     4363     4365     4365     4363     4360     4359 
    4359     4359     4358     4355     4354     4353     4352     4351 
    4350     4350     4350     4346     4344     4343     4340     4338 
    4339     4340     4339     4337     4337     4339     4339     4337 
    4337     4336     4335     4335     4333     4331     4331     4330 
    4329     4328     4328     4327     4325     4324     4325     4324 
    4325     4324     4324     4324     4323     4323     4322     4322 
    4325     4325     4323     4325     4326     4327     4327     4330 
    4333     4334     4337     4338     4338     4340     4344     4347 
    4350     4352     4354     4357     4359     4361     4363     4365 
    4367     4371     4375     4379     4384     4387     4390     4396 
    4401     4407     4414     4420     4425     4429     4436     4442 
    4445     4449     4454     4457     4458     4460     4461     4461 
    4461     4461     4459     4458     4456     4453     4448     4442 
    4438     4436     4430     4422     4417     4413     4409     4403 
    4398     4397     4394     4390     4388     4386     4384     4382 
    4382     4382     4379     4377     4377     4377     4377     4376 
    4376     4378     4379     4376     4375     4377     4378     4375 
    4374     4374     4375     4375     4376     4376     4375     4376 
    4375     4371     4371     4371     4369     4368     4369     4372 
    4374     4374     4375     4382     4390     4394     4400     4407 
    4415     4424     4434     4446     4456     4467     4481     4493 
    4503     4514     4527     4539     4548     4557     4570     4581 
    4590     4598     4604     4610     4616     4620     4621     4623 
    4624     4623     4621     4619     4615     4611     4606     4600 
    4593     4588     4579     4572     4568     4562     4552     4546 
    4541     4534     4526     4521     4516     4510     4504     4499 
    4491     4485     4479     4473     4466     4458     4451     4444 
    4439     4434     4428     4422     4418     4413     4408     4403 
    4400     4398     4393     4390     4386     4382     4381     4380 
    4377     4374     4370     4367     4364     4360     4355     4351 
    4350     4348     4343     4339     4339     4336     4334     4333 
    4330     4325     4324     4324     4322     4320     4321     4323 
    4326     4327     4327     4332     4338     4342     4346     4351 
    4356     4361     4367     4371     4376     4383     4389     4394 
    4401     4405     4407     4411     4415     4417     4421     4424 
    4424     4424     4423     4422     4421     4418     4413     4411 
    4409     4404     4397     4392     4386     4381     4377     4370 
    4362     4356     4350     4343     4338     4332     4326     4321 
    4316     4311     4309     4307     4305     4304     4304     4304 
    4305     4309     4312     4316     4322     4328     4332     4338 
    4346     4353     4360     4367     4375     4383     4390     4396 
    4401     4406     4412     4416     4418     4420     4421     4418 
    4416     4416     4414     4412     4410     4406     4401     4397 
    4395     4392     4389     4386     4385     4384     4384     4384 
    4384     4384     4385     4386     4387     4386     4385     4386 
    4388     4389     4388     4387     4387     4386     4385     4384 
    4380     4377     4374     4370     4367     4364     4362     4360 
    4357     4354     4351     4348     4344     4341     4340     4336 
    4331     4328     4323     4319     4315     4309     4303     4298 
    4293     4289     4284     4278     4274     4271     4266     4263 
    4261     4256     4251     4249     4247     4246     4245     4242 
    4242     4243     4245     4249     4250     4252     4258     4261 
    4265     4271     4277     4282     4288     4293     4300     4307 
    4314     4322     4330     4337     4343     4350     4358     4365 
    4372     4378     4385     4395     4402     4409     4416     4422 
    4430     4437     4441     4447     4453     4459     4465     4467 
    4470     4474     4475     4477     4479     4478     4477     4478 
    4479     4479     4481     4482     4483     4485     4485     4486 
    4490     4492     4493     4495     4497     4500     4502     4502 
    4502     4502     4500     4499     4498     4497     4492     4486 
    4483     4478     4470     4463     4455     4447     4440     4431 
    4424     4421     4413     4402     4397     4389     4380     4377 
    4372     4364     4360     4357     4351     4347     4347     4344 
    4341     4340     4340     4341     4342     4342     4344     4345 
    4347     4348     4348     4351     4353     4351     4350     4349 
    4348     4347     4345     4343     4340     4338     4337     4335 
    4331     4331     4330     4328     4326     4325     4322     4323 
    4325     4325     4327     4330     4332     4336     4341     4345 
    4347     4350     4356     4362     4367     4370     4374     4380 
    4386     4389     4394     4398     4403     4408     4410     4413 
    4417     4421     4424     4426     4428     4430     4434     4436 
    4437     4438     4440     4439     4439     4440     4440     4440 
    4439     4436     4433     4431     4430     4427     4422     4419 
    4414     4409     4405     4400     4394     4389     4381     4374 
    4370     4367     4361     4354     4351     4349     4344     4343 
    4342     4339     4337     4337     4338     4336     4335     4338 
    4341     4342     4345     4346     4350     4354     4353     4353 
    4353     4353     4356     4358     4356     4356     4355     4354 
    4358     4360     4358     4359     4363     4364     4363     4363 
    4363     4362     4361     4362     4360     4355     4354     4351 
    4345     4341     4338     4334     4327     4321     4320     4316 
    4310     4308     4304     4299     4299     4299     4296     4293 
    4292     4291     4294     4296     4295     4298     4300     4301 
    4304     4309     4311     4311     4311     4312     4313     4314 
    4315     4314     4312     4312     4310     4305     4301     4299 
    4295     4290     4287     4283     4280     4276     4274     4272 
    4268     4265     4264     4263     4262     4261     4261     4261 
    4262     4260     4260     4262     4264     4266     4268     4271 
    4273     4273     4275     4279     4282     4284     4286     4288 
    4290     4294     4296     4296     4299     4303     4307     4312 
    4315     4318     4322     4327     4332     4337     4338     4340 
    4346     4353     4357     4360     4364     4366     4364     4365 
    4368     4368     4367     4367     4368     4367     4365     4365 
    4365     4362     4360     4361     4361     4359     4359     4361 
    4360     4362     4363     4363     4366     4367     4368     4371 
    4377     4382     4384     4386     4392     4397     4400     4405 
    4408     4412     4415     4416     4419     4423     4423     4423 
    4424     4424     4424     4427     4431     4432     4431     4434 
    4437     4438     4440     4443     4444     4445     4448     4451 
    4453     4455     4457     4457     4457     4457     4457     4457 
    4457     4457     4456     4454     4454     4453     4450     4449 
    4449     4446     4446     4447     4446     4446     4447     4444 
    4444     4443     4441     4440     4437     4434     4434     4431 
    4426     4422     4417     4413     4410     4404     4398     4396 
