Origin Time       2015/02/17 08:06:00
Lat.              39.872
Long.             143.192
Depth. (km)       13
Mag.              6.9
Station Code      NGNH54
Station Lat.      35.4489
Station Long.     138.0058
Station Height(m) 1168
Record Time       2015/02/17 08:09:33
Sampling Freq(Hz) 100Hz
Duration Time(s)  120
Dir.              5
Scale Factor      3920(gal)/6170801
Max. Acc. (gal)   0.174
Last Correction   2015/02/17 08:09:18
Memo.             
[...]
   -5543    -5545    -5544    -5544    -5543    -5538    -5530    -5522 
   -5512    -5498    -5482    -5469    -5454    -5438    -5423    -5410 
   -5397    -5383    -5372    -5364    -5354    -5345    -5341    -5337 
   -5332    -5328    -5325    -5323    -5322    -5321    -5320    -5316 
   -5313    -5314    -5312    -5310    -5311    -5310    -5306    -5304 
   -5300    -5292    -5287    -5281    -5272    -5265    -5258    -5251 
   -5247    -5242    -5239    -5239    -5236    -5236    -5238    -5240 
   -5238    -5238    -5241    -5242    -5243    -5242    -5243    -5244 
   -5240    -5235    -5232    -5230    -5227    -5224    -5221    -5217 
   -5214    -5212    -5213    -5217    -5222    -5226    -5232    -5242 
   -5251    -5261    -5272    -5284    -5296    -5307    -5318    -5330 
   -5343    -5357    -5369    -5383    -5397    -5411    -5424    -5438 
   -5449    -5457    -5465    -5470    -5475    -5482    -5486    -5490 
   -5494    -5496    -5500    -5503    -5500    -5498    -5500    -5499 
   -5496    -5495    -5490    -5485    -5482    -5474    -5464    -5458 
   -5449    -5439    -5433    -5424    -5413    -5404    -5397    -5390 
   -5379    -5369    -5359    -5345    -5332    -5319    -5307    -5299 
   -5290    -5280    -5273    -5270    -5267    -5263    -5260    -5259 
   -5257    -5255    -5254    -5254    -5257    -5257    -5257    -5256 
   -5255    -5253    -5251    -5246    -5242    -5238    -5233    -5226 
   -5220    -5214    -5204    -5195    -5188    -5177    -5165    -5153 
   -5141    -5129    -5118    -5106    -5098    -5092    -5086    -5082 
   -5080    -5078    -5077    -5079    -5081    -5083    -5091    -5100 
   -5106    -5114    -5124    -5132    -5144    -5156    -5163    -5174 
   -5187    -5198    -5210    -5225    -5237    -5245    -5256    -5266 
   -5272    -5279    -5287    -5292    -5298    -5302    -5306    -5310 
   -5310    -5313    -5319    -5322    -5327    -5335    -5339    -5345 
   -5353    -5359    -5366    -5374    -5382    -5390    -5398    -5407 
   -5415    -5424    -5430    -5435    -5444    -5452    -5461    -5473 
   -5482    -5494    -5506    -5514    -5523    -5530    -5533    -5531 
   -5527    -5522    -5515    -5509    -5503    -5494    -5486    -5480 
   -5472    -5464    -5458    -5452    -5446    -5440    -5435    -5431 
   -5429    -5425    -5420    -5415    -5407    -5397    -5389    -5381 
   -5373    -5367    -5364    -5360    -5358    -5361    -5361    -5361 
   -5364    -5367    -5369    -5373    -5376    -5378    -5379    -5378 
   -5377    -5374    -5368    -5362    -5359    -5353    -5349    -5350 
   -5349    -5345    -5339    -5334    -5329    -5321    -5312    -5302 
   -5292    -5283    -5274    -5262    -5253    -5247    -5237    -5230 
   -5226    -5223    -5222    -5222    -5220    -5223    -5227    -5231 
   -5235    -5240    -5246    -5250    -5253    -5254    -5256    -5258 
   -5257    -5256    -5257    -5260    -5264    -5266    -5267    -5268 
   -5266    -5264    -5259    -5250    -5243    -5236    -5226    -5215 
   -5202    -5189    -5180    -5172    -5167    -5165    -5165    -5163 
   -5164    -5170    -5176    -5185    -5195    -5202    -5212    -5224 
   -5234    -5245    -5256    -5267    -5277    -5287    -5300    -5312 
   -5320    -5330    -5339    -5343    -5350    -5357    -5361    -5366 
   -5371    -5374    -5376    -5376    -5380    -5382    -5381    -5381 
   -5382    -5384    -5390    -5398    -5405    -5413    -5421    -5429 
   -5435    -5441    -5448    -5451    -5452    -5452    -5448    -5442 
   -5438    -5432    -5424    -5416    -5410    -5403    -5397    -5387 
   -5377    -5369    -5361    -5350    -5336    -5320    -5306    -5293 
   -5278    -5264    -5250    -5238    -5231    -5223    -5215    -5214 
   -5215    -5217    -5220    -5224    -5230    -5235    -5241    -5247 
   -5252    -5256    -5262    -5272    -5281    -5287    -5292    -5297 
   -5302    -5309    -5318    -5322    -5326    -5333    -5336    -5341 
   -5346    -5349    -5350    -5354    -5360    -5367    -5373    -5380 
   -5385    -5389    -5397    -5405    -5412    -5420    -5427    -5436 
   -5446    -5454    -5462    -5474    -5483    -5489    -5496    -5502 
   -5510    -5514    -5515    -5518    -5519    -5518    -5519    -5519 
   -5518    -5516    -5513    -5512    -5508    -5503    -5500    -5496 
   -5491    -5487    -5483    -5480    -5478    -5473    -5469    -5469 
   -5470    -5471    -5475    -5479    -5482    -5488    -5491    -5494 
   -5500    -5503    -5503    -5501    -5494    -5488    -5482    -5474 
   -5466    -5455    -5441    -5429    -5415    -5402    -5390    -5374 
   -5356    -5340    -5324    -5306    -5290    -5277    -5266    -5255 
   -5244    -5235    -5230    -5225    -5218    -5216    -5214    -5210 
   -5210    -5213    -5213    -5214    -5216    -5217    -5219    -5224 
   -5228    -5230    -5230    -5231    -5234    -5234    -5233    -5233 
   -5232    -5230    -5230    -5230    -5229    -5231    -5235    -5239 
   -5241    -5244    -5248    -5250    -5248    -5247    -5248    -5248 
   -5248    -5248    -5248    -5248    -5251    -5253    -5253    -5257 
   -5263    -5265    -5269    -5278    -5286    -5291    -5298    -5303 
   -5305    -5308    -5308    -5304    -5299    -5298    -5297    -5296 
   -5295    -5296    -5298    -5301    -5305    -5311    -5319    -5327 
   -5335    -5344    -5353    -5362    -5368    -5372    -5375    -5378 
   -5383    -5387    -5394    -5403    -5411    -5418    -5429    -5443 
   -5453    -5462    -5475    -5490    -5504    -5517    -5526    -5533 
   -5542    -5547    -5550    -5554    -5554    -5552    -5552    -5551 
   -5550    -5548    -5546    -5542    -5541    -5538    -5533    -5525 
   -5518    -5512    -5505    -5498    -5493    -5485    -5477    -5473 
   -5470    -5467    -5465    -5462    -5460    -5460    -5460    -5459 
   -5459    -5458    -5457    -5460    -5462    -5460    -5459    -5461 
   -5461    -5462    -5460    -5456    -5452    -5446    -5438    -5427 
   -5413    -5399    -5384    -5366    -5349    -5335    -5320    -5304 
   -5291    -5280    -5267    -5256    -5246    -5237    -5229    -5223 
   -5215    -5209    -5203    -5197    -5193    -5189    -5183    -5179 
   -5175    -5170    -5168    -5166    -5165    -5166    -5169    -5171 
   -5175    -5179    -5180    -5182    -5188    -5195    -5200    -5206 
   -5212    -5218    -5225    -5232    -5240    -5246    -5253    -5262 
   -5270    -5277    -5285    -5291    -5294    -5297    -5300    -5298 
   -5295    -5294    -5294    -5291    -5287    -5285    -5284    -5282 
   -5282    -5282    -5282    -5285    -5286    -5288    -5293    -5295 
   -5294    -5293    -5293    -5291    -5287    -5284    -5280    -5274 
   -5269    -5266    -5262    -5257    -5253    -5251    -5248    -5245 
   -5242    -5236    -5229    -5224    -5222    -5219    -5215    -5209 
   -5205    -5205    -5205    -5205    -5207    -5210    -5216    -5221 
   -5226    -5233    -5239    -5246    -5250    -5253    -5258    -5261 
   -5260    -5260    -5258    -5256    -5254    -5249    -5244    -5241 
   -5239    -5237    -5236    -5235    -5233    -5234    -5235    -5236 
   -5237    -5238    -5240    -5242    -5244    -5245    -5245    -5248 
   -5254    -5259    -5265    -5276    -5284    -5292    -5303    -5312 
   -5322    -5334    -5345    -5355    -5365    -5373    -5381    -5392 
   -5400    -5405    -5410    -5416    -5420    -5424    -5430    -5433 
   -5434    -5438    -5442    -5440    -5440    -5441    -5442    -5444 
   -5442    -5437    -5433    -5427    -5419    -5412    -5403    -5397 
   -5392    -5383    -5373    -5366    -5358    -5349    -5339    -5328 
   -5320    -5309    -5295    -5283    -5270    -5255    -5242    -5234 
   -5228    -5220    -5212    -5205    -5200    -5196    -5194    -5194 
   -5194    -5196    -5200    -5206    -5210    -5215    -5222    -5231 
   -5242    -5253    -5268    -5285    -5300    -5316    -5332    -5345 
   -5358    -5372    -5384    -5394    -5404    -5414    -5423    -5429 
   -5436    -5441    -5442    -5447    -5453    -5457    -5462    -5468 
   -5473    -5476    -5479    -5480    -5481    -5485    -5484    -5481 
   -5482    -5482    -5479    -5480    -5479    -5474    -5466    -5460 
   -5455    -5450    -5443    -5436    -5430    -5424    -5419    -5412 
   -5403    -5395    -5388    -5382    -5374    -5366    -5361    -5357 
   -5352    -5346    -5342    -5339    -5336    -5333    -5327    -5320 
   -5316    -5310    -5301    -5290    -5281    -5271    -5260    -5249 
   -5240    -5232    -5221    -5210    -5203    -5197    -5189    -5182 
   -5175    -5168    -5164    -5160    -5158    -5157    -5155    -5156 
   -5157    -5157    -5158    -5162    -5165    -5169    -5172    -5173 
   -5177    -5183    -5184    -5185    -5184    -5184    -5185    -5183 
   -5180    -5179    -5180    -5179    -5180    -5182    -5185    -5185 
   -5187    -5189    -5190    -5194    -5198    -5201    -5204    -5207 
   -5210    -5214    -5217    -5221    -5225    -5225    -5227    -5232 
   -5234    -5234    -5237    -5242    -5246    -5248    -5249    -5250 
   -5252    -5254    -5253    -5254    -5258    -5260    -5260    -5263 
   -5267    -5268    -5270    -5274    -5277    -5278    -5280    -5282 
   -5284    -5288    -5290    -5290    -5289    -5289    -5288    -5288 
   -5287    -5281    -5274    -5271    -5268    -5265    -5264    -5263 
   -5262    -5264    -5269    -5274    -5278    -5283    -5288    -5295 
   -5301    -5302    -5304    -5310    -5313    -5316    -5319    -5321 
   -5322    -5325    -5328    -5330    -5333    -5334    -5334    -5335 
   -5336    -5338    -5341    -5340    -5338    -5337    -5336    -5334 
   -5331    -5327    -5323    -5320    -5318    -5315    -5315    -5316 
   -5317    -5317    -5321    -5323    -5323    -5322    -5323    -5324 
   -5323    -5323    -5324    -5326    -5326    -5326    -5328    -5331 
   -5334    -5337    -5342    -5349    -5356    -5362    -5366    -5368 
   -5371    -5375    -5379    -5380    -5378    -5381    -5385    -5388 
   -5393    -5399    -5405    -5410    -5416    -5420    -5421    -5420 
   -5424    -5427    -5426    -5427    -5428    -5426    -5424    -5423 
   -5422    -5418    -5415    -5413    -5411    -5409    -5404    -5399 
   -5400    -5400    -5397    -5395    -5395    -5395    -5396    -5396 
   -5395    -5396    -5399    -5400    -5400    -5402    -5402    -5399 
   -5399    -5399    -5397    -5399    -5399    -5396    -5394    -5392 
   -5390    -5388    -5384    -5376    -5370    -5366    -5364    -5362 
   -5359    -5354    -5352    -5354    -5357    -5358    -5358    -5360 
   -5362    -5360    -5360    -5360    -5360    -5361    -5363    -5364 
   -5365    -5367    -5369    -5370    -5370    -5372    -5374    -5372 
   -5370    -5370    -5368    -5364    -5361    -5359    -5355    -5351 
   -5348    -5347    -5346    -5346    -5346    -5345    -5346    -5350 
   -5353    -5356    -5359    -5365    -5373    -5378    -5382    -5388 
   -5393    -5397    -5403    -5407    -5409    -5414    -5417    -5419 
   -5421    -5422    -5419    -5419    -5420    -5418    -5412    -5408 
   -5403    -5397    -5393    -5389    -5384    -5380    -5376    -5374 
   -5371    -5366    -5365    -5366    -5363    -5360    -5359    -5356 
   -5352    -5347    -5342    -5337    -5332    -5327    -5322    -5315 
   -5308    -5301    -5293    -5288    -5282    -5273    -5266    -5262 
   -5256    -5248    -5240    -5234    -5228    -5223    -5216    -5207 
   -5200    -5193    -5189    -5188    -5184    -5180    -5180    -5183 
   -5187    -5190    -5193    -5199    -5204    -5208    -5212    -5217 
   -5221    -5227    -5235    -5240    -5245    -5252    -5257    -5264 
   -5273    -5277    -5282    -5292    -5299    -5305    -5314    -5322 
   -5330    -5335    -5337    -5340    -5343    -5346    -5347    -5348 
   -5350    -5349    -5347    -5345    -5342    -5339    -5338    -5334 
   -5329    -5326    -5323    -5316    -5312    -5309    -5303    -5294 
   -5287    -5280    -5275    -5271    -5264    -5256    -5253    -5250 
   -5247    -5247    -5248    -5245    -5244    -5243    -5241    -5240 
   -5238    -5236    -5237    -5237    -5236    -5239    -5243    -5246 
   -5251    -5256    -5259    -5266    -5272    -5275    -5281    -5289 
   -5292    -5296    -5300    -5302    -5305    -5308    -5311    -5314 
   -5316    -5317    -5319    -5321    -5322    -5326    -5328    -5327 
   -5329    -5331    -5330    -5333    -5336    -5333    -5333    -5335 
   -5332    -5329    -5330    -5328    -5324    -5320    -5318    -5317 
   -5314    -5313    -5313    -5313    -5315    -5316    -5319    -5325 
   -5333    -5338    -5345    -5356    -5366    -5373    -5383    -5396 
   -5407    -5417    -5426    -5435    -5445    -5452    -5460    -5467 
   -5473    -5477    -5481    -5485    -5490    -5493    -5494    -5492 
   -5491    -5491    -5487    -5485    -5483    -5478    -5472    -5467 
   -5459    -5452    -5446    -5435    -5424    -5415    -5404    -5392 
   -5383    -5375    -5366    -5357    -5349    -5342    -5334    -5326 
   -5319    -5314    -5310    -5304    -5298    -5293    -5288    -5283 
   -5280    -5276    -5273    -5271    -5266    -5261    -5256    -5251 
   -5247    -5242    -5235    -5229    -5223    -5213    -5204    -5197 
   -5189    -5176    -5162    -5149    -5140    -5130    -5117    -5104 
   -5095    -5087    -5081    -5074    -5068    -5064    -5060    -5056 
   -5055    -5055    -5055    -5057    -5060    -5062    -5064    -5069 
   -5074    -5079    -5087    -5097    -5103    -5109    -5116    -5127 
   -5137    -5144    -5154    -5165    -5172    -5179    -5192    -5205 
   -5213    -5223    -5232    -5240    -5249    -5257    -5264    -5269 
   -5273    -5278    -5281    -5283    -5287    -5288    -5287    -5287 
   -5287    -5286    -5283    -5278    -5273    -5271    -5267    -5262 
   -5259    -5258    -5255    -5256    -5260    -5259    -5260    -5265 
   -5270    -5277    -5284    -5291    -5298    -5306    -5315    -5325 
   -5333    -5341    -5354    -5365    -5374    -5384    -5394    -5401 
   -5405    -5410    -5415    -5416    -5413    -5410    -5407    -5403 
   -5401    -5398    -5392    -5386    -5381    -5375    -5369    -5364 
   -5360    -5356    -5351    -5347    -5342    -5337    -5334    -5333 
   -5332    -5330    -5328    -5325    -5324    -5327    -5328    -5328 
   -5329    -5329    -5326    -5325    -5324    -5323    -5321    -5318 
   -5316    -5316    -5318    -5319    -5317    -5315    -5316    -5315 
   -5317    -5320    -5322    -5324    -5327    -5329    -5332    -5334 
   -5337    -5339    -5340    -5343    -5346    -5349    -5353    -5357 
   -5359    -5362    -5367    -5374    -5378    -5384    -5389    -5392 
   -5394    -5397    -5396    -5396    -5396    -5396    -5396    -5394 
   -5391    -5390    -5388    -5388    -5387    -5385    -5384    -5383 
   -5381    -5380    -5378    -5376    -5376    -5374    -5370    -5369 
   -5368    -5363    -5357    -5356    -5353    -5349    -5345    -5340 
   -5334    -5331    -5326    -5319    -5314    -5309    -5302    -5296 
   -5292    -5287    -5282    -5280    -5278    -5277    -5277    -5277 
   -5280    -5280    -5278    -5277    -5278    -5277    -5277    -5275 
   -5274    -5274    -5276    -5276    -5275    -5276    -5279    -5281 
   -5284    -5289    -5293    -5297    -5302    -5306    -5309    -5311 
   -5313    -5316    -5320    -5323    -5327    -5332    -5336    -5338 
   -5342    -5345    -5347    -5348    -5350    -5352    -5357    -5361 
   -5362    -5364    -5369    -5375    -5379    -5385    -5389    -5393 
   -5402    -5409    -5414    -5422    -5428    -5435    -5444    -5449 
   -5452    -5458    -5461    -5461    -5463    -5464    -5460    -5456 
   -5451    -5445    -5438    -5432    -5424    -5415    -5407    -5400 
   -5392    -5385    -5378    -5369    -5360    -5352    -5344    -5335 
   -5328    -5323    -5317    -5311    -5305    -5300    -5296    -5293 
   -5290    -5288    -5287    -5281    -5276    -5274    -5272    -5267 
   -5262    -5257    -5254    -5252    -5250    -5249    -5248    -5246 
   -5247    -5247    -5248    -5250    -5250    -5249    -5248    -5247 
   -5247    -5245    -5242    -5239    -5237    -5236    -5233    -5229 
   -5227    -5227    -5223    -5219    -5218    -5218    -5217    -5216 
   -5217    -5218    -5222    -5224    -5226    -5230    -5233    -5235 
   -5237    -5241    -5244    -5244    -5247    -5251    -5251    -5253 
   -5258    -5261    -5263    -5266    -5271    -5276    -5280    -5283 
   -5288    -5293    -5297    -5303    -5307    -5309    -5315    -5321 
   -5323    -5327    -5334    -5341    -5348    -5354    -5360    -5367 
   -5375    -5382    -5388    -5396    -5403    -5408    -5416    -5427 
   -5435    -5442    -5447    -5451    -5456    -5458    -5460    -5462 
   -5463    -5461    -5457    -5455    -5453    -5448    -5445    -5442 
   -5436    -5431    -5429    -5425    -5422    -5421    -5419    -5417 
   -5415    -5413    -5412    -5411    -5408    -5406    -5406    -5403 
   -5399    -5398    -5395    -5389    -5387    -5384    -5378    -5374 
   -5369    -5364    -5360    -5356    -5351    -5349    -5346    -5341 
   -5339    -5336    -5332    -5331    -5330    -5331    -5334    -5336 
   -5338    -5340    -5340    -5341    -5344    -5346    -5345    -5345 
   -5345    -5341    -5338    -5338    -5336    -5332    -5329    -5327 
   -5322    -5318    -5316    -5313    -5310    -5311    -5310    -5307 
   -5305    -5303    -5300    -5298    -5296    -5295    -5296    -5295 
   -5295    -5296    -5297    -5301    -5306    -5310    -5317    -5324 
   -5332    -5342    -5349    -5355    -5365    -5373    -5379    -5386 
   -5392    -5399    -5406    -5409    -5412    -5418    -5422    -5426 
   -5432    -5437    -5441    -5444    -5446    -5446    -5446    -5447 
   -5444    -5439    -5437    -5434    -5429    -5425    -5420    -5416 
   -5412    -5405    -5399    -5393    -5390    -5387    -5382    -5376 
   -5371    -5365    -5361    -5357    -5353    -5348    -5345    -5342 
   -5339    -5338    -5335    -5332    -5332    -5332    -5330    -5328 
   -5329    -5330    -5327    -5325    -5324    -5321    -5317    -5313 
   -5309    -5304    -5300    -5299    -5295    -5290    -5288    -5287 
   -5283    -5279    -5278    -5278    -5275    -5273    -5271    -5268 
   -5264    -5259    -5251    -5245    -5240    -5235    -5230    -5223 
   -5217    -5210    -5205    -5198    -5192    -5187    -5184    -5182 
   -5181    -5178    -5177    -5179    -5179    -5179    -5180    -5179 
   -5181    -5185    -5189    -5195    -5200    -5205    -5213    -5221 
   -5226    -5230    -5235    -5240    -5243    -5246    -5250    -5251 
   -5252    -5253    -5251    -5249    -5250    -5247    -5244    -5245 
   -5245    -5243    -5241    -5243    -5245    -5245    -5246    -5247 
   -5248    -5251    -5253    -5255    -5258    -5261    -5262    -5262 
   -5267    -5273    -5276    -5277    -5282    -5289    -5296    -5301 
   -5306    -5311    -5314    -5317    -5319    -5320    -5322    -5323 
   -5323    -5323    -5321    -5319    -5317    -5314    -5313    -5312 
   -5311    -5310    -5312    -5314    -5316    -5319    -5320    -5322 
   -5327    -5330    -5332    -5336    -5341    -5345    -5348    -5349 
