Origin Time       2015/02/17 08:06:00
Lat.              39.872
Long.             143.192
Depth. (km)       13
Mag.              6.9
Station Code      NGNH54
Station Lat.      35.4489
Station Long.     138.0058
Station Height(m) 1064.5
Record Time       2015/02/17 08:09:33
Sampling Freq(Hz) 100Hz
Duration Time(s)  120
Dir.              2
Scale Factor      2940(gal)/6170270
Max. Acc. (gal)   0.145
Last Correction   2015/02/17 08:09:18
Memo.             
[...]
   43521    43527    43535    43544    43552    43562    43571    43580 
   43594    43603    43611    43624    43634    43642    43653    43666 
   43677    43687    43695    43703    43711    43717    43726    43736 
   43744    43751    43760    43769    43776    43782    43789    43796 
   43803    43808    43814    43820    43824    43830    43836    43838 
   43841    43846    43848    43850    43854    43855    43854    43856 
   43859    43864    43864    43865    43869    43871    43871    43875 
   43880    43882    43883    43885    43889    43891    43891    43893 
   43896    43897    43896    43896    43896    43893    43891    43892 
   43888    43883    43879    43876    43872    43867    43860    43852 
   43844    43834    43825    43814    43801    43789    43778    43765 
   43751    43736    43722    43708    43695    43682    43668    43655 
   43644    43632    43620    43612    43602    43591    43586    43583 
   43575    43568    43565    43565    43565    43566    43568    43571 
   43574    43580    43586    43591    43597    43606    43616    43624 
   43633    43644    43652    43662    43675    43688    43699    43712 
   43725    43733    43743    43755    43764    43771    43777    43784 
   43795    43803    43808    43814    43822    43830    43836    43841 
   43848    43852    43856    43863    43867    43874    43881    43884 
   43889    43893    43897    43905    43911    43916    43924    43930 
   43935    43946    43955    43962    43969    43975    43983    43995 
   44002    44008    44016    44022    44028    44030    44031    44035 
   44038    44039    44038    44035    44034    44033    44031    44023 
   44013    44007    43998    43988    43983    43973    43962    43954 
   43942    43930    43922    43913    43901    43891    43881    43870 
   43860    43851    43843    43833    43822    43814    43804    43793 
   43787    43780    43770    43758    43748    43739    43729    43719 
   43709    43700    43690    43679    43668    43657    43646    43636 
   43627    43615    43606    43599    43587    43579    43576    43571 
   43566    43564    43560    43556    43553    43554    43557    43558 
   43557    43560    43564    43566    43569    43574    43577    43581 
   43587    43595    43603    43610    43619    43629    43636    43643 
   43652    43660    43667    43673    43680    43689    43693    43696 
   43700    43704    43705    43707    43709    43712    43715    43716 
   43715    43717    43720    43722    43724    43726    43730    43733 
   43733    43735    43740    43745    43751    43756    43759    43762 
   43771    43780    43788    43796    43803    43809    43815    43822 
   43831    43839    43844    43850    43857    43861    43865    43868 
   43870    43873    43877    43879    43882    43883    43884    43883 
   43881    43881    43881    43879    43879    43877    43874    43875 
   43876    43875    43877    43881    43883    43887    43891    43895 
   43899    43901    43906    43913    43917    43918    43922    43927 
   43929    43931    43933    43932    43931    43931    43932    43931 
   43927    43924    43922    43918    43912    43906    43900    43892 
   43882    43873    43864    43854    43846    43838    43826    43813 
   43803    43793    43784    43773    43763    43756    43748    43739 
   43731    43723    43718    43715    43708    43700    43697    43693 
   43686    43681    43678    43676    43673    43671    43672    43671 
   43670    43669    43670    43673    43675    43677    43681    43683 
   43687    43695    43699    43704    43713    43723    43731    43741 
   43751    43762    43775    43787    43798    43807    43819    43830 
   43836    43843    43850    43857    43861    43865    43869    43871 
   43871    43869    43870    43869    43864    43859    43855    43850 
   43844    43838    43832    43826    43818    43807    43799    43793 
   43787    43779    43769    43762    43754    43746    43740    43731 
   43722    43717    43709    43700    43693    43685    43679    43675 
   43667    43660    43653    43643    43635    43628    43619    43612 
   43605    43597    43592    43586    43579    43578    43575    43569 
   43567    43565    43561    43558    43557    43558    43560    43558 
   43555    43558    43560    43559    43558    43558    43561    43562 
   43562    43565    43567    43568    43567    43565    43565    43565 
   43566    43567    43566    43566    43568    43569    43574    43580 
   43582    43587    43595    43599    43606    43616    43625    43635 
   43647    43657    43668    43681    43695    43708    43717    43728 
   43744    43756    43765    43778    43790    43800    43810    43822 
   43833    43840    43847    43856    43865    43868    43871    43880 
   43886    43887    43888    43896    43901    43899    43898    43902 
   43903    43902    43902    43902    43901    43901    43899    43897 
   43895    43894    43894    43895    43897    43895    43892    43892 
   43892    43888    43885    43884    43883    43879    43877    43874 
   43870    43868    43862    43858    43857    43850    43844    43844 
   43839    43834    43831    43827    43825    43825    43819    43812 
   43809    43807    43803    43798    43795    43791    43784    43780 
   43776    43772    43768    43761    43753    43749    43744    43739 
   43734    43726    43718    43710    43700    43691    43683    43674 
   43663    43651    43639    43628    43617    43607    43597    43585 
   43575    43567    43557    43548    43540    43533    43527    43521 
   43516    43512    43510    43510    43510    43507    43507    43510 
   43512    43514    43516    43520    43524    43529    43533    43536 
   43541    43549    43553    43556    43562    43569    43573    43576 
   43580    43584    43589    43593    43597    43603    43606    43608 
   43613    43615    43616    43621    43627    43631    43637    43642 
   43649    43656    43662    43670    43679    43685    43692    43703 
   43713    43721    43732    43743    43755    43767    43780    43792 
   43805    43820    43834    43849    43864    43876    43888    43901 
   43913    43920    43928    43937    43944    43949    43953    43958 
   43961    43962    43962    43963    43964    43963    43959    43956 
   43954    43950    43946    43943    43938    43933    43929    43921 
   43913    43906    43900    43893    43886    43882    43876    43868 
   43862    43856    43851    43849    43847    43846    43843    43837 
   43835    43837    43832    43830    43831    43829    43826    43828 
   43828    43827    43828    43832    43834    43834    43837    43840 
   43842    43846    43850    43852    43853    43857    43864    43867 
   43866    43870    43876    43877    43878    43882    43883    43883 
   43887    43889    43889    43890    43892    43893    43894    43893 
   43893    43896    43893    43892    43894    43894    43891    43891 
   43891    43892    43892    43893    43895    43895    43895    43898 
   43899    43896    43897    43899    43898    43896    43897    43897 
   43895    43895    43894    43894    43894    43891    43889    43891 
   43888    43882    43880    43876    43870    43866    43859    43851 
   43845    43838    43830    43822    43812    43803    43794    43782 
   43771    43761    43752    43745    43735    43723    43715    43708 
   43697    43690    43686    43676    43668    43665    43659    43653 
   43651    43648    43647    43648    43648    43649    43653    43654 
   43654    43660    43666    43672    43679    43685    43694    43703 
   43709    43718    43731    43741    43750    43761    43773    43786 
   43795    43803    43816    43829    43837    43847    43857    43865 
   43872    43878    43883    43887    43889    43891    43892    43890 
   43887    43885    43880    43871    43863    43854    43844    43835 
   43826    43815    43802    43788    43777    43764    43750    43735 
   43721    43709    43698    43685    43674    43665    43655    43643 
   43633    43627    43620    43615    43611    43603    43598    43599 
   43598    43595    43594    43595    43596    43597    43600    43600 
   43603    43609    43612    43615    43621    43627    43631    43637 
   43644    43652    43659    43666    43674    43683    43689    43693 
   43701    43709    43714    43722    43731    43737    43743    43751 
   43760    43769    43777    43783    43793    43804    43814    43820 
   43825    43833    43842    43848    43854    43862    43869    43878 
   43887    43893    43899    43905    43911    43918    43924    43929 
   43933    43937    43941    43945    43949    43952    43953    43954 
   43954    43956    43956    43955    43954    43954    43956    43955 
   43953    43954    43954    43952    43951    43951    43950    43949 
   43947    43946    43945    43943    43941    43941    43940    43938 
   43935    43934    43935    43930    43926    43927    43926    43924 
   43923    43920    43916    43915    43913    43908    43905    43902 
   43897    43895    43892    43886    43880    43879    43877    43871 
   43866    43863    43859    43856    43853    43850    43849    43846 
   43841    43841    43841    43840    43839    43840    43838    43837 
   43838    43838    43838    43838    43840    43842    43842    43843 
   43844    43843    43840    43840    43843    43847    43844    43839 
   43839    43842    43842    43841    43842    43838    43833    43832 
   43831    43825    43821    43819    43813    43809    43807    43802 
   43795    43790    43788    43786    43781    43778    43778    43776 
   43774    43775    43775    43774    43775    43776    43774    43774 
   43777    43779    43779    43780    43781    43782    43783    43785 
   43787    43790    43791    43790    43791    43791    43789    43789 
   43789    43786    43784    43784    43782    43776    43772    43770 
   43766    43761    43759    43757    43750    43746    43745    43740 
   43735    43730    43723    43718    43714    43711    43708    43703 
   43698    43694    43691    43688    43682    43679    43677    43672 
   43670    43669    43665    43663    43663    43662    43660    43661 
   43661    43659    43660    43662    43661    43662    43663    43663 
   43664    43666    43668    43670    43670    43670    43674    43677 
   43678    43679    43679    43680    43684    43683    43683    43685 
   43687    43689    43687    43689    43695    43693    43690    43692 
   43693    43695    43697    43698    43702    43704    43704    43708 
   43712    43713    43717    43723    43726    43727    43728    43729 
   43730    43731    43731    43732    43733    43732    43730    43728 
   43726    43726    43727    43725    43725    43726    43725    43723 
   43724    43726    43727    43726    43727    43729    43726    43724 
   43726    43725    43720    43719    43720    43716    43714    43713 
   43711    43708    43705    43703    43700    43695    43690    43685 
   43680    43678    43676    43672    43668    43667    43668    43667 
   43669    43669    43668    43673    43678    43679    43682    43687 
   43689    43692    43696    43702    43706    43709    43714    43719 
   43724    43729    43734    43739    43745    43750    43755    43760 
   43765    43769    43774    43782    43789    43793    43798    43806 
   43814    43821    43828    43834    43840    43848    43854    43862 
   43870    43876    43882    43889    43894    43900    43907    43911 
   43916    43918    43923    43927    43926    43925    43927    43927 
   43925    43922    43919    43916    43914    43910    43904    43899 
   43895    43890    43883    43874    43867    43862    43854    43847 
   43842    43833    43823    43819    43815    43808    43805    43799 
   43791    43790    43788    43783    43782    43779    43774    43773 
   43774    43775    43776    43775    43776    43778    43779    43782 
   43788    43790    43794    43799    43802    43807    43813    43816 
   43820    43825    43828    43834    43840    43846    43853    43858 
   43861    43864    43867    43871    43874    43876    43878    43878 
   43877    43876    43875    43875    43874    43872    43871    43867 
   43864    43863    43858    43856    43855    43850    43845    43843 
   43840    43834    43831    43828    43823    43819    43815    43811 
   43807    43804    43802    43799    43794    43792    43792    43787 
   43783    43784    43783    43780    43778    43777    43775    43774 
   43775    43774    43773    43771    43769    43766    43765    43762 
   43758    43756    43756    43750    43747    43746    43738    43731 
   43730    43725    43715    43709    43703    43697    43689    43683 
   43676    43667    43659    43651    43643    43636    43630    43623 
   43616    43611    43610    43606    43601    43603    43604    43604 
   43608    43609    43609    43613    43617    43621    43628    43637 
   43643    43650    43658    43665    43672    43679    43690    43701 
   43709    43716    43726    43738    43747    43756    43764    43770 
   43779    43787    43794    43804    43812    43818    43825    43831 
   43838    43845    43851    43859    43866    43871    43879    43888 
   43893    43901    43911    43921    43930    43939    43948    43958 
   43969    43980    43988    43997    44009    44020    44027    44033 
   44041    44047    44053    44059    44064    44069    44072    44075 
   44077    44075    44076    44077    44076    44076    44073    44067 
   44065    44061    44054    44048    44042    44032    44024    44017 
   44009    43999    43991    43983    43972    43964    43956    43947 
   43939    43932    43921    43913    43909    43904    43894    43889 
   43885    43879    43876    43873    43868    43865    43864    43863 
   43860    43858    43857    43855    43852    43850    43852    43851 
   43845    43842    43842    43838    43834    43832    43829    43824 
   43819    43812    43805    43801    43797    43787    43779    43774 
   43767    43760    43755    43750    43742    43735    43732    43727 
   43721    43716    43715    43714    43710    43706    43709    43712 
   43711    43710    43712    43716    43721    43723    43724    43730 
   43736    43739    43741    43743    43747    43751    43754    43755 
   43756    43757    43758    43761    43761    43761    43763    43764 
   43763    43761    43761    43764    43764    43764    43764    43764 
   43764    43767    43765    43763    43766    43766    43765    43764 
   43763    43764    43764    43762    43758    43754    43755    43753 
   43747    43744    43742    43737    43734    43733    43730    43725 
   43720    43720    43716    43710    43710    43709    43705    43703 
   43703    43701    43699    43699    43697    43696    43696    43696 
   43697    43699    43698    43696    43700    43701    43700    43703 
   43706    43704    43706    43710    43713    43715    43719    43724 
   43728    43730    43733    43739    43744    43748    43753    43758 
   43763    43766    43771    43777    43780    43780    43785    43790 
   43793    43796    43800    43803    43805    43809    43813    43814 
   43814    43818    43822    43822    43824    43826    43825    43826 
   43827    43826    43825    43825    43824    43822    43821    43821 
   43821    43817    43815    43814    43812    43812    43809    43803 
   43799    43797    43793    43790    43784    43779    43778    43775 
   43770    43766    43761    43754    43750    43744    43737    43729 
   43722    43718    43711    43702    43696    43688    43680    43676 
   43669    43662    43659    43652    43644    43642    43643    43637 
   43633    43634    43632    43631    43631    43631    43632    43636 
   43638    43641    43646    43654    43661    43665    43673    43681 
   43687    43696    43706    43712    43720    43728    43737    43749 
   43757    43761    43769    43778    43785    43792    43796    43800 
   43807    43817    43824    43827    43831    43836    43840    43843 
   43848    43852    43853    43855    43862    43864    43865    43870 
   43873    43874    43878    43879    43879    43881    43882    43884 
   43887    43887    43888    43892    43893    43893    43896    43897 
   43896    43895    43894    43895    43898    43896    43892    43894 
   43896    43896    43896    43894    43891    43891    43891    43890 
   43887    43886    43886    43882    43879    43876    43871    43868 
   43866    43862    43858    43853    43849    43847    43841    43835 
   43831    43824    43816    43812    43805    43796    43790    43783 
   43772    43766    43760    43749    43739    43730    43723    43714 
   43706    43700    43691    43681    43674    43666    43660    43656 
   43650    43645    43642    43638    43635    43634    43630    43628 
   43628    43628    43627    43628    43631    43633    43633    43634 
   43639    43644    43646    43649    43653    43656    43659    43664 
   43670    43673    43676    43681    43685    43689    43693    43698 
   43701    43704    43709    43710    43713    43721    43725    43729 
   43735    43737    43737    43742    43746    43747    43748    43750 
   43751    43752    43753    43754    43756    43756    43756    43757 
   43758    43756    43758    43761    43760    43761    43763    43762 
   43764    43767    43767    43766    43771    43772    43770    43772 
   43775    43775    43777    43780    43782    43783    43783    43782 
   43783    43788    43790    43784    43781    43786    43785    43777 
   43774    43773    43771    43768    43762    43758    43755    43750 
   43743    43740    43735    43727    43723    43719    43713    43707 
   43700    43693    43688    43683    43680    43675    43668    43667 
   43664    43659    43657    43656    43654    43652    43648    43648 
   43650    43649    43648    43650    43654    43659    43660    43662 
   43667    43671    43676    43683    43689    43692    43698    43706 
   43710    43714    43721    43728    43732    43732    43738    43748 
   43751    43754    43760    43763    43766    43772    43775    43777 
   43779    43781    43788    43789    43787    43792    43796    43796 
   43798    43801    43801    43804    43809    43812    43813    43817 
   43822    43827    43830    43834    43838    43843    43850    43856 
   43860    43865    43871    43878    43885    43890    43896    43902 
   43904    43908    43917    43922    43924    43931    43936    43937 
   43939    43944    43947    43946    43948    43950    43948    43946 
   43946    43943    43941    43939    43934    43931    43929    43925 
   43921    43917    43912    43909    43907    43906    43901    43895 
   43893    43893    43890    43886    43884    43881    43879    43877 
   43875    43874    43871    43869    43870    43868    43865    43864 
   43862    43859    43856    43853    43851    43848    43842    43838 
   43834    43830    43827    43823    43818    43816    43814    43812 
   43809    43805    43801    43799    43799    43797    43794    43792 
   43792    43792    43789    43786    43786    43784    43781    43780 
   43780    43777    43773    43771    43771    43770    43769    43767 
   43765    43762    43758    43758    43758    43753    43750    43749 
