Origin Time       2015/02/17 08:06:00
Lat.              39.872
Long.             143.192
Depth. (km)       13
Mag.              6.9
Station Code      NGNH54
Station Lat.      35.4489
Station Long.     138.0058
Station Height(m) 1064.5
Record Time       2015/02/17 08:09:33
Sampling Freq(Hz) 100Hz
Duration Time(s)  120
Dir.              1
Scale Factor      2940(gal)/6170270
Max. Acc. (gal)   0.111
Last Correction   2015/02/17 08:09:18
Memo.             
[...]
  127065   127069   127075   127078   127081   127085   127086   127088 
  127092   127093   127093   127094   127096   127097   127101   127105 
  127107   127110   127115   127119   127123   127128   127132   127135 
  127137   127141   127144   127146   127148   127151   127153   127156 
  127160   127162   127164   127168   127174   127178   127180   127185 
  127187   127190   127195   127197   127200   127205   127209   127213 
  127218   127222   127224   127228   127233   127234   127232   127235 
  127238   127240   127242   127245   127245   127246   127249   127250 
  127249   127250   127254   127254   127252   127255   127255   127252 
  127252   127251   127249   127250   127250   127248   127245   127242 
  127240   127236   127231   127227   127224   127221   127218   127214 
  127208   127205   127201   127198   127197   127195   127190   127184 
  127181   127178   127173   127169   127166   127162   127160   127160 
  127159   127158   127157   127157   127156   127156   127156   127154 
  127153   127151   127146   127142   127141   127138   127134   127132 
  127130   127130   127131   127132   127136   127140   127142   127144 
  127146   127150   127152   127155   127160   127165   127167   127170 
  127173   127175   127178   127180   127180   127186   127191   127192 
  127198   127205   127210   127217   127222   127223   127226   127230 
  127232   127236   127240   127243   127248   127251   127253   127256 
  127258   127257   127258   127258   127257   127257   127257   127257 
  127256   127256   127255   127252   127253   127252   127249   127249 
  127249   127249   127252   127252   127250   127253   127257   127257 
  127258   127260   127261   127261   127262   127261   127259   127257 
  127255   127253   127252   127246   127240   127238   127233   127226 
  127221   127217   127211   127203   127199   127196   127191   127185 
  127181   127176   127172   127171   127171   127170   127170   127172 
  127173   127174   127176   127178   127179   127180   127182   127183 
  127184   127185   127185   127185   127187   127186   127183   127183 
  127180   127174   127171   127168   127165   127161   127157   127152 
  127145   127139   127136   127133   127127   127119   127114   127113 
  127110   127105   127102   127100   127101   127100   127098   127097 
  127096   127095   127095   127096   127097   127099   127102   127104 
  127109   127114   127117   127120   127124   127127   127130   127134 
  127134   127135   127138   127140   127141   127144   127146   127144 
  127145   127147   127149   127150   127150   127149   127149   127151 
  127154   127155   127157   127161   127164   127165   127168   127170 
  127169   127169   127173   127177   127176   127175   127176   127177 
  127176   127177   127179   127181   127183   127184   127185   127189 
  127192   127193   127198   127202   127206   127211   127216   127221 
  127228   127231   127232   127237   127241   127245   127250   127254 
  127258   127265   127271   127276   127282   127288   127294   127301 
  127305   127308   127314   127321   127324   127325   127331   127336 
  127339   127344   127351   127353   127354   127357   127359   127360 
  127362   127361   127360   127362   127361   127359   127359   127357 
  127356   127356   127357   127358   127358   127358   127359   127360 
  127363   127370   127375   127379   127383   127387   127392   127396 
  127401   127405   127409   127412   127415   127417   127420   127421 
  127422   127423   127424   127424   127425   127424   127422   127419 
  127415   127411   127409   127405   127401   127397   127390   127385 
  127382   127377   127373   127371   127367   127364   127362   127358 
  127354   127352   127348   127340   127334   127332   127329   127322 
  127316   127312   127308   127303   127298   127292   127288   127284 
  127275   127267   127263   127258   127251   127247   127242   127234 
  127225   127219   127214   127209   127204   127197   127191   127186 
  127182   127177   127172   127168   127164   127160   127155   127149 
  127146   127145   127142   127140   127141   127142   127143   127144 
  127145   127149   127154   127156   127157   127160   127162   127162 
  127161   127160   127159   127158   127157   127155   127156   127156 
  127153   127151   127153   127153   127150   127146   127144   127141 
  127139   127135   127131   127130   127127   127122   127120   127120 
  127120   127119   127118   127119   127118   127120   127123   127122 
  127123   127125   127124   127121   127124   127125   127126   127130 
  127136   127141   127148   127154   127158   127163   127170   127178 
  127183   127187   127194   127199   127202   127207   127209   127213 
  127219   127220   127222   127225   127225   127225   127224   127225 
  127226   127225   127224   127222   127219   127216   127215   127213 
  127210   127209   127207   127205   127203   127204   127204   127204 
  127204   127201   127199   127200   127198   127194   127192   127190 
  127189   127187   127184   127183   127181   127181   127180   127178 
  127176   127176   127175   127175   127174   127172   127171   127169 
  127164   127159   127156   127151   127147   127145   127144   127140 
  127138   127142   127144   127141   127142   127147   127150   127153 
  127157   127160   127163   127167   127171   127174   127180   127187 
  127195   127202   127207   127213   127221   127228   127234   127241 
  127248   127254   127261   127267   127273   127280   127288   127293 
  127300   127307   127312   127317   127325   127332   127337   127342 
  127347   127349   127352   127355   127358   127359   127361   127364 
  127366   127364   127364   127364   127362   127361   127359   127356 
  127353   127350   127347   127344   127341   127339   127335   127333 
  127333   127332   127331   127331   127328   127324   127325   127326 
  127323   127319   127317   127315   127313   127310   127307   127303 
  127298   127293   127290   127284   127277   127270   127265   127261 
  127253   127243   127237   127230   127220   127212   127205   127197 
  127188   127183   127178   127172   127168   127164   127159   127157 
  127155   127150   127148   127147   127144   127142   127139   127139 
  127139   127136   127133   127132   127130   127129   127128   127128 
  127129   127127   127124   127124   127125   127122   127122   127125 
  127125   127124   127123   127121   127121   127119   127119   127118 
  127116   127114   127115   127114   127114   127115   127114   127113 
  127113   127114   127113   127112   127112   127113   127115   127114 
  127113   127113   127111   127109   127110   127111   127112   127112 
  127114   127117   127119   127120   127123   127125   127127   127128 
  127130   127132   127134   127137   127140   127140   127142   127145 
  127145   127144   127146   127145   127144   127144   127143   127140 
  127139   127138   127138   127137   127135   127134   127131   127128 
  127128   127126   127124   127122   127119   127116   127116   127116 
  127116   127114   127110   127110   127109   127109   127110   127108 
  127105   127105   127103   127101   127100   127099   127096   127094 
  127094   127093   127094   127094   127092   127092   127092   127091 
  127091   127091   127089   127089   127089   127089   127092   127093 
  127090   127092   127095   127093   127094   127098   127100   127102 
  127107   127110   127113   127120   127125   127130   127136   127143 
  127150   127155   127161   127170   127178   127184   127193   127202 
  127209   127218   127226   127236   127247   127257   127266   127273 
  127283   127296   127305   127312   127321   127331   127340   127349 
  127357   127364   127370   127380   127387   127394   127400   127404 
  127411   127419   127422   127425   127431   127433   127433   127435 
  127435   127432   127429   127427   127426   127423   127418   127415 
  127412   127408   127402   127395   127391   127385   127377   127370 
  127365   127362   127356   127349   127343   127337   127331   127324 
  127318   127313   127303   127294   127289   127282   127273   127268 
  127261   127252   127244   127238   127232   127225   127216   127208 
  127201   127193   127183   127176   127169   127164   127157   127149 
  127145   127140   127133   127129   127128   127125   127121   127119 
  127116   127114   127112   127109   127108   127107   127105   127102 
  127100   127098   127095   127092   127091   127090   127089   127088 
  127085   127083   127080   127078   127079   127081   127079   127076 
  127075   127074   127072   127070   127073   127074   127076   127078 
  127078   127080   127084   127084   127085   127089   127093   127096 
  127099   127103   127108   127112   127116   127118   127121   127123 
  127126   127130   127130   127131   127137   127139   127139   127143 
  127146   127147   127149   127152   127154   127156   127158   127161 
  127168   127173   127176   127179   127185   127190   127197   127203 
  127209   127215   127223   127228   127231   127237   127241   127244 
  127246   127247   127247   127251   127254   127251   127249   127252 
  127254   127252   127252   127254   127255   127254   127251   127251 
  127253   127251   127247   127246   127244   127240   127237   127235 
  127233   127232   127229   127228   127227   127224   127224   127226 
  127226   127223   127222   127222   127221   127221   127221   127219 
  127218   127218   127219   127218   127217   127215   127213   127212 
  127209   127205   127203   127202   127200   127199   127199   127200 
  127201   127200   127201   127205   127208   127212   127216   127221 
  127225   127230   127236   127242   127248   127256   127262   127268 
  127276   127284   127291   127300   127309   127316   127324   127332 
  127336   127342   127352   127362   127372   127377   127382   127388 
  127392   127399   127406   127407   127409   127414   127416   127420 
  127423   127423   127424   127425   127427   127427   127426   127424 
  127424   127424   127423   127419   127417   127416   127416   127413 
  127409   127406   127404   127401   127396   127393   127390   127383 
  127378   127375   127370   127363   127356   127349   127345   127340 
  127332   127326   127321   127313   127304   127296   127288   127281 
  127273   127264   127255   127247   127238   127230   127221   127213 
  127205   127196   127188   127183   127176   127168   127160   127154 
  127148   127144   127140   127134   127130   127129   127126   127122 
  127118   127117   127116   127114   127114   127112   127112   127114 
  127114   127114   127115   127118   127120   127123   127125   127126 
  127130   127135   127138   127139   127141   127146   127148   127147 
  127151   127155   127156   127159   127162   127163   127164   127165 
  127165   127165   127166   127165   127163   127162   127161   127160 
  127157   127156   127158   127158   127157   127157   127160   127162 
  127162   127166   127168   127168   127169   127170   127173   127176 
  127176   127179   127181   127181   127183   127186   127189   127192 
  127193   127195   127198   127197   127198   127200   127198   127197 
  127197   127197   127195   127194   127192   127190   127187   127182 
  127178   127173   127167   127164   127159   127152   127146   127141 
  127132   127124   127118   127109   127101   127094   127085   127078 
  127072   127063   127057   127051   127043   127035   127030   127028 
  127022   127018   127021   127021   127020   127019   127019   127021 
  127024   127026   127028   127029   127032   127037   127039   127042 
  127048   127050   127052   127057   127060   127062   127064   127066 
  127069   127072   127072   127074   127079   127082   127085   127089 
  127094   127100   127103   127109   127117   127123   127130   127137 
  127144   127151   127159   127168   127179   127189   127200   127211 
  127221   127230   127244   127257   127266   127277   127288   127298 
  127308   127321   127332   127340   127350   127361   127368   127375 
  127382   127389   127395   127399   127402   127405   127409   127411 
  127410   127410   127410   127405   127399   127396   127393   127387 
  127381   127374   127364   127357   127348   127337   127328   127320 
  127309   127299   127293   127286   127277   127269   127263   127257 
  127250   127244   127242   127237   127232   127232   127230   127226 
  127226   127227   127224   127223   127225   127225   127223   127223 
  127223   127222   127221   127220   127217   127216   127215   127211 
  127208   127206   127202   127199   127195   127190   127188   127184 
  127178   127175   127173   127169   127165   127160   127158   127157 
  127154   127153   127155   127152   127150   127149   127148   127148 
  127148   127148   127149   127148   127149   127151   127151   127152 
  127155   127155   127156   127157   127156   127156   127157   127156 
  127156   127156   127155   127153   127153   127151   127149   127151 
  127151   127150   127149   127149   127151   127152   127153   127157 
  127161   127162   127168   127174   127178   127186   127193   127197 
  127206   127216   127223   127231   127242   127252   127260   127267 
  127277   127287   127296   127303   127309   127320   127331   127338 
  127346   127352   127359   127368   127376   127384   127390   127393 
  127398   127404   127407   127410   127414   127418   127420   127422 
  127425   127429   127431   127432   127436   127437   127437   127439 
  127440   127440   127440   127438   127438   127440   127439   127436 
  127431   127426   127423   127418   127411   127405   127397   127391 
  127386   127377   127366   127358   127348   127339   127331   127321 
  127310   127301   127292   127284   127275   127266   127254   127245 
  127237   127224   127213   127206   127198   127187   127176   127167 
  127158   127147   127136   127129   127119   127109   127100   127092 
  127084   127076   127066   127060   127054   127045   127036   127030 
  127023   127016   127010   127004   126998   126993   126990   126987 
  126984   126981   126980   126981   126982   126982   126985   126989 
  126992   126997   127001   127005   127012   127017   127021   127027 
  127036   127045   127050   127056   127065   127073   127080   127087 
  127094   127101   127107   127112   127117   127121   127125   127128 
  127131   127133   127136   127140   127144   127144   127143   127143 
  127144   127145   127145   127143   127144   127146   127143   127141 
  127141   127141   127141   127140   127139   127137   127137   127135 
  127132   127129   127127   127127   127125   127120   127117   127116 
  127113   127112   127111   127108   127106   127106   127105   127106 
  127106   127105   127106   127108   127108   127107   127109   127112 
  127113   127115   127119   127123   127127   127129   127132   127134 
  127138   127141   127145   127148   127149   127153   127159   127162 
  127166   127172   127173   127174   127180   127184   127186   127187 
  127189   127192   127195   127195   127197   127200   127201   127202 
  127202   127201   127202   127203   127200   127199   127201   127201 
  127198   127197   127196   127194   127192   127191   127189   127188 
  127188   127188   127185   127182   127182   127180   127179   127183 
  127184   127183   127184   127187   127188   127188   127191   127195 
  127199   127203   127206   127210   127216   127219   127225   127233 
  127238   127243   127251   127256   127262   127269   127275   127277 
  127281   127288   127292   127294   127298   127302   127304   127304 
  127306   127309   127311   127313   127315   127317   127318   127319 
  127320   127323   127325   127326   127326   127328   127331   127332 
  127333   127334   127334   127335   127338   127339   127340   127342 
  127344   127346   127349   127349   127348   127349   127349   127350 
  127350   127349   127349   127349   127347   127346   127345   127343 
  127340   127337   127335   127333   127328   127325   127322   127318 
  127314   127311   127308   127304   127299   127296   127292   127287 
  127283   127278   127272   127265   127257   127250   127244   127236 
  127226   127219   127212   127202   127194   127186   127176   127167 
  127160   127151   127142   127134   127126   127119   127113   127107 
  127099   127093   127088   127084   127078   127076   127075   127072 
  127070   127070   127069   127069   127069   127069   127073   127077 
  127078   127081   127085   127088   127092   127096   127101   127106 
  127108   127112   127117   127120   127122   127126   127129   127131 
  127135   127139   127139   127140   127144   127145   127148   127152 
  127153   127155   127158   127157   127160   127163   127162   127163 
  127167   127168   127168   127170   127173   127174   127175   127179 
  127182   127185   127188   127190   127193   127199   127203   127207 
  127211   127217   127225   127230   127235   127244   127251   127257 
  127264   127271   127277   127284   127290   127297   127305   127312 
  127319   127325   127328   127333   127340   127346   127349   127351 
  127353   127354   127357   127361   127360   127359   127360   127358 
  127356   127357   127355   127355   127354   127349   127348   127349 
  127344   127341   127340   127334   127329   127326   127323   127319 
  127315   127312   127306   127301   127297   127295   127289   127283 
  127280   127276   127271   127266   127262   127257   127253   127246 
  127238   127233   127227   127217   127210   127205   127195   127186 
  127179   127171   127163   127157   127151   127146   127140   127135 
  127131   127125   127120   127117   127112   127107   127103   127098 
  127092   127088   127083   127077   127074   127070   127064   127058 
  127056   127053   127050   127047   127044   127042   127040   127037 
  127037   127037   127035   127036   127037   127035   127038   127042 
  127047   127050   127052   127057   127063   127069   127076   127083 
  127091   127098   127105   127114   127123   127130   127138   127145 
  127151   127159   127165   127170   127175   127180   127185   127187 
  127188   127192   127196   127197   127196   127197   127198   127198 
  127199   127202   127201   127200   127203   127206   127205   127203 
  127204   127206   127209   127210   127209   127208   127209   127209 
  127209   127209   127209   127208   127207   127205   127203   127201 
  127201   127200   127197   127195   127194   127193   127191   127188 
  127186   127185   127183   127183   127182   127181   127181   127181 
  127178   127177   127177   127177   127177   127178   127178   127178 
  127176   127174   127174   127174   127173   127174   127175   127172 
  127170   127170   127170   127170   127171   127171   127170   127168 
  127169   127172   127173   127174   127178   127180   127182   127188 
  127193   127197   127203   127209   127216   127225   127231   127238 
  127250   127257   127261   127271   127280   127286   127292   127298 
  127305   127311   127318   127323   127324   127326   127330   127332 
  127330   127329   127329   127329   127329   127325   127322   127321 
  127318   127313   127309   127303   127299   127294   127288   127284 
  127278   127271   127265   127260   127254   127247   127240   127234 
  127227   127217   127209   127203   127193   127182   127174   127166 
