Origin Time       2015/02/17 08:06:00
Lat.              39.872
Long.             143.192
Depth. (km)       13
Mag.              6.9
Station Code      NGNH54
Station Lat.      35.4489
Station Long.     138.0058
Station Height(m) 1168
Record Time       2015/02/17 08:09:33
Sampling Freq(Hz) 100Hz
Duration Time(s)  120
Dir.              4
Scale Factor      3920(gal)/6170801
Max. Acc. (gal)   0.136
Last Correction   2015/02/17 08:09:18
Memo.             
[...]
    6639     6640     6641     6641     6640     6641     6640     6637 
    6633     6629     6628     6631     6633     6634     6634     6633 
    6634     6636     6638     6643     6647     6646     6643     6639 
    6636     6631     6624     6617     6610     6602     6594     6586 
    6580     6581     6583     6581     6582     6581     6577     6572 
    6561     6549     6537     6525     6520     6518     6516     6516 
    6517     6518     6520     6526     6533     6542     6553     6566 
    6576     6584     6590     6594     6597     6596     6593     6588 
    6582     6575     6570     6565     6562     6561     6562     6564 
    6563     6564     6566     6566     6565     6561     6555     6552 
    6550     6549     6551     6553     6553     6552     6550     6547 
    6544     6538     6534     6530     6525     6519     6511     6503 
    6497     6491     6487     6485     6484     6482     6482     6485 
    6487     6486     6487     6489     6493     6501     6508     6515 
    6521     6525     6528     6532     6533     6527     6518     6511 
    6507     6503     6500     6501     6506     6513     6517     6521 
    6528     6533     6537     6544     6548     6550     6554     6557 
    6558     6555     6547     6543     6542     6539     6536     6534 
    6531     6528     6527     6527     6527     6529     6533     6536 
    6534     6536     6539     6542     6547     6551     6554     6557 
    6558     6560     6566     6573     6579     6584     6586     6581 
    6577     6570     6560     6555     6554     6554     6555     6559 
    6563     6568     6574     6580     6585     6588     6589     6591 
    6593     6591     6587     6585     6579     6573     6571     6571 
    6568     6564     6562     6563     6562     6560     6562     6562 
    6565     6572     6578     6580     6580     6579     6573     6562 
    6550     6538     6529     6525     6527     6530     6532     6533 
    6533     6535     6543     6548     6552     6559     6569     6574 
    6574     6571     6566     6559     6553     6551     6550     6549 
    6549     6547     6546     6544     6539     6537     6541     6542 
    6546     6553     6562     6570     6575     6579     6585     6592 
    6598     6603     6607     6615     6624     6629     6634     6637 
    6638     6638     6633     6626     6621     6615     6606     6599 
    6590     6580     6571     6563     6554     6549     6548     6546 
    6545     6549     6554     6557     6561     6566     6570     6578 
    6587     6591     6593     6593     6586     6576     6564     6550 
    6536     6529     6525     6519     6518     6522     6523     6524 
    6523     6524     6525     6524     6522     6518     6512     6504 
    6495     6486     6480     6476     6478     6481     6479     6476 
    6471     6467     6464     6460     6460     6463     6463     6466 
    6470     6470     6469     6469     6472     6475     6480     6486 
    6488     6487     6490     6493     6493     6494     6494     6493 
    6494     6495     6494     6495     6498     6502     6505     6509 
    6513     6515     6517     6520     6526     6535     6542     6548 
    6556     6568     6580     6587     6593     6599     6602     6603 
    6603     6606     6607     6603     6598     6594     6585     6579 
    6572     6561     6555     6551     6548     6551     6551     6549 
    6554     6564     6571     6579     6588     6592     6596     6598 
    6596     6593     6591     6589     6587     6585     6586     6587 
    6589     6590     6592     6596     6601     6605     6610     6612 
    6612     6614     6615     6613     6612     6609     6604     6599 
    6595     6593     6592     6589     6585     6581     6578     6576 
    6574     6574     6577     6576     6576     6578     6580     6579 
    6577     6575     6571     6569     6565     6561     6561     6560 
    6557     6554     6546     6539     6531     6523     6514     6503 
    6492     6488     6487     6484     6480     6481     6484     6487 
    6491     6497     6502     6506     6509     6514     6518     6519 
    6523     6528     6528     6530     6535     6537     6537     6537 
    6540     6546     6552     6555     6556     6559     6565     6573 
    6579     6583     6585     6588     6590     6590     6589     6589 
    6587     6585     6586     6585     6581     6581     6584     6584 
    6586     6591     6599     6608     6622     6637     6647     6654 
    6660     6662     6659     6652     6643     6634     6622     6611 
    6602     6596     6592     6587     6585     6589     6592     6595 
    6599     6604     6608     6611     6613     6614     6616     6619 
    6621     6625     6632     6635     6637     6640     6641     6638 
    6638     6640     6638     6637     6635     6631     6625     6618 
    6615     6614     6612     6611     6610     6604     6600     6599 
    6595     6587     6583     6581     6580     6579     6579     6580 
    6578     6576     6575     6572     6572     6574     6574     6573 
    6573     6567     6560     6556     6556     6553     6548     6549 
    6550     6548     6546     6545     6542     6541     6541     6541 
    6541     6542     6541     6538     6531     6527     6526     6521 
    6515     6515     6515     6513     6513     6514     6515     6517 
    6518     6517     6514     6508     6502     6498     6497     6498 
    6498     6497     6495     6492     6488     6483     6476     6471 
    6469     6468     6465     6462     6460     6455     6449     6445 
    6439     6432     6429     6429     6426     6425     6425     6426 
    6427     6427     6430     6436     6446     6457     6467     6474 
    6480     6485     6488     6488     6487     6486     6484     6483 
    6480     6476     6470     6464     6462     6462     6463     6468 
    6477     6484     6489     6497     6506     6513     6523     6534 
    6539     6541     6543     6543     6543     6542     6538     6537 
    6538     6536     6535     6534     6534     6534     6536     6540 
    6545     6547     6545     6547     6550     6551     6555     6562 
    6569     6577     6587     6594     6599     6604     6607     6609 
    6611     6611     6610     6607     6602     6596     6592     6585 
    6578     6576     6574     6572     6573     6576     6577     6577 
    6581     6585     6589     6594     6594     6591     6591     6591 
    6584     6577     6576     6572     6565     6562     6558     6552 
    6544     6539     6532     6527     6525     6522     6518     6516 
    6515     6512     6509     6507     6508     6508     6507     6507 
    6509     6511     6511     6511     6509     6504     6499     6496 
    6495     6494     6491     6487     6485     6483     6481     6482 
    6486     6491     6495     6499     6508     6520     6531     6537 
    6543     6547     6550     6553     6555     6555     6556     6556 
    6556     6556     6552     6549     6550     6552     6554     6558 
    6564     6572     6581     6592     6600     6603     6606     6607 
    6607     6609     6608     6606     6608     6609     6609     6612 
    6612     6608     6604     6600     6593     6587     6583     6581 
    6577     6574     6572     6569     6569     6572     6575     6579 
    6585     6590     6592     6592     6592     6593     6595     6596 
    6599     6603     6606     6607     6602     6594     6589     6582 
    6573     6568     6565     6558     6549     6542     6537     6533 
    6528     6523     6520     6521     6519     6518     6521     6523 
    6524     6525     6528     6530     6532     6535     6539     6541 
    6545     6547     6548     6550     6552     6551     6553     6555 
    6551     6549     6548     6543     6539     6536     6530     6526 
    6520     6513     6509     6505     6501     6497     6489     6481 
    6476     6470     6463     6459     6458     6457     6458     6461 
    6462     6465     6471     6478     6484     6490     6495     6497 
    6500     6501     6501     6500     6499     6497     6495     6496 
    6500     6506     6512     6514     6518     6522     6522     6525 
    6530     6531     6533     6536     6534     6534     6537     6537 
    6539     6541     6541     6542     6543     6542     6538     6533 
    6530     6528     6528     6530     6533     6533     6533     6534 
    6536     6539     6543     6545     6547     6550     6552     6555 
    6557     6559     6562     6565     6570     6575     6578     6581 
    6585     6587     6588     6586     6584     6586     6591     6594 
    6594     6597     6599     6598     6602     6605     6608     6614 
    6620     6625     6632     6639     6644     6651     6656     6658 
    6662     6668     6671     6672     6670     6670     6672     6672 
    6671     6673     6676     6674     6671     6669     6666     6665 
    6662     6657     6655     6655     6651     6647     6646     6646 
    6644     6641     6646     6657     6666     6672     6678     6685 
    6694     6706     6716     6725     6733     6740     6746     6751 
    6754     6755     6754     6753     6749     6744     6739     6735 
    6728     6721     6716     6711     6706     6700     6698     6698 
    6695     6691     6689     6687     6686     6685     6683     6681 
    6676     6670     6666     6665     6662     6659     6658     6657 
    6655     6653     6650     6646     6640     6635     6631     6623 
    6616     6610     6605     6599     6592     6587     6584     6583 
    6580     6575     6572     6571     6569     6566     6563     6560 
    6555     6546     6538     6533     6528     6525     6521     6515 
    6515     6516     6514     6513     6514     6514     6517     6519 
    6520     6522     6524     6525     6530     6534     6537     6544 
    6550     6552     6555     6561     6564     6564     6564     6562 
    6559     6553     6542     6533     6527     6522     6517     6513 
    6511     6506     6502     6503     6501     6498     6496     6493 
    6490     6488     6484     6480     6480     6480     6480     6483 
    6484     6485     6487     6490     6491     6492     6493     6492 
    6491     6491     6493     6494     6498     6502     6509     6520 
    6530     6539     6547     6552     6558     6565     6570     6575 
    6582     6587     6588     6590     6591     6587     6586     6586 
    6584     6584     6587     6586     6583     6578     6570     6564 
    6559     6552     6548     6548     6548     6547     6548     6548 
    6547     6548     6551     6553     6556     6559     6560     6560 
    6560     6560     6559     6553     6549     6544     6538     6531 
    6526     6524     6523     6521     6518     6516     6514     6513 
    6514     6516     6515     6513     6511     6508     6501     6495 
    6490     6484     6479     6476     6474     6472     6474     6479 
    6483     6489     6497     6505     6513     6521     6524     6528 
    6534     6534     6536     6539     6539     6539     6544     6549 
    6555     6565     6575     6587     6597     6605     6612     6620 
    6625     6628     6632     6639     6647     6654     6661     6668 
    6672     6676     6679     6683     6687     6690     6691     6693 
    6691     6689     6689     6687     6682     6677     6675     6676 
    6674     6668     6666     6665     6662     6660     6659     6659 
    6658     6653     6651     6653     6655     6655     6658     6660 
    6662     6667     6671     6674     6676     6673     6668     6662 
    6656     6648     6640     6634     6627     6618     6608     6600 
    6594     6589     6584     6582     6582     6579     6573     6566 
    6557     6547     6537     6526     6516     6508     6503     6500 
    6496     6493     6495     6496     6498     6505     6510     6510 
    6513     6515     6513     6511     6509     6505     6504     6501 
    6498     6500     6500     6498     6498     6500     6502     6504 
    6506     6508     6510     6511     6511     6508     6508     6509 
    6507     6505     6503     6502     6501     6497     6494     6495 
    6491     6486     6484     6485     6489     6493     6494     6495 
    6498     6500     6503     6504     6504     6505     6505     6503 
    6501     6500     6501     6500     6498     6499     6502     6503 
    6505     6507     6508     6510     6511     6511     6512     6515 
    6514     6512     6515     6517     6520     6524     6523     6520 
    6521     6519     6512     6507     6501     6494     6489     6483 
    6478     6478     6479     6477     6474     6474     6475     6473 
    6471     6472     6473     6472     6472     6471     6470     6473 
    6472     6467     6466     6467     6466     6465     6465     6462 
    6460     6463     6466     6466     6467     6467     6464     6462 
    6461     6461     6459     6459     6461     6461     6462     6465 
    6466     6468     6471     6473     6475     6475     6476     6477 
    6477     6477     6476     6477     6479     6480     6482     6486 
    6489     6492     6499     6507     6515     6523     6531     6537 
    6543     6548     6552     6558     6565     6574     6583     6591 
    6598     6607     6620     6628     6636     6646     6653     6660 
    6669     6673     6678     6684     6690     6698     6706     6715 
    6724     6729     6735     6743     6749     6753     6756     6759 
    6762     6767     6772     6772     6768     6762     6756     6750 
    6744     6735     6729     6725     6722     6714     6706     6699 
    6695     6692     6689     6686     6680     6676     6673     6667 
    6658     6652     6648     6643     6637     6633     6628     6622 
    6615     6607     6601     6596     6591     6588     6585     6578 
    6573     6568     6561     6552     6547     6542     6536     6530 
    6526     6518     6510     6507     6504     6500     6499     6497 
    6493     6492     6491     6491     6493     6491     6487     6486 
    6483     6480     6478     6476     6474     6475     6477     6476 
    6477     6476     6472     6469     6469     6470     6470     6466 
    6460     6457     6454     6449     6446     6446     6446     6445 
    6445     6446     6446     6444     6443     6443     6445     6448 
    6452     6455     6460     6465     6466     6470     6475     6477 
    6479     6482     6484     6487     6487     6487     6488     6489 
    6490     6491     6493     6499     6505     6507     6510     6518 
    6525     6531     6541     6546     6549     6554     6561     6567 
    6572     6576     6581     6586     6590     6595     6600     6605 
    6609     6613     6614     6616     6618     6617     6613     6611 
    6611     6609     6605     6603     6600     6596     6592     6589 
    6588     6587     6587     6590     6593     6592     6592     6593 
    6595     6594     6591     6591     6591     6586     6582     6580 
    6576     6572     6570     6567     6565     6567     6568     6569 
    6571     6572     6573     6574     6575     6572     6569     6569 
    6566     6564     6562     6558     6557     6556     6551     6548 
    6546     6541     6538     6537     6534     6534     6532     6531 
    6534     6539     6541     6543     6545     6550     6560     6567 
    6571     6578     6588     6597     6605     6612     6618     6626 
    6632     6638     6646     6656     6663     6668     6673     6681 
    6689     6696     6702     6708     6714     6722     6727     6728 
    6731     6738     6741     6744     6748     6748     6745     6744 
    6743     6739     6735     6732     6726     6719     6716     6714 
    6711     6712     6712     6712     6712     6713     6714     6713 
    6710     6708     6708     6704     6696     6691     6687     6681 
    6675     6668     6658     6655     6652     6645     6639     6635 
    6630     6624     6617     6610     6603     6593     6583     6573 
    6565     6560     6553     6545     6540     6532     6522     6518 
    6513     6508     6505     6500     6496     6495     6490     6486 
    6485     6481     6477     6474     6473     6474     6474     6476 
    6479     6478     6479     6482     6484     6483     6485     6488 
    6489     6490     6493     6494     6495     6500     6507     6510 
    6513     6520     6527     6531     6533     6536     6539     6540 
    6540     6540     6538     6536     6537     6536     6532     6527 
    6524     6525     6528     6530     6531     6531     6531     6533 
    6534     6534     6536     6541     6546     6550     6555     6559 
    6558     6557     6556     6553     6550     6546     6541     6539 
    6537     6532     6529     6529     6528     6528     6529     6531 
    6534     6537     6538     6538     6538     6540     6541     6538 
    6537     6538     6538     6538     6535     6528     6523     6519 
    6512     6504     6496     6486     6475     6465     6456     6448 
    6440     6434     6429     6425     6422     6420     6416     6415 
    6417     6419     6418     6415     6413     6413     6414     6415 
    6418     6422     6425     6428     6434     6442     6445     6445 
    6447     6451     6453     6453     6454     6455     6455     6458 
    6462     6462     6464     6466     6466     6468     6471     6471 
    6468     6470     6474     6475     6477     6481     6485     6490 
    6495     6501     6508     6515     6521     6526     6532     6541 
    6548     6554     6563     6573     6585     6597     6606     6615 
    6626     6636     6644     6653     6660     6666     6673     6680 
    6685     6690     6695     6699     6706     6715     6720     6724 
    6727     6730     6730     6729     6727     6725     6721     6715 
    6711     6707     6700     6690     6684     6677     6670     6662 
    6654     6647     6638     6630     6625     6616     6607     6603 
    6598     6591     6589     6587     6583     6584     6584     6585 
    6587     6586     6588     6589     6588     6592     6597     6596 
    6594     6595     6596     6596     6595     6595     6596     6595 
    6594     6592     6588     6584     6579     6573     6567     6561 
    6555     6548     6541     6537     6531     6526     6523     6516 
    6510     6506     6505     6504     6501     6499     6499     6502 
    6506     6509     6512     6516     6520     6520     6521     6520 
    6519     6520     6517     6513     6514     6515     6512     6510 
    6511     6511     6509     6510     6512     6512     6512     6512 
    6513     6513     6514     6518     6521     6522     6523     6522 
    6522     6524     6525     6526     6526     6528     6532     6533 
    6535     6541     6547     6553     6561     6570     6579     6588 
    6596     6606     6614     6622     6630     6636     6645     6652 
    6653     6657     6663     6666     6669     6674     6678     6681 
    6686     6690     6697     6705     6711     6716     6721     6723 
    6724     6723     6722     6723     6724     6725     6728     6732 
    6737     6742     6744     6746     6749     6751     6752     6751 
    6751     6750     6745     6741     6737     6733     6729     6724 
    6718     6713     6707     6701     6694     6685     6678     6671 
