Origin Time       2015/02/17 08:06:00
Lat.              39.872
Long.             143.192
Depth. (km)       13
Mag.              6.9
Station Code      NGNH54
Station Lat.      35.4489
Station Long.     138.0058
Station Height(m) 1168
Record Time       2015/02/17 08:09:33
Sampling Freq(Hz) 100Hz
Duration Time(s)  120
Dir.              6
Scale Factor      3920(gal)/6170801
Max. Acc. (gal)   0.108
Last Correction   2015/02/17 08:09:18
Memo.             
[...]
  -41057   -41058   -41059   -41058   -41061   -41063   -41062   -41063 
  -41063   -41060   -41059   -41061   -41059   -41053   -41053   -41054 
  -41052   -41051   -41048   -41044   -41043   -41044   -41042   -41040 
  -41036   -41032   -41028   -41021   -41015   -41013   -41012   -41010 
  -41009   -41006   -41009   -41014   -41013   -41012   -41011   -41008 
  -41006   -41003   -41001   -41002   -41002   -41001   -41003   -41006 
  -41008   -41009   -41010   -41008   -41008   -41009   -41009   -41011 
  -41015   -41015   -41014   -41013   -41015   -41017   -41016   -41017 
  -41015   -41013   -41012   -41011   -41011   -41012   -41011   -41010 
  -41009   -41008   -41008   -41009   -41010   -41011   -41011   -41012 
  -41014   -41014   -41013   -41012   -41012   -41016   -41018   -41016 
  -41017   -41019   -41018   -41017   -41021   -41023   -41022   -41024 
  -41024   -41021   -41021   -41022   -41022   -41023   -41024   -41025 
  -41024   -41022   -41022   -41021   -41022   -41025   -41027   -41028 
  -41030   -41030   -41025   -41020   -41017   -41014   -41010   -41007 
  -41009   -41011   -41010   -41007   -41005   -41001   -40994   -40989 
  -40986   -40984   -40982   -40980   -40975   -40972   -40969   -40966 
  -40963   -40960   -40958   -40958   -40957   -40959   -40964   -40965 
  -40966   -40971   -40975   -40975   -40977   -40979   -40980   -40985 
  -40992   -40994   -40991   -40989   -40988   -40985   -40979   -40972 
  -40970   -40970   -40970   -40970   -40973   -40978   -40979   -40979 
  -40978   -40975   -40974   -40976   -40978   -40979   -40979   -40979 
  -40979   -40976   -40974   -40976   -40974   -40972   -40973   -40975 
  -40977   -40981   -40987   -40993   -40997   -41000   -41008   -41012 
  -41014   -41020   -41027   -41030   -41034   -41041   -41045   -41046 
  -41049   -41052   -41052   -41053   -41058   -41062   -41063   -41062 
  -41063   -41064   -41062   -41062   -41064   -41062   -41060   -41055 
  -41050   -41049   -41047   -41044   -41042   -41040   -41037   -41036 
  -41033   -41029   -41028   -41028   -41026   -41026   -41028   -41028 
  -41029   -41031   -41031   -41032   -41035   -41038   -41042   -41042 
  -41042   -41045   -41047   -41049   -41055   -41058   -41059   -41062 
  -41064   -41066   -41068   -41070   -41073   -41073   -41071   -41067 
  -41062   -41058   -41054   -41050   -41048   -41045   -41045   -41049 
  -41050   -41050   -41053   -41052   -41049   -41047   -41046   -41046 
  -41046   -41048   -41050   -41052   -41055   -41056   -41057   -41062 
  -41065   -41070   -41075   -41077   -41078   -41081   -41083   -41086 
  -41092   -41093   -41095   -41100   -41102   -41100   -41102   -41104 
  -41104   -41106   -41108   -41108   -41106   -41104   -41102   -41102 
  -41100   -41099   -41098   -41096   -41094   -41092   -41090   -41088 
  -41082   -41076   -41070   -41062   -41057   -41052   -41047   -41042 
  -41038   -41034   -41029   -41026   -41025   -41021   -41021   -41023 
  -41022   -41021   -41024   -41028   -41032   -41035   -41039   -41045 
  -41050   -41057   -41064   -41066   -41068   -41073   -41076   -41076 
  -41076   -41075   -41075   -41076   -41077   -41076   -41075   -41076 
  -41073   -41068   -41066   -41062   -41056   -41050   -41046   -41043 
  -41039   -41035   -41030   -41024   -41017   -41011   -41007   -41004 
  -41001   -41000   -40998   -40997   -40996   -40995   -40993   -40991 
  -40990   -40988   -40985   -40984   -40985   -40984   -40985   -40984 
  -40982   -40982   -40983   -40982   -40982   -40983   -40982   -40980 
  -40976   -40971   -40968   -40964   -40963   -40963   -40961   -40960 
  -40959   -40959   -40961   -40964   -40968   -40975   -40979   -40982 
  -40988   -40993   -40995   -40997   -41000   -41002   -41003   -41007 
  -41009   -41011   -41015   -41019   -41019   -41020   -41024   -41024 
  -41024   -41028   -41031   -41030   -41030   -41027   -41026   -41022 
  -41017   -41017   -41017   -41013   -41013   -41014   -41010   -41010 
  -41010   -41006   -41002   -41003   -41006   -41008   -41008   -41011 
  -41016   -41016   -41018   -41019   -41018   -41019   -41020   -41019 
  -41017   -41015   -41015   -41018   -41020   -41018   -41017   -41015 
  -41016   -41020   -41021   -41021   -41024   -41029   -41030   -41030 
  -41034   -41037   -41039   -41042   -41044   -41046   -41048   -41047 
  -41046   -41046   -41046   -41048   -41050   -41052   -41057   -41060 
  -41061   -41063   -41064   -41067   -41073   -41076   -41076   -41077 
  -41078   -41078   -41075   -41071   -41069   -41069   -41072   -41073 
  -41075   -41076   -41078   -41078   -41076   -41076   -41075   -41075 
  -41076   -41079   -41082   -41082   -41083   -41086   -41086   -41082 
  -41083   -41084   -41080   -41079   -41080   -41080   -41080   -41079 
  -41075   -41073   -41069   -41062   -41057   -41054   -41052   -41049 
  -41044   -41043   -41044   -41042   -41044   -41047   -41045   -41044 
  -41047   -41047   -41046   -41048   -41053   -41058   -41061   -41061 
  -41061   -41060   -41061   -41062   -41065   -41067   -41068   -41068 
  -41068   -41071   -41073   -41071   -41069   -41072   -41075   -41076 
  -41078   -41079   -41079   -41082   -41087   -41090   -41091   -41093 
  -41097   -41097   -41095   -41093   -41091   -41089   -41087   -41086 
  -41083   -41078   -41076   -41072   -41066   -41063   -41060   -41058 
  -41057   -41055   -41052   -41049   -41043   -41038   -41034   -41030 
  -41029   -41027   -41024   -41024   -41023   -41018   -41012   -41010 
  -41008   -41009   -41012   -41015   -41017   -41021   -41024   -41023 
  -41019   -41017   -41016   -41015   -41015   -41017   -41019   -41019 
  -41017   -41016   -41015   -41010   -41003   -41001   -41001   -40999 
  -40998   -41000   -40997   -40994   -40994   -40992   -40987   -40987 
  -40988   -40986   -40985   -40985   -40981   -40980   -40980   -40978 
  -40977   -40979   -40979   -40979   -40983   -40986   -40986   -40987 
  -40988   -40990   -40991   -40991   -40992   -40994   -40997   -40997 
  -40998   -40999   -40998   -40999   -41000   -40996   -40993   -40993 
  -40993   -40992   -40988   -40984   -40982   -40978   -40971   -40966 
  -40962   -40958   -40954   -40950   -40950   -40951   -40946   -40943 
  -40940   -40937   -40935   -40933   -40930   -40927   -40927   -40928 
  -40927   -40926   -40927   -40930   -40930   -40929   -40927   -40925 
  -40926   -40929   -40931   -40931   -40933   -40937   -40940   -40944 
  -40950   -40954   -40959   -40968   -40976   -40978   -40982   -40987 
  -40991   -40996   -41004   -41009   -41013   -41018   -41021   -41022 
  -41023   -41023   -41022   -41022   -41022   -41022   -41021   -41024 
  -41027   -41028   -41030   -41033   -41034   -41032   -41031   -41032 
  -41032   -41032   -41036   -41038   -41039   -41041   -41044   -41045 
  -41045   -41046   -41046   -41045   -41046   -41046   -41044   -41042 
  -41041   -41041   -41040   -41040   -41042   -41045   -41045   -41046 
  -41047   -41046   -41042   -41043   -41044   -41047   -41048   -41048 
  -41048   -41050   -41051   -41051   -41049   -41046   -41045   -41044 
  -41040   -41035   -41031   -41028   -41024   -41018   -41013   -41010 
  -41008   -41005   -41003   -41001   -40998   -40998   -40999   -41000 
  -41004   -41007   -41007   -41009   -41012   -41014   -41016   -41019 
  -41020   -41022   -41025   -41026   -41030   -41032   -41036   -41041 
  -41041   -41040   -41042   -41043   -41044   -41046   -41048   -41051 
  -41055   -41058   -41061   -41062   -41063   -41062   -41060   -41058 
  -41057   -41056   -41054   -41055   -41056   -41055   -41053   -41049 
  -41046   -41044   -41040   -41036   -41031   -41027   -41025   -41018 
  -41013   -41010   -41006   -41002   -41002   -41000   -40999   -41000 
  -41000   -40997   -40996   -40995   -40993   -40991   -40989   -40989 
  -40990   -40989   -40990   -40993   -40994   -40996   -40999   -41002 
  -41005   -41007   -41008   -41011   -41013   -41016   -41020   -41021 
  -41025   -41033   -41039   -41043   -41046   -41050   -41051   -41049 
  -41050   -41052   -41051   -41052   -41053   -41052   -41055   -41058 
  -41058   -41057   -41055   -41053   -41050   -41049   -41047   -41045 
  -41044   -41042   -41041   -41041   -41040   -41039   -41040   -41038 
  -41038   -41039   -41037   -41036   -41040   -41040   -41037   -41037 
  -41036   -41035   -41033   -41028   -41029   -41027   -41019   -41016 
  -41017   -41014   -41013   -41015   -41016   -41017   -41019   -41022 
  -41026   -41026   -41027   -41030   -41033   -41035   -41039   -41043 
  -41046   -41051   -41054   -41055   -41059   -41064   -41063   -41062 
  -41061   -41061   -41063   -41064   -41063   -41064   -41067   -41067 
  -41070   -41076   -41081   -41083   -41086   -41088   -41090   -41093 
  -41097   -41100   -41103   -41108   -41112   -41113   -41112   -41113 
  -41116   -41117   -41117   -41116   -41115   -41116   -41115   -41111 
  -41111   -41108   -41099   -41093   -41087   -41081   -41077   -41071 
  -41067   -41067   -41062   -41055   -41053   -41053   -41050   -41049 
  -41053   -41055   -41055   -41059   -41064   -41066   -41067   -41068 
  -41066   -41067   -41070   -41071   -41071   -41075   -41076   -41076 
  -41075   -41074   -41073   -41072   -41070   -41067   -41066   -41067 
  -41066   -41064   -41060   -41057   -41053   -41049   -41045   -41044 
  -41043   -41043   -41043   -41042   -41042   -41041   -41039   -41040 
  -41039   -41036   -41036   -41037   -41038   -41040   -41043   -41046 
  -41050   -41054   -41058   -41061   -41065   -41070   -41072   -41074 
  -41074   -41072   -41074   -41078   -41077   -41077   -41078   -41076 
  -41074   -41073   -41070   -41066   -41065   -41064   -41060   -41057 
  -41056   -41054   -41050   -41045   -41041   -41038   -41031   -41025 
  -41020   -41014   -41010   -41007   -41004   -41000   -40995   -40988 
  -40982   -40977   -40973   -40973   -40971   -40966   -40964   -40965 
  -40961   -40957   -40955   -40953   -40951   -40950   -40951   -40953 
  -40953   -40953   -40955   -40958   -40960   -40963   -40966   -40967 
  -40969   -40969   -40965   -40963   -40961   -40960   -40958   -40956 
  -40954   -40952   -40952   -40950   -40947   -40943   -40942   -40945 
  -40946   -40945   -40946   -40947   -40946   -40947   -40950   -40952 
  -40953   -40956   -40960   -40963   -40965   -40967   -40972   -40979 
  -40987   -40995   -41001   -41008   -41015   -41017   -41021   -41026 
  -41030   -41035   -41039   -41041   -41046   -41048   -41050   -41055 
  -41058   -41060   -41063   -41069   -41074   -41076   -41080   -41084 
  -41085   -41085   -41086   -41087   -41087   -41086   -41088   -41089 
  -41087   -41086   -41081   -41073   -41067   -41062   -41059   -41058 
  -41056   -41054   -41055   -41054   -41052   -41049   -41046   -41044 
  -41042   -41038   -41036   -41035   -41033   -41030   -41030   -41029 
  -41027   -41030   -41031   -41031   -41033   -41036   -41038   -41040 
  -41043   -41045   -41046   -41048   -41050   -41046   -41046   -41047 
  -41046   -41045   -41046   -41048   -41048   -41046   -41047   -41051 
  -41053   -41054   -41055   -41055   -41058   -41060   -41059   -41061 
  -41064   -41065   -41065   -41066   -41067   -41066   -41063   -41059 
  -41055   -41050   -41046   -41041   -41034   -41028   -41024   -41017 
  -41010   -41001   -40992   -40986   -40982   -40976   -40971   -40971 
  -40971   -40969   -40969   -40970   -40971   -40971   -40972   -40975 
  -40977   -40978   -40981   -40985   -40988   -40989   -40989   -40990 
  -40993   -40996   -41001   -41004   -41007   -41012   -41015   -41016 
  -41019   -41021   -41023   -41027   -41031   -41031   -41032   -41035 
  -41037   -41038   -41040   -41044   -41046   -41050   -41055   -41056 
  -41058   -41063   -41064   -41064   -41063   -41062   -41061   -41058 
  -41057   -41057   -41057   -41055   -41054   -41052   -41051   -41051 
  -41052   -41053   -41055   -41054   -41052   -41052   -41052   -41050 
  -41050   -41049   -41046   -41047   -41047   -41044   -41046   -41048 
  -41048   -41049   -41052   -41052   -41053   -41058   -41061   -41063 
  -41067   -41069   -41068   -41069   -41069   -41071   -41073   -41075 
  -41075   -41074   -41075   -41074   -41073   -41075   -41076   -41077 
  -41078   -41078   -41078   -41080   -41077   -41075   -41075   -41072 
  -41068   -41066   -41065   -41063   -41061   -41058   -41056   -41055 
  -41054   -41053   -41050   -41047   -41043   -41042   -41041   -41040 
  -41038   -41036   -41033   -41033   -41031   -41025   -41021   -41018 
  -41013   -41006   -41001   -40998   -40994   -40990   -40988   -40983 
  -40979   -40979   -40977   -40975   -40972   -40968   -40968   -40969 
  -40969   -40971   -40975   -40976   -40978   -40983   -40987   -40991 
  -40997   -41001   -41005   -41009   -41014   -41017   -41021   -41027 
  -41029   -41029   -41030   -41030   -41030   -41030   -41029   -41027 
  -41026   -41026   -41025   -41022   -41020   -41024   -41024   -41022 
  -41023   -41023   -41022   -41021   -41022   -41022   -41020   -41019 
  -41020   -41020   -41020   -41020   -41020   -41022   -41024   -41023 
  -41024   -41026   -41026   -41028   -41029   -41028   -41029   -41029 
  -41029   -41032   -41032   -41030   -41027   -41024   -41019   -41014 
  -41010   -41004   -40997   -40991   -40985   -40978   -40970   -40961 
  -40950   -40941   -40932   -40924   -40916   -40908   -40901   -40893 
  -40886   -40881   -40877   -40873   -40868   -40865   -40863   -40861 
  -40859   -40861   -40862   -40862   -40864   -40868   -40871   -40874 
  -40876   -40879   -40884   -40888   -40892   -40898   -40903   -40907 
  -40912   -40915   -40916   -40919   -40924   -40927   -40929   -40932 
  -40938   -40943   -40949   -40953   -40957   -40963   -40967   -40970 
  -40975   -40982   -40987   -40993   -40999   -41003   -41006   -41010 
  -41012   -41013   -41014   -41019   -41021   -41023   -41028   -41031 
  -41030   -41033   -41034   -41036   -41040   -41042   -41044   -41046 
  -41047   -41050   -41052   -41053   -41054   -41057   -41061   -41063 
  -41066   -41067   -41068   -41071   -41073   -41074   -41075   -41075 
  -41075   -41076   -41074   -41070   -41068   -41067   -41063   -41060 
  -41058   -41055   -41051   -41047   -41043   -41039   -41034   -41030 
  -41025   -41019   -41013   -41007   -41002   -40999   -40996   -40993 
  -40990   -40989   -40992   -40994   -40994   -40999   -41003   -41002 
  -41002   -41004   -41008   -41012   -41015   -41019   -41026   -41029 
  -41031   -41036   -41041   -41046   -41052   -41057   -41060   -41066 
  -41072   -41076   -41078   -41080   -41081   -41083   -41084   -41085 
  -41086   -41087   -41087   -41086   -41083   -41081   -41080   -41078 
  -41072   -41066   -41063   -41058   -41052   -41047   -41041   -41037 
  -41031   -41022   -41017   -41014   -41010   -41006   -41004   -41002 
  -41002   -41003   -41004   -41009   -41014   -41017   -41018   -41020 
  -41024   -41030   -41032   -41031   -41034   -41035   -41033   -41032 
  -41031   -41030   -41029   -41028   -41026   -41025   -41025   -41024 
  -41022   -41022   -41023   -41021   -41018   -41019   -41021   -41021 
  -41020   -41024   -41026   -41025   -41028   -41033   -41035   -41037 
  -41042   -41047   -41050   -41053   -41054   -41055   -41059   -41062 
  -41065   -41070   -41072   -41074   -41077   -41080   -41083   -41086 
  -41088   -41089   -41094   -41098   -41099   -41103   -41109   -41112 
  -41112   -41114   -41118   -41119   -41119   -41121   -41123   -41125 
  -41128   -41126   -41125   -41126   -41124   -41122   -41121   -41119 
  -41119   -41116   -41110   -41105   -41101   -41096   -41094   -41091 
  -41085   -41079   -41073   -41066   -41060   -41054   -41047   -41040 
  -41037   -41034   -41029   -41024   -41020   -41016   -41009   -41004 
  -40999   -40991   -40984   -40981   -40978   -40973   -40970   -40969 
  -40968   -40968   -40965   -40962   -40960   -40957   -40959   -40962 
  -40961   -40958   -40959   -40959   -40956   -40951   -40947   -40945 
  -40943   -40941   -40941   -40941   -40938   -40937   -40937   -40936 
  -40936   -40935   -40934   -40934   -40934   -40936   -40940   -40945 
  -40950   -40954   -40960   -40966   -40971   -40979   -40988   -40995 
  -41002   -41009   -41018   -41022   -41026   -41033   -41036   -41040 
  -41047   -41049   -41051   -41056   -41060   -41063   -41064   -41061 
  -41063   -41065   -41064   -41065   -41065   -41063   -41060   -41058 
  -41056   -41054   -41052   -41050   -41048   -41047   -41047   -41045 
  -41046   -41049   -41048   -41049   -41052   -41051   -41050   -41052 
  -41053   -41053   -41054   -41056   -41058   -41059   -41061   -41063 
  -41064   -41064   -41062   -41062   -41062   -41060   -41057   -41054 
  -41048   -41044   -41040   -41037   -41036   -41033   -41029   -41029 
  -41028   -41024   -41020   -41016   -41015   -41014   -41011   -41009 
  -41009   -41010   -41007   -41004   -41004   -41002   -41000   -40997 
  -40996   -40998   -40998   -40997   -40996   -40997   -40997   -40996 
  -40999   -40999   -40998   -40999   -40999   -41001   -41004   -41006 
  -41008   -41012   -41015   -41020   -41026   -41029   -41031   -41033 
  -41034   -41038   -41043   -41047   -41051   -41056   -41058   -41058 
  -41059   -41060   -41061   -41061   -41060   -41058   -41058   -41056 
  -41052   -41051   -41051   -41048   -41043   -41041   -41042   -41041 
  -41038   -41038   -41040   -41040   -41043   -41044   -41041   -41039 
  -41039   -41039   -41040   -41039   -41038   -41040   -41039   -41040 
  -41041   -41041   -41042   -41043   -41042   -41044   -41049   -41051 
  -41053   -41056   -41058   -41061   -41064   -41064   -41067   -41069 
  -41071   -41076   -41082   -41086   -41087   -41089   -41090   -41091 
  -41093   -41096   -41096   -41095   -41095   -41096   -41096   -41094 
  -41092   -41091   -41088   -41087   -41089   -41088   -41087   -41088 
  -41086   -41086   -41091   -41091   -41091   -41093   -41094   -41094 
  -41097   -41101   -41102   -41103   -41104   -41105   -41108   -41109 
  -41108   -41110   -41113   -41114   -41112   -41109   -41112   -41113 
  -41109   -41106   -41104   -41103   -41104   -41104   -41100   -41097 
  -41095   -41094   -41093   -41091   -41089   -41087   -41086   -41084 
  -41083   -41082   -41081   -41078   -41075   -41075   -41074   -41071 
  -41068   -41068   -41067   -41065   -41063   -41060   -41059   -41060 
  -41059   -41055   -41052   -41049   -41048   -41048   -41047   -41045 
  -41045   -41046   -41047   -41047   -41046   -41047   -41049   -41048 
  -41047   -41048   -41048   -41047   -41047   -41047   -41048   -41050 
  -41052   -41052   -41053   -41053   -41052   -41051   -41049   -41045 
  -41044   -41041   -41036   -41033   -41031   -41027   -41022   -41019 
  -41017   -41012   -41007   -41004   -41002   -41000   -41000   -41000 
  -41000   -41003   -41002   -40999   -40998   -40997   -40995   -40994 
  -40993   -40989   -40987   -40987   -40986   -40984   -40982   -40977 
  -40974   -40971   -40970   -40970   -40970   -40969   -40969   -40971 
  -40971   -40972   -40973   -40974   -40975   -40973   -40973   -40973 
  -40973   -40973   -40972   -40974   -40978   -40977   -40977   -40980 
  -40978   -40976   -40979   -40982   -40982   -40983   -40986   -40991 
  -40996   -41000   -41001   -41004   -41011   -41015   -41019   -41024 
