Origin Time       2019/08/04 19:23:00
Lat.              37.707
Long.             141.632
Depth. (km)       45
Mag.              6.4
Station Code      CHB027
Station Lat.      35.1810
Station Long.     140.2655
Station Height(m) -9999
Record Time       2019/08/04 19:24:34
Sampling Freq(Hz) 100Hz
Duration Time(s)  61
Dir.              N-S
Scale Factor      7845(gal)/8223790
Max. Acc. (gal)   1.264
Last Correction   2019/08/04 19:24:35
Memo.             
[...]
    -683     -734     -767     -783     -776     -750     -718     -668 
    -579     -464     -365     -303     -263     -229     -187     -135 
     -90      -56      -17       23       55       65       55       20 
     -36      -85     -101     -102     -101     -105     -120     -148 
    -176     -195     -207     -218     -224     -220     -201     -159 
    -110      -83      -85     -121     -187     -261     -334     -411 
    -498     -561     -569     -550     -553     -584     -635     -700 
    -756     -784     -793     -801     -822     -855     -900     -961 
   -1039    -1124    -1197    -1251    -1285    -1306    -1312    -1266 
   -1156    -1020     -889     -767     -653     -553     -476     -421 
    -383     -370     -368     -367     -382     -410     -442     -473 
    -495     -513     -525     -523     -519     -523     -538     -553 
    -558     -526     -468     -405     -348     -294     -230     -167 
    -135     -136     -152     -172     -198     -225     -241     -257 
    -306     -387     -469     -532     -584     -621     -616     -569 
    -511     -468     -438     -417     -395     -378     -370     -375 
    -406     -492     -603     -691     -749     -766     -738     -708 
    -704     -704     -692     -683     -693     -722     -749     -751 
    -722     -675     -627     -595     -568     -540     -521     -504 
    -486     -480     -490     -504     -506     -493     -475     -456 
    -453     -463     -459     -441     -422     -400     -369     -340 
    -329     -346     -383     -437     -503     -577     -648     -715 
    -800     -893     -953     -954     -911     -822     -691     -558 
    -457     -373     -302     -252     -228     -225     -252     -329 
    -442     -553     -645     -708     -737     -734     -723     -723 
    -737     -741     -710     -658     -591     -499     -391     -292 
    -237     -234     -246     -249     -259     -288     -330     -364 
    -378     -394     -425     -468     -540     -634     -697     -708 
    -676     -616     -557     -514     -471     -425     -388     -344 
    -305     -303     -332     -372     -423     -472     -503     -503 
    -490     -496     -529     -566     -594     -596     -573     -540 
    -510     -503     -535     -589     -641     -657     -621     -572 
    -557     -579     -603     -594     -561     -523     -477     -442 
    -436     -460     -518     -596     -669     -715     -723     -702 
    -689     -696     -706     -699     -696     -720     -757     -784 
    -818     -869     -915     -950     -976     -962     -886     -758 
    -606     -461     -322     -201     -124      -89      -68      -68 
    -106     -171     -234     -286     -336     -383     -407     -383 
    -340     -286     -194      -78       40      144      228      275 
     275      225      124      -18     -180     -334     -463     -552 
    -604     -630     -630     -604     -553     -476     -376     -272 
    -194     -149     -117     -103     -129     -183     -255     -349 
    -444     -508     -550     -589     -631     -677     -706     -702 
    -689     -707     -756     -800     -818     -828     -842     -858 
    -884     -909     -912     -881     -846     -838     -864     -915 
    -993    -1090    -1177    -1256    -1336    -1389    -1398    -1355 
   -1260    -1155    -1057     -935     -788     -627     -469     -332 
    -236     -211     -257     -321     -368     -399     -427     -450 
    -467     -467     -433     -370     -299     -237     -205     -189 
    -155     -114     -116     -178     -261     -334     -400     -451 
    -476     -477     -475     -480     -467     -418     -369     -352 
    -372     -417     -457     -472     -464     -456     -459     -476 
    -504     -515     -493     -448     -376     -279     -178      -98 
     -21       70      141      156      102        1     -106     -225 
    -360     -483     -587     -680     -770     -854     -926    -1000 
   -1069    -1089    -1069    -1063    -1065    -1036     -969     -854 
    -707     -560     -433     -326     -238     -156      -79      -23 
       0       -9      -44      -98     -166     -225     -266     -298 
    -318     -330     -338     -334     -309     -257     -183     -108 
     -45        5       58      106      137      140      128       86 
      -5     -114     -206     -283     -359     -437     -523     -621 
    -711     -774     -827     -877     -913     -955    -1024    -1096 
   -1143    -1155    -1140    -1117    -1084    -1020     -927     -828 
    -749     -691     -649     -615     -566     -486     -379     -263 
    -189     -189     -253     -357     -469     -553     -610     -649 
    -665     -669     -670     -652     -594     -498     -398     -319 
    -259     -230     -255     -333     -440     -542     -603     -626 
    -653     -707     -766     -822     -866     -886     -890     -886 
    -868     -838     -810     -780     -733     -658     -557     -436 
    -298     -151      -23       52       68       28      -52     -156 
    -246     -286     -279     -248     -206     -184     -202     -221 
    -199     -135      -60      -27      -43      -79     -121     -166 
    -229     -326     -432     -517     -575     -610     -646     -704 
    -769     -826     -870     -892     -886     -857     -805     -753 
    -696     -629     -576     -537     -508     -492     -486     -495 
    -545     -653     -796     -935    -1043    -1109    -1131    -1120 
   -1107    -1113    -1127    -1101    -1026     -926     -812     -688 
    -573     -473     -387     -319     -259     -205     -176     -163 
    -152     -129      -97      -70      -65      -79     -101     -109 
    -114     -135     -155     -159     -151     -129     -109     -114 
    -144     -190     -234     -268     -297     -319     -342     -379 
    -437     -506     -571     -629     -689     -758     -801     -801 
    -788     -778     -777     -801     -846     -911     -986    -1026 
   -1021     -992     -945     -888     -842     -824     -822     -796 
    -739     -679     -625     -565     -493     -423     -368     -321 
    -282     -275     -289     -284     -259     -249     -256     -256 
    -259     -288     -342     -403     -464     -544     -629     -696 
    -745     -793     -827     -820     -784     -751     -727     -704 
    -685     -684     -685     -660     -619     -588     -592     -623 
    -648     -653     -635     -587     -503     -388     -279     -193 
    -126     -112     -168     -282     -419     -553     -675     -784 
    -870     -915     -909     -882     -838     -772     -699     -626 
    -540     -445     -357     -292     -237     -184     -125      -58 
       5       63      102      125      129      112       76       29 
     -40     -131     -236     -337     -423     -506     -596     -681 
    -749     -791     -808     -807     -784     -735     -666     -596 
    -526     -449     -376     -324     -298     -306     -351     -398 
    -422     -438     -471     -523     -591     -666     -733     -788 
    -851     -907     -931     -926     -899     -857     -814     -774 
    -730     -665     -595     -537     -487     -449     -427     -427 
    -453     -493     -542     -607     -700     -807     -897     -943 
    -947     -915     -854     -803     -760     -691     -610     -553 
    -521     -493     -454     -383     -291     -211     -163     -153 
    -182     -216     -244     -282     -344     -429     -513     -571 
    -600     -627     -673     -730     -764     -757     -704     -612 
    -499     -372     -252     -149      -64        8       81      149 
     195      206      174      105       22      -72     -170     -243 
    -286     -319     -356     -398     -438     -496     -572     -648 
    -715     -791     -862     -907     -901     -835     -758     -715 
    -691     -654     -600     -526     -460     -402     -349     -311 
    -289     -278     -276     -305     -380     -493     -621     -733 
    -824     -923    -1043    -1158    -1242    -1285    -1291    -1279 
   -1254    -1215    -1156    -1067     -953     -831     -712     -599 
    -488     -387     -310     -255     -214     -195     -187     -147 
     -72       -1       49       83       98      101      117      144 
     157      137       97       52        5      -44      -98     -163 
    -253     -372     -495     -588     -654     -693     -704     -689 
    -654     -602     -556     -531     -522     -526     -548     -581 
    -622     -664     -715     -807     -918    -1038    -1147    -1198 
   -1196    -1173    -1135    -1084    -1034     -981     -912     -837 
    -760     -677     -589     -511     -441     -378     -333     -303 
    -298     -337     -399     -442     -464     -468     -444     -402 
    -355     -305     -246     -187     -156     -157     -180     -211 
    -229     -225     -210     -187     -167     -140      -98      -89 
    -135     -198     -238     -240     -201     -147     -112     -106 
    -129     -166     -183     -182     -172     -166     -178     -220 
    -292     -410     -576     -774     -965    -1102    -1183    -1210 
   -1193    -1166    -1131    -1065     -958     -845     -764     -731 
    -738     -757     -766     -758     -746     -757     -797     -845 
    -900     -982    -1070    -1142    -1189    -1183    -1120    -1016 
    -868     -683     -481     -265      -32      176      329      411 
     433      419      392      346      279      174       29     -117 
    -240     -332     -402     -441     -438     -409     -390     -414 
    -488     -604     -728     -838     -929    -1000    -1051    -1071 
   -1065    -1044     -992     -909     -803     -679     -560     -483 
    -468     -511     -587     -666     -722     -747     -745     -730 
    -715     -700     -688     -687     -684     -665     -638     -618 
    -596     -540     -445     -340     -245     -167     -126     -140 
    -182     -225     -284     -361     -429     -469     -480     -464 
    -451     -437     -411     -382     -353     -325     -294     -261 
    -243     -225     -189     -121      -41       17       32       -8 
     -94     -209     -359     -537     -720     -918    -1127    -1318 
   -1447    -1493    -1452    -1343    -1205    -1085     -999     -931 
    -872     -831     -805     -751     -638     -490     -355     -217 
     -58       90      222      364      504      611      677      699 
     688      653      576      480      382      276      178      103 
      27      -51     -117     -170     -216     -252     -297     -359 
    -427     -492     -544     -568     -575     -585     -616     -662 
    -699     -714     -715     -724     -743     -751     -758     -800 
    -876     -950    -1016    -1086    -1171    -1277    -1375    -1435 
   -1452    -1437    -1405    -1360    -1285    -1179    -1050     -905 
    -762     -602     -434     -301     -220     -178     -174     -198 
    -244     -305     -370     -438     -514     -576     -610     -641 
    -684     -728     -773     -810     -822     -812     -788     -738 
    -672     -600     -515     -441     -405     -378     -329     -263 
    -178      -83        5       81      122      112       76       43 
      14      -22      -72     -133     -198     -263     -341     -419 
    -472     -492     -498     -504     -506     -491     -457     -415 
    -391     -394     -403     -411     -419     -434     -461     -488 
    -499     -495     -492     -495     -487     -464     -440     -425 
    -432     -479     -568     -684     -791     -868     -913     -939 
    -959     -970     -965     -951     -942     -953     -999    -1071 
   -1146    -1193    -1198    -1156    -1053     -903     -754     -611 
    -456     -295     -137       18      178      349      526      668 
     749      784      757      675      565      427      256       54 
    -153     -334     -477     -592     -711     -832     -929     -992 
   -1023    -1021    -1009    -1011    -1019    -1021    -1030    -1034 
   -1015     -972     -911     -857     -823     -807     -789     -769 
    -749     -730     -707     -696     -715     -756     -804     -877 
    -969    -1042    -1093    -1142    -1196    -1255    -1297    -1312 
   -1308    -1287    -1262    -1252    -1254    -1262    -1266    -1236 
   -1165    -1062     -942     -815     -680     -553     -459     -387 
    -319     -271     -249     -238     -237     -241     -248     -263 
    -284     -311     -364     -437     -526     -625     -681     -685 
    -661     -622     -581     -529     -436     -307     -174      -44 
      78      187      279      340      383      422      419      360 
     276      178       78      -10      -86     -141     -195     -268 
    -348     -421     -490     -561     -633     -693     -741     -785 
    -810     -796     -746     -679     -600     -508     -430     -376 
    -326     -263     -183     -108      -63      -67     -121     -190 
    -261     -359     -498     -662     -824     -962    -1071    -1148 
   -1185    -1179    -1139    -1075     -996     -908     -834     -778 
    -731     -688     -648     -611     -591     -594     -595     -562 
    -499     -419     -321     -229     -162     -122     -117     -137 
    -157     -176     -206     -232     -240     -238     -236     -230 
    -189     -106      -27       40      105      172      256      338 
     414      515      627      719      791      823      818      803 
     776      726      657      561      450      344      236      114 
       5      -97     -209     -305     -355     -364     -359     -356 
    -359     -375     -391     -398     -402     -405     -427     -495 
    -594     -697     -793     -868     -923     -967     -996    -1011 
   -1023    -1024    -1008     -965     -889     -800     -700     -591 
    -508     -463     -437     -433     -450     -463     -453     -441 
    -441     -456     -479     -493     -508     -523     -515     -476 
    -410     -344     -322     -332     -363     -421     -480     -522 
    -566     -614     -654     -688     -706     -706     -692     -664 
    -633     -635     -672     -711     -738     -749     -757     -766 
    -766     -760     -751     -743     -753     -804     -897     -996 
   -1073    -1139    -1193    -1233    -1263    -1275    -1282    -1306 
   -1345    -1398    -1444    -1459    -1457    -1449    -1418    -1360 
   -1274    -1151    -1011     -884     -770     -677     -608     -569 
    -566     -583     -614     -657     -693     -724     -758     -774 
    -761     -724     -696     -697     -730     -780     -827     -855 
    -868     -880     -876     -849     -810     -750     -689     -646 
    -614     -598     -594     -587     -585     -595     -603     -603 
    -585     -552     -517     -486     -469     -461     -450     -434 
    -403     -369     -342     -325     -329     -352     -387     -429 
    -448     -433     -407     -380     -364     -370     -400     -440 
    -464     -468     -471     -487     -515     -553     -602     -638 
    -656     -664     -669     -685     -715     -754     -800     -837 
    -857     -870     -866     -826     -762     -684     -598     -515 
    -437     -353     -268     -202     -171     -162     -166     -189 
    -218     -251     -280     -295     -301     -309     -326     -356 
    -388     -418     -429     -407     -357     -292     -229     -182 
    -157     -151     -156     -152     -137     -129     -133     -129 
    -129     -156     -198     -225     -249     -276     -299     -319 
    -341     -361     -382     -392     -388     -367     -325     -266 
    -197     -124      -59       -1       39       60       74       74 
      63       45       17      -13      -39      -56      -68      -91 
    -129     -166     -207     -244     -263     -278     -287     -275 
    -245     -210     -176     -155     -156     -174     -194     -198 
    -189     -170     -131      -81      -41      -22      -25      -59 
    -128     -225     -346     -476     -602     -715     -820     -911 
    -973    -1005    -1026    -1048    -1081    -1138    -1210    -1302 
   -1402    -1490    -1561    -1622    -1667    -1683    -1648    -1574 
   -1478    -1363    -1235    -1105     -977     -849     -715     -569 
    -427     -297     -172      -62       47      156      253      324 
     351      328      266      184       82      -32     -144     -249 
    -334     -392     -430     -460     -487     -502     -506     -518 
    -548     -588     -638     -697     -769     -845     -919     -997 
   -1081    -1173    -1255    -1302    -1305    -1274    -1230    -1196 
   -1182    -1182    -1177    -1182    -1217    -1255    -1275    -1279 
   -1277    -1275    -1271    -1277    -1291    -1304    -1314    -1327 
   -1327    -1304    -1259    -1194    -1125    -1053     -966     -864 
    -737     -587     -422     -253     -101       23      128      211 
     271      325      388      457      523      584      629      637 
     598      518      417      319      244      198      170      140 
      91       45       35       56       70       68       55       25 
      -2      -17      -22      -16       -8      -10      -20      -28 
     -40      -54      -78     -117     -156     -189     -221     -263 
    -328     -414     -517     -615     -685     -737     -800     -866 
    -928     -994    -1070    -1163    -1264    -1350    -1414    -1452 
   -1443    -1399    -1343    -1277    -1198    -1119    -1048     -985 
    -908     -816     -728     -642     -550     -446     -341     -245 
    -155      -56       35       91      114      122      126      118 
      91       49       -4      -75     -151     -220     -284     -342 
    -402     -472     -548     -614     -662     -695     -715     -722 
    -702     -661     -618     -585     -572     -584     -630     -702 
    -787     -880     -963    -1032    -1092    -1140    -1174    -1189 
   -1179    -1161    -1140    -1104    -1063    -1034    -1007     -984 
    -978     -977     -970     -947     -911     -869     -805     -700 
    -571     -433     -280     -133       -4      106      199      287 
     361      415      471      535      602      665      720      756 
     783      793      785      764      714      630      531      430 
     334      256      183      106       28      -62     -168     -263 
    -348     -427     -495     -552     -612     -677     -728     -741 
    -737     -741     -757     -784     -841     -926    -1004    -1053 
   -1080    -1096    -1097    -1084    -1062    -1028     -990     -954 
    -918     -882     -850     -803     -741     -697     -683     -669 
    -642     -600     -522     -419     -325     -251     -187     -128 
     -67       -9       49      112      170      222      282      322 
     333      328      306      274      237      189      135       65 
     -28     -133     -229     -314     -414     -531     -649     -764 
    -884    -1000    -1100    -1177    -1232    -1270    -1302    -1341 
   -1399    -1470    -1528    -1567    -1580    -1570    -1525    -1452 
   -1363    -1258    -1142    -1020     -892     -769     -680     -625 
    -589     -568     -569     -592     -633     -697     -770     -823 
