Origin Time       2019/08/04 19:23:00
Lat.              37.707
Long.             141.632
Depth. (km)       45
Mag.              6.4
Station Code      CHB027
Station Lat.      35.1810
Station Long.     140.2655
Station Height(m) -9999
Record Time       2019/08/04 19:24:34
Sampling Freq(Hz) 100Hz
Duration Time(s)  61
Dir.              E-W
Scale Factor      7845(gal)/8223790
Max. Acc. (gal)   1.159
Last Correction   2019/08/04 19:24:35
Memo.             
[...]
    -850     -815     -789     -783     -770     -733     -699     -691 
    -702     -737     -769     -760     -714     -654     -600     -575 
    -587     -612     -641     -691     -745     -772     -770     -738 
    -692     -652     -607     -569     -564     -591     -631     -673 
    -722     -772     -799     -796     -774     -764     -777     -799 
    -823     -857     -888     -929    -1003    -1051    -1046    -1023 
    -999     -982     -986     -987     -972     -962     -967     -982 
    -996     -999     -984     -950     -918     -912     -919     -920 
    -919     -903     -881     -861     -838     -810     -762     -719 
    -696     -692     -711     -751     -805     -861     -900     -926 
    -936     -945     -954     -974    -1015    -1065    -1100    -1107 
   -1090    -1058    -1013     -955     -877     -803     -767     -787 
    -846     -934    -1011    -1035    -1017    -1000     -987     -940 
    -870     -816     -778     -770     -808     -847     -864     -882 
    -923     -967    -1003    -1023    -1016     -996     -987     -986 
    -982     -978     -951     -897     -846     -810     -792     -797 
    -800     -787     -772     -758     -746     -745     -726     -677 
    -625     -589     -591     -637     -696     -734     -753     -754 
    -737     -714     -679     -614     -537     -471     -434     -442 
    -490     -553     -622     -680     -730     -784     -824     -823 
    -822     -869     -928     -957     -962     -965     -976     -999 
   -1034    -1069    -1094    -1119    -1154    -1197    -1229    -1227 
   -1185    -1129    -1080    -1060    -1074    -1102    -1139    -1192 
   -1232    -1225    -1183    -1143    -1111    -1085    -1059    -1024 
    -992     -980     -980     -974     -966     -967     -974     -997 
   -1026    -1017     -986     -978     -980     -973     -958     -920 
    -869     -818     -770     -741     -720     -689     -662     -664 
    -702     -773     -854     -931    -1000    -1065    -1115    -1123 
   -1097    -1063    -1032     -987     -900     -767     -643     -573 
    -546     -533     -514     -476     -422     -383     -370     -380 
    -402     -430     -464     -500     -531     -561     -585     -599 
    -607     -631     -677     -726     -781     -854     -934    -1013 
   -1092    -1146    -1146    -1093    -1012     -936     -907     -928 
    -959     -989    -1015    -1023    -1011     -972     -901     -830 
    -787     -767     -760     -756     -756     -778     -828     -880 
    -909     -926     -939     -962     -997    -1023    -1036    -1060 
   -1094    -1121    -1154    -1166    -1121    -1047     -966     -877 
    -789     -710     -668     -665     -670     -680     -702     -731 
    -777     -837     -876     -874     -857     -847     -847     -845 
    -832     -818     -801     -774     -747     -730     -723     -741 
    -772     -772     -756     -758     -762     -743     -735     -767 
    -835     -926    -1026    -1120    -1177    -1185    -1158    -1089 
    -977     -861     -784     -745     -722     -723     -743     -761 
    -770     -780     -797     -814     -812     -811     -830     -864 
    -909     -945     -963     -966     -931     -843     -718     -591 
    -490     -410     -329     -249     -225     -276     -365     -456 
    -523     -569     -625     -685     -704     -677     -633     -627 
    -689     -760     -781     -758     -700     -638     -608     -583 
    -523     -477     -495     -562     -665     -796     -913     -965 
    -955     -920     -873     -820     -769     -722     -669     -622 
    -606     -622     -672     -765     -866     -932     -985    -1053 
   -1135    -1217    -1285    -1327    -1347    -1355    -1347    -1318 
   -1263    -1178    -1081     -989     -893     -793     -731     -731 
    -776     -826     -846     -832     -812     -822     -841     -824 
    -797     -808     -854     -916     -969     -992    -1019    -1085 
   -1158    -1192    -1175    -1140    -1116    -1107    -1119    -1135 
   -1154    -1182    -1210    -1220    -1206    -1175    -1136    -1093 
   -1032     -936     -827     -726     -652     -621     -618     -615 
    -585     -533     -492     -484     -510     -552     -604     -688 
    -804     -926    -1038    -1107    -1109    -1080    -1065    -1069 
   -1067    -1039    -1011    -1016    -1046    -1065    -1073    -1078 
   -1071    -1048    -1042    -1062    -1092    -1125    -1146    -1143 
   -1125    -1088    -1019     -924     -810     -702     -650     -633 
    -600     -553     -531     -550     -596     -645     -672     -675 
    -675     -700     -761     -834     -885     -916     -940     -972 
   -1019    -1070    -1098    -1100    -1080    -1035     -980     -940 
    -932     -945     -974    -1008    -1028    -1051    -1096    -1133 
   -1144    -1132    -1097    -1026     -916     -772     -627     -525 
    -476     -488     -564     -679     -796     -876     -927     -990 
   -1071    -1143    -1183    -1177    -1146    -1127    -1124    -1123 
   -1107    -1058     -972     -869     -788     -745     -723     -711 
    -699     -673     -634     -600     -600     -622     -614     -591 
    -602     -634     -676     -731     -764     -731     -664     -607 
    -575     -573     -584     -583     -612     -708     -849    -1000 
   -1120    -1181    -1217    -1254    -1291    -1313    -1289    -1243 
   -1217    -1236    -1279    -1289    -1251    -1181    -1094    -1007 
    -924     -855     -812     -788     -797     -842     -893     -928 
    -940     -923     -895     -855     -789     -719     -702     -735 
    -785     -830     -861     -877     -892     -911     -928     -928 
    -915     -915     -949    -1000    -1036    -1053    -1078    -1098 
   -1089    -1053     -993     -912     -843     -818     -822     -815 
    -795     -774     -753     -727     -718     -735     -783     -854 
    -942    -1039    -1127    -1181    -1198    -1200    -1192    -1174 
   -1155    -1131    -1104    -1073    -1023     -959     -899     -868 
    -885     -915     -903     -864     -843     -857     -886     -916 
    -935     -945     -946     -924     -882     -845     -826     -812 
    -776     -719     -670     -657     -684     -720     -733     -702 
    -618     -518     -456     -451     -484     -522     -546     -576 
    -638     -724     -791     -818     -805     -783     -764     -741 
    -697     -625     -564     -564     -602     -654     -722     -753 
    -708     -626     -583     -598     -638     -669     -695     -739 
    -826     -940    -1032    -1084    -1138    -1190    -1215    -1221 
   -1208    -1163    -1120    -1113    -1120    -1127    -1144    -1178 
   -1208    -1197    -1146    -1089    -1042    -1017    -1021    -1028 
   -1048    -1107    -1183    -1233    -1235    -1185    -1107    -1024 
    -951     -890     -832     -787     -766     -738     -675     -591 
    -514     -464     -450     -460     -488     -533     -581     -630 
    -672     -695     -700     -693     -666     -614     -552     -499 
    -468     -480     -558     -669     -762     -834     -922    -1026 
   -1113    -1155    -1162    -1143    -1101    -1046     -982     -916 
    -861     -828     -807     -776     -739     -722     -727     -754 
    -803     -870     -938     -980     -981     -942     -881     -834 
    -803     -773     -738     -728     -765     -819     -870     -916 
    -932     -912     -884     -846     -810     -810     -846     -892 
    -922     -909     -868     -826     -799     -780     -757     -731 
    -712     -719     -766     -834     -877     -870     -847     -845 
    -861     -893     -943     -996    -1050    -1117    -1200    -1275 
   -1317    -1339    -1360    -1375    -1385    -1389    -1378    -1359 
   -1313    -1236    -1173    -1144    -1100    -1020     -926     -835 
    -778     -762     -746     -700     -629     -579     -592     -672 
    -789     -913    -1017    -1092    -1140    -1163    -1138    -1047 
    -926     -805     -696     -621     -592     -591     -599     -621 
    -652     -683     -699     -724     -788     -870     -935     -959 
    -939     -884     -797     -708     -635     -572     -499     -432 
    -410     -440     -481     -506     -519     -537     -577     -637 
    -700     -757     -815     -880     -934     -972     -986     -972 
    -929     -877     -841     -814     -772     -712     -633     -546 
    -493     -487     -503     -537     -595     -676     -769     -847 
    -901     -931     -939     -932     -903     -853     -828     -831 
    -838     -858     -903     -972    -1053    -1132    -1179    -1198 
   -1220    -1254    -1291    -1324    -1321    -1260    -1170    -1088 
   -1026     -972     -877     -756     -664     -639     -665     -680 
    -641     -569     -515     -486     -471     -440     -370     -313 
    -334     -419     -514     -594     -660     -723     -803     -895 
    -970    -1030    -1093    -1156    -1215    -1250    -1252    -1256 
   -1269    -1260    -1223    -1165    -1104    -1057    -1019     -969 
    -900     -827     -760     -693     -622     -537     -454     -410 
    -421     -476     -535     -572     -622     -715     -835     -943 
   -1013    -1026    -1004     -987     -994    -1030    -1098    -1179 
   -1229    -1242    -1233    -1196    -1139    -1097    -1077    -1090 
   -1146    -1204    -1236    -1230    -1197    -1155    -1117    -1097 
   -1088    -1060     -999     -919     -841     -785     -735     -668 
    -600     -568     -576     -599     -606     -604     -599     -584 
    -569     -553     -522     -464     -383     -279     -197     -178 
    -207     -251     -276     -284     -314     -392     -519     -687 
    -849     -965    -1042    -1096    -1135    -1148    -1135    -1107 
   -1070    -1051    -1086    -1169    -1262    -1313    -1296    -1240 
   -1196    -1167    -1147    -1120    -1089    -1069    -1062    -1065 
   -1058    -1020     -970     -940     -940     -953     -966     -982 
    -997    -1005    -1012    -1038    -1081    -1132    -1170    -1201 
   -1235    -1264    -1274    -1256    -1219    -1177    -1158    -1159 
   -1167    -1182    -1185    -1174    -1162    -1135    -1065     -958 
    -864     -823     -818     -815     -805     -777     -733     -702 
    -689     -673     -646     -626     -622     -614     -588     -542 
    -477     -398     -313     -225     -137      -47       23       58 
      23      -68     -186     -294     -380     -442     -496     -560 
    -626     -664     -650     -595     -530     -487     -471     -472 
    -479     -488     -502     -540     -604     -665     -704     -734 
    -764     -811     -886     -981    -1071    -1161    -1274    -1424 
   -1587    -1729    -1822    -1877    -1922    -1965    -2011    -2050 
   -2052    -2016    -1966    -1899    -1813    -1714    -1602    -1490 
   -1402    -1340    -1285    -1224    -1146    -1047     -957     -886 
    -808     -715     -633     -568     -537     -548     -579     -607 
    -649     -730     -827     -909     -974    -1031    -1093    -1171 
   -1263    -1337    -1378    -1393    -1375    -1304    -1200    -1094 
    -996     -905     -822     -750     -720     -746     -801     -858 
    -896     -907     -916     -943     -965     -962     -951     -945 
    -940     -942     -969    -1021    -1063    -1065    -1046    -1026 
   -1015    -1009     -982     -919     -855     -804     -754     -708 
    -672     -631     -600     -596     -608     -629     -658     -693 
    -749     -845     -973    -1113    -1250    -1370    -1476    -1571 
   -1636    -1664    -1661    -1618    -1545    -1468    -1393    -1310 
   -1228    -1151    -1075    -1007     -974     -994    -1046    -1085 
   -1089    -1065    -1023     -972     -927     -886     -824     -746 
    -664     -569     -448     -291      -98       97      244      302 
     278      209      110      -14     -148     -292     -445     -572 
    -657     -712     -754     -785     -814     -843     -882     -932 
    -980    -1009    -1023    -1011     -977     -932     -877     -814 
    -761     -719     -672     -623     -595     -592     -607     -615 
    -594     -556     -503     -432     -365     -333     -340     -400 
    -496     -579     -634     -681     -741     -792     -785     -718 
    -652     -635     -657     -684     -712     -749     -812     -924 
   -1038    -1101    -1123    -1133    -1138    -1131    -1109    -1093 
   -1111    -1148    -1179    -1196    -1190    -1165    -1140    -1135 
   -1138    -1146    -1158    -1156    -1147    -1139    -1109    -1050 
    -965     -853     -757     -699     -643     -566     -460     -325 
    -210     -156     -153     -180     -224     -282     -361     -441 
    -491     -508     -490     -436     -370     -318     -282     -257 
    -225     -199     -206     -236     -263     -282     -298     -332 
    -399     -503     -608     -688     -767     -855     -935    -1004 
   -1043    -1035    -1005     -962     -923     -928     -980    -1062 
   -1170    -1264    -1310    -1331    -1344    -1354    -1362    -1344 
   -1289    -1220    -1135    -1031     -932     -847     -767     -702 
    -649     -591     -517     -417     -286     -149      -41       29 
      65       56      -13     -153     -346     -529     -660     -770 
    -899    -1043    -1179    -1279    -1355    -1431    -1530    -1657 
   -1798    -1914    -1993    -2053    -2083    -2083    -2062    -2014 
   -1935    -1838    -1705    -1541    -1402    -1321    -1287    -1282 
   -1262    -1198    -1115    -1039     -955     -851     -747     -661 
    -598     -566     -566     -587     -616     -656     -696     -715 
    -720     -730     -734     -724     -710     -684     -653     -622 
    -585     -542     -503     -473     -459     -460     -468     -461 
    -436     -429     -456     -498     -562     -650     -737     -819 
    -913    -1005    -1062    -1080    -1071    -1044    -1021    -1003 
    -959     -880     -796     -741     -727     -743     -774     -796 
    -793     -783     -793     -819     -838     -861     -864     -838 
    -815     -826     -866     -903     -908     -903     -928     -994 
   -1094    -1183    -1229    -1242    -1252    -1275    -1296    -1298 
   -1290    -1279    -1275    -1289    -1301    -1282    -1224    -1129 
   -1024     -940     -877     -803     -702     -603     -529     -490 
    -479     -493     -542     -626     -735     -851     -951    -1012 
   -1039    -1065    -1107    -1156    -1201    -1230    -1229    -1192 
   -1125    -1051     -973     -900     -846     -800     -749     -700 
    -662     -627     -585     -533     -481     -450     -454     -484 
    -535     -625     -743     -893    -1071    -1254    -1428    -1579 
   -1691    -1763    -1790    -1781    -1744    -1664    -1553    -1426 
   -1291    -1167    -1069    -1000     -958     -922     -881     -847 
    -828     -795     -728     -657     -611     -592     -573     -540 
    -506     -475     -436     -388     -340     -319     -346     -403 
    -484     -588     -696     -800     -889     -943     -972     -997 
   -1009    -1015    -1016     -993     -942     -877     -812     -762 
    -739     -715     -673     -633     -616     -621     -623     -608 
    -584     -557     -526     -500     -476     -449     -409     -352 
    -292     -246     -229     -238     -248     -255     -280     -321 
    -368     -437     -518     -598     -670     -723     -745     -756 
    -776     -828     -912     -999    -1080    -1171    -1282    -1404 
   -1506    -1584    -1652    -1711    -1755    -1783    -1798    -1796 
   -1811    -1876    -1956    -2011    -2026    -1984    -1907    -1829 
   -1741    -1624    -1497    -1394    -1331    -1300    -1306    -1340 
   -1382    -1426    -1451    -1422    -1337    -1233    -1144    -1081 
   -1038     -985     -907     -824     -761     -715     -676     -625 
    -550     -475     -425     -403     -379     -338     -318     -356 
    -446     -557     -664     -753     -834     -922     -990    -1011 
    -984     -936     -913     -946    -1030    -1142    -1260    -1385 
   -1506    -1606    -1671    -1687    -1663    -1610    -1539    -1464 
   -1420    -1417    -1443    -1472    -1493    -1489    -1449    -1386 
   -1316    -1248    -1190    -1146    -1116    -1092    -1065    -1024 
    -950     -855     -757     -660     -575     -515     -477     -448 
    -433     -448     -486     -517     -511     -467     -419     -383 
    -365     -364     -357     -338     -344     -388     -457     -535 
    -589     -599     -589     -576     -552     -532     -544     -588 
    -650     -714     -762     -791     -807     -820     -824     -808 
    -769     -726     -695     -669     -635     -598     -553     -498 
    -449     -415     -380     -334     -272     -209     -163     -139 
    -144     -178     -197     -182     -155     -124      -97      -99 
    -133     -174     -211     -255     -311     -372     -418     -461 
    -498     -514     -529     -553     -568     -579     -625     -715 
    -826     -932    -1023    -1096    -1148    -1182    -1197    -1194 
   -1178    -1152    -1123    -1101    -1086    -1077    -1069    -1032 
    -955     -877     -826     -804     -814     -831     -837     -832 
    -831     -837     -847     -864     -893     -931     -942     -901 
    -826     -746     -683     -641     -610     -579     -552     -535 
    -525     -518     -508     -488     -460     -433     -406     -383 
    -370     -380     -430     -506     -576     -633     -700     -783 
    -873     -954    -1013    -1053    -1089    -1128    -1192    -1274 
   -1334    -1363    -1358    -1321    -1278    -1233    -1174    -1104 
   -1030     -949     -890     -876     -888     -918     -963    -1005 
   -1026    -1035    -1042    -1055    -1070    -1059    -1012     -949 
    -880     -812     -764     -727     -702     -707     -737     -764 
    -799     -842     -884     -931     -981    -1015    -1035    -1038 
   -1032    -1039    -1047    -1032    -1000     -947     -866     -780 
    -715     -681     -672     -677     -685     -681     -665     -653 
    -641     -614     -583     -557     -533     -530     -550     -571 
    -587     -591     -577     -564     -556     -548     -545     -550 
    -553     -569     -610     -658     -710     -764     -815     -877 
    -959    -1057    -1161    -1243    -1298    -1343    -1391    -1435 
   -1457    -1441    -1389    -1332    -1289    -1250    -1209    -1161 
   -1107    -1075    -1080    -1102    -1123    -1125    -1105    -1084 
   -1073    -1058    -1026     -973     -912     -853     -795     -734 
    -669     -603     -545     -492     -438     -403     -415     -461 
    -514     -558     -606     -680     -772     -854     -918     -967 
   -1021    -1098    -1179    -1228    -1237    -1225    -1210    -1194 
   -1177    -1154    -1125    -1090    -1039     -989     -954     -915 
    -859     -804     -750     -714     -700     -700     -706     -728 
    -765     -804     -847     -877     -892     -903     -919     -928 
    -949     -987    -1039    -1120    -1242    -1382    -1503    -1588 
   -1634    -1648    -1628    -1598    -1584    -1588    -1598    -1595 
