Origin Time       2019/08/04 19:23:00
Lat.              37.707
Long.             141.632
Depth. (km)       45
Mag.              6.4
Station Code      CHB027
Station Lat.      35.1810
Station Long.     140.2655
Station Height(m) -9999
Record Time       2019/08/04 19:24:34
Sampling Freq(Hz) 100Hz
Duration Time(s)  61
Dir.              U-D
Scale Factor      7845(gal)/8223790
Max. Acc. (gal)   0.683
Last Correction   2019/08/04 19:24:35
Memo.             
[...]
   16908    16885    16854    16799    16722    16667    16668    16684 
   16692    16730    16806    16865    16863    16849    16899    17010 
   17124    17193    17196    17185    17201    17212    17196    17147 
   17077    17057    17107    17159    17165    17127    17090    17076 
   17035    16961    16922    16935    17001    17107    17174    17167 
   17130    17093    17058    17031    17012    16998    16991    16974 
   16961    16972    16974    16922    16834    16773    16725    16675 
   16671    16696    16695    16690    16721    16796    16892    16965 
   17004    17064    17151    17255    17362    17412    17381    17321 
   17265    17221    17202    17201    17208    17224    17242    17254 
   17230    17145    17023    16915    16852    16837    16863    16929 
   17024    17112    17140    17111    17072    17043    16992    16906 
   16842    16845    16857    16829    16791    16794    16833    16902 
   16984    17038    17046    17044    17061    17089    17118    17142 
   17166    17201    17235    17225    17185    17158    17146    17130 
   17084    17015    17004    17109    17258    17373    17464    17555 
   17614    17632    17631    17628    17620    17601    17577    17551 
   17497    17432    17415    17420    17400    17370    17332    17277 
   17212    17142    17084    17047    17038    17069    17098    17098 
   17098    17124    17147    17118    17012    16862    16708    16573 
   16497    16494    16536    16615    16723    16812    16860    16903 
   16969    17034    17058    17081    17158    17262    17305    17270 
   17228    17238    17265    17271    17253    17220    17162    17049 
   16888    16760    16705    16699    16698    16691    16700    16777 
   16918    17043    17061    17021    17032    17097    17145    17147 
   17130    17145    17181    17201    17230    17290    17347    17356 
   17339    17359    17388    17328    17202    17142    17174    17212 
   17207    17178    17146    17111    17097    17100    17090    17058 
   17008    16949    16915    16943    17008    17034    16995    16968 
   17010    17104    17201    17300    17416    17509    17545    17562 
   17595    17616    17598    17555    17513    17469    17406    17343 
   17304    17290    17288    17273    17244    17211    17159    17104 
   17070    17041    17012    16989    16961    16918    16845    16748 
   16659    16610    16603    16588    16551    16515    16490    16494 
   16549    16627    16694    16761    16849    16929    16957    16938 
   16920    16941    16988    17041    17103    17169    17216    17246 
   17248    17213    17169    17162    17204    17232    17189    17111 
   17067    17064    17055    17014    16968    16984    17044    17064 
   17054    17064    17050    16995    16952    16952    16992    17050 
   17089    17116    17146    17157    17139    17100    17061    17047 
   17038    17018    17007    17024    17066    17113    17165    17228 
   17275    17273    17258    17267    17280    17292    17309    17311 
   17289    17236    17178    17145    17092    16997    16935    16929 
   16923    16903    16906    16961    17047    17111    17123    17107 
   17120    17173    17231    17232    17167    17086    17026    17011 
   17037    17018    16938    16883    16897    16935    16951    16943 
   16938    16949    16961    16965    16972    16989    17020    17057 
   17089    17120    17131    17119    17123    17145    17154    17147 
   17123    17092    17093    17135    17165    17143    17101    17098 
   17142    17201    17246    17262    17265    17285    17316    17336 
   17343    17363    17421    17506    17591    17649    17640    17555 
   17454    17365    17294    17261    17262    17262    17244    17220 
   17202    17201    17193    17155    17098    17038    16995    16995 
   17018    17041    17064    17076    17058    17014    16961    16915 
   16880    16880    16900    16895    16863    16860    16895    16941 
   16975    16988    16984    16972    16952    16937    16915    16903 
   16938    17004    17034    17027    17070    17189    17288    17301 
   17278    17257    17228    17208    17212    17209    17173    17124 
   17107    17122    17150    17172    17181    17196    17234    17290 
   17323    17308    17284    17298    17332    17351    17371    17408 
   17429    17408    17346    17271    17204    17139    17097    17096 
   17120    17155    17166    17134    17098    17095    17111    17139 
   17163    17158    17135    17130    17155    17196    17230    17263 
   17278    17243    17185    17155    17147    17135    17130    17151 
   17196    17234    17242    17207    17139    17069    17015    16978 
   16946    16923    16932    16952    16951    16937    16935    16937 
   16915    16902    16926    16958    16972    16988    17008    17050 
   17135    17225    17266    17243    17201    17190    17201    17201 
   17190    17192    17221    17262    17282    17268    17234    17186 
   17120    17023    16906    16814    16767    16750    16779    16829 
   16869    16918    17000    17100    17178    17189    17155    17142 
   17150    17136    17098    17073    17093    17150    17201    17223 
   17246    17286    17308    17271    17207    17184    17185    17136 
   17050    16987    16949    16908    16848    16785    16742    16722 
   16703    16672    16654    16649    16648    16664    16704    16771 
   16857    16934    17001    17067    17104    17107    17112    17127 
   17135    17132    17126    17145    17209    17288    17342    17365 
   17338    17266    17194    17145    17112    17098    17090    17081 
   17078    17080    17086    17070    17014    16949    16915    16903 
   16899    16923    16980    17032    17061    17080    17081    17054 
   17004    16949    16899    16857    16833    16822    16811    16814 
   16831    16843    16863    16892    16885    16849    16834    16829 
   16819    16802    16791    16800    16812    16825    16865    16934 
   16997    17038    17078    17132    17189    17227    17244    17232 
   17174    17098    17067    17073    17064    17027    16989    16969 
   16972    16984    16992    16987    16972    16987    17023    17034 
   17010    16980    16965    16966    16984    17026    17077    17128 
   17155    17147    17127    17122    17131    17136    17104    17047 
   17015    17046    17109    17169    17215    17255    17293    17307 
   17285    17238    17172    17104    17055    17026    16984    16946 
   16934    16929    16909    16911    16972    17027    17024    17011 
   17058    17146    17202    17197    17153    17119    17115    17123 
   17126    17143    17165    17167    17170    17184    17185    17167 
   17151    17170    17240    17309    17343    17370    17396    17386 
   17347    17324    17354    17412    17443    17431    17412    17413 
   17427    17443    17459    17463    17454    17428    17389    17350 
   17317    17282    17232    17190    17188    17200    17194    17193 
   17201    17184    17132    17087    17066    17053    17038    17024 
   17011    16997    16974    16945    16929    16935    16965    17007 
   17041    17076    17120    17159    17163    17116    17076    17104 
   17170    17208    17207    17192    17180    17157    17136    17154 
   17181    17173    17157    17165    17193    17220    17253    17289 
   17308    17308    17313    17317    17296    17257    17230    17208 
   17185    17170    17147    17136    17162    17166    17139    17131 
   17142    17135    17100    17055    17012    16972    16932    16885 
   16829    16808    16852    16943    17014    17008    16972    16980 
   17023    17050    17061    17077    17077    17031    16972    16949 
   16965    16969    16946    16918    16888    16857    16854    16857 
   16820    16757    16729    16742    16771    16796    16806    16822 
   16856    16922    17027    17134    17188    17194    17188    17170 
   17127    17061    17007    16991    17000    17011    17027    17073 
   17128    17178    17238    17285    17273    17202    17132    17096 
   17076    17054    17050    17070    17077    17055    17018    16969 
   16923    16885    16837    16783    16748    16748    16760    16764 
   16771    16786    16791    16786    16788    16783    16762    16748 
   16748    16729    16705    16698    16708    16740    16765    16761 
   16752    16771    16825    16903    16987    17047    17064    17057 
   17064    17119    17202    17242    17221    17221    17278    17340 
   17356    17313    17238    17178    17147    17103    17038    16992 
   17000    17043    17081    17113    17155    17219    17289    17339 
   17369    17383    17375    17367    17393    17459    17540    17574 
   17537    17483    17440    17392    17344    17331    17356    17396 
   17417    17415    17428    17469    17494    17501    17521    17555 
   17589    17621    17633    17616    17585    17540    17482    17416 
   17371    17354    17319    17240    17157    17100    17058    17010 
   16949    16902    16875    16857    16835    16820    16823    16834 
   16860    16902    16946    16974    16972    16960    16965    16968 
   16945    16926    16929    16941    16946    16964    16997    17018 
   16992    16945    16918    16923    16932    16941    16983    17050 
   17084    17098    17145    17221    17284    17300    17311    17367 
   17432    17452    17448    17440    17402    17321    17234    17178 
   17142    17081    17001    16941    16922    16938    16966    16992 
   17015    17027    17047    17089    17143    17192    17228    17258 
   17286    17305    17311    17309    17298    17277    17255    17257 
   17274    17297    17338    17383    17400    17400    17424    17469 
   17467    17420    17392    17382    17365    17332    17302    17290 
   17275    17239    17208    17213    17246    17265    17247    17199 
   17155    17135    17118    17081    17044    17020    17014    17026 
   17041    17047    17055    17080    17107    17112    17093    17111 
   17208    17347    17442    17469    17479    17493    17477    17424 
   17363    17316    17296    17290    17296    17311    17317    17297 
   17254    17207    17178    17185    17213    17238    17254    17267 
   17284    17284    17253    17205    17149    17077    16998    16915 
   16829    16738    16644    16576    16549    16537    16542    16563 
   16563    16552    16545    16540    16530    16522    16526    16557 
   16596    16636    16698    16779    16845    16880    16891    16900 
   16900    16869    16835    16829    16840    16840    16839    16865 
   16918    16972    17032    17104    17166    17188    17180    17159 
   17132    17116    17122    17138    17142    17130    17107    17081 
   17055    17050    17081    17112    17122    17123    17119    17098 
   17061    17011    16975    16949    16906    16879    16892    16926 
   16954    16980    17015    17054    17070    17061    17064    17087 
   17120    17151    17172    17184    17184    17159    17135    17145 
   17159    17151    17140    17143    17151    17149    17131    17112 
   17096    17055    16997    16972    16972    16942    16892    16860 
   16823    16756    16682    16634    16603    16569    16555    16575 
   16619    16657    16672    16681    16719    16789    16865    16920 
   16951    16978    17010    17031    17055    17093    17126    17158 
   17204    17254    17304    17346    17377    17413    17443    17443 
   17424    17406    17396    17394    17400    17396    17366    17316 
   17258    17193    17123    17074    17058    17050    17023    16969 
   16920    16900    16903    16902    16869    16826    16791    16765 
   16761    16799    16877    16964    17021    17058    17104    17145 
   17162    17178    17215    17255    17271    17270    17267    17263 
   17253    17225    17189    17165    17150    17123    17074    17015 
   16977    16969    16958    16926    16909    16923    16958    16995 
   17004    16977    16938    16931    16952    16968    16957    16942 
   16958    16992    17004    16984    16954    16943    16960    16989 
   17007    17012    17046    17113    17181    17244    17311    17382 
   17447    17485    17478    17435    17394    17373    17362    17352 
   17338    17329    17334    17338    17325    17280    17215    17177 
   17170    17174    17207    17265    17313    17334    17327    17301 
   17286    17293    17300    17280    17227    17166    17126    17104 
   17073    17023    16964    16906    16860    16822    16794    16786 
   16809    16835    16829    16800    16774    16754    16740    16734 
   16735    16753    16799    16854    16902    16941    16969    16984 
   16987    16984    16988    17014    17050    17084    17132    17189 
   17228    17243    17236    17204    17155    17107    17081    17104 
   17166    17232    17271    17305    17363    17416    17425    17404 
   17390    17390    17389    17377    17358    17352    17373    17377 
   17339    17285    17234    17196    17185    17186    17176    17159 
   17143    17122    17100    17086    17080    17074    17078    17086 
   17081    17078    17078    17066    17037    17000    16977    16975 
   16988    17021    17072    17101    17101    17097    17107    17130 
   17157    17180    17211    17263    17343    17437    17509    17555 
   17602    17647    17674    17698    17732    17760    17770    17766 
   17767    17775    17787    17802    17813    17806    17787    17770 
   17760    17741    17705    17667    17633    17585    17521    17471 
   17442    17400    17352    17324    17316    17308    17278    17219 
   17158    17107    17050    17003    16975    16974    16992    17003 
   16989    16949    16888    16823    16758    16690    16634    16621 
   16648    16690    16721    16742    16764    16780    16783    16773 
   16771    16802    16857    16903    16938    17004    17081    17122 
   17124    17123    17132    17136    17119    17090    17064    17050 
   17043    17035    17026    17026    17030    17027    17012    16981 
   16929    16877    16845    16837    16822    16774    16717    16690 
   16692    16687    16667    16654    16649    16654    16686    16745 
   16809    16849    16880    16929    16983    17026    17064    17089 
   17080    17024    16960    16926    16923    16942    16960    16969 
   16981    17000    17014    17004    16989    16998    17014    17004 
   16997    17031    17080    17109    17118    17118    17118    17092 
   17044    17004    16964    16938    16946    16951    16945    16946 
   16969    17015    17037    17015    16984    16975    16984    16980 
   16946    16892    16839    16808    16811    16845    16885    16920 
   16949    16958    16951    16920    16866    16833    16835    16826 
   16800    16783    16786    16811    16869    16946    17018    17090 
   17166    17240    17313    17377    17420    17437    17451    17471 
   17494    17520    17541    17562    17594    17618    17612    17587 
   17562    17535    17496    17433    17367    17327    17297    17244 
   17180    17132    17096    17037    16972    16946    16943    16949 
   16961    16974    16977    16960    16929    16926    16941    16942 
   16949    16987    17047    17122    17170    17169    17165    17176 
   17180    17169    17136    17096    17072    17064    17058    17041 
   17026    17030    17038    17046    17061    17089    17120    17142 
   17147    17159    17200    17225    17209    17184    17155    17107 
   17058    17018    16981    16954    16938    16942    16966    16995 
   17018    17030    17020    16988    16951    16952    16992    17038 
   17076    17081    17064    17064    17081    17095    17097    17080 
   17058    17050    17047    17049    17070    17093    17097    17097 
   17113    17140    17169    17205    17242    17248    17238    17236 
   17236    17230    17224    17211    17189    17173    17165    17166 
   17184    17208    17219    17200    17167    17147    17143    17140 
   17140    17150    17154    17142    17124    17118    17119    17116 
   17131    17165    17199    17224    17228    17217    17205    17180 
   17138    17107    17101    17122    17151    17173    17185    17204 
   17234    17261    17270    17274    17289    17307    17311    17315 
   17336    17374    17424    17475    17518    17564    17625    17676 
   17690    17660    17606    17556    17524    17491    17437    17375 
   17336    17321    17300    17267    17231    17189    17140    17092 
   17050    17015    16984    16960    16966    17011    17064    17086 
   17081    17055    17015    16964    16895    16817    16756    16717 
   16695    16690    16691    16694    16705    16722    16742    16767 
   16761    16727    16727    16779    16833    16869    16900    16938 
   16988    17024    17027    17018    17023    17021    17007    16997 
   16992    16987    16980    16978    16984    16992    16989    16984 
   16981    16968    16951    16949    16968    17004    17050    17092 
   17132    17184    17244    17294    17313    17298    17255    17208 
   17176    17158    17159    17188    17211    17217    17219    17202 
   17166    17122    17069    17023    16977    16923    16877    16837 
   16794    16746    16713    16695    16672    16632    16579    16544 
   16540    16556    16573    16594    16627    16660    16672    16681 
   16714    16765    16814    16849    16877    16906    16931    16957 
   16997    17038    17058    17064    17076    17093    17107    17107 
   17118    17163    17220    17259    17274    17271    17271    17288 
   17297    17285    17262    17253    17255    17251    17230    17216 
   17227    17247    17254    17255    17267    17293    17313    17309 
   17274    17242    17239    17251    17250    17232    17216    17216 
   17236    17268    17302    17329    17358    17398    17425    17413 
   17379    17343    17302    17261    17211    17151    17101    17061 
   17034    17034    17061    17093    17123    17146    17167    17189 
   17194    17182    17174    17190    17221    17247    17257    17259 
   17286    17331    17371    17402    17424    17440    17458    17462 
   17446    17419    17382    17334    17275    17208    17139    17078 
   17032    16992    16946    16889    16825    16773    16748    16733 
   16710    16703    16738    16803    16883    16961    17015    17043 
   17058    17058    17037    16992    16946    16909    16880    16849 
   16829    16814    16802    16806    16833    16862    16895    16926 
   16965    17001    17024    17038    17067    17126    17193    17250 
   17297    17342    17386    17428    17442    17429    17408    17382 
   17361    17355    17358    17350    17344    17359    17370    17363 
   17358    17359    17359    17352    17328    17292    17268    17262 
   17248    17223    17200    17181    17162    17135    17087    17030 
   16984    16946    16915    16885    16869    16869    16863    16848 
   16829    16808    16788    16754    16698    16641    16621    16638 
   16661    16686    16723    16758    16788    16820    16837    16825 
   16802    16803    16814    16829    16868    16922    16961    16981 
   16988    16998    17027    17072    17104    17115    17134    17184 
