Origin Time       2015/03/27 21:32:00
Lat.              37.227
Long.             141.378
Depth. (km)       24
Mag.              4.9
Station Code      FKS010
Station Lat.      37.2342
Station Long.     141.0016
Station Height(m) 50
Record Time       2015/03/27 21:32:27
Sampling Freq(Hz) 100Hz
Duration Time(s)  81
Dir.              U-D
Scale Factor      7845(gal)/8223790
Max. Acc. (gal)   3.147
Last Correction   2015/03/27 21:32:27
Memo.             
[...]
   18798    18790    18786    18793    18797    18806    18805    18786 
   18789    18800    18798    18806    18814    18800    18798    18805 
   18809    18809    18808    18808    18800    18786    18785    18790 
   18790    18804    18809    18798    18800    18805    18800    18800 
   18798    18800    18810    18812    18806    18810    18804    18789 
   18797    18808    18802    18808    18814    18802    18794    18798 
   18800    18804    18804    18800    18805    18810    18809    18802 
   18800    18800    18798    18800    18800    18794    18793    18802 
   18808    18808    18805    18800    18805    18808    18813    18819 
   18808    18800    18798    18794    18794    18800    18802    18806 
   18802    18798    18805    18810    18812    18808    18797    18796 
   18800    18796    18793    18797    18793    18796    18800    18796 
   18796    18800    18792    18787    18804    18804    18800    18809 
   18802    18790    18794    18800    18802    18804    18800    18793 
   18792    18797    18800    18797    18800    18805    18797    18797 
   18805    18804    18806    18806    18798    18794    18796    18800 
   18806    18808    18804    18804    18800    18800    18802    18800 
   18800    18804    18800    18796    18800    18805    18802    18800 
   18800    18798    18792    18789    18798    18804    18796    18794 
   18797    18798    18802    18806    18812    18805    18790    18790 
   18800    18800    18800    18798    18797    18808    18814    18814 
   18816    18806    18794    18800    18798    18800    18812    18800 
   18786    18796    18798    18796    18805    18808    18800    18800 
   18805    18808    18804    18800    18805    18806    18800    18792 
   18796    18800    18797    18798    18805    18805    18805    18805 
   18804    18806    18804    18798    18806    18808    18797    18796 
   18797    18796    18800    18805    18810    18814    18809    18802 
   18804    18804    18804    18806    18808    18804    18790    18786 
   18798    18804    18800    18806    18800    18792    18796    18800 
   18800    18798    18800    18809    18806    18800    18808    18800 
   18790    18793    18792    18793    18805    18810    18809    18808 
   18800    18790    18796    18800    18797    18802    18804    18797 
   18804    18808    18798    18806    18809    18793    18793    18804 
   18800    18798    18794    18792    18800    18808    18800    18800 
   18800    18792    18796    18810    18808    18805    18810    18804 
   18797    18793    18786    18796    18808    18806    18802    18802 
   18802    18802    18797    18794    18800    18805    18798    18796 
   18802    18802    18797    18798    18808    18808    18796    18798 
   18802    18796    18800    18804    18797    18809    18817    18798 
   18796    18802    18793    18797    18810    18806    18800    18797 
   18792    18793    18798    18800    18802    18800    18793    18786 
   18790    18806    18809    18804    18805    18804    18800    18806 
   18800    18794    18797    18798    18806    18816    18808    18802 
   18800    18794    18797    18804    18802    18806    18804    18794 
   18800    18798    18786    18789    18794    18797    18800    18794 
   18798    18808    18804    18809    18816    18806    18800    18804 
   18800    18792    18792    18798    18800    18800    18802    18800 
   18800    18800    18797    18800    18805    18805    18800    18800 
   18800    18804    18800    18800    18816    18816    18805    18804 
   18798    18792    18796    18804    18805    18804    18797    18790 
   18800    18816    18806    18792    18800    18800    18796    18805 
   18800    18793    18808    18802    18796    18812    18810    18802 
   18810    18805    18796    18808    18814    18802    18804    18800 
   18790    18797    18806    18805    18808    18810    18805    18805 
   18809    18810    18800    18796    18805    18802    18802    18812 
   18806    18798    18800    18794    18796    18802    18805    18804 
   18805    18800    18790    18794    18804    18802    18800    18797 
   18794    18798    18794    18794    18810    18812    18800    18800 
   18800    18790    18794    18800    18800    18802    18805    18800 
   18797    18790    18796    18809    18809    18800    18802    18804 
   18809    18810    18798    18796    18806    18802    18794    18796 
   18794    18797    18800    18800    18810    18808    18789    18787 
   18797    18790    18792    18804    18804    18798    18797    18794 
   18797    18800    18794    18793    18802    18800    18794    18798 
   18805    18800    18797    18798    18806    18814    18810    18800 
   18798    18800    18804    18819    18824    18824    18837    18854 
   18868    18891    18904    18894    18859    18804    18775    18787 
   18798    18816    18836    18833    18843    18891    18902    18837 
   18750    18701    18725    18808    18883    18909    18890    18862 
   18860    18881    18866    18824    18809    18787    18720    18728 
   18868    18978    18949    18867    18796    18736    18729    18793 
   18833    18786    18752    18836    18909    18831    18717    18742 
   18814    18751    18625    18636    18704    18650    18590    18625 
   18615    18567    18586    18592    18597    18759    18952    18941 
   18847    18873    18900    18782    18663    18655    18636    18594 
   18733    18985    18947    18651    18602    18843    18931    18798 
   18750    18867    19020    19026    18754    18507    18645    18847 
   18794    18828    19043    19068    18908    18794    18738    18709 
   18750    18901    18912    18495    18270    18816    19283    18954 
   18480    18470    18731    18975    19132    19106    18740    18285 
   18401    19045    19224    18759    18596    18843    18929    18816 
   18574    18436    18738    18982    18789    18674    18829    18944 
   18941    18873    18777    18725    18661    18662    18962    19198 
   18837    18315    18400    18985    19226    18766    18459    18933 
   19295    18952    18756    19093    19261    18989    18623    18578 
   18820    18624    18188    18604    19430    19552    19026    18465 
   18472    18933    19059    18819    18634    18620    18886    19057 
   18781    18613    18701    18593    18520    18711    18937    19118 
   19207    19178    18960    18454    18192    18598    18952    18771 
   18580    18709    19074    19373    19043    18208    17872    18419 
   19002    18866    18590    18898    19265    19214    18999    18686 
   18490    18617    18702    18767    18912    18814    18734    18759 
   18478    18419    18997    19566    19585    18860    18046    18372 
   19363    19515    18868    18497    18736    18987    18817    18632 
   18736    18832    18814    18806    18752    18690    18740    18855 
   18948    18828    18571    18675    18995    18993    18808    18681 
   18688    18833    18848    18850    19055    19118    18966    18773 
   18592    18674    18975    19003    18585    18112    18176    18796 
   19165    18895    18693    18960    19214    19180    18971    18655 
   18453    18508    18549    18503    18720    19113    19236    19110 
   18874    18516    18333    18574    18951    19145    19114    18904 
   18777    18951    19110    18908    18612    18617    18731    18625 
   18461    18547    18875    19022    18709    18328    18331    18693 
   19190    19495    19413    19028    18520    18303    18582    18839 
   18727    18507    18436    18678    19089    19179    18843    18477 
   18397    18611    18999    19342    19117    18330    18073    18611 
   18767    18293    18168    18690    19276    19387    18877    18138 
   18018    18698    19098    18663    18331    18689    19213    19398 
   19228    18920    18596    18365    18485    18851    19098    19203 
   19373    19735    20038    19885    19415    19121    19028    18762 
   18527    18658    18713    18562    18716    19008    18827    18277 
   18169    18968    19803    19687    19276    19498    19854    19449 
   18528    18295    19118    19873    19726    19188    18993    19021 
   18817    18473    18274    18156    18106    18088    17925    17928 
   18330    18689    18873    18998    18918    18792    18613    18014 
   17321    17253    17892    18661    18862    18419    18045    18261 
   18825    19130    18724    18058    18103    18755    19180    19280 
   19494    19654    19244    18612    18550    18958    19201    19145 
   19125    19238    19192    18871    18634    18667    18627    18474 
   18470    18519    18733    19215    19333    18943    18785    19032 
   19271    19341    19246    19126    19273    19498    19253    18593 
   18087    18068    18430    18727    18561    18112    18216    19202 
   19957    19586    18728    18195    18153    18512    18929    18949 
   18740    18837    19097    19116    18943    18504    17894    17760 
   18181    18544    18627    18539    18457    18631    18836    18771 
   18809    19144    19414    19406    19168    18894    18742    18652 
   18800    19363    19616    18927    18257    18504    18874    18677 
   18446    18684    18963    18497    17736    18004    18972    19345 
   19290    19446    19538    19175    18670    18686    19079    19093 
   18793    18643    18651    18813    19124    19345    19161    18497 
   18166    18983    19942    19629    18508    17847    18162    18937 
   19107    18496    17988    18168    18906    19584    19522    18769 
   18188    18369    18836    18775    18284    18152    18547    18909 
   18864    18399    17906    18064    18760    19184    19224    19392 
   19633    19526    19230    19093    19157    19292    19055    18389 
   18135    18634    19148    19150    18877    18645    18586    18684 
   18895    19333    19637    19190    18578    18608    18881    19018 
   19125    19022    18659    18395    18350    18364    18446    18639 
   18895    19132    19052    18642    18326    18250    18314    18354 
   18180    18056    18261    18567    18909    19313    19306    18609 
   17874    17948    18659    19168    19306    19431    19375    18886 
   18554    18812    19132    19156    19147    19214    19140    18782 
   18424    18146    17626    17311    17933    19053    19739    19661 
   19368    19589    19919    19510    18685    18285    18443    18607 
   18345    18029    18171    18566    18920    19242    19496    19734 
   19897    19592    19087    19280    19977    20031    19272    18561 
   18401    18727    19136    19198    19044    18933    18971    19518 
   20428    20795    20078    18823    18250    18620    18931    18901 
   19203    19693    19475    18590    17945    17790    17822    17888 
   17852    17836    18123    18571    18889    18883    18551    18384 
   18661    18947    18927    18696    18478    18544    18728    18499 
   17941    17628    17813    18411    18847    18349    17248    16705 
   17087    17759    18126    18177    18156    18181    18249    18423 
   18673    18693    18424    18223    18462    19145    19741    19932 
   19955    19654    18792    18002    17982    18555    18974    18894 
   18847    19191    19597    19842    19811    19259    18501    18291 
   18565    18639    18477    18523    18889    19255    19264    19145 
   19388    19843    20115    20146    19958    19712    19506    18987 
   18208    17878    18076    18270    18395    18651    19035    19325 
   19155    18720    18716    19082    19399    19818    20264    20293 
   19955    19421    18473    17423    17123    17556    18058    18414 
   18601    18573    18466    18369    18166    17783    17509    17925 
   18873    19298    19102    19133    19163    18705    18458    18796 
   19089    19018    18738    18472    18455    18462    18130    17918 
   18473    19279    19264    18647    18609    19127    19045    18295 
   18085    18789    19475    19515    19283    19157    18952    18657 
   18535    18558    18743    18979    18852    18686    18893    19039 
   19063    19170    19164    19174    19287    19222    19111    19159 
   19075    18734    18465    18509    18585    18272    17929    18316 
   19273    19943    20005    19797    19531    19040    18392    18102 
   18311    18602    18871    19357    19861    19940    19616    19191 
   18837    18607    18526    18630    18766    18744    18743    18823 
   18805    18875    19061    18974    18645    18442    18558    18867 
   18744    18088    17944    18696    19323    19217    18882    18825 
   18944    18913    18719    18544    18493    18704    19084    19222 
   19136    19086    18993    19006    19292    19345    18972    18751 
   18847    18909    18881    18963    19344    19878    20034    19643 
   19211    19222    19677    20028    19624    18706    18231    18490 
   18860    18879    18890    19255    19608    19516    19018    18539 
   18472    18408    17871    17355    17334    17713    18366    18750 
   18341    17550    16949    16875    17509    18234    18439    18281 
   17720    16912    16616    16825    17172    17949    18886    19168 
   19029    19233    19697    19857    19606    19325    19230    19283 
   19583    19942    19827    19313    18908    18829    19121    19552 
   19592    19210    18971    19093    19143    19032    19348    20085 
   20345    19923    19515    19242    18667    17782    16923    16355 
   16031    15711    15502    15612    15789    15919    16402    17263 
   17907    17975    17658    17377    17606    18323    18987    19549 
   20387    21255    21517    21038    20279    19704    19249    18667 
   18252    18422    18974    19554    20248    21075    21629    21649 
   21298    20752    20279    20220    20339    20163    19730    19291 
   19049    19129    19283    19261    19319    19645    19789    19373 
   18971    19280    19839    19939    19824    19853    19759    19148 
   17998    17047    17103    17610    17594    17432    17883    18651 
   19083    19102    18993    18820    18457    18030    17683    17202 
   16592    16144    15786    15565    15965    16886    17713    18272 
   18581    18620    18590    18630    18805    19190    19691    20171 
   20641    21213    21774    21863    21338    20570    19966    19668 
   19445    19068    18719    18657    18850    18967    18588    17684 
   16796    16563    17132    17941    18416    18777    19392    19881 
   19801    19376    19083    19197    19553    19695    19606    19569 
   19438    19150    18974    18686    18111    17776    17957    18361 
   18786    19136    19294    19263    19064    18733    18381    18042 
   17671    17234    16834    16843    17398    17933    17896    17413 
   16852    16407    16271    16590    17281    17957    18237    18341 
   18793    19550    20094    20120    19726    19317    19221    19252 
   19132    18941    18909    19334    20101    20520    20515    20673 
   21008    21196    21182    20833    20008    19059    18531    18486 
   18519    18472    18547    18645    18509    18335    18370    18485 
   18511    18530    18820    19368    19869    20262    20432    20058 
   19354    18917    18900    19061    19192    19063    18642    18393 
   18470    18439    18219    18036    18019    18266    18593    18756 
   18742    18504    18156    17869    17535    17073    16668    16659 
   17109    17559    17678    17698    17961    18461    18873    19009 
   18991    18898    18659    18404    18382    18559    18755    18966 
   19319    19807    20160    20337    20572    20648    20305    20005 
   20020    19849    19294    18824    18766    18951    19005    18798 
   18507    18260    18153    18204    18149    17996    18154    18566 
   18841    18925    18937    19116    19560    19857    19705    19309 
   18994    19003    19165    19024    18773    18972    19434    19550 
   19157    18535    18110    18013    17879    17502    17211    17381 
   18007    18663    18846    18515    18150    18192    18657    19228 
   19639    19764    19502    19106    19060    19215    19113    18886 
   18889    19053    19101    18945    18717    18509    18342    18269 
   18246    18215    18342    18797    19427    19845    19819    19531 
   19368    19437    19367    18890    18350    18153    18180    18117 
   17994    18175    18814    19570    20012    20085    20038    20074 
   20147    20110    19905    19483    18873    18373    18249    18409 
   18543    18435    18161    18069    18361    18717    18711    18400 
   18158    18292    18693    18909    18840    18866    19106    19168 
   18843    18519    18536    18693    18721    18802    19068    19184 
   19036    18886    18690    18283    17756    17294    17162    17365 
   17502    17428    17355    17362    17352    17313    17381    17653 
   17932    18009    18103    18401    18662    18759    18949    19311 
   19527    19330    18902    18708    18864    19001    18971    18948 
   18897    18855    19053    19415    19637    19576    19434    19519 
   19693    19705    19669    19639    19483    19318    19390    19579 
   19704    19979    20501    20965    21150    21082    20989    21124 
   21262    20943    20309    19782    19325    18732    18009    17328 
   16895    16796    17038    17497    17782    17726    17620    17612 
   17574    17496    17462    17454    17277    16869    16649    16932 
   17354    17555    17698    18040    18566    18952    19037    19182 
   19426    19295    18863    18609    18593    18638    18580    18326 
   18010    17859    17922    18000    17965    17959    18183    18729 
   19373    19646    19561    19665    20140    20567    20613    20522 
   20630    20733    20595    20483    20514    20464    20386    20452 
   20565    20557    20277    19831    19530    19371    19310    19380 
   19278    18875    18512    18285    18115    18063    18044    17909 
   17691    17520    17486    17497    17443    17572    17994    18295 
   18254    18085    17992    18061    18275    18442    18441    18374 
   18381    18450    18369    18018    17668    17540    17477    17423 
   17536    17865    18409    19012    19307    19411    19780    20117 
   19904    19465    19242    19153    19043    18800    18430    18211 
   18288    18480    18632    18734    18837    18991    19145    19229 
   19313    19469    19569    19557    19552    19485    19273    19055 
   18951    19020    19157    19091    18964    19129    19465    19758 
   19978    20082    20115    20038    19658    19093    18693    18581 
   18658    18697    18488    18141    17797    17327    16756    16379 
   16367    16639    16974    17262    17633    18137    18576    18812 
   18956    19138    19364    19592    19745    19741    19577    19373 
   19253    19206    19236    19387    19595    19791    19934    19935 
   19761    19548    19384    19180    18979    18956    19049    19130 
   19259    19458    19611    19580    19417    19375    19431    19380 
   19400    19597    19675    19560    19464    19473    19442    19148 
   18601    18085    17847    17834    17806    17706    17732    17921 
   17987    17757    17454    17370    17443    17421    17325    17392 
   17593    17691    17713    17855    18071    18212    18366    18617 
