Origin Time       2015/03/27 21:32:00
Lat.              37.227
Long.             141.378
Depth. (km)       24
Mag.              4.9
Station Code      FKS010
Station Lat.      37.2342
Station Long.     141.0016
Station Height(m) 50
Record Time       2015/03/27 21:32:27
Sampling Freq(Hz) 100Hz
Duration Time(s)  81
Dir.              E-W
Scale Factor      7845(gal)/8223790
Max. Acc. (gal)   6.206
Last Correction   2015/03/27 21:32:27
Memo.             
[...]
    5948     5979     6016     5998     5971     5968     5964     5958 
    5946     5952     5995     6015     5989     5973     5965     5940 
    5940     5968     5992     5999     5984     5961     5957     5954 
    5950     5968     6008     6019     5981     5953     5956     5952 
    5962     5992     5998     5989     5991     5984     5965     5948 
    5946     5964     5996     6016     5998     5957     5945     5949 
    5945     5961     6000     6012     5987     5962     5971     5971 
    5942     5946     5996     6015     5992     5968     5958     5961 
    5958     5964     6000     6011     5968     5946     5961     5958 
    5950     5973     5992     5987     5984     5976     5968     5968 
    5960     5964     5989     6002     5991     5965     5942     5940 
    5949     5967     5996     6006     5979     5956     5961     5964 
    5961     5976     5996     5994     5967     5953     5962     5968 
    5957     5956     5985     6008     5995     5972     5971     5967 
    5949     5960     5995     5995     5980     5983     5971     5956 
    5958     5960     5977     6003     5988     5967     5968     5956 
    5946     5967     5985     5985     5984     5976     5964     5964 
    5960     5957     5979     6004     5994     5965     5960     5964 
    5962     5983     6008     5992     5962     5952     5948     5960 
    5981     5989     6003     6003     5968     5950     5962     5965 
    5964     5979     5996     5995     5981     5968     5952     5958 
    5981     5983     5981     5988     5968     5946     5950     5953 
    5958     5975     5984     5992     5992     5975     5973     5984 
    5973     5977     5995     5989     5967     5946     5949     5968 
    5973     5987     6003     5987     5968     5964     5957     5953 
    5953     5962     5985     5991     5976     5979     5977     5956 
    5960     5977     5981     5985     5979     5962     5962     5965 
    5965     5979     6002     6006     5988     5964     5956     5957 
    5962     5976     5996     5995     5968     5962     5979     5964 
    5948     5973     5996     5981     5962     5960     5956     5962 
    5984     5988     5975     5968     5968     5977     5984     5968 
    5949     5968     5994     5985     5967     5968     5979     5973 
    5948     5952     5994     5999     5973     5968     5961     5953 
    5964     5980     6002     6000     5968     5952     5954     5957 
    5967     5994     6026     6019     5968     5944     5945     5940 
    5953     5996     6019     6000     5964     5937     5933     5952 
    5971     5988     6014     6018     5981     5952     5954     5948 
    5940     5968     5999     5998     5989     5981     5958     5949 
    5971     5991     5991     5989     5975     5950     5957     5971 
    5967     5975     5992     5984     5958     5954     5972     5977 
    5971     5973     5972     5965     5972     5980     5968     5965 
    5979     5987     5989     5984     5957     5940     5949     5962 
    5985     6006     5992     5965     5950     5945     5965     5992 
    5994     5996     5995     5962     5949     5965     5965     5968 
    5981     5975     5968     5977     5971     5956     5958     5973 
    5987     5994     5994     5977     5956     5949     5960     5972 
    5975     5988     6004     5987     5948     5933     5938     5949 
    5968     5985     5977     5961     5948     5945     5977     6011 
    5987     5956     5973     5980     5950     5946     5972     5979 
    5981     6019     6039     5984     5900     5886     5945     5979 
    5964     5979     6004     5975     5938     5973     6026     5996 
    5942     5968     6006     5981     5961     5977     5960     5940 
    5996     6049     5994     5899     5892     5948     5979     6008 
    6031     5976     5942     6023     6068     6006     5988     6023 
    5980     5921     5968     6023     5980     5917     5891     5872 
    5880     5964     6057     6064     6004     5988     6014     5962 
    5873     5854     5890     5980     6104     6081     5946     5940 
    6000     5933     5854     5906     5979     5965     5968     6079 
    6081     5827     5701     5888     6018     5979     6021     6085 
    5965     5845     5973     6100     5954     5753     5759     5890 
    5983     6077     6146     5952     5670     5755     6070     6189 
    6076     5914     5841     5902     6025     6079     6041     5964 
    5872     5872     5967     5995     5961     5906     5807     5788 
    5940     6106     6056     5817     5784     6062     6173     5922 
    5788     5954     6033     5917     5902     6044     6060     5886 
    5873     5989     5881     5737     5845     6123     6393     6405 
    6123     5908     5988     6160     6081     5780     5759     6166 
    6440     6280     5977     5742     5628     5715     5948     6164 
    6247     6124     5945     5979     6211     6335     6102     5682 
    5611     5984     6191     6006     5931     6080     6080     6011 
    6185     6252     5818     5445     5674     6129     6381     6358 
    6158     6039     5996     5887     5849     5934     6079     6246 
    6303     6315     6318     5994     5472     5333     5623     6053 
    6384     6356     5999     5705     5778     6092     6250     6122 
    5925     5823     5787     5787     5926     6150     6181     6058 
    6123     6191     5842     5540     5795     6085     6012     5902 
    5960     6056     6025     5929     5965     6062     6062     6070 
    6162     6060     5630     5386     5661     5911     5829     5914 
    6216     6183     5942     6058     6316     6247     6012     5875 
    5802     5763     5767     5733     5653     5740     6162     6650 
    6720     6346     5895     5528     5302     5463     5895     6156 
    6268     6385     6289     5991     5850     5837     5676     5575 
    5718     5863     5958     6046     5998     5938     6076     6307 
    6374     6166     5890     5780     5805     5938     6092     6093 
    6029     5967     5791     5667     5845     6214     6497     6467 
    6085     5560     5228     5312     5638     5953     6346     6766 
    6840     6513     6053     5637     5358     5331     5580     5887 
    6022     6110     6270     6189     5760     5541     5904     6381 
    6350     5898     5603     5730     5975     5972     5830     5830 
    6010     6309     6582     6540     6022     5355     5173     5599 
    6048     6085     5821     5494     5297     5428     5883     6292 
    6423     6538     6721     6669     6361     6030     5803     5759 
    5842     5846     5667     5441     5366     5544     6019     6535 
    6621     6173     5552     5286     5594     6035     6052     5802 
    5881     6320     6571     6413     6088     5807     5718     5863 
    6039     6178     6285     6107     5711     5675     6173     6588 
    6335     5860     5838     6021     6072     6214     6411     6174 
    5463     5046     5431     5998     6150     6219     6313     6054 
    5726     5792     5917     5833     5922     6257     6363     6107 
    5922     5999     5980     5702     5578     5962     6512     6659 
    6462     6252     5972     5603     5371     5225     5142     5474 
    6173     6579     6343     5864     5737     5937     6049     6087 
    6277     6470     6270     5645     5027     4729     4779     5113 
    5443     5560     5706     6046     6373     6558     6717     6841 
    6682     6165     5567     5206     5221     5602     6107     6332 
    6138     5760     5501     5470     5557     5549     5420     5346 
    5255     5104     5332     5958     6307     6237     6327     6860 
    7300     6964     6052     5298     4959     4972     5286     5634 
    5707     5640     6026     6862     7210     6847     6525     6415 
    6255     6151     6029     5638     5270     5443     6058     6519 
    6454     5989     5479     5136     5076     5394     5904     6183 
    6031     5740     5837     6342     6782     6909     6789     6485 
    6195     6192     6345     6254     5859     5512     5516     5703 
    5767     5807     6106     6446     6460     6490     6806     6880 
    6596     6573     6984     7353     7362     7142     6878     6635 
    6367     5940     5607     5888     6592     6909     6523     5935 
    5702     5842     6127     6373     6496     6562     6559     6385 
    6270     6511     6806     6871     7182     7992     8579     8306 
    7344     6146     5043     4392     4303     4237     3904     3979 
    4761     5528     5902     6471     7507     8124     7586     6488 
    5665     5124     4602     4035     3496     3711     5466     7743 
    8608     7798     6361     4926     3711     3149     3511     4192 
    4594     5302     6845     8421     8957     8253     6874     5476 
    4471     3800     3095     2659     3240     4588     5822     6682 
    7429     8062     8154     7425     6123     4803     4069     4241 
    5054     5911     6350     6361     6416     6848     7461     7967 
    8133     7684     6531     4831     3194     2806     4197     6123 
    6897     6667     6586     6501     5788     4877     4464     4669 
    5211     5643     5537     4908     4401     4305     4218     4499 
    5907     7589     7815     6496     5382     5590     6369     6739 
    6651     6407     6420     6983     7593     7426     6470     5348 
    4329     3349     2929     3898     5886     7329     7425     6921 
    6710     6813     6840     6689     6735     7192     7477     6871 
    5517     4307     4110     4931     5698     5707     5675     6261 
    6853     6714     5915     4849     4097     4313     5197     5798 
    6180     7106     8407     9078     8494     6932     5404     4735 
    4712     4945     5727     6932     7528     7210     6791     6589 
    6119     5367     4837     4737     4988     5373     5529     5459 
    5780     6751     7506     7078     5594     4062     3553     4266 
    5360     5980     5988     5819     6053     6671     7045     6902 
    6528     6115     5601     5098     4897     4928     4850     4688 
    4857     5347     5632     5616     5660     5860     6261     7098 
    8108     8519     8197     7803     7580     7156     6438     5509 
    4371     3577     3950     5242     6222     6478     6732     6990 
    6273     4595     3354     3522     4761     6164     6802     6382 
    5699     5578     6022     6793     7809     9015     9973     9852 
    8202     5324     2165      279      936     3716     6643     8361 
    9134     9189     8341     7110     6093     5456     5501     6276 
    7288     7966     7789     6652     5238     4684     5402     6343 
    6372     5869     5814     6284     7002     7906     8270     7244 
    5656     5053     5422     5651     5339     5109     5420     5821 
    5815     5742     5965     6043     5333     3896     2729     2895 
    4183     5547     6592     7427     7796     7435     6732     6270 
    5933     5177     4067     3099     2527     2594     3480     4918 
    6598     8575    10805    12391    12033     9678     6621     3866 
    1714      638     1044     2496     4268     6080     7654     8486 
    8437     7898     7163     6178     5113     4571     5022     6307 
    7560     7870     7345     6744     6232     5636     5189     4984 
    4687     4327     4486     5440     6770     7886     8351     7946 
    7117     6582     6405     6251     6193     6673     7678     8290 
    7564     5665     3578     2037     1308     1648     3227     5512 
    7339     8124     8444     8837     8887     8226     7298     6559 
    6030     5765     5634     4958     3499     2120     1611     1841 
    2628     4135     6048     7581     8233     7824     6536     5142 
    4515     4789     5312     5726     6556     7928     8725     8266 
    7456     7098     6670     5776     5066     5127     5788     6581 
    7272     7986     8837     9316     8319     5633     2895     1799 
    2041     2312     2396     3013     4515     6669     8816     9863 
    9167     7520     6012     4646     3369     2978     3908     5543 
    6997     7807     8005     7954     8094     8556     8818     8208 
    6771     4930     2945     1414     1070     1773     2755     3667 
    4766     6204     7420     7655     7034     6331     5842     5505 
    5610     6273     6999     7462     7723     7850     8083     8590 
    8981     9028     9066     8991     8147     6589     5104     4159 
    3734     3530     3191     2830     2872     3497     4707     6142 
    7102     7395     7477     7659     7830     7807     7788     8240 
    8989     9104     8163     6737     5525     4800     4581     4789 
    5096     4920     4074     3033     2223     1645     1547     2521 
    4467     6453     7912     8822     9065     8683     8129     7693 
    7222     6475     5352     4055     3200     3366     4529     6060 
    7353     8248     8619     8187     7132     6243     6130     6608 
    7106     7466     7981     8625     8827     8297     7545     7022 
    6282     4726     2651     1104     1023     2394     4175     5568 
    6762     7778     7986     7342     6632     6290     6037     5649 
    5310     5155     5000     4577     3932     3624     4212     5678 
    7541     9051     9418     8550     7302     6613     6673     6966 
    6914     6400     5549     4446     3211     1856      388     -532 
      45     2079     4352     5887     6774     7342     7491     7250 
    6990     6972     7314     7862     7951     7317     6705     6706 
    7015     7285     7614     8062     8365     8208     7586     6919 
    6577     6276     5562     4747     4567     5055     5503     5506 
    5436     5786     6627     7580     8013     7639     6812     5906 
    4760     3198     1692     1042     1686     3232     4723     5684 
    6353     6891     7175     7094     6752     6421     6192     5859 
    5271     4522     3963     4099     5151     6663     7940     8600 
    8464     7576     6382     5244     4129     3148     2669     2941 
    4050     5938     8090     9567     9836     9182     8033     6732 
    5854     5699     5827     5965     6328     6781     7025     7176 
    7299     7215     6990     7007     7398     7867     8135     8048 
    7547     6833     6093     5242     4279     3492     2951     2421 
    2178     2957     4869     7183     9073    10010     9872     8927 
    7449     5661     3888     2494     1971     2668     4178     5595 
    6531     7372     8365     8995     8648     7393     5872     4658 
    3863     3360     3126     3221     3667     4306     4854     5188 
    5408     5549     5404     4912     4521     4627     5185     5910 
    6477     6772     6949     7006     6926     7056     7488     7657 
    7285     6571     5420     3842     2539     2146     2629     3534 
    4509     5611     6870     7823     8054     7798     7597     7506 
    7020     5845     4213     2559     1364      870      958     1672 
    3268     5571     7885     9514    10157     9919     9084     8006 
    7141     6739     6531     6039     5213     4556     4506     4988 
    5661     6265     6744     7273     7969     8494     8345     7715 
    7380     7634     8105     8525     8861     9031     9104     9265 
    9401     9298     9054     8823     8519     8141     7908     7830 
    7704     7510     7349     7129     6748     6203     5464     4658 
    4110     4064     4519     5265     6127     7022     7728     7948 
    7547     6841     6511     6693     6667     5949     4926     4118 
    3627     3369     3184     2903     2635     2667     3142     3921 
    4737     5443     5994     6255     6146     5647     4754     3789 
    3380     3678     4149     4413     4498     4353     4029     3888 
    4012     4140     4248     4531     5067     5755     6432     6907 
    6932     6531     6211     6356     6731     6944     7017     7215 
    7627     8163     8745     9139     8914     7963     6775     5910 
    5466     5200     4926     4691     4733     5136     5519     5583 
    5701     6311     7195     7794     7860     7592     7263     6970 
    6806     6870     7099     7325     7361     7022     6292     5452 
    4780     4243     3834     3719     3778     3632     3271     2947 
    2818     3164     4155     5354     6214     6708     7076     7391 
    7534     7461     7288     7145     7072     7053     7122     7267 
    7203     6755     6207     5809     5452     4986     4376     3827 
    3700     4047     4484     4639     4540     4318     3897     3407 
    3194     3171     3163     3420     4191     5374     6683     7797 
    8513     8835     8804     8391     7750     7240     6932     6608 
    6169     5541     4665     3998     4202     5177     6238     6895 
    7023     6804     6529     6373     6535     7150     7943     8549 
    8938     9200     9201     8745     7920     7038     6320     5682 
    4797     3600     2540     2066     2234     2879     3677     4311 
    4823     5440     6180     6876     7400     7713     7751     7506 
    7165     6959     7006     7302     7699     7946     7847     7452 
    6998     6658     6561     6844     7323     7568     7385     6919 
    6482     6200     5772     4963     4174     3925     4081     4271 
    4526     4923     5290     5408     5232     4954     4706     4414 
    4144     4041     3994     3893     3929     4289     4872     5501 
    6178     6955     7699     8175     8293     8144     7875     7538 
    6999     6168     5281     4584     4125     3987     4220     4710 
    5289     5703     5587     4908     4228     3998     4072     4330 
    4934     5902     7029     8098     8985     9702    10206    10266 
    9813     9024     8006     6870     5934     5485     5425     5464 
    5548     5803     6180     6598     7064     7402     7472     7391 
    7221     6998     6855     6743     6500     6151     5755     5201 
    4482     3861     3520     3304     3127     3240     3808     4600 
    5232     5483     5371     5008     4576     4322     4225     4086 
    4045     4360     4877     5321     5652     5964     6340     6815 
    7381     7884     8149     8177     7906     7281     6623     6361 
    6528     6789     6899     6968     7182     7489     7711     7767 
    7695     7501     7144     6624     5967     5196     4445     3977 
    3991     4426     5039     5663     6278     6832     7150     7202 
    7160     7088     6851     6413     6016     5886     5900     5736 
    5262     4704     4388     4411     4661     4961     5163     5231 
    5117     4781     4468     4502     4828     5248     5769     6439 
    7115     7568     7676     7460     7011     6460     5989     5692 
    5397     4887     4214     3589     3130     2840     2701     2748 
    3094     3770     4579     5150     5235     5004     4896     5088 
    5339     5513     5883     6579     7339     8070     8841     9479 
    9787     9757     9428     8914     8469     8247     8024     7604 
    7257     7245     7346     7248     7005     6891     7036     7284 
    7354     7063     6539     6083     5833     5760     5852     6129 
