Origin Time       2015/03/27 21:32:00
Lat.              37.227
Long.             141.378
Depth. (km)       24
Mag.              4.9
Station Code      FKS010
Station Lat.      37.2342
Station Long.     141.0016
Station Height(m) 50
Record Time       2015/03/27 21:32:27
Sampling Freq(Hz) 100Hz
Duration Time(s)  81
Dir.              N-S
Scale Factor      7845(gal)/8223790
Max. Acc. (gal)   4.747
Last Correction   2015/03/27 21:32:27
Memo.             
[...]
    5809     5807     5796     5793     5798     5796     5790     5796 
    5798     5787     5782     5773     5772     5786     5792     5798 
    5806     5788     5778     5787     5788     5792     5796     5791 
    5787     5787     5788     5791     5780     5763     5768     5791 
    5811     5819     5802     5782     5787     5798     5795     5795 
    5810     5809     5792     5788     5791     5788     5790     5798 
    5802     5796     5786     5780     5787     5796     5792     5792 
    5795     5780     5772     5787     5792     5778     5769     5782 
    5800     5805     5805     5805     5790     5767     5759     5773 
    5806     5825     5818     5807     5800     5791     5792     5806 
    5806     5793     5790     5790     5783     5773     5763     5775 
    5798     5796     5788     5805     5815     5793     5771     5782 
    5806     5813     5805     5795     5782     5765     5764     5787 
    5813     5809     5788     5787     5783     5775     5798     5822 
    5806     5784     5778     5784     5798     5790     5775     5787 
    5792     5776     5782     5813     5818     5783     5771     5798 
    5806     5783     5788     5805     5795     5784     5780     5792 
    5810     5787     5760     5790     5819     5800     5788     5805 
    5805     5784     5775     5775     5786     5793     5791     5798 
    5802     5773     5760     5796     5821     5795     5778     5795 
    5798     5776     5772     5793     5798     5786     5791     5803 
    5806     5805     5786     5760     5764     5778     5791     5818 
    5829     5798     5773     5772     5772     5780     5796     5803 
    5798     5792     5784     5782     5805     5813     5798     5798 
    5791     5768     5769     5784     5786     5784     5795     5815 
    5822     5800     5775     5765     5776     5790     5788     5798 
    5815     5800     5773     5769     5780     5784     5788     5800 
    5802     5791     5791     5802     5806     5791     5780     5791 
    5793     5772     5769     5792     5796     5784     5784     5790 
    5795     5803     5802     5798     5798     5779     5769     5800 
    5806     5773     5767     5780     5784     5776     5773     5798 
    5818     5803     5793     5800     5800     5782     5771     5790 
    5798     5779     5778     5800     5800     5773     5764     5788 
    5818     5815     5795     5795     5792     5772     5765     5779 
    5790     5795     5791     5783     5779     5779     5792     5822 
    5822     5786     5771     5787     5806     5802     5782     5788 
    5803     5788     5775     5788     5802     5792     5783     5798 
    5811     5784     5773     5800     5810     5795     5790     5790 
    5791     5779     5764     5784     5813     5806     5795     5803 
    5815     5798     5772     5780     5800     5803     5802     5805 
    5798     5779     5773     5786     5795     5793     5779     5791 
    5818     5800     5778     5791     5795     5787     5783     5778 
    5796     5817     5793     5782     5802     5792     5776     5800 
    5814     5786     5778     5798     5802     5793     5803     5805 
    5796     5790     5778     5779     5798     5807     5802     5796 
    5787     5773     5768     5780     5800     5802     5791     5791 
    5792     5780     5768     5771     5790     5798     5782     5779 
    5791     5775     5771     5793     5791     5790     5817     5827 
    5811     5788     5764     5764     5788     5802     5796     5791 
    5795     5788     5779     5795     5814     5800     5787     5800 
    5814     5793     5765     5773     5792     5780     5767     5782 
    5795     5790     5782     5778     5782     5795     5806     5809 
    5798     5773     5768     5791     5798     5795     5796     5796 
    5795     5787     5782     5793     5809     5809     5803     5803 
    5795     5776     5776     5802     5793     5767     5784     5793 
    5779     5798     5810     5787     5791     5803     5800     5810 
    5809     5779     5769     5776     5779     5784     5790     5790 
    5787     5780     5782     5796     5811     5807     5796     5798 
    5795     5776     5779     5809     5822     5798     5772     5771 
    5776     5779     5793     5810     5818     5811     5787     5786 
    5807     5796     5778     5793     5798     5772     5773     5791 
    5778     5768     5793     5821     5827     5810     5791     5792 
    5776     5752     5775     5809     5796     5773     5780     5793 
    5791     5783     5795     5815     5810     5793     5795     5807 
    5800     5783     5779     5788     5802     5800     5787     5786 
    5790     5786     5786     5792     5803     5810     5798     5791 
    5798     5787     5764     5775     5815     5819     5786     5771 
    5779     5778     5780     5793     5798     5798     5803     5803 
    5795     5783     5786     5806     5810     5787     5783     5800 
    5796     5779     5775     5784     5798     5803     5791     5791 
    5796     5772     5759     5788     5813     5807     5802     5793 
    5787     5784     5772     5775     5800     5798     5776     5773 
    5771     5772     5793     5811     5802     5784     5778     5786 
    5790     5780     5775     5796     5805     5786     5780     5792 
    5788     5784     5791     5795     5802     5803     5786     5779 
    5783     5779     5788     5796     5788     5786     5786     5780 
    5779     5776     5782     5807     5818     5795     5783     5795 
    5795     5780     5776     5786     5790     5784     5787     5798 
    5798     5784     5783     5800     5805     5783     5786     5807 
    5802     5787     5790     5798     5803     5793     5790     5806 
    5809     5784     5782     5805     5805     5784     5773     5780 
    5788     5782     5779     5795     5807     5793     5787     5810 
    5813     5788     5787     5805     5809     5791     5780     5790 
    5793     5780     5778     5793     5800     5793     5792     5795 
    5791     5790     5802     5819     5826     5800     5755     5746 
    5771     5764     5764     5810     5834     5809     5798     5803 
    5791     5775     5765     5791     5821     5800     5779     5784 
    5780     5768     5784     5818     5830     5811     5784     5775 
    5775     5760     5772     5814     5826     5798     5779     5782 
    5782     5776     5787     5802     5800     5788     5771     5773 
    5793     5793     5792     5806     5805     5782     5768     5780 
    5805     5803     5786     5784     5788     5786     5795     5809 
    5798     5780     5778     5792     5798     5786     5773     5790 
    5814     5811     5798     5803     5803     5780     5772     5788 
    5796     5792     5793     5793     5792     5780     5778     5796 
    5800     5783     5779     5780     5786     5792     5779     5773 
    5796     5796     5776     5787     5800     5792     5795     5802 
    5790     5786     5800     5818     5813     5792     5788     5790 
    5779     5776     5786     5790     5787     5776     5778     5800 
    5810     5792     5782     5787     5788     5773     5767     5784 
    5798     5791     5793     5811     5809     5786     5780     5800 
    5803     5787     5790     5796     5787     5775     5769     5779 
    5782     5764     5764     5786     5795     5793     5798     5803 
    5783     5764     5790     5821     5818     5806     5792     5773 
    5764     5784     5819     5819     5791     5775     5776     5783 
    5798     5810     5796     5776     5783     5796     5796     5803 
    5810     5784     5752     5775     5837     5869     5845     5805 
    5788     5769     5726     5699     5711     5749     5810     5886 
    5887     5810     5806     5886     5875     5783     5775     5806 
    5748     5689     5753     5838     5833     5787     5775     5771 
    5736     5733     5802     5842     5791     5745     5779     5791 
    5737     5698     5733     5842     5913     5850     5769     5792 
    5830     5796     5767     5751     5694     5689     5784     5840 
    5779     5732     5786     5823     5800     5904     6006     5769 
    5466     5559     5899     6033     5875     5737     5764     5791 
    5798     5880     5902     5732     5584     5689     5861     5902 
    5875     5810     5741     5760     5821     5852     5899     5929 
    5860     5755     5671     5617     5701     5857     5815     5670 
    5744     5934     5961     5871     5868     5917     5819     5644 
    5656     5821     5833     5672     5614     5778     5998     6029 
    5876     5706     5578     5552     5692     5926     6097     6081 
    5821     5481     5475     5803     5902     5682     5692     6021 
    6203     6097     5837     5539     5425     5552     5726     5853 
    5921     5852     5736     5782     5976     6107     6014     5757 
    5549     5493     5499     5589     5810     5952     5945     5988 
    5973     5687     5408     5535     5872     5983     5875     5745 
    5643     5618     5736     5940     6064     5979     5759     5634 
    5751     5967     5968     5780     5768     5853     5683     5462 
    5502     5676     5850     5976     5984     5931     5884     5842 
    5710     5416     5267     5535     5915     6019     5975     6088 
    6188     5945     5583     5607     5837     5667     5336     5452 
    5834     6088     6143     6026     5852     5715     5655     5726 
    5831     5765     5616     5613     5736     5869     5971     6065 
    6124     5880     5374     5258     5746     6178     6115     5863 
    5714     5602     5556     5656     5722     5746     5989     6265 
    6146     5795     5598     5522     5443     5478     5718     5949 
    6002     6010     6006     5907     5792     5684     5495     5386 
    5536     5769     5902     5996     6107     6127     5998     5845 
    5746     5706     5778     5780     5595     5556     5790     5965 
    5925     5763     5668     5842     6065     5891     5455     5283 
    5490     5775     5883     5877     5977     6158     6219     5956 
    5387     5093     5472     5968     5980     5798     5869     5998 
    5962     5896     5840     5684     5529     5638     5937     6093 
    5913     5518     5336     5589     5983     6089     5931     5842 
    5836     5823     5848     5800     5659     5514     5350     5216 
    5335     5806     6222     6104     5817     5998     6393     6276 
    5571     5088     5422     6160     6552     6308     5778     5545 
    5684     5787     5678     5617     5795     5995     5926     5667 
    5585     5763     5860     5689     5543     5786     6183     6203 
    5998     6011     6102     5811     5238     5086     5576     6120 
    6251     6069     5923     5892     5841     5795     5783     5727 
    5691     5803     5792     5448     5347     5815     6211     6107 
    5950     6146     6330     6102     5751     5585     5389     5055 
    4857     4945     5308     5873     6292     6201     5800     5628 
    5845     6070     5919     5549     5421     5636     5852     5884 
    5915     5933     5811     5782     5884     5833     5651     5599 
    5722     5826     5856     5880     5791     5521     5268     5350 
    5803     6232     6285     6050     5788     5609     5418     5188 
    5175     5610     6177     6405     6323     6262     6340     6254 
    5759     5285     5417     5946     6085     5729     5583     5818 
    6012     6018     5864     5667     5618     5697     5783     5834 
    5805     5736     5791     6018     6157     6025     5930     6168 
    6421     6224     5590     4966     4788     5193     5856     6135 
    5906     5641     5594     5607     5648     5937     6340     6421 
    6185     6029     6080     5930     5395     5050     5262     5655 
    5900     6056     6104     5856     5481     5447     5760     6023 
    5968     5689     5431     5217     5015     5003     5283     5659 
    5949     6192     6349     6389     6485     6561     6346     5871 
    5505     5622     6061     6308     6211     6088     6189     6238 
    6138     6382     6914     6855     5887     4909     4845     5518 
    6285     6805     6995     6951     6763     6440     5999     5640 
    5545     5524     5539     5883     6581     7248     7411     7071 
    6786     6744     6421     5583     4814     4622     4510     3703 
    2570     2154     2679     3735     5119     6625     7869     8595 
    8469     7173     5202     3547     2735     2629     2920     3410 
    3943     4737     6162     7635     8021     7045     5443     4310 
    4419     5594     6829     7404     7450     7145     6189     4554 
    3075     2763     3726     5142     6274     6995     7393     7434 
    7076     6465     6037     6238     6705     6380     5040     3861 
    3991     5188     6343     7007     7376     7342     6644     5510 
    4669     4549     4806     4980     5062     5416     6195     6925 
    7173     7150     7111     6741     5802     4707     3801     3025 
    2691     3593     5899     8407     9648     9355     8225     6883 
    5490     4051     2920     2826     4072     5614     5981     5464 
    5767     7179     8093     7524     6459     6241     6758     7172 
    7323     7300     6635     4831     2415      818     1258     3839 
    7365    10044    10767     9753     7641     4932     2602     1651 
    2389     4519     6918     8154     8025     7510     7087     6247 
    4811     3653     3605     4405     5324     6050     6673     7304 
    7763     7495     6107     4322     3688     4828     6508     7111 
    6497     5454     4438     3807     4183     5687     7470     8550 
    8404     7042     5188     3734     3078     3350     4446     5773 
    6696     7086     7213     7364     7450     7053     6035     4654 
    3485     3194     3738     4575     5771     7484     8727     8456 
    7103     5664     4590     4116     4311     4823     5260     5572 
    5875     6243     6625     6845     6957     7123     7028     6334 
    5331     4594     4630     5493     6493     7036     7460     8205 
    8477     7071     4476     2532     2267     3302     4677     5710 
    6401     7145     8039     8560     8206     7321     6650     6266 
    5659     4665     3674     3277     3858     5046     5840     5628 
    4882     4522     4669     4718     4576     4824     5760     6957 
    7812     8086     7756     6924     5891     4974     4162     3269 
    2714     3234     4546     5649     6259     6640     6709     6326 
    5784     5579     5957     6500     6318     5355     4707     4970 
    5590     6035     6349     6566     6527     6335     6389     6993 
    7997     8691     8375     6932     4753     2685     1711     2274 
    3974     5907     7384     8218     8407     7998     7411     7404 
    8070     8343     7275     5194     3310     2732     3697     5339 
    6304     6060     5308     4542     3515     2821     3746     5845 
    6997     6351     5316     5344     6199     6755     6453     5513 
    4486     3942     4228     5250     6477     7249     7210     6566 
    5778     5089     4550     4452     5107     6068     6694     7225 
    7969     8424     8172     7531     6790     5787     4626     3883 
    3955     4661     5698     6975     8164     8662     8037     6361 
    4414     2967     2265     2623     4176     6099     7464     7969 
    7468     6323     5416     4814     4039     3422     3844     5458 
    7346     8533     8954     8981     8509     7203     5339     3888 
    3497     3753     3951     3954     4033     4541     5501     6473 
    7183     7836     8391     8456     8166     8050     8082     7832 
    7187     6427     5769     5093     4147     2879     1729     1337 
    1768     2465     3064     3836     5154     6841     8203     8543 
    7892     7149     7217     8050     8642     8205     7142     6089 
    4986     3939     3532     3713     4032     4754     6107     7472 
    8378     9077     9505     8815     6828     4814     3904     3802 
    3780     3998     4926     6065     6511     6127     5177     3931 
    3087     3184     3790     4248     4627     5298     6108     6586 
    6624     6367     5678     4368     2867     2065     2516     4081 
    6107     7663     8104     7699     7142     6606     5902     5092 
    4429     4140     4321     4838     5543     6353     7064     7586 
    8039     8291     7992     7323     6913     6951     7114     7246 
    7481     7863     8418     9036     9093     8236     7013     6038 
    5316     4538     3732     3287     3250     3304     3283     3250 
    3368     3793     4498     5282     5922     6120     5749     5256 
    5260     5653     5746     5341     4895     4657     4521     4423 
    4382     4487     4887     5616     6481     7173     7466     7340 
    7060     7007     7321     7812     8127     7950     7150     5694 
    3847     2593     2980     4785     6728     8006     8766     9162 
    8893     7886     6508     5215     4540     4834     5776     6678 
    7194     7226     6593     5548     4861     4684     4313     3487 
    3026     3701     5255     6848     7812     7815     6980     5871 
    4992     4507     4359     4398     4521     4625     4575     4338 
    4118     4195     4521     4870     5279     5643     5632     5432 
    5533     5962     6345     6453     6525     6899     7581     8286 
    8527     7889     6434     4735     3539     3407     4390     5829 
    6733     6664     6088     5726     5659     5594     5738     6443 
    7354     7585     6689     5213     4032     3500     3568     4085 
    4872     5806     6766     7473     7635     7302     6764     6138 
    5408     4693     4147     3808     3838     4428     5309     6162 
    7153     8286     8858     8194     6675     5417     5108     5620 
    6343     6786     7055     7377     7534     7290     6971     7087 
    7528     7715     7441     6910     6232     5456     4621     3505 
    2134     1206     1320     2207     3308     4414     5356     5935 
    6205     6120     5497     4762     4664     5151     5683     6124 
    6500     6772     7059     7349     7246     6561     5756     5493 
    5984     6893     7730     8171     7931     6940     5448     3765 
    2388     1890     2350     3352     4390     5020     4980     4590 
    4626     5351     6258     6972     7732     8857    10099    10733 
   10392     9388     8260     7314     6552     5996     5842     6088 
    6385     6378     6092     5826     5751     5814     5949     6178 
    6392     6272     5722     5023     4383     3892     3819     4223 
    4556     4340     3809     3465     3541     4009     4725     5556 
    6558     7761     8861     9396     9170     8406     7460     6477 
    5595     5044     4828     4806     4893     4947     4803     4549 
    4380     4286     4197     4137     4074     4041     4256     4706 
    5027     5076     5046     5044     5053     5039     5066     5300 
    5611     5674     5489     5198     4908     4918     5485     6407 
    7241     7666     7433     6577     5629     5020     4675     4352 
