Origin Time       2014/11/17 08:59:00
Lat.              36.997
Long.             140.595
Depth. (km)       7
Mag.              3.8
Station Code      IBR004
Station Lat.      36.5516
Station Long.     140.4102
Station Height(m) 61
Record Time       2014/11/17 08:59:52
Sampling Freq(Hz) 100Hz
Duration Time(s)  60
Dir.              N-S
Scale Factor      7845(gal)/8223790
Max. Acc. (gal)   8.571
Last Correction   2014/11/17 08:59:52
Memo.             
[...]
   -1906    -1878    -1856    -1858    -1868    -1872    -1877    -1888 
   -1891    -1875    -1859    -1863    -1865    -1867    -1878    -1898 
   -1915    -1915    -1895    -1878    -1880    -1881    -1869    -1857 
   -1865    -1877    -1878    -1872    -1871    -1878    -1877    -1869 
   -1880    -1899    -1902    -1896    -1891    -1878    -1869    -1871 
   -1871    -1865    -1863    -1864    -1867    -1875    -1887    -1895 
   -1899    -1898    -1894    -1888    -1885    -1887    -1890    -1887 
   -1871    -1852    -1846    -1854    -1868    -1884    -1894    -1894 
   -1885    -1880    -1884    -1888    -1885    -1885    -1890    -1885 
   -1875    -1868    -1869    -1871    -1868    -1867    -1871    -1877 
   -1884    -1888    -1887    -1884    -1888    -1892    -1888    -1878 
   -1878    -1888    -1894    -1884    -1865    -1850    -1846    -1856 
   -1876    -1896    -1902    -1892    -1884    -1883    -1883    -1883 
   -1877    -1871    -1873    -1878    -1872    -1867    -1877    -1894 
   -1888    -1873    -1872    -1877    -1871    -1871    -1888    -1898 
   -1891    -1878    -1868    -1863    -1864    -1868    -1876    -1891 
   -1898    -1887    -1880    -1883    -1878    -1872    -1876    -1883 
   -1884    -1878    -1875    -1868    -1865    -1875    -1887    -1898 
   -1906    -1899    -1876    -1857    -1854    -1858    -1865    -1880 
   -1892    -1890    -1877    -1869    -1868    -1867    -1872    -1884 
   -1896    -1900    -1894    -1881    -1873    -1864    -1857    -1868 
   -1885    -1890    -1883    -1881    -1883    -1877    -1877    -1890 
   -1888    -1871    -1865    -1872    -1873    -1876    -1887    -1887 
   -1873    -1863    -1868    -1884    -1891    -1887    -1888    -1892 
   -1885    -1876    -1873    -1873    -1869    -1868    -1873    -1883 
   -1888    -1881    -1865    -1856    -1859    -1877    -1899    -1914 
   -1918    -1900    -1869    -1849    -1846    -1854    -1871    -1894 
   -1908    -1903    -1887    -1872    -1867    -1868    -1872    -1880 
   -1878    -1871    -1869    -1876    -1876    -1871    -1877    -1892 
   -1900    -1892    -1880    -1876    -1876    -1871    -1867    -1873 
   -1881    -1883    -1883    -1881    -1876    -1868    -1865    -1865 
   -1873    -1898    -1912    -1903    -1888    -1878    -1864    -1852 
   -1854    -1861    -1876    -1895    -1902    -1890    -1880    -1881 
   -1883    -1873    -1863    -1867    -1878    -1883    -1877    -1877 
   -1880    -1875    -1872    -1883    -1896    -1898    -1885    -1869 
   -1864    -1869    -1877    -1883    -1884    -1880    -1873    -1864 
   -1859    -1863    -1872    -1890    -1902    -1898    -1888    -1878 
   -1864    -1858    -1872    -1884    -1888    -1887    -1884    -1884 
   -1887    -1885    -1877    -1873    -1872    -1871    -1871    -1872 
   -1877    -1884    -1885    -1884    -1880    -1877    -1876    -1868 
   -1856    -1864    -1885    -1898    -1899    -1891    -1878    -1872 
   -1876    -1878    -1873    -1873    -1885    -1892    -1883    -1876 
   -1884    -1892    -1890    -1876    -1864    -1856    -1854    -1865 
   -1887    -1899    -1895    -1885    -1878    -1884    -1890    -1880 
   -1872    -1877    -1880    -1876    -1876    -1877    -1883    -1885 
   -1877    -1867    -1867    -1872    -1871    -1876    -1885    -1885 
   -1878    -1880    -1881    -1881    -1881    -1881    -1883    -1884 
   -1890    -1894    -1894    -1890    -1887    -1880    -1864    -1854 
   -1859    -1868    -1868    -1863    -1868    -1880    -1887    -1891 
   -1894    -1884    -1869    -1863    -1872    -1892    -1911    -1918 
   -1904    -1876    -1857    -1857    -1875    -1902    -1921    -1911 
   -1878    -1845    -1829    -1841    -1871    -1896    -1907    -1890 
   -1856    -1838    -1849    -1875    -1903    -1918    -1910    -1892 
   -1881    -1878    -1875    -1868    -1869    -1876    -1887    -1896 
   -1890    -1875    -1863    -1852    -1854    -1878    -1904    -1915 
   -1906    -1884    -1852    -1823    -1818    -1841    -1884    -1930 
   -1954    -1948    -1919    -1876    -1840    -1826    -1838    -1856 
   -1875    -1900    -1922    -1919    -1896    -1864    -1838    -1829 
   -1833    -1858    -1896    -1922    -1918    -1900    -1883    -1867 
   -1852    -1848    -1872    -1904    -1914    -1906    -1898    -1891 
   -1878    -1865    -1857    -1856    -1858    -1873    -1890    -1895 
   -1891    -1881    -1873    -1867    -1864    -1867    -1875    -1887 
   -1900    -1907    -1902    -1888    -1876    -1861    -1854    -1861 
   -1873    -1880    -1888    -1896    -1895    -1885    -1877    -1872 
   -1865    -1865    -1872    -1881    -1885    -1884    -1878    -1876 
   -1884    -1892    -1898    -1892    -1872    -1856    -1859    -1875 
   -1887    -1892    -1891    -1892    -1903    -1921    -1939    -1956 
   -1975    -2000    -2003    -1952    -1868    -1800    -1736    -1640 
   -1556    -1553    -1629    -1741    -1880    -2016    -2084    -2060 
   -1996    -1937    -1878    -1872    -1984    -2161    -2232    -2104 
   -1894    -1729    -1588    -1503    -1626    -1883    -1996    -1939 
   -1878    -1857    -1830    -1830    -1937    -2104    -2124    -1922 
   -1675    -1541    -1593    -1869    -2172    -2235    -2144    -1982 
   -1667    -1431    -1574    -1956    -2343    -2619    -2697    -2504 
   -2014    -1429    -1039     -814     -658     -753    -1182    -1784 
   -2436    -2970    -3075    -2745    -2280    -1821    -1506    -1537 
   -1826    -2081    -2174    -2163    -1981    -1591    -1345    -1506 
   -1821    -1982    -1956    -1819    -1690    -1590    -1490    -1535 
   -1831    -2177    -2366    -2442    -2434    -2182    -1833    -1701 
   -1663    -1561    -1606    -1830    -1966    -1937    -1780    -1532 
   -1395    -1528    -1856    -2284    -2605    -2617    -2425    -2083 
   -1611    -1344    -1393    -1522    -1763    -2101    -2138    -1859 
   -1701    -1675    -1629    -1775    -2153    -2444    -2550    -2590 
   -2434    -1981    -1613    -1571    -1610    -1524    -1343    -1230 
   -1279    -1426    -1665    -1948    -2015    -1845    -1786    -1969 
   -2214    -2461    -2648    -2644    -2479    -2161    -1657    -1185 
   -1021    -1202    -1601    -2031    -2300    -2359    -2196    -1790 
   -1385    -1270    -1449    -1818    -2224    -2452    -2420    -2209 
   -1925    -1644    -1471    -1499    -1682    -1885    -1998    -1930 
   -1714    -1530    -1570    -1836    -2114    -2280    -2332    -2220 
   -2020    -1819    -1598    -1544    -1821    -2154    -2269    -2215 
   -2030    -1645    -1297    -1391    -1806    -2150    -2397    -2606 
   -2554    -2073    -1444    -1081    -1136    -1560    -2053    -2280 
   -2293    -2215    -1952    -1637    -1502    -1413    -1275    -1296 
   -1502    -1674    -1734    -1822    -2052    -2378    -2565    -2494 
   -2371    -2354    -2366    -2290    -2049    -1597    -1123    -1016 
   -1321    -1732    -2046    -2151    -2056    -1996    -2030    -1929 
   -1734    -1746    -1930    -2046    -2060    -1948    -1702    -1506 
   -1514    -1717    -2014    -2250    -2301    -2173    -1962    -1738 
   -1452    -1162    -1235    -1768    -2249    -2392    -2413    -2327 
   -2052    -1790    -1661    -1583    -1535    -1506    -1463    -1560 
   -1961    -2398    -2498    -2336    -2172    -1991    -1798    -1836 
   -2050    -2107    -1981    -1752    -1408    -1189    -1271    -1507 
   -1791    -2026    -2092    -2120    -2178    -2041    -1790    -1792 
   -1954    -1982    -1977    -2007    -1872    -1629    -1586    -1767 
   -1982    -2134    -2141    -2042    -1993    -1939    -1830    -1823 
   -1911    -1993    -2104    -2187    -2147    -2011    -1729    -1341 
   -1143    -1185    -1298    -1590    -2074    -2413    -2492    -2423 
   -2143    -1705    -1453    -1495    -1648    -1833    -2042    -2143 
   -2019    -1810    -1748    -1871    -2091    -2257    -2293    -2250 
   -2066    -1777    -1594    -1466    -1289    -1293    -1620    -2038 
   -2288    -2319    -2226    -2037    -1781    -1649    -1705    -1776 
   -1822    -1876    -1840    -1741    -1755    -1873    -1991    -2066 
   -2034    -1859    -1617    -1457    -1597    -2031    -2373    -2404 
   -2289    -2101    -1795    -1513    -1483    -1672    -1869    -2039 
   -2192    -2200    -2003    -1733    -1567    -1586    -1775    -2038 
   -2241    -2300    -2196    -1945    -1584    -1301    -1352    -1668 
   -1925    -2016    -2026    -1946    -1830    -1859    -1993    -2037 
   -1958    -1813    -1657    -1549    -1476    -1478    -1645    -1912 
   -2211    -2548    -2674    -2403    -2011    -1698    -1462    -1472 
   -1784    -2163    -2436    -2482    -2157    -1586    -1182    -1235 
   -1626    -1987    -2160    -2238    -2133    -1745    -1343    -1227 
   -1368    -1611    -1915    -2195    -2280    -2193    -2101    -1991 
   -1815    -1718    -1741    -1763    -1852    -2097    -2282    -2243 
   -2049    -1776    -1545    -1491    -1617    -1930    -2309    -2405 
   -2128    -1794    -1632    -1595    -1667    -1814    -1838    -1763 
   -1796    -1822    -1728    -1733    -1883    -1973    -2052    -2236 
   -2319    -2174    -1989    -1857    -1757    -1767    -1800    -1669 
   -1451    -1383    -1544    -1788    -2025    -2311    -2536    -2502 
   -2246    -1956    -1818    -1799    -1657    -1455    -1499    -1742 
   -1946    -2083    -2110    -1948    -1696    -1479    -1391    -1579 
   -2010    -2431    -2579    -2397    -2026    -1543    -1039     -843 
   -1080    -1431    -1748    -2157    -2508    -2624    -2658    -2552 
   -2204    -1954    -1968    -1945    -1777    -1655    -1615    -1595 
   -1605    -1642    -1725    -1952    -2288    -2448    -2305    -1996 
   -1602    -1247    -1161    -1381    -1722    -1972    -2018    -1982 
   -2053    -2114    -2008    -2019    -2258    -2281    -1981    -1744 
   -1584    -1402    -1483    -1842    -2124    -2269    -2365    -2316 
   -2091    -1813    -1549    -1331    -1264    -1431    -1776    -2121 
   -2276    -2215    -2106    -2039    -1891    -1679    -1649    -1759 
   -1807    -1850    -1895    -1810    -1694    -1733    -1884    -2011 
   -2065    -1975    -1746    -1554    -1570    -1807    -2150    -2428 
   -2423    -2033    -1483    -1155    -1256    -1675    -2255    -2832 
   -2964    -2457    -1755    -1312    -1175    -1304    -1734    -2192 
   -2254    -1991    -1725    -1597    -1610    -1721    -1863    -1935 
   -1934    -1939    -1915    -1914    -2058    -2169    -2041    -1857 
   -1719    -1460    -1279    -1497    -1877    -2160    -2404    -2529 
   -2396    -2068    -1594    -1060     -778     -911    -1250    -1649 
   -2139    -2581    -2717    -2560    -2401    -2403    -2473    -2459 
   -2209    -1732    -1181     -711     -750    -1660    -2928    -3748 
   -3759    -2859    -1269      360     1213      665    -1170    -3474 
   -5347    -5950    -4725    -2015      967     3006     3179     1078 
   -2431    -5675    -7480    -7233    -4847    -1445     1193     2234 
    1892      573    -1131    -2471    -2999    -2731    -2023    -1239 
    -741    -1169    -2782    -4635    -5413    -4748    -3088     -978 
     940     1972     1740      434    -1447    -3501    -5266    -6133 
   -5783    -4363    -2286     -105     1699     2767     2725     1456 
    -576    -2762    -4650    -5811    -6076    -5717    -4911    -3462 
   -1395      662     1859     1660      427     -838    -1568    -1719 
   -1414    -1237    -2007    -3645    -4986    -5294    -4750    -3388 
   -1305      731     1896     1787      454    -1553    -3473    -4600 
   -4542    -3565    -2362    -1363     -592     -201     -649    -1772 
   -2659    -3073    -3472    -3535    -2548     -778      835     1579 
     908    -1223    -3688    -4912    -4178    -2154     -531     -643 
   -2301    -4220    -4895    -3268       99     2813     2685     -430 
   -4923    -8411    -8901    -6022     -953     4278     7014     5432 
     666    -4256    -7307    -7793    -5738    -2454      -62      299 
    -973    -2766    -3888    -3377    -1138     1575     3142     2932 
     985    -2461    -6095    -7836    -6880    -4097     -719     1849 
    2196      540    -1343    -2466    -3121    -3649    -3991    -3774 
   -2778    -1544     -756     -503     -903    -2114    -3519    -4324 
   -4223    -2828     -112     2565     3422     1796    -1598    -5182 
   -7311    -7213    -5232    -2331      481     2484     3115     1850 
    -976    -3750    -5042    -4696    -3273    -1621     -545     -168 
    -456    -1744    -3628    -4612    -3835    -1975      -74     1192 
    1194     -174    -2143    -3736    -4342    -3851    -2555     -931 
     403      649     -724    -3241    -5721    -7061    -6343    -3219 
    1235     4793     5678     3615     -477    -4989    -8073    -8461 
   -6463    -3987    -2446    -1462     -607     -232     -129      410 
    1359     1911     1306     -635    -3404    -6023    -7422    -6802 
   -4194     -777     1841     2608     1502     -383    -1895    -2975 
   -3839    -4107    -3611    -2787    -2057    -1486     -967     -557 
    -463     -715    -1101    -1556    -2149    -2538    -2396    -2128 
   -2280    -2532    -2130    -1123     -303     -342    -1621    -3817 
   -5576    -5713    -4232    -1788      861     2686     2706      807 
   -2254    -5383    -7340    -7231    -5161    -1826     2031     5208 
    6143     4162      -71    -5202    -9444   -10864    -8818    -4644 
    -266     3109     4810     4442     2280     -864    -4097    -6405 
   -6839    -5279    -2647     -143     1212      788    -1084    -3287 
   -4769    -4874    -3514    -1624     -702    -1209    -2022    -1979 
   -1077       63      857      675    -1000    -3819    -6278    -6777 
   -4994    -1919     1171     3154     3204     1331    -1568    -4228 
   -5516    -5062    -3488    -1575      140      818     -160    -2134 
   -3894    -4888    -4963    -3859    -1776      255     1416     1750 
    1277     -288    -2544    -4355    -4915    -4174    -2677    -1316 
    -845    -1308    -2096    -2569    -2397    -1713    -1142    -1221 
   -1817    -2357    -2506    -2366    -2104    -1884    -2065    -2751 
   -3242    -2654    -1177       52      376       86     -488    -1381 
   -2421    -3199    -3643    -3850    -3645    -2759    -1333     -129 
     153     -321    -1062    -1937    -2797    -3095    -2477    -1412 
    -801    -1053    -1878    -2886    -3766    -3964    -3150    -1791 
    -616      -51     -336    -1386    -2520    -2922    -2490    -1823 
   -1424    -1494    -2081    -2781    -2967    -2425    -1431     -421 
     289      311     -675    -2304    -3703    -4210    -3682    -2502 
   -1350     -734     -634     -808    -1282    -1941    -2208    -1930 
   -1719    -1965    -2488    -3026    -3248    -2805    -2003    -1561 
   -1574    -1597    -1578    -1707    -1861    -1864    -1803    -1718 
   -1502    -1244    -1154    -1208    -1350    -1632    -1958    -2070 
   -1867    -1649    -1842    -2489    -3336    -3915    -3615    -2473 
   -1291     -687     -650    -1059    -1819    -2513    -2686    -2324 
   -1790    -1456    -1251     -890     -556     -602    -1105    -1966 
   -2899    -3582    -3769    -3217    -1958     -557      222        5 
   -1094    -2648    -3942    -4291    -3454    -1714      129     1144 
     822     -668    -2528    -3850    -4255    -3809    -2706    -1431 
    -758    -1074    -1914    -2536    -2714    -2516    -1899    -1096 
    -702    -1011    -1811    -2756    -3385    -3198    -2155     -754 
     380      766      170    -1344    -3211    -4407    -4288    -3138 
   -1669     -480      137       47     -881    -2470    -4006    -4700 
   -4320    -3164    -1564      128     1125      550    -1416    -3423 
   -4353    -4140    -3187    -1865     -767     -552    -1228    -2196 
   -2917    -3071    -2498    -1476     -635     -369     -622    -1161 
   -1799    -2350    -2617    -2527    -2123    -1507     -907     -608 
    -762    -1409    -2401    -3227    -3327    -2631    -1593     -769 
    -441     -614    -1237    -2220    -3280    -3936    -3816    -2992 
   -1844     -741      -70      -85     -680    -1637    -2785    -3684 
   -3716    -2763    -1494     -711     -661    -1182    -2053    -2893 
   -3171    -2727    -1964    -1339    -1073    -1217    -1682    -2363 
   -3079    -3362    -2899    -2049    -1426    -1217    -1159    -1070 
   -1059    -1219    -1459    -1660    -1878    -2245    -2619    -2590 
   -2031    -1444    -1312    -1459    -1541    -1502    -1374    -1281 
   -1404    -1687    -1989    -2263    -2357    -2116    -1660    -1255 
   -1117    -1417    -2245    -3353    -4139    -4039    -2874    -1047 
     506      924       10    -1781    -3626    -4683    -4646    -3794 
   -2531    -1217     -230      144     -125     -859    -1796    -2658 
   -3080    -2907    -2458    -1953    -1296     -658     -328     -299 
    -687    -1609    -2651    -3299    -3430    -3046    -2234    -1429 
   -1185    -1588    -2232    -2732    -2917    -2654    -1968    -1254 
    -922     -924    -1081    -1352    -1582    -1660    -1780    -2061 
   -2316    -2382    -2328    -2239    -2068    -1878    -1896    -2139 
   -2297    -2124    -1714    -1356    -1325    -1702    -2285    -2767 
   -2940    -2660    -1977    -1232     -750     -739    -1287    -1946 
   -2111    -1848    -1517    -1163     -896    -1038    -1675    -2655 
   -3678    -4195    -3747    -2525    -1183     -203      261      147 
    -471    -1206    -1765    -2278    -2822    -3156    -3219    -3184 
   -2952    -2452    -1958    -1626    -1425    -1460    -1655    -1563 
   -1204    -1143    -1424    -1692    -1942    -2196    -2343    -2392 
   -2330    -2023    -1476     -984     -920    -1389    -2124    -2718 
   -2995    -3051    -2853    -2272    -1551    -1128    -1215    -1780 
   -2477    -2763    -2442    -1788    -1154     -792     -820    -1179 
   -1761    -2417    -2783    -2583    -2006    -1420    -1067     -985 
   -1046    -1138    -1183    -1281    -1742    -2569    -3306    -3612 
   -3431    -2776    -1844    -1093     -816     -926    -1344    -1980 
   -2533    -2751    -2550    -1980    -1333    -1023    -1235    -1784 
   -2344    -2596    -2303    -1667    -1196    -1111    -1337    -1786 
   -2323    -2664    -2565    -2144    -1728    -1548    -1672    -1911 
   -2085    -2199    -2146    -1825    -1391    -1093    -1026    -1151 
   -1524    -2246    -3015    -3357    -3176    -2620    -1844    -1146 
    -861    -1042    -1554    -2220    -2659    -2524    -1930    -1289 
    -936    -1047    -1537    -2106    -2486    -2463    -1942    -1146 
    -515     -445    -1123    -2408    -3716    -4363    -4233    -3589 
   -2427     -908      186      318     -282    -1204    -2144    -2633 
   -2297    -1440     -816     -892    -1652    -2754    -3612    -3748 
   -3095    -1906     -756     -318     -772    -1725    -2771    -3561 
   -3623    -2863    -1744     -652      191      332     -542    -1937 
   -2994    -3289    -2866    -2050    -1308     -959    -1202    -2014 
   -2855    -3136    -2785    -2087    -1387    -1003    -1053    -1391 
   -1794    -2053    -2111    -2181    -2371    -2471    -2290    -1891 
