Origin Time       2014/11/17 08:59:00
Lat.              36.997
Long.             140.595
Depth. (km)       7
Mag.              3.8
Station Code      IBR004
Station Lat.      36.5516
Station Long.     140.4102
Station Height(m) 61
Record Time       2014/11/17 08:59:52
Sampling Freq(Hz) 100Hz
Duration Time(s)  60
Dir.              U-D
Scale Factor      7845(gal)/8223790
Max. Acc. (gal)   3.330
Last Correction   2014/11/17 08:59:52
Memo.             
[...]
   14724    14737    14752    14754    14746    14739    14736    14739 
   14743    14744    14743    14737    14732    14731    14739    14747 
   14755    14757    14755    14747    14743    14735    14732    14732 
   14735    14742    14744    14744    14747    14747    14740    14731 
   14732    14743    14752    14751    14743    14740    14740    14742 
   14744    14750    14752    14744    14736    14737    14739    14739 
   14743    14747    14737    14729    14736    14747    14754    14752 
   14739    14727    14728    14742    14747    14736    14739    14763 
   14759    14728    14723    14744    14756    14750    14736    14732 
   14742    14755    14750    14736    14733    14746    14756    14747 
   14725    14714    14729    14747    14751    14750    14747    14743 
   14736    14737    14742    14742    14742    14747    14751    14746 
   14735    14735    14744    14746    14746    14743    14736    14739 
   14752    14755    14744    14736    14736    14737    14742    14750 
   14750    14740    14735    14737    14743    14750    14747    14740 
   14732    14731    14739    14747    14744    14740    14737    14739 
   14744    14750    14752    14752    14746    14735    14737    14747 
   14750    14747    14746    14740    14737    14735    14733    14736 
   14744    14747    14747    14744    14747    14751    14744    14732 
   14729    14739    14751    14755    14747    14731    14727    14739 
   14752    14754    14747    14751    14752    14743    14731    14728 
   14732    14735    14736    14742    14750    14754    14747    14737 
   14739    14744    14744    14740    14739    14743    14747    14744 
   14736    14733    14740    14750    14751    14746    14739    14737 
   14742    14747    14744    14736    14735    14740    14746    14751 
   14747    14737    14729    14731    14743    14756    14762    14754 
   14739    14725    14724    14732    14742    14744    14736    14732 
   14742    14752    14755    14759    14759    14755    14743    14733 
   14740    14744    14735    14725    14729    14737    14736    14736 
   14751    14757    14747    14736    14740    14755    14763    14759 
   14751    14739    14723    14721    14736    14750    14747    14733 
   14728    14736    14746    14746    14742    14742    14751    14757 
   14752    14744    14742    14744    14742    14731    14727    14731 
   14736    14736    14732    14736    14750    14754    14747    14744 
   14747    14752    14759    14757    14744    14728    14721    14728 
   14735    14733    14736    14747    14757    14757    14747    14735 
   14735    14744    14750    14754    14752    14743    14727    14720 
   14728    14737    14743    14747    14750    14750    14751    14747 
   14742    14737    14742    14747    14747    14742    14739    14740 
   14742    14739    14735    14735    14737    14739    14740    14743 
   14747    14751    14747    14746    14744    14747    14747    14746 
   14737    14735    14736    14737    14743    14747    14747    14744 
   14746    14751    14743    14729    14728    14740    14747    14743 
   14742    14747    14750    14746    14743    14742    14740    14747 
   14754    14747    14737    14729    14728    14737    14751    14757 
   14755    14744    14737    14736    14736    14737    14744    14747 
   14747    14752    14754    14739    14728    14737    14747    14750 
   14744    14739    14742    14744    14743    14744    14747    14742 
   14736    14739    14744    14747    14747    14740    14735    14733 
   14737    14747    14751    14743    14736    14732    14735    14746 
   14759    14766    14763    14747    14727    14721    14735    14747 
   14747    14743    14742    14743    14740    14736    14740    14750 
   14751    14746    14740    14736    14737    14751    14755    14739 
   14724    14727    14737    14743    14742    14739    14743    14755 
   14755    14744    14739    14735    14732    14742    14755    14756 
   14739    14724    14729    14742    14747    14747    14740    14735 
   14733    14739    14751    14759    14756    14747    14737    14731 
   14735    14746    14750    14740    14731    14731    14736    14742 
   14739    14733    14739    14751    14751    14742    14742    14751 
   14754    14746    14736    14729    14733    14746    14754    14747 
   14733    14725    14731    14747    14756    14752    14740    14737 
   14744    14755    14759    14747    14732    14727    14733    14744 
   14747    14747    14747    14744    14733    14731    14743    14754 
   14751    14746    14742    14743    14746    14736    14725    14728 
   14739    14746    14744    14746    14750    14747    14747    14747 
   14744    14735    14732    14737    14744    14744    14740    14739 
   14742    14742    14746    14750    14747    14744    14747    14751 
   14747    14737    14737    14743    14746    14744    14740    14737 
   14742    14746    14746    14744    14736    14731    14735    14744 
   14747    14750    14751    14746    14733    14729    14737    14747 
   14750    14740    14732    14735    14744    14751    14747    14744 
   14743    14739    14733    14739    14750    14754    14755    14757 
   14750    14729    14720    14731    14743    14744    14740    14746 
   14754    14747    14739    14742    14747    14744    14742    14740 
   14739    14739    14737    14735    14732    14732    14733    14736 
   14742    14747    14754    14756    14747    14733    14733    14750 
   14759    14752    14743    14742    14746    14747    14740    14728 
   14721    14727    14740    14751    14755    14752    14743    14732 
   14727    14727    14735    14755    14769    14756    14733    14723 
   14721    14727    14740    14752    14759    14755    14737    14731 
   14743    14757    14762    14760    14756    14742    14720    14713 
   14720    14731    14744    14754    14752    14742    14729    14727 
   14733    14743    14750    14752    14754    14750    14743    14737 
   14737    14739    14735    14733    14743    14755    14757    14754 
   14752    14747    14737    14728    14735    14746    14746    14739 
   14733    14733    14733    14736    14744    14756    14763    14751 
   14728    14719    14733    14755    14771    14770    14750    14731 
   14728    14736    14740    14737    14732    14735    14739    14733 
   14732    14743    14750    14747    14747    14752    14750    14739 
   14737    14747    14762    14762    14746    14728    14724    14729 
   14737    14747    14754    14747    14733    14735    14750    14751 
   14742    14740    14742    14737    14737    14746    14747    14740 
   14731    14733    14735    14739    14747    14752    14747    14743 
   14744    14744    14744    14743    14737    14735    14739    14742 
   14739    14743    14751    14747    14736    14732    14737    14747 
   14760    14783    14821    14886    14971    15057    15128    15165 
   15136    14960    14598    14172    13879    13753    13684    13706 
   14014    14652    15384    15871    15819    15205    14513    14296 
   14523    14804    15041    15394    15693    15404    14569    14021 
   14100    14342    14570    14897    15024    14693    14293    14354 
   14871    15296    15222    14864    14438    14138    14400    14893 
   14949    14940    15136    14920    14288    14076    14612    15342 
   15513    14988    14307    13960    14237    15182    15761    15070 
   14137    14010    14362    14858    15211    15173    14949    14681 
   14539    14605    14729    14990    15196    15016    14766    14697 
   14701    14917    15225    15120    14628    14176    13929    13884 
   14013    14103    14172    14655    15421    15750    15510    15095 
   14746    14651    14924    15076    14678    14358    14528    14698 
   14789    14855    14764    14789    14706    14207    14187    15006 
   15716    15786    15167    14050    13401    13799    14565    15086 
   15321    15215    14893    14775    14881    14529    13834    13967 
   14862    15460    15553    15161    14270    13834    14658    15696 
   15661    15030    14615    14416    14357    14443    14547    14440 
   14307    14689    15238    15205    14837    14609    14607    14905 
   15219    15163    14798    14324    14150    14505    14820    14790 
   14757    14697    14580    14770    15105    14922    14389    14326 
   14740    15064    15052    14736    14395    14295    14504    15070 
   15515    15307    14864    14638    14592    14708    14770    14638 
   14438    14270    14482    15006    15109    14771    14724    15014 
   14872    14216    14071    14651    15124    15275    15221    14787 
   14168    14123    15060    15909    15384    14196    13848    14369 
   14982    15222    14778    14000    13801    14284    14836    15145 
   15379    15660    15599    14818    13770    13327    13917    15255 
   16209    15643    14064    13314    14310    15807    16133    15106 
   13759    13333    14403    15990    16180    14666    13360    13686 
   15088    16027    15539    14334    13786    14176    14924    15391 
   15047    14237    14108    14889    15431    14958    14214    14188 
   14780    15417    15657    15028    13817    13456    14575    15839 
   15984    15296    14450    13915    14113    14724    15059    15029 
   14804    14524    14392    14422    14569    14790    15049    15309 
   15137    14432    14033    14319    14804    15129    15074    14596 
   14321    14585    14868    14949    14910    14740    14818    15172 
   15034    14381    14150    14517    14760    14798    14906    14766 
   14512    14713    14985    14818    14634    14737    14871    14958 
   14925    14584    14364    14661    15060    15206    14962    14403 
   14303    14786    15040    14895    14594    14291    14378    14800 
   15076    15144    15025    14800    14646    14557    14694    14939 
   14868    14671    14492    14249    14361    14941    15321    15066 
   14454    14096    14338    14932    15502    15747    15322    14361 
   13695    13888    14623    15128    15028    14727    14646    14685 
   14810    14968    14823    14702    15084    15304    14837    14177 
   13886    14274    15091    15414    14859    14130    14137    15017 
   15854    15577    14419    13663    13980    14852    15447    15433 
   14943    14323    14118    14598    15157    15083    14667    14539 
   14654    14592    14393    14424    14762    15233    15465    15013 
   14203    14092    14778    15144    14856    14602    14596    14698 
   15044    15369    15018    14327    14210    14558    14783    14801 
   14895    15142    14925    14179    14021    14756    15490    15707 
   15371    14513    13590    13454    14373    15527    15796    15009 
   14045    13792    14536    15646    15869    14960    14115    14161 
   14750    15261    15217    14499    13773    13806    14615    15512 
   15680    15118    14539    14424    14777    14974    14538    14141 
   14436    15001    15165    14941    14832    14833    14613    14407 
   14508    14678    14675    14783    15215    15353    14850    14319 
   14077    14021    14376    15090    15479    15151    14652    14609 
   14782    14941    15140    14951    14449    14395    14694    14794 
   14708    14647    14631    14512    14446    14843    15250    15018 
   14712    14843    14868    14435    13907    13859    14488    15296 
   15812    15893    15272    14229    13803    14305    15003    15325 
   15118    14501    14173    14625    15209    15128    14473    13991 
   14187    14751    15322    15583    14960    14040    14044    14704 
   15121    15124    14916    14851    15040    15067    14593    13836 
   13639    14544    15641    15764    15020    14230    14118    14621 
   14887    14520    14067    14251    15145    15985    15889    14793 
   13749    13852    14897    15639    15244    14129    13568    14291 
   15498    15965    15411    14384    13861    14396    15201    15253 
   14659    14170    14316    14910    15246    15074    14651    14339 
   14462    14810    14951    14832    14619    14740    15179    15071 
   14338    14037    14500    14931    14974    14939    14793    14589 
   14806    15196    15061    14629    14628    14987    15005    14511 
   13975    13732    14044    15057    16001    15978    15155    14017 
   13167    13451    14850    16096    15876    14611    13926    14326 
   15178    15781    15529    14467    13545    13653    14548    15187 
   15140    14806    14531    14505    14818    15210    15437    15483 
   14909    13695    13232    14212    15407    15923    15858    15102 
   14158    14303    15376    15915    15333    14316    13799    13771 
   13725    13891    14350    14802    15317    15584    15279    14769 
   14351    14350    14785    14970    14809    14600    14260    14318 
   15070    15488    15064    14528    14551    15183    15749    15502 
   14644    13737    13103    13371    14650    15754    15800    15071 
   14177    13703    14141    15367    16532    16831    15913    13890 
   12179    12575    14512    15889    16002    15461    14798    14385 
   14615    15368    15471    14220    13113    13668    15161    16232 
   16190    15097    13981    13652    13892    14265    14615    14948 
   15353    15527    14704    13383    13428    14962    16047    15654 
   14354    13247    13312    14886    17202    18162    16222    12951 
   11346    12471    15214    17443    17328    14675    11546    11252 
   14409    17532    17684    15327    13049    13285    15462    16638 
   15484    13581    13131    14326    15579    15764    14779    13365 
   13144    14714    16391    16700    15900    14577    13420    13096 
   13452    14349    15539    15866    15063    14382    14400    14740 
   15325    15846    15473    14445    14083    14698    15367    15364 
   14658    13676    12927    12919    13971    15426    16124    15799 
   15163    15031    15487    15747    14993    13541    12829    13714 
   15214    15741    15079    14200    14080    14871    15641    15639 
   15169    14588    13960    13690    13977    14503    15271    16225 
   16410    15313    13892    13116    13267    14172    15090    15736 
   16174    15747    14706    14288    14262    13872    13664    14230 
   15411    16552    16453    14663    12683    12289    13451    14964 
   16027    16248    15650    15120    14993    14484    13644    13383 
   13950    15199    16495    16579    15327    14062    13795    14315 
   14693    14553    14307    14489    15241    15746    15111    13995 
   13819    14720    15485    15171    14102    13374    13760    15074 
   16239    16453    15826    14594    13412    13378    14470    15552 
   15692    14895    14202    14485    15291    15583    14913    13809 
   13350    13857    14662    15248    15421    15201    14959    14877 
   14783    14550    14462    14910    15437    14965    13375    12343 
   13198    14912    16282    16923    16283    15093    14769    14991 
   14816    14326    14014    13959    13930    14116    14739    15330 
   15685    15924    15692    14886    13829    13138    13593    14620 
   14918    14640    14607    14925    15311    15589    15447    14654 
   13851    13882    14642    15282    15148    14571    14342    14747 
   15660    16440    16201    14867    13266    12557    13333    14620 
   15005    14554    14384    15075    15986    16048    15232    14343 
   13976    14301    14780    14816    14670    14846    15450    15917 
   15383    14090    13304    13691    14652    15113    14945    14790 
   14787    14988    15487    15642    15036    14204    13710    13817 
   14539    15299    15361    14688    14014    14187    15078    15506 
   14851    13772    13186    13747    15427    16937    16843    15261 
   13660    13251    13787    14462    15039    15183    14948    15128 
   15272    14671    14370    14924    15464    15479    14953    14185 
   13776    13987    14632    15071    14856    14669    15106    15643 
   15728    15147    14007    13224    13536    14709    15912    15989 
   14736    13640    13707    14176    14504    15010    15484    15484 
   15125    14613    14014    13649    14029    15031    15939    16119 
   15369    14307    13819    13984    14377    14835    15282    15346 
   14848    14432    14685    15117    15206    15168    14922    14296 
   13921    14288    14997    15457    15371    14783    14100    13848 
   14324    15051    15260    15136    15003    14546    14112    14268 
   14608    14979    15581    15822    15263    14449    14007    14085 
   14490    14939    15232    15244    14937    14528    14283    14281 
   14539    14800    14651    14321    14372    14782    15090    15137 
   15101    14982    14757    14397    13732    13327    13988    15234 
   16086    16127    15442    14670    14347    14520    14964    15140 
   14918    14787    14783    14604    14337    14148    14278    14801 
   15140    15056    14913    14677    14298    14191    14449    14701 
   14852    15121    15414    15493    15242    14638    14158    14418 
   15173    15446    14881    14255    13941    13678    13913    14829 
   15502    15445    14955    14281    13892    14249    15009    15531 
   15655    15446    15025    14577    14220    14003    13910    14134 
   14716    15025    14846    14808    15091    15337    15282    14844 
   14337    14308    14732    15093    15183    15020    14531    14068 
   14246    14929    15400    15290    14786    14287    14129    14644 
   15638    16124    15550    14418    13555    13456    14057    14916 
   15445    15264    14681    14374    14539    14821    14914    14860 
   14620    14243    14293    14910    15348    15173    14737    14506 
   14489    14481    14652    14976    15045    14887    14623    14260 
   14134    14372    14780    15149    15169    14926    14806    14812 
   14742    14505    14295    14544    15088    15215    14867    14594 
   14619    14769    14872    14872    14860    14868    14844    14852 
   14916    14897    14640    14264    14265    14821    15288    15091 
   14577    14430    14823    15282    15097    14315    13819    14073 
   14696    15137    15074    14601    14262    14519    15068    15121 
   14681    14559    14932    15161    14929    14623    14580    14627 
   14631    14775    15043    15094    14848    14566    14364    14341 
   14534    14592    14477    14696    15241    15566    15340    14677 
   14084    14073    14581    15033    15031    14810    14823    15016 
   15084    15111    15010    14463    13821    13803    14467    15223 
   15562    15353    14778    14218    14080    14519    15145    15376 
   15206    14926    14488    14131    14274    14651    14924    15082 
   14967    14544    14220    14403    14868    15059    14978    14727 
   14347    14462    15152    15622    15562    14997    14176    13883 
   14245    14742    15095    14965    14389    14079    14303    14782 
   15264    15346    14816    14288    14426    14985    15388    15392 
   14948    14334    14056    14331    14978    15429    15184    14597 
   14368    14528    14719    14713    14462    14208    14265    14677 
   15196    15327    14928    14569    14662    14949    15094    15044 
