Origin Time       2014/11/17 08:59:00
Lat.              36.997
Long.             140.595
Depth. (km)       7
Mag.              3.8
Station Code      IBR004
Station Lat.      36.5516
Station Long.     140.4102
Station Height(m) 61
Record Time       2014/11/17 08:59:52
Sampling Freq(Hz) 100Hz
Duration Time(s)  60
Dir.              E-W
Scale Factor      7845(gal)/8223790
Max. Acc. (gal)   7.011
Last Correction   2014/11/17 08:59:52
Memo.             
[...]
   -1759    -1750    -1742    -1746    -1750    -1748    -1755    -1771 
   -1772    -1757    -1748    -1737    -1717    -1713    -1728    -1746 
   -1757    -1760    -1760    -1752    -1738    -1740    -1746    -1744 
   -1745    -1761    -1764    -1749    -1745    -1752    -1746    -1734 
   -1734    -1741    -1742    -1746    -1764    -1772    -1759    -1744 
   -1748    -1750    -1737    -1732    -1744    -1750    -1745    -1750 
   -1759    -1748    -1729    -1734    -1750    -1755    -1745    -1748 
   -1760    -1761    -1755    -1752    -1752    -1744    -1737    -1736 
   -1736    -1745    -1755    -1746    -1746    -1771    -1780    -1757 
   -1729    -1723    -1741    -1744    -1729    -1741    -1768    -1760 
   -1745    -1761    -1776    -1761    -1740    -1737    -1738    -1723 
   -1715    -1742    -1772    -1772    -1764    -1761    -1746    -1728 
   -1729    -1748    -1755    -1753    -1755    -1764    -1761    -1744 
   -1725    -1713    -1715    -1734    -1760    -1773    -1769    -1765 
   -1764    -1757    -1752    -1755    -1759    -1746    -1734    -1740 
   -1750    -1750    -1748    -1749    -1746    -1740    -1737    -1740 
   -1734    -1733    -1748    -1760    -1760    -1761    -1767    -1765 
   -1761    -1755    -1742    -1729    -1723    -1728    -1732    -1729 
   -1744    -1771    -1781    -1769    -1761    -1757    -1744    -1729 
   -1738    -1755    -1755    -1749    -1752    -1746    -1723    -1715 
   -1732    -1750    -1759    -1765    -1769    -1761    -1744    -1744 
   -1749    -1748    -1745    -1749    -1753    -1746    -1736    -1732 
   -1736    -1742    -1755    -1765    -1761    -1749    -1744    -1745 
   -1744    -1748    -1755    -1753    -1746    -1742    -1738    -1733 
   -1729    -1742    -1761    -1767    -1760    -1763    -1764    -1749 
   -1737    -1741    -1744    -1741    -1746    -1757    -1750    -1729 
   -1722    -1733    -1746    -1759    -1767    -1769    -1761    -1744 
   -1729    -1729    -1732    -1737    -1752    -1760    -1755    -1750 
   -1752    -1752    -1749    -1746    -1748    -1746    -1746    -1752 
   -1753    -1744    -1740    -1748    -1749    -1744    -1752    -1755 
   -1741    -1729    -1736    -1744    -1748    -1759    -1773    -1771 
   -1752    -1737    -1733    -1732    -1734    -1746    -1755    -1750 
   -1741    -1740    -1740    -1738    -1746    -1764    -1775    -1768 
   -1755    -1746    -1736    -1729    -1738    -1749    -1744    -1740 
   -1746    -1748    -1745    -1753    -1764    -1757    -1738    -1736 
   -1748    -1748    -1740    -1740    -1741    -1742    -1746    -1757 
   -1763    -1757    -1757    -1755    -1738    -1729    -1745    -1765 
   -1763    -1745    -1738    -1740    -1733    -1732    -1745    -1755 
   -1753    -1753    -1750    -1741    -1736    -1745    -1759    -1759 
   -1750    -1752    -1753    -1742    -1732    -1734    -1750    -1769 
   -1781    -1777    -1757    -1733    -1722    -1721    -1728    -1738 
   -1746    -1750    -1750    -1748    -1750    -1755    -1755    -1755 
   -1757    -1757    -1755    -1748    -1738    -1726    -1721    -1733 
   -1750    -1760    -1765    -1768    -1753    -1740    -1748    -1759 
   -1749    -1740    -1749    -1759    -1742    -1721    -1726    -1741 
   -1741    -1740    -1753    -1763    -1759    -1755    -1760    -1759 
   -1744    -1733    -1741    -1750    -1748    -1746    -1749    -1748 
   -1742    -1746    -1753    -1749    -1742    -1746    -1746    -1738 
   -1736    -1741    -1749    -1755    -1760    -1763    -1755    -1746 
   -1745    -1745    -1745    -1742    -1736    -1732    -1742    -1763 
   -1772    -1763    -1749    -1744    -1742    -1736    -1736    -1746 
   -1746    -1736    -1734    -1748    -1752    -1742    -1742    -1755 
   -1757    -1748    -1749    -1760    -1763    -1759    -1759    -1755 
   -1742    -1738    -1752    -1755    -1732    -1715    -1721    -1734 
   -1750    -1769    -1779    -1775    -1757    -1737    -1723    -1729 
   -1750    -1763    -1757    -1749    -1748    -1749    -1745    -1744 
   -1750    -1749    -1744    -1750    -1755    -1742    -1737    -1746 
   -1749    -1733    -1719    -1728    -1745    -1757    -1767    -1777 
   -1771    -1738    -1722    -1733    -1744    -1750    -1771    -1794 
   -1788    -1764    -1744    -1732    -1725    -1722    -1728    -1737 
   -1741    -1746    -1746    -1740    -1734    -1736    -1744    -1749 
   -1760    -1769    -1759    -1741    -1740    -1750    -1764    -1769 
   -1768    -1761    -1744    -1734    -1744    -1761    -1764    -1755 
   -1750    -1748    -1732    -1722    -1725    -1719    -1710    -1722 
   -1746    -1760    -1765    -1771    -1776    -1775    -1764    -1761 
   -1755    -1733    -1718    -1726    -1737    -1742    -1752    -1768 
   -1773    -1767    -1752    -1733    -1723    -1728    -1740    -1759 
   -1772    -1772    -1755    -1726    -1703    -1711    -1736    -1749 
   -1765    -1790    -1798    -1779    -1749    -1729    -1721    -1709 
   -1713    -1741    -1764    -1768    -1773    -1780    -1764    -1732 
   -1711    -1713    -1725    -1744    -1764    -1781    -1781    -1763 
   -1746    -1732    -1717    -1718    -1736    -1752    -1761    -1772 
   -1776    -1765    -1755    -1750    -1737    -1723    -1729    -1744 
   -1744    -1738    -1740    -1744    -1742    -1748    -1764    -1768 
   -1753    -1740    -1740    -1738    -1733    -1740    -1755    -1767 
   -1768    -1763    -1750    -1740    -1741    -1757    -1773    -1768 
   -1761    -1771    -1775    -1760    -1745    -1738    -1722    -1696 
   -1688    -1707    -1718    -1706    -1709    -1717    -1692    -1679 
   -1745    -1830    -1857    -1878    -1930    -1939    -1850    -1736 
   -1675    -1622    -1533    -1532    -1665    -1757    -1737    -1765 
   -1848    -1819    -1709    -1680    -1771    -1875    -1892    -1869 
   -1821    -1707    -1658    -1683    -1586    -1499    -1644    -1790 
   -1729    -1695    -1848    -2012    -2045    -2031    -2065    -2001 
   -1777    -1663    -1663    -1476    -1235    -1158    -1104    -1098 
   -1364    -1857    -2276    -2498    -2654    -2683    -2398    -1926 
   -1533    -1235    -1015     -966    -1065    -1355    -1890    -2358 
   -2444    -2241    -1941    -1611    -1386    -1386    -1493    -1642 
   -1880    -1995    -1802    -1574    -1491    -1417    -1528    -1929 
   -2203    -2251    -2266    -2092    -1726    -1439    -1285    -1314 
   -1588    -1833    -1873    -1883    -1872    -1733    -1629    -1671 
   -1781    -1956    -2102    -2041    -1784    -1512    -1227     -984 
   -1217    -1846    -2201    -2301    -2386    -2116    -1551    -1293 
   -1314    -1340    -1722    -2358    -2498    -2189    -1939    -1598 
   -1050     -828    -1152    -1513    -1723    -2031    -2267    -2160 
   -1923    -1810    -1783    -1813    -1848    -1825    -1841    -1852 
   -1759    -1709    -1648    -1412    -1235    -1289    -1404    -1611 
   -2068    -2478    -2465    -2128    -1719    -1308    -1021    -1081 
   -1539    -2120    -2504    -2593    -2390    -1906    -1343    -1015 
   -1044    -1345    -1676    -1826    -1794    -1610    -1390    -1410 
   -1726    -2107    -2451    -2728    -2671    -2142    -1568    -1318 
   -1202    -1104    -1264    -1591    -1632    -1421    -1425    -1692 
   -1949    -2189    -2485    -2558    -2265    -1887    -1543    -1229 
   -1120    -1264    -1502    -1715    -1898    -2030    -2052    -1973 
   -1892    -1833    -1691    -1524    -1534    -1648    -1576    -1375 
   -1394    -1698    -2061    -2305    -2342    -2111    -1723    -1475 
   -1441    -1489    -1591    -1729    -1846    -1895    -1826    -1719 
   -1711    -1722    -1606    -1516    -1591    -1656    -1640    -1813 
   -2162    -2251    -1988    -1773    -1668    -1483    -1421    -1606 
   -1715    -1719    -1907    -2057    -1842    -1580    -1574    -1629 
   -1674    -1842    -2034    -2097    -1999    -1729    -1409    -1254 
   -1314    -1501    -1802    -2154    -2259    -2019    -1768    -1695 
   -1669    -1682    -1715    -1561    -1320    -1318    -1514    -1764 
   -2019    -2111    -2026    -2010    -2049    -1881    -1715    -1859 
   -1921    -1663    -1509    -1490    -1367    -1440    -1807    -1984 
   -1914    -1911    -1814    -1517    -1394    -1541    -1699    -1809 
   -1915    -1964    -1881    -1726    -1663    -1732    -1846    -1942 
   -1954    -1833    -1630    -1395    -1247    -1363    -1617    -1842 
   -2106    -2290    -2272    -2130    -1902    -1701    -1664    -1611 
   -1428    -1350    -1452    -1547    -1603    -1746    -1933    -1964 
   -1883    -1902    -1891    -1696    -1561    -1624    -1718    -1740 
   -1714    -1745    -1833    -1775    -1628    -1684    -1823    -1854 
   -1912    -1939    -1750    -1533    -1516    -1582    -1655    -1863 
   -2106    -2143    -1985    -1822    -1709    -1572    -1472    -1503 
   -1584    -1622    -1669    -1823    -2012    -1989    -1771    -1688 
   -1728    -1570    -1343    -1447    -1799    -1988    -1968    -1937 
   -1868    -1732    -1663    -1671    -1625    -1644    -1877    -2039 
   -1884    -1679    -1605    -1460    -1355    -1644    -2077    -2211 
   -2123    -2004    -1845    -1591    -1354    -1320    -1449    -1611 
   -1804    -2001    -2056    -1999    -2073    -2170    -2000    -1705 
   -1568    -1545    -1470    -1426    -1474    -1417    -1405    -1694 
   -1968    -1969    -1973    -2047    -1878    -1556    -1482    -1620 
   -1680    -1640    -1649    -1745    -1858    -1999    -2111    -2056 
   -1888    -1705    -1512    -1476    -1723    -2031    -2068    -1826 
   -1602    -1464    -1262    -1143    -1387    -1829    -2088    -2172 
   -2227    -2079    -1647    -1321    -1431    -1769    -2033    -2222 
   -2278    -1979    -1482    -1189    -1139    -1308    -1798    -2292 
   -2362    -2163    -1907    -1495    -1084    -1023    -1324    -1709 
   -2025    -2288    -2374    -2100    -1675    -1436    -1394    -1439 
   -1533    -1749    -2095    -2251    -2053    -1791    -1568    -1281 
   -1152    -1399    -1799    -2098    -2270    -2211    -1864    -1517 
   -1385    -1348    -1385    -1657    -2023    -2128    -2011    -1887 
   -1684    -1413    -1334    -1459    -1602    -1776    -2008    -2193 
   -2245    -2146    -1956    -1711    -1460    -1375    -1498    -1672 
   -1769    -1757    -1729    -1767    -1836    -1960    -2174    -2297 
   -2151    -1857    -1533    -1147     -861     -916    -1278    -1783 
   -2308    -2640    -2604    -2273    -1803    -1327    -1053    -1080 
   -1327    -1725    -2138    -2316    -2150    -1798    -1468    -1233 
   -1140    -1337    -1763    -2092    -2236    -2214    -1954    -1598 
   -1401    -1445    -1677    -1933    -2031    -2010    -1982    -1868 
   -1626    -1455    -1447    -1528    -1737    -2056    -2166    -1876 
   -1512    -1334    -1243    -1359    -1833    -2262    -2300    -2187 
   -1954    -1451    -1028    -1034    -1302    -1644    -2107    -2535 
   -2536    -2137    -1711    -1424    -1294    -1452    -1869    -2218 
   -2280    -2089    -1777    -1485    -1260    -1163    -1217    -1364 
   -1680    -2045    -2147    -2142    -2192    -1953    -1413    -1062 
    -999    -1057    -1368    -1763    -1826    -1825    -2111    -2382 
   -2439    -2477    -2489    -2219    -1696    -1302    -1097     -897 
    -838    -1055    -1474    -2050    -2614    -3007    -3222    -3103 
   -2620    -2061    -1491     -916     -595     -446     -148       71 
    -294    -1240    -2272    -2972    -3310    -3258    -2688    -1842 
   -1148     -816     -987    -1721    -2736    -3597    -4095    -4085 
   -3277    -1795     -259      954     1667     1351     -263    -2394 
   -3832    -3963    -2740     -480     1821     2740     1707     -704 
   -3861    -7076    -9042    -8796    -6505    -2902     1000     4028 
    5386     4857     2465    -1381    -5390    -7645    -6763    -3316 
     284     1979     1402     -788    -3476    -5154    -4679    -2448 
    -270      685      643     -322    -2300    -4302    -5200    -4920 
   -3694    -1452     1297     3018     2673      841    -1441    -3461 
   -4619    -4712    -3846    -2196     -508       20     -962    -2579 
   -3848    -4306    -3785    -2390     -561     1105     2111     1871 
    -110    -3090    -5387    -5883    -4495    -1982      493     2079 
    2305      959    -1576    -4248    -5934    -5952    -4095     -970 
    1760     2396      596    -2420    -4927    -5844    -4854    -2397 
     171     1603     1877     1545      579    -1312    -3802    -5957 
   -6724    -5474    -2613      477     2452     2675     1026    -2016 
   -5065    -6434    -5286    -2290      764     2324     2056      504 
   -1564    -3396    -4438    -4405    -3161    -1048      737      788 
   -1350    -4560    -6754    -6575    -4313    -1039     2019     3593 
    3240     1674     -585    -3488    -6097    -6886    -5448    -2721 
      56     1987     2533     1507     -818    -3395    -4814    -4584 
   -3238    -1410       -9     -178    -1763    -3284    -3863    -3572 
   -2465     -669      976     1694     1464      263    -1788    -3784 
   -4822    -4741    -3859    -2695    -1698     -842       36      301 
    -819    -2575    -3392    -2832    -1528     -271      234     -184 
   -1090    -2214    -3549    -4502    -4036    -1922      838     2720 
    2652      587    -2621    -5757    -7763    -7966    -6361    -3588 
    -170     3327     5602     5413     2828     -974    -4764    -7627 
   -8733    -7593    -4472     -519     2803     4414     3620      814 
   -2334    -4658    -6295    -7241    -6759    -4526    -1227     1993 
    4121     4418     2624     -553    -3674    -5595    -5904    -4777 
   -2766     -823      -36     -588    -1564    -2015    -1769    -1317 
    -984     -738     -544     -500     -838    -1647    -2799    -3865 
   -4143    -3483    -2413    -1540    -1352    -1813    -2236    -2176 
   -1814    -1391     -814       32      776      649     -676    -2592 
   -4047    -4243    -3064    -1131      518      927     -164    -2153 
   -4025    -4909    -4518    -3273    -1865     -658      248      600 
     206     -719    -2019    -3692    -5151    -5549    -4716    -2803 
      65     3036     4608     3983     1431    -2215    -5688    -7635 
   -7333    -5005    -1624     1460     3017     2736     1127    -1417 
   -4448    -6825    -7360    -5759    -2776      191     1975     2166 
    1009     -710    -2134    -3041    -3377    -2829    -1665     -661 
    -167     -370    -1549    -3237    -4171    -3659    -2335    -1223 
    -587     -214     -275    -1035    -2209    -3191    -3643    -3511 
   -2808    -1880    -1262     -990     -697     -386     -334     -387 
    -373     -707    -1645    -2898    -4214    -5142    -4710    -2685 
    -164     1602     2039     1169     -684    -2899    -4615    -5377 
   -5044    -3559    -1518      197     1266     1422      189    -2006 
   -3889    -4841    -4708    -3146     -602     1475     1977      783 
   -1439    -3418    -4091    -3505    -2401    -1386     -857    -1050 
   -1776    -2435    -2664    -2575    -2195    -1534     -977     -788 
    -804     -880    -1112    -1534    -1887    -1937    -1845    -1894 
   -2014    -1999    -1863    -1695    -1570    -1587    -1846    -2416 
   -3103    -3480    -3335    -2751    -1775     -535      357      433 
     -74    -1031    -2421    -3487    -3437    -2446    -1254     -432 
    -257     -976    -2419    -3658    -3983    -3488    -2371     -877 
     383      900      540     -584    -2033    -3140    -3465    -2964 
   -1887     -699       63       68     -662    -1826    -2995    -3894 
   -4550    -4862    -4299    -2623     -530     1117     1864     1282 
    -611    -2910    -4565    -5027    -4135    -2135      214     1894 
    2065      619    -1621    -3599    -4743    -4858    -3820    -1815 
     272     1345      986     -558    -2602    -4143    -4731    -4642 
   -3861    -2172      -98     1397     1682      595    -1323    -3017 
   -3794    -3577    -2548    -1150      -44      224     -453    -1729 
   -3053    -3773    -3461    -2497    -1610    -1077     -953    -1287 
   -1845    -2284    -2521    -2488    -2034    -1416    -1206    -1587 
   -2126    -2299    -2034    -1594    -1059     -492     -253     -633 
   -1405    -2195    -2903    -3380    -3241    -2447    -1501     -778 
    -378     -464     -997    -1599    -2052    -2355    -2413    -2147 
   -1722    -1445    -1480    -1705    -1982    -2245    -2359    -2227 
   -1811    -1215     -903    -1240    -1887    -2400    -2713    -2675 
   -2121    -1332     -757     -592     -905    -1738    -2713    -3206 
   -2970    -2120     -926      139      517       -8    -1190    -2644 
   -3821    -4039    -3204    -1996    -1039     -560     -619    -1092 
   -1651    -2092    -2378    -2413    -2189    -1915    -1701    -1478 
   -1297    -1302    -1478    -1709    -1904    -1982    -1858    -1514 
   -1192    -1217    -1532    -1898    -2224    -2371    -2242    -2052 
   -2011    -2081    -2170    -2135    -1818    -1358    -1015     -869 
    -928    -1167    -1517    -1877    -2180    -2376    -2327    -2003 
   -1667    -1522    -1401    -1221    -1314    -1784    -2289    -2540 
   -2400    -1939    -1464    -1161    -1020    -1005    -1063    -1147 
   -1328    -1728    -2338    -2982    -3397    -3339    -2763    -1892 
    -985     -283     -109     -492    -1081    -1767    -2552    -3102 
   -3140    -2705    -2029    -1422    -1008     -842    -1112    -1687 
   -2091    -2111    -1846    -1413    -1046    -1086    -1583    -2250 
   -2799    -3044    -2762    -1864     -750      -21      140     -190 
   -1031    -2093    -2766    -2830    -2636    -2405    -2064    -1719 
   -1591    -1722    -2031    -2344    -2407    -2076    -1507    -1113 
   -1129    -1333    -1487    -1703    -2079    -2461    -2636    -2466 
   -1899    -1121     -566     -504     -885    -1584    -2338    -2731 
   -2582    -2053    -1443     -977     -781    -1013    -1621    -2212 
   -2551    -2663    -2506    -2020    -1433    -1077    -1005    -1150 
   -1525    -2029    -2447    -2763    -3059    -3141    -2732    -1939 
   -1094     -444     -143     -255     -668    -1101    -1471    -1914 
   -2296    -2386    -2251    -1972    -1624    -1457    -1598    -1888 
   -2160    -2338    -2354    -2120    -1703    -1336    -1144    -1088 
   -1161    -1379    -1737    -2261    -2856    -3123    -2704    -1807 
   -1030     -666     -619     -899    -1576    -2336    -2774    -2790 
   -2403    -1694     -965     -587     -684    -1147    -1806    -2461 
   -2909    -2976    -2659    -2123    -1525    -1078    -1009    -1287 
   -1703    -1966    -1803    -1344     -974     -872    -1047    -1464 
   -1962    -2299    -2380    -2261    -1993    -1742    -1773    -2085 
   -2363    -2350    -2079    -1803    -1713    -1738    -1657    -1408 
   -1189    -1237    -1486    -1664    -1710    -1752    -1819    -1926 
   -2119    -2218    -2066    -1881    -1771    -1460     -866     -382 
    -361     -724    -1367    -2308    -3235    -3663    -3395    -2565 
   -1567     -820     -553     -880    -1680    -2477    -2774    -2444 
   -1755    -1058     -589     -525     -943    -1688    -2416    -2787 
