Origin Time       2016/04/16 01:25:00
Lat.              32.753
Long.             130.762
Depth. (km)       12
Mag.              7.3
Station Code      FKO006
Station Lat.      33.5969
Station Long.     130.3985
Station Height(m) 3
Record Time       2016/04/16 01:25:26
Sampling Freq(Hz) 100Hz
Duration Time(s)  100
Dir.              U-D
Scale Factor      3920(gal)/6182761
Max. Acc. (gal)   19.709
Last Correction   2016/04/16 01:25:26
Memo.             
[...]
  -22552   -21630   -18523   -15238   -13535   -13699   -15320   -17648 
  -19286   -19292   -18184   -15421   -10423    -6104    -4543    -4141 
   -4187    -6374   -11927   -18885   -23237   -23709   -22495   -20765 
  -17295   -12543    -9446    -8382    -7600    -8101   -10984   -13876 
  -14507   -13344   -12358   -13063   -14364   -13966   -11711    -8936 
   -7065    -7229    -8887   -10578   -11776   -12323   -11704    -9748 
   -8102    -9539   -14552   -21119   -26840   -30101   -30816   -29010 
  -24716   -19866   -16466   -14047   -10886    -6950    -4473    -5089 
   -7742    -9432    -8670    -8814   -13109   -18374   -21338   -23290 
  -23322   -19858   -16934   -17559   -18946   -18842   -17702   -16574 
  -16517   -16569   -15414   -14673   -15437   -16067   -14977   -12196 
   -8820    -5651    -3355    -3034    -5105    -9032   -13867   -18520 
  -21419   -20328   -15819   -12227   -10961    -9489    -7898    -8004 
   -8653    -8112    -7231    -7056    -6809    -6404    -7824   -11143 
  -13090   -12502   -11815   -13004   -16146   -18866   -18017   -14475 
  -11976   -11707   -13000   -15605   -17061   -15806   -16144   -20447 
  -25008   -26722   -24153   -18054   -12437    -9591    -8890    -9436 
  -10742   -12198   -11847    -9188    -7652   -10189   -15140   -17349 
  -14720   -11322    -9884    -9443   -10250   -12349   -15216   -20152 
  -26092   -29445   -29984   -27833   -22392   -18230   -17391   -14139 
   -7416    -2256    -1704    -6469   -13339   -17339   -17676   -15571 
  -12723   -12783   -17338   -22540   -23576   -21081   -18498   -15387 
  -10995    -7964    -7062    -6785    -6875    -6975    -5793    -3340 
   -1675    -2742    -6281    -9808   -11349   -10855    -8999    -7451 
   -7341    -9439   -14903   -18685   -15051    -9466    -7728    -7342 
   -6002    -4101    -3291    -4237    -6111   -10131   -13632   -10399 
   -2885     1548      795    -2657    -5788    -8682   -11771   -11709 
   -6820    -2021    -3467   -10597   -17382   -19774   -18315   -16044 
  -15325   -15491   -14454   -12521   -12626   -15630   -17691   -15407 
  -10636    -6874    -5148    -5039    -5281    -4897    -5273    -7694 
  -11144   -13921   -14697   -13496   -11649   -10615   -11872   -14995 
  -16831   -15910   -14107   -13227   -14104   -16177   -16400   -13565 
  -11341   -12454   -14325   -13720   -12356   -13382   -15308   -17479 
  -23264   -30264   -31794   -27898   -23560   -22019   -22342   -22277 
  -23053   -24101   -20870   -14780   -11140    -9975    -9509    -9074 
   -8057    -7882    -9200   -10118   -10208   -10136   -10961   -14554 
  -19784   -23082   -23627   -23187   -22485   -21126   -20073   -20449 
  -20032   -16188   -10374    -4699      138     2111      153    -2838 
   -3583    -2399    -2150    -4823    -9040   -11891   -13790   -17265 
  -21476   -23842   -25349   -28131   -30255   -28521   -24870   -24422 
  -26182   -24450   -20152   -18320   -18073   -16173   -13989   -13621 
  -13465   -13027   -14552   -16786   -15865   -11084    -4291     1776 
    4403     4220     3472     1586    -1116    -2331    -2823    -3215 
   -2639    -2789    -3511    -2490    -1805    -4572    -9564   -13947 
  -16669   -18220   -19470   -20756   -21617   -21428   -19848   -18582 
  -19693   -20381   -17711   -14506   -13481   -13743   -13783   -13286 
  -13628   -14834   -14270   -12377   -13010   -16389   -18562   -16175 
  -10341    -6836    -7546    -8204    -7907    -7834    -7132    -7584 
  -10233   -12909   -15928   -18687   -17370   -12888   -10656   -13228 
  -17965   -19736   -18290   -18878   -22057   -22743   -19783   -17378 
  -17762   -18911   -18785   -17348   -16180   -16412   -16475   -15463 
  -14933   -14829   -14408   -14681   -14985   -14223   -14903   -18249 
  -20669   -20036   -18457   -17217   -15773   -15067   -16288   -17713 
  -16320   -12646   -10901   -11615   -10933    -9292    -9072    -8097 
   -5464    -3335    -2112    -1796    -2514    -2996    -2607    -2015 
   -2035    -3839    -7644   -11322   -13406   -15183   -17670   -20217 
  -22780   -24729   -23641   -19899   -15722   -10470    -4650    -1128 
    -611    -2164    -4323    -5841    -6951    -7983    -9052   -10530 
  -12315   -13166   -12291   -12337   -15243   -17764   -17789   -17281 
  -16971   -15732   -13614   -12110   -12513   -14247   -14823   -12938 
  -11478   -12934   -13925   -12192   -11913   -15901   -21330   -24040 
  -23450   -22809   -24418   -27566   -29945   -29672   -27139   -22821 
  -16193    -9330    -5437    -4184    -3559    -2944    -2739    -3631 
   -5807    -9056   -12481   -14040   -13047   -11512   -12289   -16549 
  -21706   -23385   -20764   -17294   -15037   -12952   -11182    -9867 
   -7030    -3787    -3943    -6991    -9567   -10659   -10255    -8805 
   -8151    -8175    -8107    -9348   -11287   -12167   -12971   -14520 
  -15600   -15168   -14911   -17046   -19517   -20010   -20804   -22632 
  -21723   -16905   -10815    -5978    -4695    -6463    -7490    -6349 
   -4791    -4622    -6210    -8038    -8986    -9874   -11999   -15790 
  -19034   -18785   -16689   -16585   -17476   -15283    -9848    -4750 
   -2759    -3657    -4099    -2198    -1395    -5279   -12046   -17307 
  -19407   -18637   -15271   -11964   -11744   -13382   -13765   -13300 
  -15074   -18116   -18281   -16088   -15192   -15811   -15668   -14279 
  -13089   -12575   -12337   -12983   -13968   -13423   -11628   -10024 
  -10063   -12183   -14106   -16090   -20578   -25125   -26557   -25772 
  -25014   -25951   -27588   -27586   -25823   -22774   -18816   -15800 
  -14647   -13565   -11220    -9017    -8255    -7796    -7308    -8516 
  -11463   -14235   -15842   -16748   -17869   -19032   -18057   -14574 
  -12316   -12366   -11313    -8273    -5067    -3339    -4310    -6594 
   -8142    -9079   -10178   -12829   -16023   -16400   -15672   -16711 
  -17192   -15951   -14571   -13355   -13131   -15088   -17509   -17384 
  -13993    -9723    -8730   -11733   -14117   -14443   -15402   -15684 
  -13861   -12498   -11303    -7523    -2633     -240     -391     -402 
    1198     2763      902    -4031    -7557    -8904   -10307   -10698 
   -9709    -9553   -10066   -10871   -12797   -14499   -14232   -11551 
   -7855    -7052    -9048    -9173    -7842    -7371    -6200    -5624 
   -8132   -11996   -14761   -15534   -15990   -17455   -17935   -17378 
  -17218   -16240   -14401   -13725   -14414   -14784   -13725   -12669 
  -13547   -14597   -13224   -11294   -11309   -11617   -10213    -7971 
   -6588    -6100    -4777    -3499    -6242   -12502   -18100   -22808 
  -27923   -31615   -31574   -28729   -25897   -22857   -18446   -15174 
  -14027   -12878   -11892   -11110    -8916    -6088    -4593    -5568 
   -8703   -11189   -11742   -12107   -12512   -12087   -11571   -12792 
  -16166   -18667   -17844   -14972   -11844    -9807    -9539    -9454 
   -9368   -11709   -15129   -16030   -15120   -13745   -11113    -8079 
   -6431    -7351   -11624   -16975   -19536   -19359   -19175   -20305 
  -21594   -20623   -18837   -20160   -22166   -20603   -17672   -15495 
  -12830    -9690    -6845    -5457    -5705    -5373    -4388    -4062 
   -4172    -5158    -6556    -6907    -7774   -10695   -13518   -14778 
  -14988   -13530   -11249   -11173   -12802   -12947   -12132   -13479 
  -16726   -18391   -16753   -13200   -10337   -10312   -12457   -13979 
  -13945   -13231   -12625   -12295   -11548   -10936   -11661   -12052 
  -11176   -11642   -13398   -13157   -11088   -10083   -10283    -9265 
   -6602    -4909    -5670    -7984   -11321   -14910   -16773   -15663 
  -12072    -8778    -8073    -8347    -8469    -9469   -10489   -10705 
  -10374    -8688    -6955    -7661    -8807    -7465    -5798    -7147 
  -10220   -12131   -12145   -10858   -11175   -14539   -17126   -17589 
  -18563   -19661   -19132   -17617   -16482   -15628   -14360   -13493 
  -13837   -14182   -13582   -13172   -13543   -13527   -13698   -15237 
  -14927   -10524    -6681    -6939    -9360   -11551   -11105    -7231 
   -4124    -5252    -8838   -12397   -15125   -17279   -19850   -21286 
  -19137   -15818   -14548   -13689   -11943   -12257   -15516   -18014 
  -18517   -19699   -21734   -22525   -22687   -23273   -23091   -21657 
  -19556   -17657   -16743   -15834   -14412   -13397   -11867    -8700 
   -5942    -5910    -7706    -9329    -9235    -6583    -4003    -4032 
   -5125    -6520    -8373    -8987    -7851    -6641    -7235   -10085 
  -13557   -15896   -17100   -17604   -16829   -14791   -13533   -13952 
  -13656   -11768   -10488   -10579   -11059   -10989   -10667   -11260 
  -11339    -9554    -8131    -8714   -11110   -13743   -13769   -11758 
  -10764   -11527   -13980   -16524   -15218   -10425    -6949    -7246 
  -10021   -11744   -11392   -11934   -13224   -12933   -12487   -13248 
  -13911   -14136   -14788   -15977   -16898   -16902   -16939   -17923 
  -18555   -17797   -16076   -13463   -10585    -9363   -10820   -13479 
  -15455   -16814   -17134   -15625   -14111   -13431   -12476   -12330 
  -12969   -12369   -12879   -16943   -20400   -19536   -15951   -12122 
   -9492    -7847    -5936    -4977    -5700    -5452    -4272    -5405 
   -8484   -10281   -10486   -11225   -12608   -12917   -11974   -10979 
  -10611   -11249   -12486   -12960   -12832   -13569   -15834   -18800 
  -20423   -20151   -18571   -15086   -10982    -9271   -10375   -12660 
  -14050   -13377   -11843   -11087   -11108   -10551    -9519   -10081 
  -11911   -13413   -14889   -16331   -17441   -18157   -18070   -17723 
  -17964   -18831   -19410   -18466   -17149   -16930   -15658   -12592 
  -10486    -9003    -6261    -4889    -7909   -12653   -15110   -16005 
  -17601   -19252   -19601   -19171   -17802   -14850   -12553   -11473 
   -8899    -5192    -2076      181      172    -1627    -2239    -2976 
   -5997    -7350    -5312    -5259    -9076   -12420   -14362   -18210 
  -23343   -26792   -29789   -34089   -37393   -37282   -34409   -30780 
  -27085   -22568   -18214   -15482   -12636    -9004    -7483    -8138 
   -7386    -5641    -6775    -9937   -11727   -13137   -15759   -17916 
  -18517   -17502   -13923    -9154    -7233    -8220    -8513    -8427 
  -10325   -12108   -10847    -8323    -7012    -6843    -7793    -8888 
   -9059    -9224    -8625    -7334    -8564   -11784   -13359   -12877 
  -12848   -14884   -17102   -16754   -13999    -9998    -5074     -216 
    2435     1693     -819    -3116    -5170    -7241    -9275   -11369 
  -13759   -16161   -16934   -15882   -15224   -15823   -16399   -15358 
  -13229   -13074   -15088   -15994   -14903   -13185   -11736   -11300 
  -12447   -14164   -13901   -11687   -10237    -9763    -9497   -10085 
  -10565   -10005    -9502    -9042    -8214    -7599    -6358    -3677 
   -1002      741     1727     1083     -878    -2129    -2827    -4054 
   -5430    -7543   -11118   -15119   -20235   -27221   -32416   -34189 
  -35692   -37104   -36198   -33574   -30940   -28731   -26795   -24762 
  -22344   -20555   -19423   -16150   -10648    -6692    -5178    -3504 
     380     6644    12582    14624    12826     9512     5884     2415 
    -319    -1396    -1142    -1732    -3094    -3018    -2216    -3521 
   -7318   -11913   -17321   -24791   -31439   -32093   -29344   -29545 
  -30638   -28989   -26672   -23726   -18580   -13281    -9584    -7237 
   -6674    -8230    -9796    -8835    -7284    -8305    -9558    -8526 
   -8184   -10582   -13506   -15578   -17499   -18419   -17057   -15409 
  -15574   -16574   -17034   -16330   -15179   -15846   -18229   -19072 
  -17065   -14736   -13988   -13262   -11130    -9984   -11743   -13079 
  -11461    -9851   -11484   -16811   -23811   -29071   -31699   -33451 
  -35696   -38538   -40180   -39251   -37210   -34285   -28549   -21525 
  -16801   -12798    -5920     1559     6151     8858    10402     9709 
    6843     2739    -1017    -3362    -4515    -4303    -3516    -3875 
   -4285    -2892    -1480    -3023    -7178   -10657   -11523   -10996 
  -10717   -11575   -13545   -14205   -12228   -10450   -10173    -9664 
   -9563   -11714   -15366   -17483   -15697   -12506   -12811   -16282 
  -18657   -19043   -19203   -19486   -20399   -22394   -23810   -24341 
  -24972   -24277   -21890   -19585   -16977   -14179   -13362   -12718 
   -8846    -4154    -1420     1434     4281     3722      522     -979 
     147      627     -712    -2218    -4732    -9274   -12672   -12145 
   -9383    -7034    -6357    -8368   -11949   -14466   -16599   -19370 
  -20527   -20365   -21786   -23231   -22063   -20930   -22390   -25001 
  -28681   -34280   -38522   -37928   -34098   -29881   -25814   -22551 
  -20904   -19961   -18916   -17847   -16202   -14508   -13923   -12551 
   -8945    -5210    -2562     -491     1169     2707     4508     6384 
    7488     6856     4133      499    -2181    -4741    -9674   -15668 
  -18840   -19166   -19173   -19106   -18964   -20643   -25252   -30803 
  -33591   -32725   -31063   -29836   -27597   -25233   -23911   -21192 
  -16202   -11434    -7771    -4303     -596     3730     8903    13639 
   15746    14423    11320     8930     8073     8049     7901     6350 
    3659     2619     3125     1705     -423     -349    -1360    -5963 
  -10619   -12988   -14771   -16767   -17101   -15146   -12671   -10272 
   -7123    -3453     -228     1991     2934     2090    -1266    -6332 
  -11145   -15727   -21172   -27312   -33264   -37802   -40305   -41177 
  -41159   -41632   -42986   -43956   -43405   -40373   -35915   -33073 
  -30885   -26372   -21478   -18514   -16246   -14903   -16126   -19297 
  -21752   -21351   -19793   -20440   -21948   -20441   -16281   -12596 
  -10742   -10317   -10715   -11557   -12401   -13109   -14145   -15225 
  -15611   -15886   -17070   -18749   -18656   -15381   -11741   -12014 
  -16166   -20340   -23098   -26298   -28961   -27928   -24886   -24740 
  -28072   -31197   -31429   -28470   -22968   -16269    -9437    -2155 
    4668     8399     9054     9224     9327     7520     3960      776 
   -1817    -4878    -8167   -11217   -13886   -16673   -20791   -24545 
  -24745   -22214   -19261   -16635   -14882   -13410   -11407    -9782 
   -8300    -5182    -1519     -564    -2396    -4989    -7698    -9787 
  -11676   -15389   -19529   -21782   -23816   -26565   -28332   -29329 
  -30198   -28939   -24359   -18138   -11903    -5707     1047     7871 
   12290    12977    11455     8395     3432    -1427    -3741    -4928 
   -7833   -11370   -12799   -12141   -10995   -11020   -12584   -14161 
  -15476   -17655   -19812   -19800   -16904   -12454    -9291    -8827 
   -9498    -9957   -10261   -10154    -9428    -9025    -9675   -10327 
   -9647    -7512    -5377    -5508    -6837    -6135    -4585    -4658 
   -4725    -3490    -2323    -1907    -2136    -3307    -4936    -6704 
  -10321   -15155   -17683   -18743   -20861   -22797   -23878   -24621 
  -24432   -23676   -22959   -22062   -21229   -20591   -20243   -20000 
  -18729   -16595   -14657   -12849   -11682   -11984   -12786   -13032 
  -13307   -14050   -14816   -15022   -13930   -12428   -12462   -12958 
  -11382    -8230    -6315    -7028    -9125   -10989   -12734   -15555 
  -19037   -21435   -22813   -23649   -23159   -21860   -20842   -19728 
  -18590   -18262   -18527   -18281   -16180   -12076    -8017    -5036 
   -2602    -1701    -2459    -3050    -3883    -6774   -10628   -12969 
  -13929   -14549   -14806   -15371   -16411   -16913   -17460   -18626 
  -18869   -18002   -17882   -18943   -19701   -18928   -17656   -17476 
  -17409   -16157   -14439   -13406   -13394   -13184   -11642   -10228 
  -10132    -9928    -8599    -7128    -6707    -6752    -5948    -5105 
   -5310    -5838    -6834    -9414   -13156   -16666   -19270   -21543 
  -23752   -24585   -24097   -24399   -25369   -24762   -22503   -20809 
  -20646   -21385   -23220   -25924   -27512   -26930   -25346   -23594 
  -20060   -14132    -8614    -4779    -1187     2367     4936     5939 
    5023     2063    -1697    -3848    -4034    -3813    -3487    -3205 
   -3828    -4535    -3852    -2716    -2647    -2660    -1951    -2300 
   -4973    -9124   -12607   -13661   -14048   -16304   -18626   -18480 
  -16951   -15897   -15450   -15084   -14699   -14511   -14476   -13981 
  -12324    -9978    -8084    -6716    -6085    -7016    -8756   -10423 
  -12755   -15055   -15285   -13939   -12965   -12349   -10626    -7281 
   -3292      409     4114     7733     9588     9533     9416     8890 
    6451     2221    -3276    -8772   -12911   -16202   -18652   -20206 
  -22536   -25299   -27264   -29623   -32349   -33959   -34220   -33080 
  -30931   -28613   -25877   -22436   -18636   -14710   -11285    -9199 
   -7851    -6000    -4057    -2565     -343     3006     5357     5161 
    4108     3964     3622     2127      491     -999    -3680    -8110 
  -12483   -14855   -16331   -19006   -21878   -23375   -24897   -26861 
  -27383   -27527   -29589   -32507   -34514   -35223   -35153   -34572 
  -32181   -28063   -24035   -19907   -14913   -10113    -6467    -3585 
   -1252     -112      223     1384     3263     3790     2094     -748 
   -2932    -3519    -3951    -5522    -7197    -8650   -10880   -13746 
  -16618   -18956   -19898   -19748   -19343   -18095   -15368   -11857 
   -8935    -7748    -8183    -8884    -8741    -8273    -8932   -10344 
  -10418    -9034    -8207    -8429    -8074    -6628    -5892    -6751 
   -8012    -9630   -11853   -12953   -12775   -12931   -13387   -14286 
  -15950   -16520   -14842   -12637   -11910   -12289   -12186   -12079 
  -13103   -13983   -13660   -13675   -15271   -17520   -19323   -20702 
  -21814   -22556   -23467   -24655   -24776   -23980   -23516   -22573 
  -20679   -18750   -16992   -15941   -16073   -15615   -13107   -10527 
   -9956   -10557   -11361   -12512   -13628   -13979   -13392   -12521 
  -12270   -12738   -13552   -14141   -13572   -12019   -10274    -7816 
   -5188    -4446    -4481    -3061    -2068    -3436    -5767    -8404 
  -11555   -14008   -15567   -17167   -18237   -18483   -18752   -18862 
  -18568   -18280   -18041   -18260   -19035   -19599   -19901   -19325 
  -16851   -13822   -11243    -8053    -5108    -4500    -5215    -4848 
   -3553    -2844    -3064    -3970    -5503    -7349    -9344   -11499 
  -13307   -14424   -15356   -16747   -18563   -20201   -21103   -20754 
  -19064   -17490   -17561   -18392   -18229   -17535   -18195   -19887 
  -20454   -20116   -20196   -19418   -17032   -14945   -13604   -11244 
   -7373    -3659    -1690     -867      256     1604     2437     2667 
    2481     1863      513    -1449    -3277    -5049    -7735   -11145 
  -13934   -15807   -17183   -17842   -17890   -17577   -16527   -15238 
  -15102   -16508   -18400   -19376   -19126   -18344   -17445   -16812 
  -16999   -17549   -17482   -16820   -15947   -14803   -13629   -12555 
  -11286   -10296    -9756    -8578    -6878    -6044    -5964    -5329 
   -4245    -4159    -5301    -6889    -8690   -10325   -11528   -12564 
  -13320   -13679   -13544   -12768   -12229   -12908   -14642   -16819 
  -18550   -18917   -18323   -17907   -17724   -17300   -16730   -16091 
  -15091   -13902   -13275   -13287   -13347   -13174   -12702   -12072 
  -11627   -11304   -10993   -11140   -11957   -12710   -12597   -11877 
