Origin Time       2015/02/23 17:00:00
Lat.              35.563
Long.             140.137
Depth. (km)       68
Mag.              4.5
Station Code      KNG005
Station Lat.      35.3192
Station Long.     139.5462
Station Height(m) 8
Record Time       2015/02/23 17:00:35
Sampling Freq(Hz) 100Hz
Duration Time(s)  60
Dir.              N-S
Scale Factor      7845(gal)/8223790
Max. Acc. (gal)   2.349
Last Correction   2015/02/23 17:00:34
Memo.             
    9856     9863     9841     9810     9801     9822     9850     9860 
    9846     9819     9803     9821     9842     9841     9828     9819 
    9829     9837     9837     9840     9829     9811     9813     9822 
    9837     9856     9849     9826     9807     9809     9836     9849 
    9828     9811     9810     9826     9857     9863     9833     9806 
    9799     9814     9841     9861     9859     9829     9809     9814 
    9822     9823     9833     9841     9829     9819     9837     9850 
    9837     9811     9802     9817     9849     9864     9837     9810 
    9811     9823     9833     9837     9830     9823     9818     9819 
    9842     9857     9841     9811     9794     9811     9852     9863 
    9830     9807     9813     9829     9846     9842     9828     9826 
    9819     9810     9826     9850     9850     9823     9804     9818 
    9837     9846     9836     9817     9814     9822     9825     9837 
    9845     9828     9811     9822     9845     9844     9819     9806 
    9814     9821     9829     9852     9860     9826     9794     9803 
    9833     9846     9840     9829     9819     9814     9829     9849 
    9842     9813     9796     9811     9845     9857     9837     9821 
    9822     9823     9828     9836     9840     9832     9811     9817 
    9842     9846     9837     9833     9814     9804     9826     9855 
    9855     9823     9811     9826     9828     9822     9832     9833 
    9830     9830     9834     9846     9837     9811     9803     9813 
    9836     9857     9842     9818     9814     9823     9832     9832 
    9832     9837     9833     9822     9828     9840     9845     9840 
    9815     9802     9815     9841     9860     9855     9826     9810 
    9815     9822     9825     9829     9832     9841     9852     9844 
    9823     9806     9798     9813     9840     9857     9857     9829 
    9807     9825     9837     9825     9819     9826     9834     9841 
    9841     9836     9832     9818     9803     9814     9844     9857 
    9850     9832     9809     9810     9829     9841     9841     9826 
    9813     9815     9828     9836     9833     9830     9825     9817 
    9825     9840     9842     9825     9807     9819     9840     9842 
    9837     9832     9828     9823     9817     9826     9840     9832 
    9822     9822     9823     9829     9833     9821     9807     9818 
    9845     9855     9836     9818     9819     9818     9813     9826 
    9846     9841     9826     9819     9806     9814     9845     9852 
    9821     9795     9806     9837     9855     9847     9833     9814 
    9809     9819     9836     9842     9833     9819     9819     9832 
    9844     9836     9810     9803     9828     9850     9852     9833 
    9802     9792     9823     9861     9863     9837     9814     9809 
    9819     9833     9846     9853     9840     9822     9822     9826 
    9825     9822     9822     9823     9834     9847     9850     9837 
    9815     9799     9804     9837     9868     9857     9813     9794 
    9818     9844     9845     9840     9836     9830     9826     9828 
    9826     9826     9815     9813     9846     9864     9844     9826 
    9806     9787     9809     9855     9875     9856     9828     9822 
    9821     9815     9819     9825     9829     9837     9837     9830 
    9834     9842     9830     9803     9802     9833     9834     9809 
    9804     9809     9804     9813     9822     9829     9842     9852 
    9853     9856     9840     9787     9764     9803     9845     9871 
    9902     9899     9852     9806     9796     9826     9857     9853 
    9845     9855     9819     9783     9859     9906     9810     9761 
    9803     9784     9771     9890     9984     9867     9764     9846 
    9790     9633     9775     9994     9922     9747     9736     9760 
    9717     9811     9949     9875     9763     9791     9869     9875 
    9810     9865     9972     9861     9687     9652     9718     9868 
   10031    10069     9972     9837     9705     9579     9629     9931 
   10204    10173     9850     9560     9601     9798     9888     9919 
    9860     9641     9555     9776    10015    10088    10029     9801 
    9578     9552     9596     9760    10150    10386    10133     9613 
    9292     9346     9568     9869    10233    10303     9925     9607 
    9694     9783     9732     9886     9991     9802     9802     9998 
    9915     9690     9771    10112    10154     9729     9452     9624 
    9814     9861     9941     9948     9853     9913    10002     9784 
    9578     9787    10049     9977     9761     9697     9825     9894 
    9759     9688     9763     9795     9896    10116    10111     9825 
    9672     9788     9783     9524     9412     9583     9830    10087 
   10168     9895     9595     9595     9737     9837    10018    10201 
   10011     9558     9401     9589     9761     9872    10083    10268 
   10108     9715     9540     9633     9702     9662     9711    10018 
   10307    10211     9981     9931     9821     9625     9688     9907 
    9931     9826     9818     9857     9801     9747     9806     9911 
    9972     9913     9779     9786     9869     9776     9629     9660 
    9776     9814     9778     9769     9822     9880     9909     9903 
    9892     9911     9936     9860     9661     9566     9726     9941 
   10007     9976     9913     9795     9602     9443     9517     9771 
    9995    10197    10357    10253     9934     9705     9587     9405 
    9285     9445     9799    10142    10296    10160     9899     9730 
    9634     9575     9614     9780    10000    10137    10103     9884 
    9616     9553     9711     9894     9933     9767     9637     9724 
    9755     9666     9760     9979    10035    10022    10093    10029 
    9742     9576     9695     9857     9865     9825     9910    10025 
   10006     9925     9828     9661     9570     9699     9953    10120 
   10052     9841     9715     9679     9629     9641     9729     9821 
    9950    10053     9946     9730     9643     9751     9961    10004 
    9751     9567     9764    10076    10184    10127     9989     9752 
    9443     9248     9385     9736    10029    10204    10215     9954 
    9572     9406     9620    10017    10258    10206     9965     9715 
    9567     9575     9738     9921    10000     9989     9936     9844 
    9715     9657     9771     9987    10142    10127     9996     9846 
    9605     9328     9312     9562     9891    10238    10362    10108 
    9779     9570     9351     9248     9495     9910    10191    10293 
   10266    10061     9721     9477     9466     9540     9606     9792 
   10073    10224    10210    10112     9910     9676     9547     9528 
    9660     9950    10141    10054     9892     9844     9868     9855 
    9698     9481     9487     9782    10103    10226    10153    10003 
    9855     9670     9458     9421     9667     9977    10153    10149 
    9949     9653     9445     9412     9560     9810    10018    10103 
   10022     9803     9599     9575     9780    10112    10291    10149 
    9890     9742     9686     9629     9543     9481     9568     9826 
   10126    10319    10262     9945     9595     9472     9618     9850 
    9972     9973     9979     9983     9879     9694     9585     9661 
    9887    10116    10141     9876     9517     9336     9410     9632 
    9884    10077    10156    10121    10026     9936     9900     9863 
    9736     9649     9784     9991     9984     9742     9508     9509 
    9682     9796     9825     9882    10000    10095    10048     9853 
    9647     9556     9653     9883    10052    10026     9840     9622 
    9499     9535     9713     9979    10254    10403    10315    10106 
    9921     9649     9329     9269     9525     9879    10044     9888 
    9675     9636     9674     9699     9747     9868    10041    10133 
   10033     9847     9784     9779     9664     9613     9786     9973 
    9999     9925     9821     9725     9725     9864    10021    10048 
    9958     9837     9713     9572     9460     9493     9744    10055 
   10200    10158    10031     9910     9855     9818     9740     9678 
    9738     9892     9999    10025     9960     9757     9543     9437 
    9413     9529     9802    10031    10112    10111    10030     9884 
    9807     9809     9757     9721     9882    10107    10062     9755 
    9539     9589     9726     9826     9954    10107    10185    10064 
    9690     9300     9232     9566    10083    10442    10473    10281 
    9979     9626     9397     9463     9733     9915     9884     9809 
    9833     9855     9771     9705     9730     9697     9603     9644 
    9779     9784     9702     9801    10073    10149     9890     9624 
    9589     9702     9814     9829     9796     9877    10037    10060 
    9921     9822     9783     9633     9568     9880    10276    10355 
   10192     9917     9609     9499     9643     9794     9798     9714 
    9657     9709     9833     9911     9904     9861     9774     9683 
    9722     9809     9819     9918    10095    10069     9837     9666 
    9710     9853     9891     9837     9790     9760     9814     9987 
   10157    10160     9945     9701     9643     9674     9651     9710 
    9929    10069     9945     9707     9583     9530     9452     9602 
   10104    10504    10481    10183     9742     9335     9254     9485 
    9761    10008    10261    10289     9926     9499     9342     9456 
    9783    10135    10295    10266    10088     9784     9471     9285 
    9309     9506     9798    10145    10311    10064     9651     9425 
    9490     9840    10215    10268    10102     9991     9876     9661 
    9578     9795    10021     9938     9662     9472     9467     9563 
    9741    10085    10427    10440    10181     9895     9648     9462 
    9393     9450     9626     9880    10098    10139     9979     9760 
    9548     9378     9472     9815    10088    10251    10358    10273 
   10030     9813     9664     9580     9617     9756     9857     9844 
    9819     9836     9778     9602     9471     9563     9841    10062 
   10055     9850     9656     9718     9948     9975     9764     9643 
    9740     9937    10079    10104    10091    10035     9913     9783 
    9625     9485     9545     9759     9967    10142    10143     9833 
    9431     9289     9482     9783     9963    10064    10215    10359 
   10304     9964     9568     9393     9435     9567     9733     9958 
   10197    10223     9940     9544     9246     9213     9540    10053 
   10389    10388    10164     9852     9560     9435     9549     9833 
   10039     9989     9844     9768     9675     9580     9655     9915 
   10215    10350    10201     9944     9761     9613     9544     9676 
    9896     9963     9776     9517     9420     9491     9632     9834 
   10107    10334    10372    10220     9937     9590     9366     9390 
    9556     9759     9903     9907     9875     9898     9882     9861 
    9958    10054    10033    10029    10026     9855     9614     9524 
    9587     9660     9729     9896    10106    10219    10192    10011 
    9756     9596     9566     9545     9532     9652     9844     9840 
    9657     9566     9590     9629     9745     9985    10288    10471 
   10374    10079     9784     9626     9618     9649     9683     9767 
    9849     9873     9871     9890     9937     9906     9737     9614 
    9620     9616     9651     9860    10115    10251    10233    10027 
    9721     9477     9312     9297     9526     9888    10201    10359 
   10263     9989     9738     9582     9563     9694     9850     9977 
    9988     9821     9632     9501     9459     9656     9985    10164 
   10120     9948     9841     9913    10029    10049     9995     9900 
    9826     9780     9626     9451     9601    10029    10268    10157 
    9923     9722     9603     9606     9661     9721     9802     9821 
    9778     9767     9774     9813     9900     9948     9942     9977 
   10000     9837     9580     9497     9560     9612     9728     9904 
   10012    10112    10204    10069     9717     9478     9526     9724 
    9915    10046    10069     9967     9776     9601     9553     9648 
    9825     9954     9918     9844     9823     9728     9652     9806 
   10022    10014     9786     9572     9497     9475     9506     9686 
    9937    10102    10112    10031     9918     9721     9508     9468 
    9655    10022    10397    10420    10050     9661     9452     9348 
    9443     9867    10393    10662    10551    10156     9671     9289 
    9119     9270     9736    10282    10604    10396     9690     9027 
    8730     8711     9070     9828    10471    10604    10392    10114 
    9847     9647     9552     9568     9702     9925    10137    10228 
   10219    10215    10195    10139    10152    10192    10095     9899 
    9811     9894    10007    10010     9877     9749     9822    10004 
   10021     9896     9780     9697     9725     9867     9984    10034 
    9995     9809     9585     9509     9553     9594     9678     9894 
   10174    10324    10126     9594     9038     8715     8633     8673 
    8816     9171     9738    10345    10829    11076    10990    10655 
   10247     9799     9312     9016     9185     9672    10116    10469 
   10712    10606    10191     9748     9396     9207     9174     9132 
    8999     8795     8640     8760     9278    10131    11136    11983 
   12291    11904    11126    10349     9675     9171     8901     8764 
    8726     8862     9096     9209     9194     9275     9447     9497 
    9499     9683    10052    10481    10813    10870    10636    10314 
   10114    10045    10061    10226    10492    10629    10459    10004 
    9468     9007     8612     8352     8424     8862     9443     9975 
   10377    10516    10328     9981     9698     9603     9729     9979 
   10260    10570    10816    10744    10251     9587     9097     8929 
    8986     9092     9246     9540     9822     9946    10035    10189 
   10304    10214     9953     9802     9913    10187    10480    10609 
   10416     9922     9337     9004     9220     9927    10636    10824 
   10312     9309     8262     7652     7820     8789    10156    11221 
   11457    10881     9936     9170     9032     9601    10490    11146 
   11191    10580     9636     8900     8756     9163     9899    10733 
   11271    11103    10265     9251     8517     8195     8330     8937 
    9833    10678    11168    11124    10534     9683     9026     8849 
    9234    10062    10886    11175    10725     9760     8731     8097 
    8133     8765     9617    10351    10762    10678    10121     9441 
    9016     8924     9093     9524    10112    10579    10733    10520 
    9987     9458     9315     9562     9950    10268    10361    10203 
    9909     9643     9512     9552     9811    10254    10631    10689 
   10381     9872     9436     9235     9275     9444     9612     9787 
    9987    10088     9999     9815     9749     9915    10207    10431 
   10447    10212     9749     9126     8507     8176     8391     9134 
   10000    10562    10716    10482     9899     9337     9256     9649 
   10222    10743    10940    10620     9988     9431     9171     9242 
    9540     9934    10296    10524    10604    10508    10153     9667 
    9369     9325     9352     9398     9556     9861    10218    10434 
   10405    10254    10150    10088    10008    10027    10295    10629 
   10600    10021     9124     8256     7715     7827     8708     9973 
   11024    11415    10971     9913     8827     8295     8573     9475 
   10503    11140    11076    10351     9366     8615     8383     8688 
    9405    10230    10760    10785    10374     9765     9310     9255 
    9512     9857    10170    10423    10596    10698    10675    10413 
    9984     9628     9502     9596     9764     9814     9714     9560 
    9439     9441     9593     9783     9919     9981     9953     9864 
    9752     9620     9585     9763    10031    10137     9948     9528 
    9070     8787     8830     9207     9801    10393    10741    10777 
   10570    10181     9798     9651     9760     9994    10164    10081 
    9759     9452     9344     9447     9764    10233    10662    10854 
   10625     9952     9162     8665     8557     8711     9058     9535 
    9975    10284    10503    10709    10935    11044    10845    10342 
    9738     9263     9066     9231     9747    10353    10646    10517 
   10170     9778     9400     9165     9277     9694    10041    10017 
    9595     8924     8359     8263     8642     9246     9900    10489 
   10843    10847    10574    10250    10071    10100    10270    10407 
   10285     9818     9252     8934     8947     9215     9575     9811 
    9813     9599     9355     9379     9751    10335    10881    11060 
   10735    10058     9262     8675     8672     9286    10149    10845 
   11074    10739    10172     9790     9683     9794    10055    10291 
   10320    10085     9644     9196     9013     9165     9445     9714 
    9942    10006     9807     9468     9192     9131     9354     9730 
    9991    10017     9872     9648     9431     9319     9379     9616 
    9968    10362    10656    10635    10268     9774     9410     9354 
    9562     9819     9999    10119    10174    10166    10152    10138 
   10084     9958     9771     9652     9745     9994    10212    10331 
   10389    10453    10544    10609    10571    10362     9921     9304 
    8699     8255     8135     8515     9289    10038    10419    10347 
    9941     9481     9319     9603    10120    10504    10544    10227 
    9652     9024     8699     8893     9479    10199    10781    10924 
   10539     9867     9239     8945     9162     9738    10276    10516 
   10462    10228     9961     9791     9764     9859     9960     9910 
    9648     9248     8935     8920     9184     9601    10044    10362 
   10486    10411    10160     9847     9636     9620     9815    10111 
   10354    10416    10207     9804     9432     9231     9193     9273 
    9474     9783    10033    10048     9887     9747     9711     9742 
    9821     9979    10207    10413    10481    10342    10065     9829 
    9701     9664     9774    10041    10311    10466    10543    10484 
   10169     9720     9354     9128     9077     9242     9502     9718 
    9886    10039    10177    10199    10006     9661     9286     8974 
    8820     8860     9070     9421     9860    10201    10258    10071 
    9828     9695     9798    10143    10561    10812    10816    10652 
   10368    10004     9738     9705     9823     9923     9911     9769 
    9535     9360     9383     9541     9715     9895    10058    10130 
   10081     9940     9738     9513     9277     9067     8978     9055 
    9255     9555     9915    10116     9991     9668     9375     9231 
    9232     9302     9416     9653    10030    10417    10686    10755 
   10605    10331    10099    10015    10116    10408    10755    10899 
   10748    10432    10080     9763     9540     9448     9536     9756 
    9910     9880     9675     9354     9051     8884     8889     9104 
    9478     9846    10069    10075     9876     9625     9539     9703 
   10019    10329    10517    10501    10304    10045     9825     9671 
