Origin Time       2015/02/23 17:00:00
Lat.              35.563
Long.             140.137
Depth. (km)       68
Mag.              4.5
Station Code      KNG005
Station Lat.      35.3192
Station Long.     139.5462
Station Height(m) 8
Record Time       2015/02/23 17:00:35
Sampling Freq(Hz) 100Hz
Duration Time(s)  60
Dir.              U-D
Scale Factor      7845(gal)/8223790
Max. Acc. (gal)   0.852
Last Correction   2015/02/23 17:00:34
Memo.             
[...]
    4289     4280     4684     4392     3937     4487     4989     4526 
    4077     4183     4365     4423     4550     4762     4847     4850 
    4843     4662     4314     4023     4149     4534     4441     4233 
    4714     5108     4573     3960     4213     4665     4406     4164 
    4556     4571     4067     4172     4631     4554     4349     4482 
    4513     4288     4299     4542     4558     4563     4814     4753 
    4252     4014     4233     4544     4687     4499     4243     4502 
    4942     4827     4587     4581     4321     4114     4324     4278 
    4133     4604     5004     4645     4374     4882     5347     4838 
    3967     3689     3813     4159     4768     4928     4484     4220 
    4195     4116     4191     4467     4718     4803     4735     4679 
    4604     4428     4321     4338     4271     4124     4220     4581 
    4766     4665     4584     4494     4271     4322     4679     4683 
    4425     4584     4838     4548     4185     4301     4467     4326 
    4200     4274     4329     4302     4356     4549     4797     4891 
    4681     4535     4664     4531     4074     3923     4129     4382 
    4619     4629     4388     4398     4631     4561     4407     4599 
    4695     4455     4393     4519     4521     4564     4596     4409 
    4326     4598     4780     4399     3923     4152     4683     4654 
    4459     4677     4776     4457     4311     4440     4429     4340 
    4367     4521     4730     4644     4274     4171     4194     4002 
    4086     4496     4629     4599     4729     4795     4733     4677 
    4606     4496     4337     4238     4379     4526     4406     4289 
    4422     4591     4634     4639     4635     4585     4517     4463 
    4488     4604     4622     4395     4136     4126     4217     4175 
    4225     4442     4502     4457     4594     4757     4712     4568 
    4511     4535     4473     4266     4175     4469     4842     4758 
    4341     4212     4396     4337     4205     4592     4953     4687 
    4444     4500     4368     4237     4355     4380     4357     4495 
    4542     4360     4164     4186     4452     4611     4502     4502 
    4671     4641     4469     4360     4321     4360     4384     4402 
    4583     4737     4681     4660     4706     4533     4233     4270 
    4599     4669     4438     4341     4438     4513     4531     4571 
    4625     4653     4606     4442     4258     4309     4606     4776 
    4575     4310     4320     4433     4368     4185     4063     4082 
    4203     4327     4407     4480     4549     4535     4450     4513 
    4688     4700     4729     4931     4970     4860     4789     4504 
    4072     3877     3873     4016     4315     4523     4576     4553 
    4473     4448     4464     4417     4380     4398     4380     4371 
    4500     4644     4625     4548     4533     4483     4406     4502 
    4698     4727     4652     4552     4409     4357     4307     4149 
    4186     4401     4383     4172     4175     4483     4704     4585 
    4464     4580     4661     4565     4448     4463     4556     4476 
    4252     4248     4519     4710     4618     4523     4627     4645 
    4627     4803     4742     4344     4155     4175     4136     4202 
    4433     4546     4457     4396     4376     4313     4390     4554 
    4602     4600     4592     4683     4837     4702     4468     4402 
    4200     4086     4388     4571     4457     4515     4623     4440 
    4240     4302     4387     4351     4429     4660     4719     4514 
    4353     4325     4195     4077     4313     4741     4891     4702 
    4538     4592     4584     4403     4446     4735     4788     4602 
    4523     4556     4504     4367     4297     4306     4357     4409 
    4313     4266     4484     4564     4425     4473     4500     4205 
    4066     4384     4672     4633     4581     4676     4752     4734 
    4554     4225     4072     4263     4402     4209     4192     4770 
    5286     4966     4245     4043     4311     4407     4321     4399 
    4568     4617     4482     4186     4069     4386     4710     4639 
    4395     4278     4283     4309     4395     4645     4834     4687 
    4422     4336     4417     4513     4442     4286     4375     4625 
    4633     4545     4756     4901     4398     3780     3889     4360 
    4552     4602     4621     4480     4349     4401     4515     4660 
    4791     4633     4342     4338     4303     4039     4176     4738 
    5050     4989     4774     4603     4611     4455     4036     3959 
    4228     4261     4168     4344     4622     4703     4573     4348 
    4213     4237     4334     4675     5138     5020     4531     4502 
    4567     4213     4020     4256     4506     4606     4648     4656 
    4575     4494     4615     4766     4650     4293     4055     4289 
    4531     4174     3994     4583     4791     4301     4359     4847 
    4687     4212     4128     4220     4276     4531     4930     4963 
    4681     4644     4675     4418     4275     4422     4449     4307 
    4282     4414     4546     4561     4500     4644     4989     4873 
    4205     4001     4359     4378     4301     4619     4692     4340 
    4090     4008     3996     4104     4321     4557     4615     4571 
    4715     4850     4588     4270     4407     4671     4598     4467 
    4484     4396     4305     4521     4846     4939     4762     4479 
    4260     4149     4147     4166     4175     4511     5008     4893 
    4415     4341     4413     4237     4074     4185     4510     4803 
    4989     5049     4672     4140     4168     4369     4140     3978 
    4276     4661     4681     4293     4025     4237     4572     4733 
    4700     4549     4553     4699     4685     4604     4631     4646 
    4494     4220     4172     4390     4496     4619     4847     4726 
    4357     4185     4205     4349     4471     4391     4293     4407 
    4665     4791     4577     4348     4376     4337     4183     4143 
    4121     4251     4710     5022     4814     4490     4438     4471 
    4388     4279     4256     4403     4614     4573     4355     4317 
    4393     4437     4558     4629     4587     4762     4926     4602 
    4322     4473     4398     4017     3967     4133     4190     4307 
    4446     4561     4862     5151     5069     4669     4345     4357 
    4329     4071     4152     4514     4515     4372     4511     4727 
    4783     4716     4680     4742     4823     4800     4544     4220 
    4063     3920     3893     4263     4656     4679     4480     4256 
    4195     4441     4816     5047     4986     4680     4436     4263 
    3915     3736     4016     4305     4409     4542     4671     4707 
    4661     4552     4469     4417     4303     4191     4252     4434 
    4575     4703     4731     4540     4445     4545     4502     4363 
    4302     4268     4402     4702     4839     4743     4646     4591 
    4355     4029     4082     4360     4252     4033     4260     4575 
    4631     4646     4660     4598     4498     4407     4511     4747 
    4708     4476     4411     4359     4228     4301     4556     4704 
    4642     4571     4666     4653     4376     4345     4599     4564 
    4486     4653     4568     4228     4062     4137     4359     4522 
    4665     4865     4688     4258     4225     4324     4268     4392 
    4533     4483     4534     4629     4568     4477     4499     4703 
    4841     4596     4240     4207     4393     4441     4341     4314 
    4352     4379     4436     4452     4417     4507     4648     4506 
    4247     4402     4760     4719     4425     4274     4283     4392 
    4490     4488     4450     4409     4595     4978     4852     4283 
    4133     4297     4255     4245     4407     4477     4473     4428 
    4276     4330     4672     4725     4391     4266     4531     4783 
    4688     4456     4491     4584     4342     4005     4036     4355 
    4473     4421     4669     5040     5043     4673     4116     3809 
    4072     4390     4401     4461     4669     4742     4554     4324 
    4388     4502     4286     4258     4757     5042     4833     4743 
    4702     4338     4200     4491     4577     4590     4841     4750 
    4217     3997     4318     4541     4266     4132     4495     4499 
    3991     3960     4431     4668     4665     4618     4504     4464 
    4477     4434     4471     4523     4429     4369     4459     4457 
    4353     4445     4599     4499     4464     4671     4629     4365 
    4271     4274     4351     4450     4367     4359     4606     4731 
    4638     4564     4540     4542     4630     4737     4753     4635 
    4425     4330     4360     4258     4178     4344     4393     4263 
    4347     4507     4429     4360     4414     4311     4207     4434 
    4672     4545     4353     4374     4405     4374     4399     4483 
    4684     4854     4788     4827     4958     4606     4118     4148 
    4325     4258     4220     4329     4403     4419     4517     4634 
    4631     4594     4579     4548     4577     4637     4575     4449 
    4511     4672     4502     4182     4289     4564     4459     4258 
    4325     4428     4426     4492     4595     4639     4797     4985 
    4784     4288     4055     4210     4360     4263     4145     4256 
    4326     4126     4066     4313     4402     4349     4522     4673 
    4610     4648     4772     4704     4550     4441     4327     4302 
    4387     4519     4796     5070     5047     4852     4684     4375 
    3978     3910     4132     4220     4237     4496     4862     4955 
    4816     4750     4684     4515     4372     4159     3955     4008 
    4083     4077     4305     4625     4683     4611     4529     4352 
    4299     4563     4814     4764     4626     4548     4359     4171 
    4256     4422     4456     4600     4947     5155     4947     4502 
    4237     4214     4099     3921     4041     4376     4648     4901 
    5026     4857     4614     4332     3978     3937     4233     4369 
    4332     4396     4407     4266     4248     4405     4527     4568 
    4591     4648     4684     4580     4496     4600     4699     4656 
    4548     4492     4600     4684     4455     4192     4286     4450 
    4340     4205     4327     4517     4541     4442     4337     4306 
    4359     4425     4468     4456     4403     4442     4490     4399 
    4393     4554     4604     4468     4268     4140     4083     4017 
    4064     4283     4457     4518     4702     5042     5209     5175 
    5211     5117     4660     4270     4294     4395     4317     4317 
    4471     4513     4403     4253     4112     4156     4369     4461 
    4558     4788     4730     4429     4337     4241     3974     3902 
    4023     4104     4176     4233     4314     4494     4661     4814 
    4997     5015     4857     4718     4573     4380     4270     4364 
    4576     4657     4594     4561     4545     4567     4746     4909 
    4872     4820     4814     4671     4506     4476     4368     4128 
    4050     4214     4363     4318     4245     4333     4445     4374 
    4163     4027     4031     4098     4252     4471     4596     4675 
    4799     4811     4657     4598     4677     4661     4612     4723 
    4812     4758     4662     4426     4133     4126     4280     4237 
    4106     4147     4253     4220     4205     4382     4500     4402 
    4321     4359     4375     4413     4575     4747     4854     4943 
    4865     4541     4307     4336     4453     4592     4676     4652 
    4684     4779     4803     4851     4895     4710     4411     4232 
    4099     3928     3848     3874     3846     3846     4055     4360 
    4602     4680     4580     4542     4660     4689     4592     4579 
    4627     4509     4279     4194     4228     4284     4436     4571 
    4491     4359     4359     4333     4240     4309     4579     4804 
    4761     4612     4733     4926     4814     4710     4822     4811 
    4642     4449     4153     3917     3997     4156     4087     4043 
    4274     4504     4560     4612     4666     4648     4592     4452 
    4342     4463     4641     4683     4629     4469     4330     4360 
    4333     4195     4209     4306     4305     4326     4441     4542 
    4584     4592     4626     4671     4572     4401     4382     4371 
    4298     4332     4293     4240     4580     4932     4791     4583 
    4660     4772     4826     4870     4865     4876     4831     4531 
    4223     4232     4337     4322     4287     4287     4390     4676 
    4939     4901     4760     4837     4893     4631     4327     4147 
    3880     3620     3601     3762     3947     4087     4214     4342 
    4378     4413     4614     4785     4769     4700     4648     4572 
    4480     4410     4410     4444     4433     4410     4393     4409 
    4544     4668     4615     4568     4677     4764     4612     4305 
    4187     4311     4345     4243     4215     4268     4345     4450 
    4494     4471     4556     4722     4730     4665     4787     4988 
    5076     5032     4862     4669     4567     4464     4353     4322 
    4248     4118     4167     4282     4199     4136     4329     4531 
    4525     4468     4484     4469     4383     4342     4357     4278 
    4182     4243     4245     4016     3848     3883     3950     4052 
    4240     4403     4554     4783     4965     5026     5109     5268 
    5359     5246     5031     4915     4796     4544     4315     4170 
    4074     4078     4078     4077     4189     4209     4106     4139 
    4203     4187     4255     4431     4645     4765     4696     4618 
    4584     4480     4431     4480     4488     4494     4509     4463 
    4386     4341     4453     4648     4619     4531     4714     4874 
    4750     4629     4672     4693     4610     4533     4473     4410 
    4444     4565     4580     4360     4032     3828     3735     3655 
    3762     4014     4113     4106     4218     4456     4716     4882 
    4916     4842     4693     4585     4592     4646     4729     4846 
    4909     4927     4986     4984     4865     4804     4811     4727 
    4541     4347     4261     4286     4286     4222     4086     3880 
    3776     3847     3967     4125     4332     4472     4523     4565 
    4634     4730     4795     4747     4688     4746     4792     4684 
    4561     4490     4337     4095     3917     3969     4213     4310 
    4144     4062     4225     4367     4396     4511     4677     4779 
    4888     4972     4901     4800     4796     4737     4549     4430 
    4515     4708     4752     4534     4352     4393     4423     4336 
    4232     4153     4176     4232     4176     4140     4212     4271 
    4334     4453     4588     4681     4707     4684     4550     4324 
    4240     4333     4403     4461     4626     4814     4847     4756 
    4714     4719     4649     4550     4554     4602     4507     4302 
    4195     4205     4199     4230     4367     4490     4542     4583 
    4577     4502     4428     4345     4240     4191     4190     4185 
    4260     4384     4367     4278     4317     4449     4557     4610 
    4611     4617     4656     4633     4549     4572     4635     4567 
    4541     4673     4704     4573     4491     4495     4517     4509 
    4396     4291     4363     4468     4453     4461     4573     4691 
    4723     4625     4477     4390     4309     4178     4131     4307 
    4561     4631     4567     4564     4600     4544     4388     4276 
    4271     4232     4143     4180     4276     4270     4299     4444 
    4535     4577     4673     4738     4679     4553     4449     4410 
    4344     4166     4095     4329     4642     4841     5017     5146 
    5084     4903     4762     4679     4573     4398     4209     4124 
    4183     4268     4266     4205     4152     4093     4027     4005 
    4023     4017     4014     4062     4088     4118     4294     4531 
    4665     4745     4801     4812     4799     4706     4596     4634 
    4706     4680     4661     4704     4748     4754     4765     4866 
    4997     5024     4961     4881     4756     4577     4421     4303 
    4159     4028     4032     4125     4155     4143     4230     4356 
    4360     4325     4402     4467     4351     4140     4067     4172 
    4256     4263     4360     4523     4567     4517     4500     4514 
    4496     4434     4422     4522     4587     4563     4564     4572 
    4612     4777     4915     4904     4837     4735     4610     4550 
    4533     4446     4347     4348     4405     4423     4429     4452 
    4426     4363     4353     4353     4276     4274     4396     4396 
    4220     4122     4200     4297     4283     4345     4625     4819 
    4739     4619     4579     4583     4665     4762     4770     4712 
    4687     4743     4795     4743     4631     4527     4456     4386 
    4311     4352     4422     4291     4078     3967     3886     3842 
    3931     4104     4268     4379     4469     4568     4598     4550 
    4563     4648     4715     4727     4696     4684     4688     4610 
    4492     4477     4496     4450     4448     4525     4533     4486 
    4519     4556     4488     4457     4576     4672     4617     4487 
    4348     4274     4309     4360     4402     4440     4348     4199 
    4245     4411     4457     4360     4215     4153     4218     4283 
    4353     4502     4634     4648     4588     4567     4641     4693 
    4564     4367     4332     4382     4382     4434     4529     4525 
    4527     4621     4677     4645     4575     4513     4464     4393 
    4341     4336     4333     4353     4391     4402     4442     4525 
    4549     4514     4480     4459     4467     4490     4502     4565 
    4639     4590     4453     4353     4293     4263     4236     4185 
    4214     4332     4341     4248     4298     4476     4606     4734 
    4895     4941     4895     4895     4874     4785     4689     4584 
    4494     4446     4369     4291     4299     4353     4365     4327 
    4360     4504     4592     4588     4592     4563     4499     4480 
    4441     4353     4338     4413     4467     4477     4495     4509 
    4488     4437     4351     4238     4186     4220     4228     4191 
    4215     4297     4318     4311     4349     4357     4311     4338 
    4419     4437     4437     4486     4510     4495     4484     4455 
    4441     4476     4490     4515     4603     4657     4698     4789 
    4795     4688     4621     4583     4492     4415     4457     4576 
    4591     4471     4410     4476     4506     4445     4438     4496 
    4490     4453     4482     4510     4515     4549     4550     4502 
    4531     4634     4658     4590     4500     4460     4510     4542 
    4496     4552     4672     4537     4233     4139     4199     4187 
    4163     4240     4360     4426     4369     4275     4260     4247 
    4187     4192     4247     4287     4369     4437     4423     4472 
    4606     4645     4606     4641     4726     4750     4693     4600 
    4558     4596     4653     4725     4823     4892     4887     4850 
    4873     4935     4882     4718     4585     4457     4287     4197 
    4178     4109     4035     4048     4114     4167     4197     4215 
