Origin Time       2015/02/23 17:00:00
Lat.              35.563
Long.             140.137
Depth. (km)       68
Mag.              4.5
Station Code      KNG005
Station Lat.      35.3192
Station Long.     139.5462
Station Height(m) 8
Record Time       2015/02/23 17:00:35
Sampling Freq(Hz) 100Hz
Duration Time(s)  60
Dir.              E-W
Scale Factor      7845(gal)/8223790
Max. Acc. (gal)   1.991
Last Correction   2015/02/23 17:00:34
Memo.             
[...]
  -11543   -11495   -11462   -11491   -11542   -11576   -11553   -11488 
  -11464   -11499   -11554   -11577   -11537   -11484   -11470   -11496 
  -11546   -11573   -11546   -11504   -11472   -11479   -11534   -11570 
  -11547   -11506   -11483   -11497   -11538   -11560   -11542   -11503 
  -11472   -11487   -11545   -11577   -11546   -11493   -11466   -11488 
  -11550   -11580   -11547   -11499   -11470   -11496   -11551   -11561 
  -11521   -11479   -11470   -11512   -11558   -11568   -11542   -11493 
  -11470   -11499   -11533   -11564   -11560   -11487   -11448   -11495 
  -11550   -11568   -11539   -11497   -11484   -11497   -11534   -11564 
  -11537   -11481   -11464   -11500   -11564   -11581   -11535   -11485 
  -11461   -11488   -11554   -11583   -11545   -11475   -11450   -11504 
  -11560   -11562   -11534   -11488   -11464   -11491   -11545   -11572 
  -11551   -11497   -11455   -11470   -11534   -11576   -11557   -11506 
  -11464   -11479   -11546   -11577   -11546   -11499   -11470   -11483 
  -11524   -11561   -11560   -11516   -11479   -11492   -11530   -11553 
  -11537   -11502   -11492   -11510   -11541   -11564   -11545   -11499 
  -11470   -11483   -11534   -11566   -11541   -11502   -11484   -11506 
  -11554   -11564   -11527   -11485   -11466   -11504   -11564   -11572 
  -11534   -11497   -11484   -11499   -11533   -11561   -11541   -11491 
  -11479   -11516   -11562   -11572   -11533   -11492   -11473   -11488 
  -11546   -11573   -11541   -11499   -11480   -11491   -11516   -11541 
  -11561   -11534   -11483   -11488   -11533   -11547   -11527   -11485 
  -11477   -11519   -11560   -11570   -11530   -11477   -11479   -11508 
  -11541   -11560   -11537   -11485   -11443   -11472   -11572   -11622 
  -11591   -11527   -11442   -11434   -11518   -11546   -11503   -11465 
  -11481   -11587   -11677   -11630   -11521   -11443   -11433   -11515 
  -11595   -11553   -11470   -11480   -11519   -11526   -11558   -11585 
  -11523   -11438   -11453   -11539   -11556   -11496   -11495   -11520 
  -11483   -11533   -11677   -11589   -11348   -11373   -11561   -11605 
  -11562   -11488   -11379   -11362   -11627   -11985   -11851   -11284 
  -11026   -11247   -11576   -11808   -11838   -11576   -11263   -11263 
  -11464   -11587   -11711   -11800   -11699   -11454   -11152   -11079 
  -11403   -11693   -11681   -11587   -11601   -11699   -11627   -11329 
  -11221   -11469   -11643   -11499   -11327   -11345   -11469   -11672 
  -11909   -11927   -11515   -10926   -10750   -11198   -11854   -12231 
  -12183   -11793   -11268   -10928   -10987   -11326   -11680   -11874 
  -11780   -11564   -11546   -11512   -11250   -11192   -11556   -11912 
  -11929   -11681   -11384   -11187   -11183   -11403   -11681   -11736 
  -11580   -11526   -11518   -11387   -11503   -11820   -11772   -11556 
  -11506   -11376   -11221   -11253   -11449   -11831   -12087   -11803 
  -11265   -10979   -11076   -11496   -11958   -12009   -11654   -11426 
  -11427   -11263   -11037   -11125   -11414   -11604   -11695   -11854 
  -11940   -11655   -11291   -11247   -11286   -11236   -11313   -11491 
  -11591   -11607   -11669   -11865   -11904   -11520   -11126   -11213 
  -11585   -11734   -11518   -11283   -11443   -11912   -12136   -11808 
  -11163   -10716   -10933   -11666   -12145   -11982   -11569   -11429 
  -11589   -11645   -11422   -11213   -11254   -11479   -11604   -11473 
  -11403   -11568   -11539   -11340   -11515   -11961   -12110   -11759 
  -11134   -10709   -10817   -11387   -12058   -12318   -12051   -11665 
  -11377   -11169   -11124   -11210   -11348   -11614   -11986   -12186 
  -11889   -11213   -10774   -10936   -11433   -11831   -11921   -11762 
  -11523   -11323   -11268   -11371   -11542   -11686   -11696   -11624 
  -11624   -11611   -11445   -11242   -11164   -11310   -11709   -12081 
  -12051   -11677   -11196   -10747   -10689   -11264   -12027   -12415 
  -12309   -11888   -11356   -10856   -10635   -10891   -11473   -12048 
  -12275   -12039   -11620   -11254   -11006   -10975   -11138   -11410 
  -11699   -11854   -11846   -11706   -11520   -11422   -11326   -11241 
  -11461   -11817   -11821   -11566   -11457   -11506   -11561   -11605 
  -11568   -11426   -11364   -11507   -11751   -11782   -11426   -11141 
  -11392   -11858   -12048   -11853   -11348   -10871   -10808   -11117 
  -11595   -12016   -12101   -11907   -11600   -11218   -11022   -11152 
  -11342   -11524   -11786   -11963   -11892   -11570   -11168   -11059 
  -11395   -11800   -11929   -11817   -11626   -11481   -11373   -11276 
  -11308   -11406   -11408   -11483   -11695   -11743   -11530   -11321 
  -11299   -11404   -11556   -11728   -11816   -11711   -11472   -11313 
  -11388   -11506   -11352   -11049   -11078   -11526   -11946   -12063 
  -11936   -11554   -11086   -10918   -11137   -11557   -11963   -12129 
  -11982   -11592   -11088   -10820   -11014   -11430   -11843   -12155 
  -12087   -11619   -11159   -10995   -11163   -11534   -11871   -12008 
  -11904   -11627   -11360   -11241   -11264   -11415   -11647   -11828 
  -11840   -11678   -11521   -11502   -11425   -11140   -10949   -11142 
  -11523   -11793   -11862   -11711   -11500   -11468   -11542   -11587 
  -11688   -11770   -11618   -11340   -11233   -11360   -11527   -11542 
  -11411   -11353   -11550   -11844   -11884   -11561   -11186   -11132 
  -11358   -11554   -11615   -11562   -11472   -11558   -11767   -11772 
  -11539   -11273   -11180   -11398   -11735   -11914   -11881   -11549 
  -11039   -10863   -11190   -11661   -11971   -11988   -11728   -11422 
  -11277   -11286   -11361   -11443   -11527   -11663   -11840   -11924 
  -11800   -11545   -11348   -11284   -11326   -11404   -11389   -11364 
  -11523   -11724   -11785   -11792   -11728   -11476   -11155   -11084 
  -11411   -11772   -11762   -11573   -11561   -11657   -11630   -11434 
  -11288   -11367   -11472   -11452   -11450   -11512   -11568   -11600 
  -11645   -11715   -11712   -11615   -11527   -11415   -11242   -11171 
  -11329   -11551   -11556   -11373   -11283   -11395   -11639   -11853 
  -11902   -11808   -11573   -11247   -11007   -10998   -11291   -11669 
  -11767   -11626   -11433   -11259   -11280   -11470   -11587   -11615 
  -11661   -11734   -11755   -11682   -11619   -11605   -11545   -11464 
  -11433   -11379   -11344   -11496   -11776   -11934   -11858   -11580 
  -11217   -10959   -10959   -11315   -11937   -12340   -12135   -11599 
  -11192   -11044   -11130   -11396   -11676   -11766   -11637   -11457 
  -11385   -11470   -11597   -11657   -11782   -11913   -11695   -11187 
  -10800   -10736   -11029   -11611   -12175   -12324   -11928   -11354 
  -11086   -11206   -11452   -11601   -11638   -11695   -11853   -11904 
  -11587   -11092   -10922   -11157   -11426   -11587   -11835   -12124 
  -12082   -11618   -11119   -10932   -11107   -11504   -11832   -11927 
  -11878   -11677   -11245   -10805   -10735   -11105   -11651   -12074 
  -12168   -11859   -11407   -11233   -11364   -11558   -11696   -11695 
  -11578   -11537   -11491   -11245   -11043   -11250   -11681   -11880 
  -11838   -11786   -11668   -11381   -11048   -10910   -11168   -11718 
  -12158   -12229   -11973   -11503   -11006   -10832   -11094   -11526 
  -11923   -12171   -12121   -11772   -11237   -10759   -10798   -11385 
  -11908   -12021   -11919   -11713   -11387   -11044   -10864   -10922 
  -11169   -11553   -11989   -12289   -12252   -11914   -11593   -11348 
  -10928   -10635   -11003   -11743   -12228   -12280   -11998   -11541 
  -11067   -10795   -10921   -11337   -11824   -12186   -12163   -11747 
  -11181   -10816   -10989   -11400   -11508   -11587   -11961   -12114 
  -11770   -11375   -11225   -11280   -11450   -11669   -11861   -11816 
  -11503   -11245   -11152   -11156   -11395   -11826   -12151   -12166 
  -11832   -11337   -10984   -10909   -11039   -11267   -11508   -11672 
  -11723   -11681   -11481   -11260   -11411   -11846   -12015   -11745 
  -11323   -11121   -11265   -11530   -11757   -11892   -11757   -11468 
  -11308   -11218   -11200   -11416   -11709   -11823   -11761   -11649 
  -11502   -11280   -11098   -11132   -11367   -11673   -11898   -11834 
  -11477   -11134   -11083   -11311   -11654   -11970   -12033   -11796 
  -11607   -11502   -11199   -10939   -11113   -11646   -12168   -12264 
  -11904   -11434   -11033   -10860   -10999   -11187   -11445   -11974 
  -12349   -12083   -11427   -11001   -11065   -11290   -11345   -11425 
  -11738   -12121   -12240   -11851   -11214   -10944   -11168   -11566 
  -11878   -11916   -11762   -11666   -11600   -11491   -11356   -11152 
  -11041   -11218   -11512   -11669   -11637   -11587   -11630   -11592 
  -11411   -11236   -11140   -11222   -11450   -11607   -11705   -11796 
  -11770   -11672   -11516   -11291   -11233   -11410   -11503   -11369 
  -11245   -11411   -11842   -12164   -12032   -11519   -11111   -11087 
  -11256   -11470   -11739   -11952   -12046   -12063   -11848   -11419 
  -11124   -11033   -10993   -11109   -11430   -11699   -11762   -11701 
  -11646   -11643   -11595   -11468   -11429   -11472   -11455   -11439 
  -11438   -11458   -11626   -11794   -11792   -11728   -11573   -11292 
  -11109   -11161   -11408   -11630   -11630   -11578   -11624   -11605 
  -11480   -11416   -11554   -11823   -11909   -11642   -11229   -10948 
  -10917   -11165   -11705   -12322   -12495   -12060   -11449   -10949 
  -10659   -10793   -11227   -11634   -11952   -12054   -11788   -11345 
  -10956   -10864   -11280   -11920   -12285   -12226   -11838   -11342 
  -11045   -11105   -11398   -11650   -11693   -11612   -11576   -11576 
  -11493   -11402   -11398   -11384   -11455   -11762   -11962   -11722 
  -11276   -11029   -11121   -11394   -11634   -11812   -11881   -11738 
  -11535   -11455   -11398   -11298   -11283   -11480   -11834   -12054 
  -11993   -11734   -11259   -10696   -10509   -10878   -11452   -11840 
  -11958   -11958   -11878   -11650   -11441   -11426   -11462   -11507 
  -11706   -11874   -11693   -11287   -10975   -10998   -11375   -11781 
  -12058   -12132   -11774   -11287   -11151   -11222   -11403   -11713 
  -11816   -11654   -11529   -11495   -11495   -11466   -11383   -11402 
  -11511   -11581   -11699   -11834   -11794   -11643   -11581   -11578 
  -11450   -11222   -11084   -11113   -11313   -11558   -11603   -11462 
  -11383   -11524   -11804   -11936   -11803   -11530   -11211   -10952 
  -10980   -11399   -11931   -12155   -12013   -11637   -11169   -11043 
  -11437   -11786   -11781   -11728   -11723   -11612   -11372   -11082 
  -11024   -11375   -11758   -11808   -11651   -11481   -11342   -11294 
  -11365   -11499   -11461   -11060   -10669   -10791   -11276   -11691 
  -11886   -11866   -11634   -11244   -10885   -10781   -10941   -11298 
  -11729   -12051   -12276   -12367   -12055   -11438   -10937   -10874 
  -11277   -11757   -12016   -12110   -11951   -11566   -11376   -11468 
  -11543   -11591   -11747   -11951   -12094   -12114   -11916   -11476 
  -10951   -10582   -10547   -10856   -11384   -11980   -12279   -11881 
  -11156   -10758   -10644   -10646   -10924   -11354   -11700   -11937 
  -11989   -11865   -11728   -11632   -11627   -11734   -11801   -11781 
  -11782   -11854   -11916   -11919   -11994   -12155   -12087   -11724 
  -11402   -11322   -11414   -11511   -11549   -11545   -11411   -11204 
  -11144   -11140   -11007   -10851   -10843   -11098   -11564   -11927 
  -12033   -12036   -11989   -11878   -11786   -11608   -11241   -10999 
  -11168   -11595   -12075   -12476   -12586   -12383   -12139   -11912 
  -11510   -11006   -10728   -10743   -10858   -11028   -11325   -11627 
  -11785   -11828   -11838   -11786   -11534   -11202   -11167   -11422 
  -11677   -11859   -11890   -11662   -11331   -11079   -11014   -11167 
  -11335   -11415   -11492   -11587   -11772   -12120   -12439   -12414 
  -11969   -11335   -10820   -10646   -10795   -10989   -11183   -11634 
  -12249   -12567   -12402   -11954   -11411   -10874   -10480   -10292 
  -10192   -10185   -10420   -10852   -11433   -12278   -13138   -13412 
  -12883   -11885   -10906   -10322   -10331   -10883   -11668   -12310 
  -12542   -12220   -11469   -10735   -10481   -10916   -11830   -12609 
  -12785   -12472   -11944   -11330   -10854   -10638   -10511   -10488 
  -10747   -11264   -11932   -12592   -12938   -12692   -11873   -10951 
  -10552   -10813   -11361   -11924   -12417   -12734   -12756   -12352 
  -11619   -11048   -10920   -11021   -11105   -11056   -10874   -10731 
  -10804   -11109   -11504   -11699   -11545   -11226   -10987   -10994 
  -11317   -11745   -11951   -11855   -11568   -11300   -11298   -11614 
  -11956   -11937   -11508   -11036   -10872   -11018   -11321   -11658 
  -11834   -11738   -11473   -11155   -11006   -11280   -11835   -12313 
  -12491   -12182   -11458   -10858   -10867   -11481   -12320   -12872 
  -12822   -12221   -11335   -10589   -10389   -10729   -11263   -11665 
  -11718   -11419   -11088   -11094   -11585   -12394   -12974   -12819 
  -11975   -10929   -10135    -9875   -10253   -11110   -12004   -12460 
  -12314   -11819   -11354   -11129   -11186   -11389   -11488   -11514 
  -11708   -12044   -12348   -12536   -12434   -11998   -11461   -11105 
  -11136   -11485   -11780   -11630   -10955   -10169    -9847   -10184 
  -10970   -11807   -12280   -12218   -11743   -11124   -10721   -10829 
  -11298   -11655   -11673   -11457   -11214   -11209   -11630   -12382 
  -13155   -13606   -13413   -12588   -11458   -10450    -9987   -10177 
  -10663   -11049   -11152   -11028   -11016   -11327   -11805   -12310 
  -12725   -12833   -12661   -12380   -12019   -11676   -11443   -11237 
  -11036   -10936   -10959   -10995   -10941   -10836   -10782   -10913 
  -11371   -11961   -12236   -12108   -11801   -11431   -11161   -11250 
  -11682   -12145   -12366   -12279   -11993   -11569   -11072   -10760 
  -10881   -11306   -11666   -11743   -11626   -11511   -11438   -11354 
  -11242   -11126   -11113   -11298   -11587   -11797   -11826   -11632 
  -11271   -10921   -10727   -10743   -11043   -11497   -11767   -11774 
  -11695   -11576   -11415   -11375   -11635   -12137   -12548   -12654 
  -12510   -12128   -11493   -10895   -10678   -10809   -11094   -11476 
  -11847   -12059   -12135   -12016   -11539   -10832   -10192    -9863 
  -10068   -10878   -12043   -13057   -13455   -13153   -12410   -11632 
  -11168   -11079   -11160   -11202   -11111   -10963   -10936   -11074 
  -11308   -11589   -11842   -11935   -11776   -11493   -11384   -11557 
  -11874   -12139   -12225   -12162   -11990   -11670   -11303   -11064 
  -10979   -11022   -11140   -11237   -11317   -11404   -11435   -11319 
  -10989   -10598   -10434   -10525   -10941   -11815   -12773   -13266 
  -13197   -12723   -12055   -11404   -10901   -10673   -10849   -11389 
  -11944   -12089   -11835   -11506   -11249   -11124   -11222   -11516 
  -11861   -12073   -12005   -11616   -10968   -10295    -9950   -10079 
  -10633   -11549   -12472   -12906   -12698   -11929   -10854   -10026 
   -9911   -10519   -11466   -12182   -12348   -12116   -11746   -11404 
  -11299   -11524   -11911   -12252   -12363   -12098   -11630   -11233 
  -10979   -10949   -11295   -11928   -12536   -12764   -12436   -11799 
  -11292   -11044   -10947   -11007   -11207   -11419   -11583   -11619 
  -11438   -11163   -11025   -11125   -11388   -11700   -12012   -12198 
  -12124   -11877   -11587   -11246   -10903   -10696   -10714   -10936 
  -11299   -11803   -12347   -12667   -12680   -12475   -12054   -11495 
  -11020   -10814   -10921   -11190   -11441   -11542   -11353   -10936 
  -10638   -10642   -10833   -11032   -11099   -11091   -11200   -11495 
  -11937   -12371   -12607   -12695   -12665   -12391   -11980   -11682 
  -11583   -11662   -11799   -11770   -11516   -11196   -10984   -10944 
  -11017   -11121   -11303   -11647   -12048   -12299   -12359   -12291 
  -12098   -11758   -11325   -10913   -10750   -10974   -11337   -11479 
  -11338   -11126   -11047   -11022   -10893   -10824   -10982   -11173 
  -11298   -11448   -11564   -11587   -11581   -11521   -11430   -11438 
  -11550   -11632   -11580   -11395   -11227   -11223   -11365   -11545 
  -11637   -11620   -11641   -11751   -11815   -11794   -11794   -11843 
  -11927   -12050   -12166   -12239   -12252   -12185   -12131   -12093 
  -11928   -11736   -11680   -11650   -11526   -11277   -10960   -10714 
  -10537   -10467   -10778   -11449   -12100   -12459   -12371   -11853 
  -11241   -10909   -10978   -11307   -11641   -11830   -11755   -11367 
  -10943   -10764   -10791   -10939   -11160   -11302   -11287   -11222 
  -11264   -11503   -11838   -12009   -11878   -11539   -11153   -10930 
  -11055   -11429   -11804   -12071   -12177   -12094   -11862   -11519 
  -11200   -11032   -10963   -11039   -11384   -11881   -12297   -12474 
  -12337   -11909   -11345   -10912   -10839   -11149   -11638   -12002 
  -12036   -11790   -11464   -11233   -11244   -11529   -11939   -12291 
  -12441   -12301   -11928   -11457   -10987   -10682   -10687   -10971 
  -11394   -11765   -11904   -11792   -11562   -11376   -11335   -11446 
  -11620   -11676   -11472   -11105   -10827   -10800   -10984   -11269 
  -11632   -11935   -11894   -11515   -11146   -11067   -11252   -11466 
  -11502   -11353   -11192   -11180   -11345   -11627   -11958   -12263 
  -12425   -12349   -12096   -11866   -11754   -11630   -11422   -11295 
  -11373   -11614   -11893   -12063   -12121   -12120   -11907   -11452 
  -11034   -10871   -11052   -11508   -11947   -12101   -11854   -11315 
  -10847   -10717   -10909   -11280   -11626   -11747   -11611   -11367 
  -11161   -10987   -10833   -10808   -10936   -11118   -11277   -11367 
  -11345   -11256   -11260   -11537   -12017   -12382   -12436   -12231 
  -11917   -11696   -11680   -11777   -11832   -11746   -11550   -11381 
  -11294   -11209   -11090   -11024   -11052   -11151   -11286   -11384 
  -11408   -11411   -11454   -11611   -11896   -12106   -12050   -11826 
  -11642   -11566   -11584   -11642   -11611   -11412   -11156   -11037 
  -11130   -11313   -11364   -11253   -11234   -11475   -11817   -12032 
  -12062   -11973   -11824   -11626   -11408   -11298   -11389   -11638 
  -11877   -11956   -11854   -11610   -11287   -11011   -10928   -11086 
  -11334   -11437   -11387   -11325   -11290   -11352   -11587   -11863 
  -12031   -12085   -12043   -11892   -11661   -11438   -11307   -11200 
  -11013   -10858   -10929   -11175   -11412   -11611   -11793   -11850 
  -11682   -11396   -11254   -11412   -11735   -11969   -11962   -11732 
  -11435   -11225   -11183   -11334   -11608   -11886   -12059   -12040 
  -11847   -11595   -11373   -11225   -11164   -11188   -11310   -11492 
  -11630   -11691   -11732   -11793   -11840   -11877   -11950   -11950 
  -11666   -11159   -10705   -10493   -10621   -11076   -11677   -12185 
  -12399   -12256   -11858   -11392   -11051   -11002   -11304   -11815 
  -12251   -12401   -12201   -11726   -11203   -10897   -10851   -10906 
  -11001   -11187   -11408   -11516   -11457   -11302   -11125   -10959 
  -10885   -11034   -11404   -11767   -11937   -11943   -11850   -11712 
  -11596   -11499   -11402   -11344   -11307   -11298   -11364   -11469 
  -11585   -11699   -11732   -11696   -11630   -11529   -11477   -11564 
