Origin Time       2003/09/26 04:50:00
Lat.              41.781
Long.             144.074
Depth. (km)       42
Mag.              8.0
Station Code      ABSH11
Station Lat.      43.9144
Station Long.     144.1913
Station Height(m) -82
Record Time       2003/09/26 04:50:47
Sampling Freq(Hz) 200Hz
Duration Time(s)  300
Dir.              3
Scale Factor      2000(gal)/8388608
Max. Acc. (gal)   15.229
Last Correction   2003/09/26 04:00:00
Memo.             
[...]
   43358    42899    42327    41687    40972    40121    39021    37567 
   35723    33561    31253    29043    27171    25827    25108    24985 
   25303    25846    26434    26975    27467    27954    28481    29060 
   29638    30074    30198    29905    29221    28281    27244    26231 
   25299    24442    23614    22752    21834    20933    20202    19772 
   19623    19570    19364    18800    17804    16467    14966    13435 
   11920    10451     9123     8073     7425     7253     7542     8166 
    8917     9590    10054    10262    10214     9928     9451     8857 
    8236     7665     7168     6682     6128     5529     5014     4730 
    4730     4925     5145     5227     5054     4548     3651     2319 
     525    -1712    -4217    -6562    -8310    -9358    -9860    -9954 
   -9660    -8940    -7780    -6241    -4426    -2420     -302     1832 
    3854     5618     7035     8113     8928     9550    10016    10335 
   10508    10549    10519    10521    10650    10940    11361    11856 
   12383    12930    13496    14078    14676    15297    15945    16609 
   17267    17891    18461    18983    19520    20198    21156    22480 
   24158    26086    28064    29803    31021    31594    31648    31511 
   31554    31995    32778    33627    34207    34273    33711    32498 
   30682    28415    25959    23620    21644    20130    18990    18001 
   16915    15590    14022    12299    10496     8639     6746     4891 
    3186     1748      647     -166     -864    -1630    -2533    -3467 
   -4202    -4509    -4237    -3326    -1806      211     2578     5148 
    7796    10408    12889    15154    17150    18892    20449    21891 
   23248    24485    25494    26128    26249    25799    24838    23557 
   22220    21091    20379    20214    20624    21539    22845    24417 
   26101    27712    29057    29984    30394    30269    29711    28963 
   28323    27989    27986    28170    28328    28279    27925    27230 
   26187    24810    23118    21134    18921    16597    14302    12165 
   10282     8709     7444     6432     5560     4689     3729     2694 
    1694      874      355      200      421      991     1885     3099 
    4611     6328     8074     9643    10881    11736    12252    12554 
   12828    13275    14045    15167    16526    17909    19075    19831 
   20085    19859    19247    18375    17384    16405    15528    14790 
   14204    13817    13661    13716    13924    14234    14643    15185 
   15873    16669    17496    18259    18866    19253    19417    19421 
   19358    19314    19333    19393    19415    19296    18935    18234 
   17107    15519    13590    11622     9996     8994     8675     8844 
    9148     9247     8969     8338     7491     6532     5486     4351 
    3156     1969      874      -71     -860    -1514    -2051    -2466 
   -2749    -2906    -2963    -2964    -2943    -2904    -2822    -2694 
   -2557    -2463    -2424    -2376    -2211    -1857    -1334     -739 
    -200      181      369      396      351      339      408      528 
     633      664      551      198     -500    -1624    -3190    -5154 
   -7437    -9959   -12668   -15539   -18531   -21553   -24440   -26973 
  -28932   -30138   -30473   -29911   -28554   -26658   -24583   -22660 
  -21072   -19828   -18846   -18060   -17460   -17036   -16707   -16328 
  -15780   -15052   -14267   -13601   -13187   -13040   -13074   -13172 
  -13263   -13354   -13489   -13698   -13981   -14319   -14686   -15040 
  -15334   -15515   -15535   -15372   -15081   -14799   -14667   -14720 
  -14838   -14794   -14365   -13447   -12089   -10419    -8563    -6622 
   -4716    -2995    -1616     -677     -175       -8      -16      -14 
     141      509     1059     1699     2304     2751     2939     2829 
    2462     1951     1439     1046      832      797      920     1170 
    1515     1909     2275     2516     2575     2491     2379     2364 
    2509     2777     3048     3202     3173     2962     2612     2164 
    1629      991      233     -612    -1429    -2055    -2374    -2370 
   -2084    -1571     -892     -128      614     1223     1631     1827 
    1844     1736     1577     1454     1439     1564     1788     1995 
    2031     1765     1163      317     -585    -1345    -1831    -1997 
   -1843    -1374     -608      374     1420     2320     2874     2975 
    2664     2099     1482      984      696      628      722      864 
     899      667       69     -835    -1846    -2718    -3255    -3350 
   -3003    -2304    -1397     -443      404     1052     1468     1668 
    1692     1585     1392     1188     1082     1166     1435     1756 
    1939     1867     1597     1332     1305     1626     2216     2860 
    3342     3573     3644     3761     4128     4848     5896     7150 
    8467     9747    10923    11943    12756    13311    13553    13405 
   12766    11569     9848     7748     5483     3290     1358     -220 
   -1455    -2422    -3233    -4038    -5004    -6251    -7768    -9383 
  -10807   -11770   -12156   -12042   -11616   -11076   -10565   -10145 
   -9800    -9477    -9128    -8710    -8177    -7489    -6639    -5634 
   -4443    -2998    -1256      749     2887     4962     6769     8148 
    9040     9513     9731     9871    10074    10433    10964    11590 
   12200    12694    13004    13054    12764    12083    11030     9718 
    8355     7194     6418     6053     5976     5999     5966     5811 
    5561     5275     5005     4778     4598     4430     4207     3872 
    3409     2854     2262     1668     1066      425     -265     -961 
   -1576    -2035    -2321    -2512    -2760    -3213    -3940    -4924 
   -6087    -7321    -8515    -9579   -10470   -11192   -11790   -12305 
  -12722   -12975   -13004   -12795   -12414   -11996   -11684   -11553 
  -11581   -11665   -11693   -11619   -11506   -11480   -11622   -11882 
  -12093   -12092   -11830   -11390   -10918   -10533   -10285   -10166 
  -10160   -10266   -10480   -10771   -11075   -11304   -11366   -11213 
  -10868   -10413    -9945    -9533    -9195    -8902    -8573    -8089 
   -7355    -6381    -5296    -4286    -3517    -3063    -2905    -2970 
   -3192    -3570    -4166    -5068    -6320    -7881    -9602   -11271 
  -12678   -13678   -14207   -14276   -13943   -13277   -12340   -11181 
   -9852    -8422    -7010    -5774    -4847    -4254    -3902    -3655 
   -3404    -3108    -2786    -2493    -2315    -2342    -2627    -3132 
   -3719    -4205    -4448    -4409    -4137    -3702    -3155    -2531 
   -1881    -1267     -755     -400     -243     -296     -524     -849 
   -1172    -1393    -1430    -1242     -860     -373      127      572 
     885      973      785      351     -228     -818    -1307    -1662 
   -1934    -2207    -2531    -2896    -3261    -3593    -3876    -4107 
   -4273    -4360    -4354    -4232    -3963    -3543    -3002    -2408 
   -1861    -1491    -1413    -1690    -2303    -3134    -4018    -4795 
   -5352    -5633    -5646    -5438    -5076    -4635    -4194    -3821 
   -3541    -3339    -3185    -3062    -2971    -2919    -2884    -2810 
   -2624    -2272    -1751    -1139     -558      -98      220      405 
     456      371      171      -84     -323     -501     -602     -641 
    -684     -850    -1265    -1993    -3000    -4182    -5435    -6715 
   -8030    -9422   -10953   -12658   -14515   -16431   -18254   -19804 
  -20916   -21518   -21667   -21532   -21317   -21178   -21177   -21282 
  -21415   -21479   -21379   -21040   -20440   -19613   -18622   -17509 
  -16278   -14910   -13406   -11815   -10236    -8792    -7597    -6747 
   -6302    -6249    -6476    -6799    -7060    -7181    -7172    -7113 
   -7135    -7372    -7917    -8802   -10011   -11465   -13013   -14442 
  -15524   -16074   -16007   -15348   -14223   -12835   -11433   -10270 
   -9545    -9357    -9701   -10470   -11490   -12556   -13466   -14051 
  -14198   -13880   -13151   -12133   -10966    -9760    -8578    -7446 
   -6375    -5337    -4269    -3107    -1840     -512      813     2093 
    3328     4574     5908     7359     8851    10224    11304    11977 
   12231    12148    11881    11596    11420    11389    11439    11439 
   11251    10814    10184     9510     8952     8616     8519     8603 
    8787     9040     9399     9937    10680    11555    12388    12949 
   13043    12586    11626    10279     8644     6777     4736     2671 
     831     -554    -1401    -1768    -1789    -1608    -1347    -1070 
    -795     -546     -348     -224     -197     -224     -151      173 
     774     1557     2396     3165     3768     4167     4379     4443 
    4385     4205     3885     3387     2667     1690      433    -1093 
   -2823    -4639    -6432    -8154    -9794   -11359   -12867   -14332 
  -15755   -17127   -18441   -19678   -20801   -21776   -22615   -23357 
  -24015   -24559   -24948   -25156   -25169   -24993   -24655   -24212 
  -23751   -23391   -23232   -23275   -23423   -23567   -23684   -23861 
  -24215   -24822   -25682   -26722   -27816   -28833   -29705   -30437 
  -31057   -31591   -32088   -32636   -33337   -34262   -35426   -36788 
  -38268   -39760   -41167   -42447   -43623   -44716   -45705   -46537 
  -47147   -47452   -47351   -46746   -45571   -43850   -41733   -39460 
  -37291   -35453   -34101   -33306   -33067   -33316   -33921   -34703 
  -35479   -36123   -36599   -36946   -37215   -37419   -37560   -37642 
  -37659   -37572   -37351   -37017   -36621   -36195   -35723   -35157 
  -34451   -33592   -32615   -31564   -30450   -29222   -27777   -25979 
  -23715   -20959   -17785   -14339   -10806    -7364    -4123    -1114 
    1682     4282     6648     8681    10273    11387    12112    12636 
   13153    13775    14493    15187    15706    15930    15785    15259 
   14404    13337    12199    11078     9974     8836     7621     6337 
    5023     3722     2456     1231       85     -873    -1500    -1695 
   -1465     -924     -242      447     1100     1736     2385     3039 
    3658     4205     4685     5150     5668     6280     6967     7661 
    8282     8798     9240     9678    10175    10754    11400    12073 
   12696    13144    13282    13028    12392    11491    10523     9689 
    9116     8840     8840     9108     9671    10544    11661    12886 
   14061    15078    15924    16689    17500    18421    19400    20295 
   20976    21373    21467    21269    20821    20178    19410    18602 
   17827    17116    16443    15755    15018    14249    13511    12867 
   12330    11884    11533    11282    11125    11067    11145    11377 
   11757    12284    12964    13784    14684    15552    16234    16601 
   16610    16310    15817    15262    14748    14343    14090    14014 
   14153    14532    15106    15754    16326    16701    16820    16705 
   16440    16123    15838    15673    15718    16063    16779    17879 
   19303    20961    22779    24701    26680    28671    30625    32474 
   34144    35598    36860    37980    39013    40024    41069    42182 
   43410    44810    46412    48181    50006    51756    53312    54560 
   55389    55705    55455    54668    53474    52083    50696    49451 
   48431    47688    47255    47188    47577    48496    49957    51881 
   54092    56333    58346    59968    61158    61952    62414    62618 
   62653    62580    62390    62000    61335    60420    59383    58371 
   57474    56683    55910    55062    54107    53108    52166    51331 
   50587    49896    49202    48449    47636    46825    46084    45467 
   45037    44869    45034    45584    46525    47813    49353    50997 
   52566    53906    54889    55402    55361    54767    53723    52390 
   50915    49393    47851    46275    44667    43083    41544    39983 
   38355    36752    35321    34135    33203    32537    32083    31715 
   31347    30885    30155    29042    27619    26055    24470    22905 
   21370    19852    18315    16727    15096    13471    11917    10493 
    9198     7950     6616     5092     3360     1517     -283    -1937 
   -3427    -4804    -6155    -7584    -9160   -10892   -12742   -14689 
  -16734   -18867   -21047   -23203   -25224   -26940   -28217   -29058 
  -29554   -29792   -29859   -29860   -29835   -29725   -29415   -28799 
  -27816   -26484   -24901   -23187   -21441   -19754   -18242   -17027 
  -16186   -15696   -15427   -15203   -14895   -14459   -13927   -13374 
  -12858   -12387   -11940   -11511   -11087   -10603    -9960    -9097 
   -8037    -6835    -5532    -4152    -2698    -1160      430     1995 
    3454     4759     5892     6872     7766     8656     9578    10488 
   11292    11920    12387    12789    13243    13816    14506    15257 
   15990    16626    17133    17525    17839    18097    18282    18329 
   18141    17616    16690    15370    13745    11955    10132     8372 
    6738     5265     3969     2833     1792      775     -227    -1155 
   -1980    -2801    -3792    -5032    -6432    -7861    -9254   -10630 
  -12031   -13447   -14784   -15913   -16743   -17277   -17631   -17977 
  -18442   -19027   -19607   -20036   -20267   -20372   -20481   -20693 
  -21013   -21352   -21598   -21686   -21616   -21438   -21223   -21044 
  -20969   -21060   -21358   -21857   -22502   -23212   -23917   -24595 
  -25280   -26050   -26999   -28184   -29585   -31126   -32750   -34442 
  -36198   -37998   -39805   -41586   -43358   -45214   -47263   -49534 
  -51916   -54204   -56196   -57790   -58998   -59903   -60593   -61126 
  -61515   -61736   -61745   -61487   -60918   -60056   -59011   -57928 
  -56930   -56064   -55320   -54660   -54061   -53526   -53059   -52620 
  -52109   -51394   -50358   -48940   -47143   -45031   -42722   -40374 
  -38160   -36217   -34627   -33399   -32490   -31847   -31457   -31347 
  -31545   -32044   -32793   -33730   -34813   -35997   -37209   -38352 
  -39333   -40104   -40681   -41143   -41585   -42076   -42601   -43058 
  -43328   -43370   -43261   -43151   -43148   -43270   -43457   -43633 
  -43741   -43734   -43565   -43185   -42579   -41785   -40864   -39866 
  -38839   -37834   -36891   -36007   -35154   -34318   -33506   -32738 
  -32034   -31422   -30903   -30443   -29990   -29496   -28944   -28350 
  -27742   -27132   -26514   -25875   -25208   -24513   -23797   -23069 
  -22337   -21608   -20877   -20135   -19383   -18639   -17924   -17253 
  -16633   -16067   -15531   -14981   -14378   -13712   -13018   -12370 
  -11840   -11466   -11228   -11062   -10893   -10662   -10302    -9731 
   -8930    -8007    -7149    -6519    -6177    -6043    -5924    -5620 
   -5015    -4057    -2713     -971     1151     3625     6401     9416 
   12590    15834    19055    22189    25235    28240    31251    34263 
   37182    39857    42155    44007    45420    46440    47125    47533 
   47733    47824    47902    48029    48217    48469    48808    49270 
   49875    50582    51295    51905    52344    52610    52763    52860 
   52875    52701    52230    51420    50300    48930    47394    45799 
   44234    42728    41300    40016    38944    38082    37358    36676 
   35938    35100    34188    33247    32301    31377    30534    29855 
   29387    29103    28880    28564    28052    27337    26489    25617 
   24805    24066    23329    22501    21510    20350    19100    17914 
   16978    16461    16457    16953    17841    18974    20191    21312 
   22161    22609    22625    22287    21757    21231    20883    20822 
   21065    21558    22206    22912    23586    24143    24507    24645 
   24586    24399    24161    23929    23726    23527    23257    22823 
   22145    21178    19911    18378    16653    14827    12994    11263 
    9768     8656     8032     7921     8271     8965     9846    10758 
   11615    12422    13235    14116    15108    16231    17468    18770 
   20102    21465    22878    24338    25812    27245    28563    29691 
   30567    31156    31451    31470    31254    30858    30320    29640 
   28796    27793    26668    25471    24256    23075    21994    21117 
   20580    20480    20804    21426    22183    22947    23657    24300 
   24858    25277    25465    25347    24905    24196    23336    22464 
   21691    21067    20583    20204    19893    19628    19412    19257 
   19162    19106    19028    18824    18384    17637    16585    15281 
   13802    12215    10586     9002     7582     6462     5757     5526 
    5768     6433     7425     8610     9833    10959    11924    12726 
   13357    13762    13873    13661    13143    12362    11381    10263 
    9042     7722     6306     4815     3291     1774      298    -1097 
   -2355    -3425    -4293    -4994    -5580    -6074    -6448    -6640 
   -6599    -6333    -5918    -5450    -4977    -4474    -3900    -3265 
   -2639    -2105    -1693    -1340     -938     -406      286     1132 
    2092     3110     4119     5032     5736     6128     6148     5797 
    5153     4359     3555     2829     2196     1608      955      106 
   -1042    -2504    -4191    -5972    -7747    -9470   -11138   -12793 
  -14493   -16277   -18140   -20017   -21788   -23333   -24584   -25539 
  -26253   -26826   -27382   -28057   -28973   -30202   -31745   -33542 
  -35484   -37428   -39209   -40686   -41778   -42498   -42928   -43157 
  -43255   -43289   -43334   -43455   -43686   -44003   -44342   -44639 
  -44865   -45019   -45090   -45050   -44870   -44543   -44077   -43472 
  -42715   -41775   -40617   -39244   -37727   -36196   -34782   -33559 
  -32534   -31699   -31064   -30634   -30385   -30272   -30262   -30349 
  -30540   -30841   -31220   -31583   -31806   -31794   -31517   -30971 
  -30154   -29080   -27803   -26423   -25066   -23848   -22827   -22015 
  -21402   -20979   -20740   -20686   -20819   -21111   -21494   -21856 
  -22052   -21949   -21470   -20621   -19494   -18225   -16944   -15742 
  -14668   -13749   -13011   -12470   -12105   -11858   -11671   -11516 
  -11424   -11478   -11760   -12307   -13081   -13978   -14872   -15681 
  -16397   -17055   -17681   -18268   -18799   -19275   -19714   -20134 
  -20539   -20923   -21271   -21578   -21879   -22247   -22745   -23374 
  -24066   -24717   -25235   -25561   -25665   -25522   -25125   -24509 
  -23768   -23032   -22398   -21890   -21456   -21029   -20579   -20119 
  -19678   -19274   -18892   -18506   -18099   -17672   -17232   -16777 
  -16284   -15702   -14960   -14015   -12901   -11723   -10593    -9573 
   -8655    -7792    -6938    -6058    -5129    -4131    -3054    -1919 
    -767      380     1572     2916     4487     6239     8011     9642 
   11032    12120    12893    13428    13854    14268    14712    15186 
   15674    16156    16594    16912    17018    16860    16456    15869 
   15181    14468    13790    13188    12694    12307    11966    11567 
   11011    10256     9327     8313     7324     6443     5706     5107 
    4611     4169     3732     3289     2872     2529     2285     2129 
    2052     2088     2309     2776     3486     4354     5234     5996 
    6570     6951     7152     7143     6860     6263     5387     4335 
    3236     2223     1377      695      112     -441    -1014    -1639 
   -2331    -3084    -3861    -4613    -5287    -5860    -6343    -6770 
   -7182    -7616    -8090    -8566    -8949    -9124    -8997    -8505 
   -7622    -6376    -4866    -3257    -1739     -458      524     1213 
