Origin Time       2003/09/26 04:50:00
Lat.              41.781
Long.             144.074
Depth. (km)       42
Mag.              8.0
Station Code      ABSH11
Station Lat.      43.9144
Station Long.     144.1913
Station Height(m) 40
Record Time       2003/09/26 04:50:47
Sampling Freq(Hz) 200Hz
Duration Time(s)  300
Dir.              6
Scale Factor      2000(gal)/8388608
Max. Acc. (gal)   26.011
Last Correction   2003/09/26 04:00:00
Memo.             
[...]
  -40142   -40176   -38912   -36290   -32467   -27798   -22777   -17968 
  -13928   -11122    -9792    -9868   -10984   -12618   -14256   -15513 
  -16222   -16464   -16523   -16726   -17282   -18182   -19179   -19813 
  -19500   -17677   -13963    -8273     -841     7834    17078    26092 
   34010    39999    43403    43875    41465    36590    29936    22306 
   14434     6782     -560    -7795   -15176   -22775   -30330   -37243 
  -42733   -46082   -46804   -44661   -39608   -31842   -21918   -10768 
     452    10587    18676    24058    26381    25623    22127    16573 
    9863     2881    -3787   -10043   -16201   -22708   -29800   -37286 
  -44583   -50943   -55673   -58267   -58474   -56343   -52242   -46794 
  -40783   -35040   -30290   -26954   -24995   -23899   -22857   -21095 
  -18211   -14373   -10266    -6841    -4994    -5310    -7896   -12354 
  -17935   -23787   -29154   -33509   -36603   -38432   -39145   -38950 
  -38048   -36599   -34677   -32229   -29133   -25367   -21152   -16974 
  -13475   -11314   -11000   -12725   -16258   -20949   -25841   -29913 
  -32373   -32899   -31699   -29371   -26625   -23999   -21707   -19673 
  -17721   -15733   -13693   -11642    -9656    -7848    -6353    -5293 
   -4762    -4792    -5287    -6001    -6615    -6831    -6448    -5445 
   -4065    -2856    -2602    -4132    -8047   -14536   -23316   -33710 
  -44818   -55700   -65527   -73650   -79610   -83109   -83973   -82173 
  -77860   -71342   -63022   -53345   -42799   -31934   -21362   -11696 
   -3478     2889     7174     9279     9166     6844     2443    -3655 
  -10785   -18056   -24508   -29323   -32029   -32596   -31352   -28757 
  -25222   -21074   -16637   -12289    -8459    -5550    -3845    -3433 
   -4204    -5890    -8094   -10350   -12252   -13594   -14407   -14896 
  -15282   -15610   -15633   -14896   -12993    -9825    -5678    -1125 
    3109     6266     7658     6758     3265    -2828   -11145   -20873 
  -30856   -39810   -46592   -50446   -51170   -49165   -45333   -40854 
  -36923   -34451   -33814   -34817   -36903   -39421   -41852   -43949 
  -45753   -47477   -49321   -51294   -53107   -54143   -53574   -50657 
  -45082   -37178   -27821   -18103    -8992    -1131     5205    10026 
   13499    15894    17591    19038    20644    22632    24959    27353 
   29478    31134    32385    33547    35059    37312    40527    44745 
   49864    55678    61874    67979    73350    77299    79310    79208 
   77173    73677    69366    64908    60829    57422    54728    52574 
   50645    48608    46233    43468    40400    37157    33809    30320 
   26552    22318    17449    11847     5514    -1424    -8693   -15861 
  -22380   -27629   -30987   -31995   -30544   -26960   -21924   -16244 
  -10639    -5595    -1304     2281     5288     7780     9704    10918 
   11230    10490     8673     5936     2617     -829    -3940    -6340 
   -7819    -8335    -7972    -6859    -5126    -2928     -520     1693 
    3201     3541     2498      204    -2895    -6202    -9151   -11361 
  -12649   -12912   -12051   -10050    -7104    -3640     -194     2788 
    5102     6812     8145     9323    10437    11441    12244    12780 
   13030    13025    12907    12997    13755    15631    18869    23376 
   28725    34260    39240    42957    44846    44589    42202    38048 
   32755    27084    21761    17322    14071    12169    11740    12909 
   15743    20160    25917    32659    39963    47361    54360    60498 
   65440    69054    71399    72613    72819    72081    70430    67922 
   64712    61091    57426    54061    51254    49147    47746    46916 
   46406    45899    45093    43755    41746    39051    35803    32281 
   28856    25943    23971    23329    24288    26912    30985    35988 
   41180    45779    49157    50979    51258    50340    48773    47064 
   45434    43725    41469    38098    33195    26712    19059    11048 
    3753    -1701    -4387    -3845     -246     5663    12773    19885 
   25955    30263    32454    32490    30578    27130    22701    17886 
   13184     8853     4835      847    -3389    -7924   -12497   -16600 
  -19576   -20746   -19561   -15785    -9626    -1761     6755    14689 
   20891    24574    25483    23901    20514    16169    11576     7088 
    2664    -2006    -7328   -13624   -21003   -29294   -38045   -46545 
  -53921   -59305   -62009   -61643   -58156   -51892   -43634   -34573 
  -26104   -19510   -15620   -14568   -15749   -18001   -20004   -20731 
  -19726   -17106   -13357    -9065    -4700     -532     3336     6859 
    9977    12649    14920    16951    18982    21259    23966    27185 
   30866    34782    38501    41462    43158    43319    42001    39558 
   36517    33405    30617    28394    26892    26209    26329    27099 
   28269    29608    31017    32516    34155    35970    38010    40352 
   43048    46004    48880    51107    52052    51248    48575    44312 
   39043    33448    28085    23248    18950    14994    11072     6852 
    2082    -3289    -9068   -14875   -20256   -24805   -28279   -30626 
  -31953   -32510   -32708   -33034   -33899   -35532   -37926   -40830 
  -43797   -46308   -47953   -48552   -48202   -47241   -46141   -45279 
  -44686   -43985   -42557   -39852   -35662   -30237   -24222   -18420 
  -13553   -10140    -8505    -8796   -10938   -14573   -19111   -23904 
  -28419   -32333   -35540   -38083   -40005   -41232   -41574   -40802 
  -38747   -35407   -31018   -26056   -21169   -17027   -14109   -12501 
  -11835   -11485   -10866    -9660    -7863    -5728    -3638    -1930 
    -727      116      911     1964     3462     5466     7933    10687 
   13376    15517    16624    16383    14745    11886     8055     3443 
   -1830    -7652   -13835   -20083   -25995   -31137   -35099   -37506 
  -38032   -36509   -33072   -28229   -22781   -17628   -13542   -10981 
  -10024   -10451   -11882   -13904   -16109   -18121   -19652   -20537 
  -20687   -20020   -18406   -15681   -11721    -6581     -611     5531 
   11008    15004    16937    16568    14008     9677     4247    -1406 
   -6325    -9666   -10929   -10057    -7381    -3446     1209     6272 
   11701    17585    23950    30703    37692    44726    51468    57341 
   61601    63580    62947    59864    54951    49056    42953    37144 
   31829    27024    22713    18914    15635    12817    10371     8268 
    6608     5581     5359     5976     7284     8962    10587    11747 
   12118    11491     9818     7250     4131      878    -2212    -5069 
   -7810   -10628   -13677   -17004   -20544   -24176   -27799   -31322 
  -34577   -37274   -39063   -39681   -39025   -37150   -34198   -30349 
  -25830   -20962   -16158   -11854    -8424    -6142    -5172    -5556 
   -7228   -10050   -13837   -18362   -23380   -28710   -34301   -40190 
  -46364   -52611   -58458   -63230   -66229   -66942   -65206   -61234 
  -55567   -48993   -42409   -36645   -32286   -29560   -28307   -28080 
  -28313   -28488   -28224   -27329   -25861   -24178   -22858   -22433 
  -23100   -24558   -26043   -26545   -25140   -21333   -15225    -7453 
    1020     9172    16126    21322    24612    26229    26648    26421 
   26027    25742    25543    25089    23825    21210    16978    11318 
    4837    -1624    -7253   -11482   -14145   -15469   -15909   -15931 
  -15858   -15839   -15873   -15807   -15363   -14228   -12130    -8905 
   -4575      585     6070    11227    15377    17939    18573    17286 
   14473    10869     7374     4774     3504     3540     4491     5815 
    6976     7508     7070     5524     2998     -101    -3161    -5530 
   -6730    -6602    -5323    -3289     -979     1137     2666     3378 
    3297     2735     2245     2492     4079     7384    12480    19123 
   26810    34875    42609    49374    54651    58069    59447    58804 
   56318    52246    46863    40433    33196    25389    17282     9175 
    1347    -6003   -12763   -18841   -24094   -28320   -31302   -32864 
  -32935   -31604   -29144   -25975   -22564   -19300   -16349   -13611 
  -10810    -7634    -3881      392     4806     8756    11662    13181 
   13271    12132    10108     7597     4981     2581      652     -593 
   -1033     -721       87     1023     1713     1865     1308       19 
   -1903    -4304    -7022    -9879   -12679   -15230   -17361   -18932 
  -19871   -20183   -19931   -19198   -18101   -16794   -15437   -14173 
  -13163   -12595   -12618   -13264   -14398   -15706   -16761   -17145 
  -16611   -15127   -12796    -9740    -6100    -2086     1982     5698 
    8670    10638    11562    11635    11147    10336     9334     8208 
    6976     5611     4058     2292      403    -1351    -2607    -3084 
   -2771    -1959    -1098     -610     -777    -1697    -3332    -5621 
   -8577   -12277   -16747   -21826   -27098   -31960   -35741   -37869 
  -38024   -36211   -32680   -27787   -21899   -15393    -8678    -2204 
    3579     8298    11723    13776    14482    13921    12205     9455 
    5757     1169    -4220   -10238   -16555   -22637   -27795   -31381 
  -33027   -32750   -30880   -27896   -24294   -20508   -16937   -14001 
  -12142   -11708   -12815   -15271   -18604   -22191   -25432   -27897 
  -29377   -29839   -29365   -28149   -26550   -25060   -24190   -24346 
  -25730   -28282   -31703   -35588   -39550   -43281   -46525   -49029 
  -50539   -50808   -49629   -46905   -42694   -37177   -30558   -22996 
  -14631    -5692     3437    12245    20174    26678    31260    33508 
   33199    30442    25771    20103    14542    10108     7481     6881 
    8114    10722    14156    17850    21267    23995    25804    26642 
   26542    25500    23442    20254    15842    10226     3607    -3635 
  -11068   -18324   -25111   -31151   -36146   -39811   -42000   -42801 
  -42525   -41573   -40299   -38938   -37609   -36336   -35085   -33786 
  -32318   -30502   -28186   -25381   -22318   -19346   -16753   -14635 
  -12877   -11231    -9426    -7232    -4482    -1035     3234     8375 
   14228    20355    26100    30742    33693    34663    33727    31272 
   27867    24085    20341    16825    13597    10721     8308     6431 
    5031     3921     2854     1581     -118    -2403    -5308    -8720 
  -12403   -16027   -19224   -21692   -23280   -23981   -23878   -23099 
  -21804   -20145   -18200   -15919   -13135    -9648    -5357     -335 
    5184    10866    16301    20978    24290    25660    24708    21391 
   16061     9445     2494    -3846    -8856   -12122   -13503   -13080 
  -11132    -8084    -4442     -725     2617     5306     7255     8504 
    9118     9091     8346     6810     4534     1754    -1148    -3757 
   -5706    -6773    -6963    -6528    -5854    -5317    -5190    -5642 
   -6710    -8297   -10223   -12329   -14508   -16630   -18454   -19650 
  -19903   -19031   -17076   -14321   -11190    -8078    -5198    -2514 
     186     3101     6224     9281    11783    13158    12901    10700 
    6533      666    -6408   -14033   -21418   -27719   -32207   -34482 
  -34604   -33068   -30662   -28249   -26539   -25945   -26591   -28390 
  -31112   -34430   -37957   -41269   -43966   -45749   -46518   -46443 
  -45905   -45336   -45039   -45103   -45433   -45865   -46299   -46748 
  -47323   -48181   -49469   -51245   -53417   -55737   -57859   -59415 
  -60076   -59598   -57874   -54979   -51177   -46859   -42466   -38409 
  -35006   -32427   -30692   -29697   -29266   -29203   -29322   -29418 
  -29281   -28762   -27847   -26649   -25368   -24221   -23336   -22661 
  -21942   -20797   -18898   -16148   -12761    -9212    -6067    -3762 
   -2445    -1980    -2105    -2623    -3496    -4817    -6757    -9499 
  -13180   -17855   -23490   -29960   -37045   -44439   -51811   -58864 
  -65328   -70931   -75390   -78441   -79872   -79554   -77426   -73449 
  -67571   -59763   -50126   -39018   -27083   -15189    -4349     4433 
   10369    13064    12562     9316     4085    -2231    -8787   -14913 
  -20156   -24257   -27126   -28858   -29735   -30144   -30456   -30942 
  -31736   -32822   -34079   -35349   -36500   -37467   -38290   -39072 
  -39876   -40612   -40956   -40353   -38117   -33648   -26732   -17716 
   -7474     2807    11957    19144    24090    27044    28483    28750 
   27880    25689    22009    16956    11066     5200      265    -3043 
   -4360    -3641    -1119     2772     7492    12487    17262    21413 
   24629    26673    27365    26592    24357    20801    16164    10721 
    4767    -1345    -7160   -12142   -15787   -17797   -18189   -17294 
  -15606   -13620   -11748   -10288    -9424    -9246    -9772   -10952 
  -12647   -14617   -16578   -18290   -19628   -20592   -21225   -21480 
  -21172   -20060   -18018   -15136   -11711    -8164    -4974    -2628 
   -1560    -2072    -4283    -8083   -13092   -18693   -24178   -28918 
  -32430   -34378   -34586   -33118   -30295   -26631   -22677   -18849 
  -15298   -11901    -8392    -4537     -263     4286     8763    12731 
   15806    17766    18581    18403    17554    16492    15734    15731 
   16712    18608    21059    23580    25780    27511    28847    29961 
   31013    32092    33225    34457    35925    37858    40483    43940 
   48232    53195    58511    63774    68563    72480    75198    76507 
   76356    74840    72134    68436    63966    58987    53813    48772 
   44147    40092    36572    33432    30560    28022    26089    25167 
   25685    27964    32114    38004    45333    53717    62726    71887 
   80715    88764    95670   101167   105104   107442   108226   107564 
  105620   102628    98916    94890    90996    87675    85340    84333 
   84873    86973    90370    94530    98765   102405   104920   106008 
  105651   104098   101750    99034    96305    93796    91609    89756 
   88251    87196    86784    87223    88625    90935    93898    97061 
   99857   101709   102177   101077    98537    94927    90696    86186 
   81519    76633    71456    66087    60842    56152    52322    49348 
   46927    44652    42187    39330    35997    32193    27983    23466 
   18755    13987     9319     4921      982    -2303    -4745    -6146 
   -6297    -5007    -2158     2218     7907    14506    21459    28087 
   33653    37457    38949    37851    34230    28470    21145    12835 
    4020    -4929   -13742   -22224   -30209   -37503   -43873   -49075 
  -52880   -55121   -55767   -54981   -53099   -50565   -47879   -45564 
  -44131   -43994   -45387   -48333   -52683   -58172   -64475   -71248 
  -78108   -84581   -90110   -94103   -96021   -95463   -92255   -86539 
  -78755   -69507   -59359   -48700   -37788   -26917   -16534    -7232 
     407     6004     9437    10745    10032     7488     3456    -1554 
   -6936   -12052   -16308   -19238   -20556   -20200   -18361   -15453 
  -12021    -8585    -5476    -2746     -184     2599     6033    10402 
   15689    21541    27384    32592    36651    39289    40546    40752 
   40421    40118    40306    41204    42726    44521    46085    46886 
   46480    44616    41299    36766    31430    25795    20389    15683 
   12014     9538     8219     7860     8153     8758     9401     9954 
   10455    11065    11979    13309    14982    16750    18274    19244 
   19466    18915    17771    16374    15117    14322    14139    14508 
   15199    15929    16475    16720    16592    15994    14767    12727 
    9758     5909     1415    -3346    -7973   -12156   -15758   -18805 
  -21410   -23680   -25651   -27270   -28461   -29224   -29692   -30101 
  -30676   -31532   -32667   -34043   -35675   -37659   -40076   -42847 
  -45676   -48116   -49740   -50317   -49883   -48707   -47179   -45702 
  -44653   -44389   -45196   -47191   -50265   -54080   -58126   -61830 
  -64712   -66500   -67170   -66918   -66110   -65211   -64700   -64961 
  -66184   -68314   -71053   -73929   -76427   -78158   -78959   -78866 
  -78000   -76457   -74287   -71551   -68387   -65013   -61648   -58430 
  -55406   -52604   -50122   -48146   -46857   -46325   -46449   -46949 
  -47435   -47518   -46934   -45595   -43580   -41081   -38336   -35537 
  -32759   -29974   -27143   -24325   -21725   -19639   -18350   -18051 
  -18806   -20546   -23112   -26308   -29899   -33587   -37032   -39902 
  -41937   -43008   -43159   -42619   -41752   -40980   -40694   -41169 
  -42469   -44450   -46894   -49653   -52706   -56089   -59802   -63741 
  -67686   -71339   -74397   -76587   -77685   -77576   -76344   -74304 
  -71911   -69588   -67583   -65923   -64440   -62872   -61000   -58769 
  -56290   -53753   -51325   -49096   -47082   -45247   -43551   -41959 
  -40416   -38853   -37230   -35586   -34057   -32840   -32141   -32130 
  -32886   -34359   -36383   -38745   -41231   -43635   -45777   -47524 
  -48765   -49387   -49282   -48395   -46751   -44415   -41470   -38049 
  -34362   -30666   -27231   -24321   -22172   -20941   -20672   -21275 
  -22528   -24088   -25560   -26560   -26770   -25979   -24079   -21047 
  -16926   -11787    -5732     1082     8407    15905    23201    29926 
   35759    40492    44067    46568    48183    49160    49723    49997 
   49984    49630    48934    48012    47080    46390    46180    46619 
   47770    49634    52213    55511    59460    63895    68581    73276 
   77789    82010    85892    89394    92395    94669    95927    95868 
   94217    90813    85694    79132    71592    63657    55943    49019 
   43290    38921    35876    34030    33230    33316    34121    35447 
   37054    38688    40152    41333    42139    42415    41923    40401 
   37656    33664    28609    22842    16772    10789     5291      747 
   -2347    -3609    -2902     -399     3435     7973    12602    16869 
   20541    23603    26226    28670    31152    33748    36328    38583 
   40120    40620    39951    38196    35589    32419    28981    25546 
   22303    19313    16507    13749    10961     8229     5815     4081 
    3373     3899     5622     8257    11304    14134    16134    16891 
   16332    14750    12720    10951    10100    10613    12637    16018 
   20381    25242    30108    34538    38187    40838    42413    42956 
   42589    41431    39551    36968    33669    29635    24871    19458 
   13605     7658     2050    -2790    -6484    -8742    -9386    -8375 
   -5840    -2119     2265     6690    10554    13425    15112    15648 
   15205    13982    12123     9731     6949     4006     1219    -1051 
   -2468    -2818    -2071     -342     2180     5275     8697    12162 
   15344    17884    19438    19750    18717    16416    13120     9264 
    5359     1869     -875    -2685    -3442    -3015    -1271     1827 
    6117    11235    16690    21949    26495    29836    31505    31127 
   28552    23972    17925    11157     4443    -1601    -6612   -10449 
  -13099   -14587   -14935   -14173   -12358    -9613    -6189    -2513 
     862     3394     4668     4456     2716     -438    -4754    -9847 
  -15205   -20222   -24284   -26889   -27734   -26734   -23996   -19800 
  -14569    -8794    -2911     2793     8200    13280    17983    22177 
   25668    28229    29637    29692    28261    25326    21016    15613 
    9568     3447    -2201    -7012   -10865   -13845   -16159   -18062 
  -19817   -21627   -23567   -25570   -27489   -29156   -30409   -31106 
  -31147   -30494   -29175   -27295   -25091   -22969   -21413   -20793 
