Origin Time       2003/09/26 04:50:00
Lat.              41.781
Long.             144.074
Depth. (km)       42
Mag.              8.0
Station Code      ABSH11
Station Lat.      43.9144
Station Long.     144.1913
Station Height(m) -82
Record Time       2003/09/26 04:50:47
Sampling Freq(Hz) 200Hz
Duration Time(s)  300
Dir.              1
Scale Factor      2000(gal)/8388608
Max. Acc. (gal)   22.736
Last Correction   2003/09/26 04:00:00
Memo.             
[...]
   24535    25271    25935    26555    27157    27759    28384    29012 
   29560    29944    30117    30033    29615    28755    27317    25165 
   22252    18668    14605    10270     5837     1430    -2863    -6974 
  -10896   -14694   -18456   -22214   -25901   -29355   -32385   -34862 
  -36740   -38041   -38829   -39198   -39258   -39095   -38742   -38232 
  -37626   -36994   -36434   -36081   -36046   -36406   -37249   -38622 
  -40487   -42723   -45159   -47640   -50108   -52610   -55219   -57966 
  -60798   -63586   -66164   -68395   -70238   -71753   -73036   -74149 
  -75086   -75804   -76247   -76365   -76155   -75653   -74897   -73892 
  -72632   -71143   -69502   -67809   -66139   -64543   -63071   -61781 
  -60742   -60000   -59550   -59339   -59281   -59283   -59284   -59249 
  -59151   -58972   -58710   -58401   -58112   -57886   -57712   -57531 
  -57266   -56856   -56304   -55690   -55128   -54687   -54338   -53956 
  -53373   -52463   -51212   -49730   -48191   -46755   -45505   -44420 
  -43410   -42362   -41174   -39767   -38124   -36300   -34372   -32437 
  -30590   -28865   -27254   -25737   -24296   -22948   -21746   -20748 
  -20006   -19537   -19316   -19268   -19271   -19223   -19106   -18989 
  -18986   -19172   -19524   -19927   -20220   -20253   -19961   -19351 
  -18447   -17290   -15941   -14466   -12919   -11329    -9711    -8079 
   -6417    -4645    -2657     -388     2127     4792     7499    10157 
   12669    14903    16726    18073    18997    19632    20120    20564 
   21019    21483    21917    22262    22456    22427    22100    21428 
   20422    19120    17542    15658    13384    10630     7406     3831 
      61    -3729    -7367   -10744   -13842   -16655   -19153   -21303 
  -23076   -24436   -25377   -25975   -26344   -26528   -26496   -26210 
  -25660   -24869   -23876   -22702   -21341   -19796   -18112   -16385 
  -14732   -13262   -12041   -11065   -10286    -9661    -9185    -8885 
   -8779    -8828    -8908    -8830    -8401    -7490    -6069    -4189 
   -1953      527     3150     5804     8372    10745    12846    14660 
   16251    17734    19207    20701    22179    23591    24918    26169 
   27365    28506    29542    30404    31020    31307    31169    30511 
   29268    27430    25064    22327    19453    16721    14401    12649 
   11470    10779    10471    10478    10802    11470    12449    13643 
   14953    16279    17545    18731    19841    20899    21949    23015 
   24108    25262    26464    27584    28423    28820    28685    28015 
   26929    25603    24150    22587    20860    18894    16656    14213 
   11725     9402     7444     5988     5067     4634     4606     4907 
    5495     6371     7566     9133    11126    13567    16430    19679 
   23269    27107    31042    34918    38613    42061    45265    48291 
   51215    54065    56822    59433    61832    63953    65766    67278 
   68504    69444    70072    70372    70384    70246    70182    70419 
   71059    72083    73425    75003    76701    78397    79940    81144 
   81854    82008    81652    80921    79939    78744    77324    75681 
   73834    71828    69709    67477    65106    62626    60162    57908 
   56050    54677    53762    53194    52828    52522    52184    51795 
   51425    51211    51264    51620    52249    53092    54089    55206 
   56434    57762    59161    60557    61814    62797    63445    63780 
   63851    63708    63376    62871    62243    61581    60965    60419 
   59895    59290    58486    57404    56031    54402    52605    50755 
   48946    47222    45594    44093    42793    41783    41107    40730 
   40551    40458    40357    40176    39868    39426    38873    38232 
   37506    36676    35691    34501    33129    31671    30233    28926 
   27872    27164    26796    26683    26706    26756    26776    26773 
   26788    26837    26907    26989    27096    27241    27416    27589 
   27731    27842    27970    28171    28467    28822    29136    29268 
   29107    28589    27672    26314    24504    22288    19747    16972 
   14056    11104     8252     5636     3365     1476      -85    -1410 
   -2561    -3566    -4421    -5087    -5507    -5666    -5595    -5332 
   -4898    -4276    -3408    -2225     -687     1194     3352     5688 
    8123    10625    13180    15761    18325    20815    23170    25339 
   27298    29044    30566    31841    32853    33581    33990    34027 
   33628    32710    31200    29088    26452    23436    20194    16817 
   13292     9552     5549     1304    -3102    -7575   -12058   -16544 
  -21034   -25484   -29803   -33890   -37672   -41111   -44178   -46848 
  -49094   -50905   -52302   -53338   -54101   -54705   -55279   -55932 
  -56765   -57857   -59221   -60801   -62503   -64225   -65891   -67478 
  -69003   -70504   -72006   -73491   -74920   -76262   -77518   -78705 
  -79821   -80837   -81720   -82420   -82891   -83131   -83191   -83164 
  -83142   -83215   -83480   -84027   -84887   -86011   -87296   -88612 
  -89804   -90706   -91183   -91152   -90598   -89552   -88078   -86283 
  -84291   -82213   -80136   -78114   -76156   -74238   -72302   -70253 
  -67971   -65339   -62274   -58734   -54735   -50374   -45818   -41257 
  -36860   -32751   -28976   -25494   -22209   -19021   -15875   -12771 
   -9753    -6868    -4154    -1621      761     3064     5360     7677 
   10003    12292    14474    16488    18317    19969    21460    22824 
   24109    25353    26552    27646    28531    29095    29260    29025 
   28446    27592    26508    25200    23655    21887    19966    18013 
   16170    14586    13365    12533    12056    11883    11963    12252 
   12717    13337    14089    14951    15893    16893    17938    19028 
   20158    21315    22481    23653    24844    26089    27417    28847 
   30391    32061    33847    35711    37596    39440    41174    42734 
   44064    45043    45543    45580    45303    44839    44237    43483 
   42475    41078    39233    36951    34231    31125    27798    24460 
   21279    18357    15714    13310    11112     9085     7163     5290 
    3419     1506     -393    -2154    -3721    -5087    -6200    -6999 
   -7448    -7519    -7231    -6671    -5962    -5238    -4604    -4108 
   -3749    -3507    -3365    -3326    -3428    -3710    -4176    -4773 
   -5422    -6031    -6497    -6744    -6752    -6563    -6263    -5942 
   -5662    -5434    -5228    -4992    -4682    -4286    -3847    -3465 
   -3248    -3285    -3613    -4208    -5001    -5901    -6808    -7636 
   -8362    -9052    -9841   -10874   -12243   -13952   -15914   -17969 
  -19934   -21695   -23258   -24675   -25971   -27188   -28425   -29802 
  -31413   -33255   -35196   -37056   -38677   -39930   -40746   -41115 
  -41060   -40627   -39874   -38849   -37581   -36087   -34378   -32490 
  -30510   -28575   -26849   -25509   -24715   -24543   -24961   -25853 
  -27085   -28554   -30208   -32033   -34026   -36165   -38391   -40609 
  -42697   -44529   -46018   -47134   -47885   -48281   -48312   -47945 
  -47146   -45893   -44185   -42049   -39551   -36779   -33812   -30699 
  -27476   -24200   -20965   -17878   -15039   -12519   -10359    -8578 
   -7185    -6165    -5476    -5061    -4863    -4827    -4894    -5000 
   -5106    -5217    -5376    -5630    -6016    -6547    -7234    -8086 
   -9103   -10256   -11483   -12739   -14040   -15469   -17152   -19200 
  -21666   -24551   -27816   -31403   -35246   -39272   -43403   -47544 
  -51569   -55341   -58743   -61702   -64169   -66096   -67425   -68110 
  -68157   -67642   -66690   -65430   -63953   -62316   -60577   -58783 
  -56949   -55054   -53059   -50921   -48615   -46166   -43668   -41243 
  -38955   -36799   -34748   -32786   -30885   -29005   -27126   -25260 
  -23444   -21739   -20210   -18890   -17776   -16835   -15996   -15184 
  -14376   -13595   -12856   -12143   -11412   -10620    -9723    -8696 
   -7565    -6372    -5151    -3939    -2724    -1420       54     1762 
    3775     6142     8836    11782    14874    17917    20667    22934 
   24589    25572    25925    25764    25188    24266    23079    21711 
   20226    18694    17197    15807    14589    13617    12952    12621 
   12628    12981    13687    14760    16213    18027    20130    22404 
   24732    27037    29285    31478    33616    35671    37595    39342 
   40875    42165    43190    43943    44445    44755    44949    45075 
   45140    45112    44964    44702    44369    44054    43853    43843 
   44079    44577    45284    46105    46938    47714    48433    49156 
   49930    50732    51514    52218    52761    53072    53121    52893 
   52366    51537    50453    49188    47829    46483    45255    44202 
   43318    42545    41810    41080    40383    39786    39385    39291 
   39559    40153    40998    42034    43131    44072    44726    45143 
   45361    45314    45027    44620    44110    43445    42657    41839 
   41090    40557    40381    40598    41154    41959    42890    43809 
   44586    45110    45308    45151    44625    43748    42599    41318 
   40052    38904    37902    37017    36193    35353    34417    33316 
   31995    30410    28572    26566    24485    22369    20180    17837 
   15254    12403     9364     6323     3472      954    -1127    -2720 
   -3847    -4585    -5029    -5283    -5455    -5640    -5910    -6309 
   -6835    -7434    -8033    -8563    -8968    -9191    -9152    -8740 
   -7855    -6497    -4775    -2820     -749     1333     3330     5118 
    6521     7360     7489     6812     5315     3039       70    -3461 
   -7408   -11608   -15890   -20145   -24328   -28344   -32043   -35359 
  -38302   -40841   -42927   -44553   -45742   -46538   -47033   -47349 
  -47586   -47776   -47869   -47762   -47338   -46488   -45143   -43294 
  -40983   -38292   -35343   -32261   -29135   -26036   -23067   -20348 
  -17969   -15945   -14202   -12584   -10939    -9216    -7473    -5818 
   -4380    -3292    -2645    -2471    -2756    -3462    -4542    -5936 
   -7544    -9220   -10811   -12188   -13247   -13891   -14054   -13695 
  -12801   -11401    -9596    -7544    -5428    -3422    -1654     -201 
     910     1700     2251     2677     3064     3436     3779     4072 
    4329     4608     4951     5314     5679     6187     6935     7900 
    9153    10774    12607    14393    15983    17346    18463    19318 
   19960    20500    21058    21723    22545    23552    24761    26182 
   27814    29623    31546    33509    35403    37085    38415    39298 
   39701    39657    39257    38586    37671    36481    34994    33266 
   31403    29506    27648    25856    24111    22369    20575    18675 
   16671    14613    12554    10547     8654     6941     5483     4379 
    3724     3558     3865     4579     5586     6737     7903     9015 
   10068    11104    12182    13324    14493    15621    16639    17482 
   18082    18375    18306    17856    17075    16080    15008    13977 
   13055    12253    11547    10892    10248     9580     8879     8174 
    7529     7016     6698     6593     6664     6843     7059     7243 
    7315     7204     6879     6328     5526     4435     3048     1420 
    -340    -2099    -3737    -5203    -6486    -7555    -8382    -8995 
   -9414    -9647    -9792   -10011   -10386   -10905   -11504   -12043 
  -12364   -12374   -12046   -11374   -10379    -9095    -7538    -5719 
   -3649    -1323     1284     4178     7292    10502    13670    16667 
   19376    21703    23588    24993    25906    26370    26487    26409 
   26299    26303    26522    26995    27747    28808    30150    31723 
   33505    35424    37397    39416    41486    43582    45707    47835 
   49877    51781    53568    55242    56792    58209    59457    60482 
   61266    61841    62279    62677    63099    63550    64033    64587 
   65236    65943    66648    67300    67856    68298    68661    69005 
   69368    69791    70304    70865    71416    71927    72335    72582 
   72683    72669    72554    72365    72101    71693    71103    70390 
   69646    68966    68448    68151    68087    68277    68731    69398 
   70178    70965    71643    72106    72297    72185    71716    70837 
   69540    67842    65768    63380    60777    58050    55280    52554 
   49946    47478    45120    42830    40589    38421    36393    34592 
   33102    31975    31171    30581    30149    30007    30337    31125 
   32233    33613    35224    36919    38570    40085    41321    42188 
   42741    43030    43020    42715    42198    41536    40767    39942 
   39091    38197    37223    36142    34923    33549    32064    30550 
   29059    27606    26167    24692    23116    21391    19510    17494 
   15370    13176    10940     8648     6270     3808     1318    -1123 
   -3442    -5551    -7334    -8671    -9484    -9782    -9656    -9272 
   -8835    -8508    -8375    -8459    -8735    -9149    -9669   -10305 
  -11082   -12031   -13184   -14572   -16228   -18176   -20415   -22913 
  -25601   -28396   -31223   -34042   -36836   -39591   -42279   -44847 
  -47219   -49316   -51086   -52514   -53641   -54546   -55324   -56066 
  -56850   -57741   -58782   -59989   -61365   -62906   -64590   -66366 
  -68182   -70003   -71797   -73522   -75164   -76731   -78231   -79652 
  -80974   -82184   -83285   -84310   -85304   -86303   -87312   -88314 
  -89280   -90166   -90894   -91390   -91635   -91659   -91533   -91338 
  -91145   -91005   -90952   -91003   -91164   -91415   -91713   -92004 
  -92203   -92205   -91934   -91379   -90586   -89647   -88678   -87781 
  -87028   -86453   -86062   -85841   -85753   -85734   -85697   -85563 
  -85282   -84835   -84234   -83513   -82740   -81995   -81329   -80753 
  -80254   -79803   -79354   -78829   -78123   -77147   -75852   -74262 
  -72481   -70664   -68978   -67556   -66470   -65714   -65208   -64825 
  -64430   -63924   -63280   -62562   -61872   -61286   -60831   -60496 
  -60273   -60173   -60189   -60253   -60233   -59985   -59424   -58550 
  -57438   -56207   -54988   -53895   -53016   -52399   -52064   -52013 
  -52204   -52528   -52822   -52907   -52646   -51985   -50959   -49671 
  -48252   -46832   -45506   -44318   -43265   -42306   -41370   -40374 
  -39246   -37948   -36494   -34948   -33378   -31828   -30309   -28794 
  -27225   -25555   -23738   -21742   -19618   -17466   -15360   -13329 
  -11400    -9618    -8014    -6583    -5331    -4280    -3435    -2776 
   -2278    -1926    -1704    -1593    -1558    -1545    -1494    -1359 
   -1108     -724     -201      470     1313     2354     3597     5012 
    6526     8057     9538    10935    12247    13485    14660    15773 
   16814    17748    18503    18984    19104    18790    18008    16786 
   15199    13356    11368     9331     7319     5390     3591     1944 
     465     -829    -1927    -2816    -3471    -3852    -3896    -3537 
   -2728    -1462      204     2157     4264     6408     8494    10445 
   12183    13632    14741    15492    15898    15998    15857    15555 
   15193    14903    14796    14919    15287    15921    16851    18088 
   19622    21412    23369    25389    27385    29292    31069    32718 
   34265    35738    37170    38592    40008    41403    42764    44057 
   45217    46187    46953    47546    48035    48538    49181    50056 
   51209    52627    54212    55801    57231    58387    59205    59665 
   59777    59573    59111    58467    57719    56941    56177    55433 
   54698    53980    53300    52647    51998    51354    50714    50064 
   49427    48833    48290    47840    47549    47474    47669    48141 
   48826    49640    50517    51430    52407    53518    54833    56398 
   58240    60367    62739    65235    67675    69888    71774    73291 
   74438    75222    75654    75750    75540    75051    74302    73323 
   72132    70709    69034    67115    64979    62647    60143    57485 
   54688    51796    48899    46111    43521    41182    39129    37401 
   35929    34438    32748    30930    29051    27123    25194    23281 
   21374    19541    17879    16468    15396    14713    14393    14364 
   14515    14686    14721    14523    14045    13283    12284    11116 
    9866     8647     7561     6654     5940     5430     5120     4970 
    4904     4859     4807     4758     4745     4795     4931     5194 
    5651     6388     7462     8858    10465    12120    13658    14928 
   15818    16273    16301    15962    15352    14588    13764    12943 
   12171    11473    10839    10242     9664     9100     8561     8098 
    7790     7713     7910     8413     9249    10423    11911    13646 
   15502    17312    18909    20141    20908    21184    21004    20428 
   19541    18441    17236    16019    14852    13765    12738    11735 
   10754     9799     8815     7762     6681     5648     4758     4168 
    4058     4530     5554     7000     8706    10508    12281    13973 
   15548    16940    18103    19040    19760    20273    20621    20846 
   20979    21061    21141    21250    21413    21689    22160    22889 
   23908    25215    26754    28418    30067    31557    32768    33641 
   34180    34421    34417    34244    33959    33560    32988    32176 
   31082    29722    28171    26503    24736    22838    20769    18511 
   16083    13518    10825     7993     5050     2096     -727    -3282 
   -5491    -7383    -9063   -10650   -12239   -13878   -15554   -17240 
  -18940   -20683   -22497   -24404   -26406   -28457   -30466   -32347 
  -34019   -35386   -36347   -36848   -36918   -36667   -36258   -35850 
  -35560   -35427   -35396   -35353   -35179   -34791   -34143   -33222 
  -32059   -30722   -29311   -27958   -26805   -25948   -25433   -25279 
  -25491   -26052   -26938   -28114   -29535   -31161   -32969   -34952 
  -37101   -39385   -41711   -43912   -45798   -47215   -48110   -48528 
  -48557   -48255   -47621   -46607   -45157   -43246   -40897   -38204 
  -35331   -32464   -29767   -27350   -25245   -23412   -21759   -20186 
  -18599   -16919   -15087   -13083   -10931    -8694    -6464    -4332 
   -2362     -562     1110     2691     4149     5411     6419     7131 
    7522     7607     7441     7131     6815     6603     6555     6702 
    7011     7418     7919     8562     9393    10462    11824    13517 
   15544    17855    20347    22898    25398    27776    30001    32078 
   34021    35832    37497    38997    40313    41415    42253    42805 
   43108    43245    43299    43327    43357    43416    43526    43688 
   43875    44045    44144    44128    43952    43571    42966    42130 
   41078    39885    38669    37579    36737    36198    36049    36361 
   37004    37805    38775    39926    41133    42308    43456    44551 
   45553    46450    47224    47856    48373    48807    49180    49530 
   49880    50218    50507    50695    50727    50566    50184    49571 
   48791    47971    47249    46729    46468    46476    46721    47152 
   47704    48283    48778    49091    49149    48906    48343    47478 
   46384    45190    44044    43078    42376    41966    41828    41901 
   42096    42303    42411    42326    41992    41424    40723    40027 
   39459    39108    39027    39195    39509    39810    39929    39728 
   39124    38074    36580    34687    32481    30062    27510    24870 
   22156    19395    16660    14047    11621     9392     7305     5241 
