Origin Time       2003/09/26 04:50:00
Lat.              41.781
Long.             144.074
Depth. (km)       42
Mag.              8.0
Station Code      ABSH11
Station Lat.      43.9144
Station Long.     144.1913
Station Height(m) -82
Record Time       2003/09/26 04:50:47
Sampling Freq(Hz) 200Hz
Duration Time(s)  300
Dir.              2
Scale Factor      2000(gal)/8388608
Max. Acc. (gal)   23.596
Last Correction   2003/09/26 04:00:00
Memo.             
[...]
  -25921   -26034   -26508   -27169   -27726   -27870   -27396   -26273 
  -24622   -22634   -20476   -18256   -16070   -14015   -12127   -10357 
   -8616    -6827    -4914    -2841     -714     1297     3078     4551 
    5772     6919     8107     9366    10640    11777    12596    12954 
   12803    12217    11323    10237     9031     7711     6260     4686 
    3019     1278     -533    -2390    -4197    -5812    -7086    -7923 
   -8331    -8404    -8253    -7975    -7620    -7179    -6609    -5870 
   -4987    -4078    -3300    -2756    -2425    -2169    -1823    -1301 
    -620      131      850     1447     1857     2021     1854     1257 
     184    -1297    -3009    -4712    -6217    -7459    -8472    -9296 
   -9998   -10684   -11392   -12046   -12478   -12480   -11873   -10550 
   -8507    -5851    -2764      537     3832     6914     9602    11748 
   13253    14068    14227    13869    13221    12554    12129    12138 
   12667    13670    14975    16354    17618    18705    19686    20713 
   21912    23302    24783    26194    27379    28255    28853    29309 
   29819    30569    31646    32974    34361    35590    36497    37012 
   37155    36997    36611    36050    35365    34603    33775    32839 
   31750    30497    29125    27725    26404    25259    24381    23879 
   23855    24354    25329    26636    28062    29392    30450    31116 
   31333    31126    30628    30056    29638    29511    29677    30024 
   30391    30629    30652    30465    30153    29828    29577    29426 
   29335    29227    29009    28575    27812    26630    25009    23046 
   20930    18853    16931    15163    13479    11813    10129     8407 
    6654     4870     3033     1176     -618    -2354    -4152    -6106 
   -8204   -10393   -12622   -14838   -16978   -18996   -20903   -22776 
  -24715   -26792   -29007   -31290   -33560   -35775   -37957   -40195 
  -42598   -45227   -48061   -51024   -54052   -57121   -60229   -63344 
  -66361   -69130   -71529   -73525   -75167   -76548   -77763   -78865 
  -79839   -80652   -81331   -81970   -82682   -83554   -84615   -85821 
  -87079   -88294   -89409   -90437   -91442   -92477   -93526   -94510 
  -95331   -95905   -96179   -96136   -95781   -95129   -94207   -93079 
  -91814   -90456   -89011   -87408   -85477   -83042   -80051   -76607 
  -72902   -69102   -65299   -61551   -57922   -54520   -51466   -48832 
  -46614   -44760   -43207   -41914   -40850   -39975   -39224   -38504 
  -37714   -36781   -35677   -34414   -33029   -31563   -30058   -28561 
  -27123   -25762   -24453   -23171   -21919   -20730   -19653   -18749 
  -18077   -17680   -17549   -17624   -17785   -17873   -17745   -17338 
  -16656   -15719   -14536   -13121   -11531    -9875    -8277    -6834 
   -5623    -4737    -4286    -4350    -4907    -5825    -6945    -8168 
   -9478   -10899   -12449   -14136   -15965   -17916   -19953   -22066 
  -24289   -26667   -29217   -31875   -34516   -37020   -39321   -41433 
  -43445   -45462   -47556   -49743   -51999   -54284   -56554   -58765 
  -60898   -62965   -64986   -66969   -68909   -70779   -72541   -74147 
  -75528   -76600   -77291   -77587   -77540   -77237   -76772   -76231 
  -75685   -75185   -74757   -74413   -74161   -74008   -73936   -73893 
  -73802   -73609   -73305   -72917   -72493   -72083   -71723   -71406 
  -71069   -70617   -69964   -69084   -68047   -67020   -66218   -65826 
  -65929   -66489   -67355   -68333   -69266   -70091   -70826   -71503 
  -72123   -72645   -73002   -73117   -72925   -72399   -71548   -70429 
  -69144   -67826   -66562   -65324   -63971   -62320   -60225   -57658 
  -54709   -51545   -48332   -45176   -42128   -39249   -36642   -34449 
  -32807   -31775   -31286   -31179   -31306   -31621   -32174   -33014 
  -34094   -35282   -36424   -37416   -38230   -38903   -39519   -40183 
  -40979   -41952   -43121   -44446   -45828   -47170   -48442   -49677 
  -50961   -52395   -54029   -55808   -57569   -59088   -60167   -60710 
  -60740   -60361   -59692   -58827   -57836   -56800   -55817   -54982 
  -54377   -54053   -53999   -54110   -54237   -54267   -54169   -54013 
  -53938   -54050   -54333   -54637   -54737   -54425   -53587   -52218 
  -50398   -48252   -45933   -43603   -41424   -39552   -38123   -37197 
  -36699   -36418   -36067   -35375   -34172   -32457   -30375   -28131 
  -25909   -23821   -21873   -20001   -18127   -16213   -14274   -12394 
  -10687    -9241    -8069    -7101    -6221    -5322    -4348    -3318 
   -2297    -1339     -461      405     1445     2887     4859     7284 
    9877    12261    14114    15292    15881    16148    16416    16886 
   17539    18177    18583    18656    18463    18161    17864    17557 
   17112    16368    15208    13597    11565     9165     6458     3506 
     383    -2804    -5917    -8782   -11237   -13198   -14671   -15710 
  -16378   -16720   -16771   -16604   -16320   -15978   -15545   -14899 
  -13898   -12480   -10702    -8690    -6577    -4460    -2403     -457 
    1282     2646     3428     3466     2757     1499       35    -1302 
   -2319    -3029    -3602    -4264    -5189    -6422    -7894    -9500 
  -11143   -12721   -14133   -15301   -16197   -16825   -17161   -17117 
  -16569   -15417   -13662   -11442    -8979    -6464    -3973    -1460 
    1171     3991     6975    10011    12983    15811    18449    20882 
   23123    25172    26995    28564    29883    30954    31790    32455 
   33036    33629    34348    35284    36436    37752    39193    40709 
   42213    43641    44991    46228    47255    48004    48489    48803 
   49127    49644    50417    51347    52276    53073    53689    54163 
   54526    54699    54541    53970    53001    51717    50249    48723 
   47206    45726    44330    43069    41961    40994    40167    39462 
   38829    38196    37487    36575    35328    33766    31990    30032 
   27953    25933    24163    22766    21805    21254    21002    20929 
   20963    21059    21183    21313    21395    21363    21189    20887 
   20470    19924    19235    18428    17574    16776    16118    15600 
   15108    14479    13579    12361    10861     9154     7337     5507 
    3757     2141      653     -763    -2173    -3646    -5277    -7164 
   -9347   -11745   -14195   -16534   -18553   -20088   -21186   -22048 
  -22837   -23611   -24344   -24998   -25529   -25860   -25947   -25789 
  -25399   -24834   -24199   -23587   -23044   -22544   -22000   -21288 
  -20315   -19072   -17622   -16050   -14432   -12818   -11190    -9499 
   -7701    -5787    -3818    -1873       95     2227     4613     7215 
    9872    12375    14536    16248    17497    18321    18766    18897 
   18798    18581    18387    18363    18619    19203    20119    21332 
   22779    24342    25853    27133    28051    28566    28722    28608 
   28306    27867    27306    26632    25899    25196    24576    24015 
   23404    22559    21286    19510    17337    15010    12821    11027 
    9760     8994     8619     8551     8769     9299    10190    11487 
   13180    15195    17418    19698    21873    23815    25460    26813 
   27928    28872    29695    30461    31289    32308    33569    35026 
   36553    37974    39129    39948    40486    40886    41331    41986 
   42917    44097    45460    46943    48481    50008    51453    52720 
   53706    54352    54651    54639    54375    53931    53355    52652 
   51767    50587    48931    46624    43612    40027    36119    32176 
   28498    25322    22696    20469    18460    16545    14597    12542 
   10344     7987     5558     3171      943     -956    -2394    -3321 
   -3763    -3841    -3710    -3465    -3135    -2717    -2225    -1690 
   -1093     -357      577     1685     2842     3899     4811     5702 
    6778     8205     9998    12012    14015    15807    17283    18412 
   19181    19557    19508    19056    18327    17543    16919    16565 
   16484    16640    17002    17561    18325    19282    20413    21703 
   23102    24508    25796    26868    27685    28246    28536    28535 
   28261    27764    27123    26419    25709    25051    24526    24163 
   23909    23634    23122    22135    20545    18403    15895    13251 
   10660     8237     6038     4111     2512     1309      550      220 
     251      588     1234     2232     3638     5510     7853    10586 
   13561    16609    19584    22388    24958    27226    29126    30597 
   31593    32099    32173    31962    31645    31322    30966    30462 
   29682    28579    27185    25576    23836    21992    19995    17770 
   15263    12458     9405     6251     3210      510    -1683    -3324 
   -4502    -5405    -6241    -7159    -8239    -9492   -10893   -12435 
  -14158   -16080   -18152   -20254   -22179   -23684   -24597   -24865 
  -24561   -23858   -22944   -21962   -21010   -20141   -19387   -18773 
  -18301   -17961   -17746   -17659   -17726   -17960   -18325   -18746 
  -19160   -19553   -19973   -20511   -21256   -22216   -23292   -24332 
  -25183   -25729   -25930   -25834   -25536   -25132   -24695   -24282 
  -23948   -23730   -23614   -23522   -23349   -23033   -22584   -22073 
  -21567   -21063   -20504   -19851   -19120   -18365   -17615   -16847 
  -15995   -14978   -13715   -12173   -10405    -8533    -6712    -5090 
   -3765    -2743    -1952    -1303     -738     -233      186      452 
     522      392       70     -429    -1087    -1885    -2813    -3840 
   -4921    -6049    -7249    -8512    -9785   -10974   -11953   -12575 
  -12721   -12368   -11605   -10574    -9413    -8188    -6875    -5390 
   -3664    -1679      516     2825     5138     7379     9511    11500 
   13295    14828    16032    16873    17365    17567    17580    17559 
   17680    18079    18798    19772    20856    21879    22692    23196 
   23328    23041    22319    21198    19748    18032    16088    13951 
   11673     9343     7054     4854     2742      705    -1275    -3215 
   -5095    -6815    -8201    -9084    -9397    -9250    -8879    -8509 
   -8248    -8073    -7864    -7476    -6843    -6013    -5082    -4127 
   -3199    -2342    -1606    -1049     -708     -578     -600     -677 
    -753     -830     -900     -934     -927     -939    -1100    -1568 
   -2478    -3890    -5765    -7965   -10273   -12463   -14394   -16066 
  -17604   -19192   -20997   -23106   -25515   -28169   -30983   -33799 
  -36379   -38461   -39837   -40401   -40154   -39180   -37640   -35782 
  -33921   -32344   -31210   -30520   -30176   -30090   -30237   -30640 
  -31320   -32267   -33434   -34754   -36173   -37675   -39259   -40904 
  -42547   -44082   -45411   -46485   -47327   -48011   -48654   -49371 
  -50244   -51317   -52583   -53962   -55327   -56560   -57570   -58274 
  -58593   -58454   -57847   -56878   -55711   -54488   -53304   -52172 
  -51041   -49860   -48575   -47102   -45322   -43122   -40444   -37351 
  -34013   -30632   -27389   -24391   -21649   -19096   -16647   -14253 
  -11957    -9917    -8308    -7199    -6555    -6288    -6290    -6497 
   -6925    -7631    -8659    -9994   -11544   -13164   -14719   -16138 
  -17408   -18521   -19428   -20040   -20265   -20039   -19336   -18185 
  -16666   -14892   -12994   -11097    -9279    -7572    -5981    -4476 
   -2974    -1369      406     2354     4392     6398     8276    10002 
   11596    13092    14520    15869    17102    18167    18997    19524 
   19733    19695    19548    19434    19412    19437    19406    19215 
   18817    18216    17444    16526    15435    14114    12557    10831 
    9047     7306     5651     4049     2414      648    -1313    -3470 
   -5736    -7935    -9864   -11358   -12344   -12867   -13073   -13161 
  -13322   -13701   -14376   -15337   -16488   -17665   -18689   -19410 
  -19781   -19857   -19751   -19598   -19524   -19613   -19877   -20311 
  -20925   -21736   -22760   -24000   -25424   -26934   -28368   -29532 
  -30230   -30341   -29892   -29047   -28040   -27094   -26349   -25859 
  -25639   -25712   -26086   -26703   -27439   -28142   -28701   -29082 
  -29308   -29395   -29311   -28992   -28385   -27462   -26224   -24700 
  -22955   -21072   -19148   -17296   -15640   -14300   -13368   -12871 
  -12771   -12989   -13447   -14079   -14822   -15595   -16298   -16858 
  -17282   -17653   -18087   -18664   -19408   -20282   -21212   -22115 
  -22918   -23555   -24000   -24302   -24588   -25009   -25679   -26614 
  -27679   -28641   -29302   -29584   -29524   -29247   -28911   -28662 
  -28612   -28817   -29277   -29957   -30813   -31782   -32774   -33717 
  -34618   -35543   -36545   -37623   -38699   -39641   -40314   -40633 
  -40588   -40230   -39630   -38834   -37859   -36725   -35492   -34235 
  -33047   -32035   -31276   -30770   -30446   -30177   -29839   -29343 
  -28654   -27801   -26871   -25975   -25220   -24673   -24372   -24345 
  -24616   -25179   -25997   -27009   -28157   -29380   -30603   -31735 
  -32675   -33325   -33634   -33639   -33468   -33281   -33219   -33356 
  -33667   -34044   -34349   -34478   -34393   -34129   -33772   -33433 
  -33203   -33122   -33184   -33344   -33559   -33810   -34112   -34539 
  -35235   -36382   -38114   -40438   -43201   -46137   -48986   -51602 
  -53991   -56271   -58587   -61056   -63741   -66647   -69718   -72833 
  -75823   -78523   -80816   -82642   -84003   -84937   -85491   -85710 
  -85651   -85424   -85188   -85126   -85387   -86047   -87094   -88438 
  -89971   -91614   -93321   -95065   -96819   -98525  -100081  -101388 
 -102430  -103259  -103921  -104443  -104851  -105134  -105216  -105025 
 -104499  -103562  -102176  -100448   -98639   -97055   -95940   -95450 
  -95600   -96214   -97032   -97785   -98224   -98205   -97711   -96791 
  -95518   -93991   -92351   -90761   -89345   -88175   -87279   -86660 
  -86259   -85951   -85663   -85374   -85027   -84564   -83961   -83228 
  -82433   -81687   -81077   -80619   -80265   -79942   -79588   -79181 
  -78733   -78239   -77659   -76941   -76065   -75068   -74022   -72987 
  -71972   -70961   -69969   -69020   -68095   -67138   -66105   -65005 
  -63870   -62715   -61544   -60390   -59324   -58421   -57692   -57065 
  -56424   -55685   -54822   -53835   -52701   -51361   -49748   -47840 
  -45648   -43191   -40500   -37646   -34738   -31928   -29365   -27131 
  -25214   -23545   -22028   -20598   -19246   -17983   -16805   -15707 
  -14704   -13851   -13232   -12917   -12925   -13235   -13807   -14558 
  -15380   -16175   -16883   -17505   -18093   -18682   -19247   -19710 
  -19975   -19959   -19614   -18925   -17927   -16715   -15438   -14263 
  -13318   -12660   -12271   -12075   -11940   -11710   -11248   -10469 
   -9358    -7933    -6199    -4137    -1711     1087     4177     7364 
   10399    13058    15209    16832    18000    18816    19322    19439 
   19016    17957    16301    14214    11916     9616     7471     5548 
    3819     2187      521    -1275    -3190    -5093    -6810    -8164 
   -8997    -9207    -8791    -7866    -6644    -5349    -4112    -2904 
   -1599      -95     1601     3381     5096     6645     8016     9254 
   10401    11474    12448    13270    13905    14376    14761    15155 
   15660    16359    17294    18466    19849    21412    23112    24890 
   26654    28302    29757    30978    31952    32684    33179    33452 
   33568    33652    33852    34286    35026    36119    37606    39515 
   41841    44526    47452    50460    53388    56108    58552    60693 
   62536    64110    65461    66644    67706    68661    69479    70099 
   70477    70606    70490    70141    69585    68833    67874    66751 
   65610    64650    64039    63877    64164    64802    65650    66557 
   67367    67973    68373    68626    68791    68908    68990    69008 
   68915    68663    68191    67453    66457    65273    64020    62825 
   61788    60951    60297    59764    59277    58769    58193    57510 
   56698    55742    54602    53221    51554    49589    47358    44966 
   42563    40291    38234    36411    34794    33358    32099    31009 
   30056    29193    28371    27512    26504    25236    23636    21703 
   19536    17318    15253    13492    12080    10964    10050     9261 
    8532     7791     6972     6030     4938     3697     2338      918 
    -465    -1683    -2646    -3345    -3808    -4048    -4056    -3786 
   -3169    -2175     -863      649     2237     3771     5144     6311 
    7316     8260     9274    10468    11894    13521    15204    16705 
   17793    18339    18266    17544    16293    14779    13218    11695 
   10312     9229     8489     8019     7769     7701     7741     7834 
    7965     8098     8178     8182     8086     7854     7471     6941 
    6245     5360     4291     3079     1812      604     -472    -1420 
   -2265    -2987    -3518    -3772    -3680    -3237    -2542    -1774 
   -1117     -691     -554     -721    -1163    -1803    -2500    -3094 
   -3440    -3438    -3081    -2437    -1577     -562      561     1791 
    3209     4957     7165     9874    13028    16521    20259    24194 
   28301    32529    36765    40867    44708    48204    51300    53973 
   56237    58145    59733    61003    61935    62517    62787    62821 
   62649    62217    61420    60156    58385    56186    53749    51289 
   48958    46806    44814    42968    41233    39479    37545    35332 
   32817    30030    27061    24075    21249    18717    16596    14977 
   13880    13220    12808    12439    11974    11372    10698    10088 
    9696     9663    10080    10941    12149    13562    15047    16496 
   17817    18936    19806    20392    20689    20737    20592    20282 
   19827    19249    18551    17719    16729    15543    14130    12524 
   10839     9218     7780     6582     5582     4660     3687     2582 
    1305     -139    -1710    -3372    -5138    -7070    -9235   -11677 
  -14400   -17369   -20524   -23798   -27102   -30320   -33324   -36004 
  -38289   -40176   -41738   -43020   -43996   -44694   -45232   -45734 
  -46360   -47177   -48030   -48760   -49353   -49842   -50227   -50426 
  -50341   -49979   -49410   -48691   -47828   -46745   -45302   -43391 
  -40987   -38146   -34970   -31576   -28061   -24470   -20849   -17330 
  -14145   -11546    -9705    -8627    -8149    -8038    -8114    -8260 
   -8372    -8369    -8224    -7968    -7695    -7551    -7692    -8218 
   -9139   -10350   -11637   -12766   -13610   -14160   -14475   -14624 
  -14645   -14564   -14444   -14392   -14506   -14829   -15351   -16060 
  -16974   -18123   -19530   -21183   -23021   -24959   -26905   -28783 
  -30542   -32184   -33754   -35316   -36902   -38489   -39978   -41229 
  -42118   -42586   -42626   -42275   -41590   -40638   -39472   -38128 
  -36605   -34849   -32781   -30337   -27513   -24396   -21174   -18101 
  -15428   -13345   -11958   -11283   -11266   -11802   -12758   -14012 
  -15480   -17129   -18945   -20899   -22958   -25115   -27382   -29754 
  -32215   -34733   -37222   -39561   -41673   -43548   -45226   -46799 
  -48380   -50024   -51730   -53451   -55090   -56525   -57636   -58307 
  -58443   -58024   -57108   -55813   -54287   -52676   -51106   -49664 
  -48385   -47242   -46155   -45021   -43744   -42273   -40608   -38798 
  -36922   -35056   -33220   -31345   -29278   -26861   -24031   -20808 
  -17263   -13504    -9653    -5847    -2195     1259     4506     7555 
