Origin Time       2003/09/26 04:50:00
Lat.              41.781
Long.             144.074
Depth. (km)       42
Mag.              8.0
Station Code      ABSH11
Station Lat.      43.9144
Station Long.     144.1913
Station Height(m) 40
Record Time       2003/09/26 04:50:47
Sampling Freq(Hz) 200Hz
Duration Time(s)  300
Dir.              4
Scale Factor      2000(gal)/8388608
Max. Acc. (gal)   54.723
Last Correction   2003/09/26 04:00:00
Memo.             
[...]
   60775    62868    64085    64132    62797    59939    55460    49326 
   41611    32526    22391    11611      663    -9933   -19703   -28270 
  -35358   -40782   -44448   -46370   -46637   -45410   -42943   -39600 
  -35815   -32027   -28655   -26105   -24777   -25041   -27212   -31507 
  -37980   -46474   -56610   -67813   -79394   -90648  -100967  -109882 
 -117063  -122322  -125646  -127189  -127189  -125936  -123781  -121114 
 -118293  -115594  -113214  -111280  -109848  -108909  -108413  -108304 
 -108537  -109079  -109885  -110865  -111844  -112576  -112770  -112159 
 -110579  -108047  -104785  -101155   -97504   -94043   -90856   -87959 
  -85350   -83049   -81116   -79639   -78700   -78346   -78591   -79423 
  -80808   -82677   -84918   -87411   -90056   -92793   -95606   -98509 
 -101491  -104466  -107294  -109840  -112007  -113732  -114970  -115669 
 -115757  -115166  -113864  -111876  -109269  -106120  -102517   -98577 
  -94441   -90280   -86293   -82662   -79492   -76769   -74358   -72037 
  -69538   -66610   -63064   -58786   -53743   -47971   -41571   -34684 
  -27457   -20009   -12439    -4843     2658     9918    16756    22985 
   28480    33225    37277    40721    43658    46193    48408    50359 
   52093    53664    55116    56466    57704    58806    59708    60302 
   60482    60209    59511    58485    57297    56143    55167    54421 
   53875    53470    53145    52860    52600    52335    52018    51599 
   51044    50333    49418    48177    46431    44002    40757    36636 
   31666    25953    19674    13059     6377      -92    -6088   -11379 
  -15745   -18982   -20949   -21617   -21069   -19468   -17018   -13935 
  -10414    -6615    -2681     1237     4999     8466    11459    13735 
   15034    15129    13874    11229     7276     2217    -3659    -9998 
  -16376   -22345   -27509   -31586   -34400   -35870   -36020   -34963 
  -32867   -29937   -26411   -22537   -18526   -14521   -10605    -6800 
   -3061      700     4576     8649    13014    17791    23081    28934 
   35363    42354    49826    57613    65486    73197    80492    87131 
   92942    97843   101816   104871   107040   108359   108812   108308 
  106692   103793    99484    93732    86641    78448    69465    60019 
   50418    40963    31944    23634    16311    10258     5716     2807 
    1510     1655     2934     4957     7337     9760    11979    13810 
   15131    15860    15912    15189    13604    11102     7658     3267 
   -2040    -8188   -15056   -22471   -30217   -38051   -45756   -53187 
  -60269   -66943   -73120   -78681   -83487   -87403   -90336   -92270 
  -93225   -93206   -92196   -90199   -87239   -83320   -78396   -72381 
  -65173   -56690   -46920   -35996   -24204   -11928      419    12445 
   23823    34315    43754    52020    59013    64643    68832    71496 
   72560    71988    69819    66159    61172    55069    48080    40440 
   32409    24312    16535     9456     3369    -1506    -5000    -7010 
   -7544    -6697    -4611    -1447     2627     7452    12871    18714 
   24793    30926    36943    42681    47971    52640    56530    59501 
   61444    62301    62076    60796    58455    55012    50426    44686 
   37828    29961    21272    11984     2321    -7482   -17151   -26388 
  -34904   -42453   -48859   -54060   -58129   -61230   -63529   -65130 
  -66064   -66277   -65626   -63913   -60977   -56769   -51387   -45063 
  -38135   -30983   -23972   -17429   -11638    -6828    -3152     -689 
     552      622     -387    -2370    -5228    -8883   -13262   -18248 
  -23650   -29172   -34418   -38951   -42395   -44527   -45280   -44717 
  -43016   -40466   -37415   -34229   -31278   -28909   -27427   -27093 
  -28130   -30685   -34785   -40325   -47114   -54912   -63442   -72405 
  -81519   -90528   -99172  -107184  -114328  -120429  -125371  -129110 
 -131706  -133348  -134311  -134861  -135185  -135388  -135491  -135455 
 -135229  -134785  -134118  -133231  -132146  -130923  -129629  -128281 
 -126853  -125302  -123574  -121584  -119245  -116510  -113398  -109983 
 -106369  -102688   -99103   -95774   -92801   -90211   -87959   -85927 
  -83966   -81951   -79801   -77459   -74877   -71999   -68753   -65060 
  -60853   -56076   -50674   -44556   -37594   -29663   -20709   -10787 
     -63    11190    22634    33930    44791    54985    64302    72545 
   79571    85299    89691    92763    94581    95215    94710    93098 
   90448    86882    82542    77551    71999    65962    59517    52762 
   45875    39120    32801    27208    22579    19064    16713    15520 
   15449    16441    18422    21297    24928    29092    33478    37743 
   41601    44856    47363    48990    49635    49284    48032    46068 
   43661    41134    38804    36928    35703    35285    35771    37181 
   39472    42566    46360    50739    55576    60739    66082    71460 
   76733    81777    86486    90791    94693    98290   101742   105218 
  108877   112855   117224   121945   126890   131891   136787   141433 
  145703   149499   152752   155397   157369   158625   159138   158888 
  157888   156240   154167   151980   150024   148626   148063   148519 
  150056   152621   156042   160062   164395   168755   172862   176434 
  179189   180859   181205   180032   177230   172804   166867   159576 
  151126   141776   131883   121886   112253   103432    95833    89778 
   85454    82906    82085    82866    85036    88280    92202    96368 
  100313   103571   105728   106449   105468   102586    97682    90733 
   81819    71138    59010    45852    32129    18328     4941    -7551 
  -18692   -28072   -35349   -40276   -42740   -42808   -40728   -36879 
  -31705   -25631   -19009   -12137    -5307     1168     6977    11865 
   15642    18182    19430    19429    18292    16159    13176     9515 
    5361      884    -3784    -8549   -13330   -18052   -22623   -26930 
  -30841   -34208   -36867   -38659   -39495   -39403   -38496   -36920 
  -34842   -32445   -29895   -27328   -24878   -22705   -20997   -19935 
  -19667   -20289   -21845   -24338   -27741   -32014   -37102   -42917 
  -49333   -56173   -63196   -70088   -76509   -82150   -86780   -90266 
  -92583   -93820   -94161   -93832   -93062   -92080   -91115   -90364 
  -89980   -90080   -90747   -92034   -93964   -96524   -99638  -103133 
 -106743  -110165  -113128  -115423  -116913  -117548  -117370  -116483 
 -114988  -112979  -110561  -107839  -104905  -101865   -98865   -96078 
  -93682   -91853   -90754   -90484   -91038   -92330   -94241   -96627 
  -99293  -101989  -104449  -106438  -107790  -108442  -108448  -107956 
 -107160  -106270  -105489  -105002  -104955  -105456  -106582  -108354 
 -110707  -113520  -116664  -120030  -123522  -127059  -130588  -134066 
 -137409  -140475  -143088  -145072  -146289  -146664  -146187  -144919 
 -142957  -140412  -137420  -134133  -130676  -127110  -123450  -119697 
 -115839  -111834  -107610  -103091   -98214   -92929   -87186   -80953 
  -74209   -66969   -59312   -51402   -43464   -35762   -28574   -22174 
  -16811   -12699   -10045    -9043    -9841   -12495   -16950   -23048 
  -30556   -39164   -48496   -58159   -67778   -77001   -85497   -92990 
  -99267  -104175  -107605  -109521  -109949  -108968  -106712  -103411 
  -99405   -95101   -90897   -87151   -84192   -82322   -81789   -82759 
  -85302   -89368   -94770  -101222  -108397  -115973  -123654  -131202 
 -138440  -145210  -151338  -156649  -161011  -164338  -166551  -167562 
 -167319  -165833  -163180  -159522  -155113  -150269  -145297  -140463 
 -135974  -131959  -128436  -125314  -122430  -119594  -116636  -113448 
 -109974  -106160  -101927   -97177   -91818   -85781   -79034   -71615 
  -63650   -55332   -46874   -38492   -30422   -22940   -16358   -10976 
   -7031    -4659    -3843    -4410    -6098    -8630   -11724   -15091 
  -18438   -21470   -23881   -25383   -25762   -24911   -22763   -19233 
  -14212    -7635      461     9908    20401    31529    42831    53875 
   64300    73838    82319    89644    95709   100352   103360   104505 
  103604   100551    95349    88121    79094    68527    56689    43913 
   30621    17297     4428    -7524   -18134   -27038   -33947   -38633 
  -40890   -40554   -37596   -32167   -24594   -15332    -4911     6124 
   17264    28041    38046    46940    54500    60644    65438    69070 
   71782    73804    75320    76487    77451    78355    79336    80531 
   82076    84072    86540    89414    92574    95869    99140   102249 
  105085   107524   109411   110585   110954   110481   109160   107013 
  104116   100575    96485    91926    87014    81951    77023    72535 
   68754    65868    63978    63100    63183    64132    65806    68017 
   70539    73127    75522    77449    78632    78835    77898    75762 
   72447    68004    62474    55873    48247    39721    30486    20764 
   10833     1057    -8157   -16422   -23370   -28636   -31892   -32912 
  -31604   -28028   -22410   -15087    -6429     3217    13527    24177 
   34843    45196    54911    63687    71266    77443    82098    85222 
   86938    87480    87151    86238    84962    83476    81883    80287 
   78848    77795    77371    77759    79069    81339    84528    88495 
   93014    97833   102728   107519   112053   116208   119886   122966 
  125278   126608   126736   125481   122751   118579   113118   106625 
   99425    91874    84312    77028    70241    64133    58901    54744 
   51820    50224    49987    51062    53296    56463    60292    64458 
   68561    72185    74956    76548    76677    75111    71692    66365 
   59223    50546    40771    30403    19920     9752      301    -8050 
  -14969   -20197   -23561   -24965   -24364   -21756   -17177   -10727 
   -2593     6931    17463    28537    39640    50256    59919    68248 
   74970    79936    83138    84656    84603    83113    80364    76569 
   71957    66762    61234    55623    50140    44922    40037    35512 
   31324    27380    23550    19701    15727    11545     7087     2310 
   -2805    -8243   -13933   -19723   -25383   -30647   -35242   -38932 
  -41577   -43157   -43762   -43556   -42753   -41593   -40339   -39244 
  -38524   -38334   -38739   -39709   -41161   -43019   -45245   -47816 
  -50713   -53924   -57408   -61067   -64748   -68272   -71433   -74007 
  -75795   -76694   -76696   -75844   -74208   -71885   -68979   -65586 
  -61785   -57652   -53286   -48820   -44398   -40181   -36352   -33104 
  -30618   -29056   -28551   -29165   -30892   -33695   -37538   -42354 
  -48012   -54318   -61035   -67904   -74668   -81122   -87111   -92491 
  -97111  -100850  -103637  -105419  -106145  -105785  -104331  -101810 
  -98323   -94060   -89287   -84307   -79398   -74804   -70745   -67384 
  -64783   -62929   -61782   -61275   -61315   -61829   -62803   -64278 
  -66322   -68993   -72291   -76114   -80226   -84290   -87939   -90834 
  -92670   -93190   -92214   -89655   -85513   -79875   -72926   -64929 
  -56174   -46945   -37525   -28210   -19294   -11061    -3798     2211 
    6697     9419    10175     8843     5477      361    -6034   -13147 
  -20394   -27226   -33164   -37820   -40913   -42276   -41856   -39713 
  -36018   -31033   -25111   -18701   -12295    -6373    -1423     2029 
    3474     2511    -1074    -7251   -15713   -25925   -37251   -49062 
  -60789   -71927   -82030   -90706   -97591  -102337  -104635  -104272 
 -101194   -95532   -87613   -77955   -67205   -56025   -45007   -34651 
  -25366   -17468   -11215    -6819    -4428    -4087    -5706    -9048 
  -13749   -19365   -25444   -31569   -37361   -42459   -46492   -49113 
  -50062   -49192   -46429   -41755   -35252   -27114   -17623    -7129 
    3968    15254    26330    36832    46433    54870    61964    67593 
   71671    74168    75108    74504    72315    68492    63058    56163 
   48059    39065    29554    19905    10457     1524    -6530   -13311 
  -18438   -21558   -22347   -20570   -16143    -9138      242    11710 
   24898    39403    54786    70533    86037   100642   113740   124831 
  133546   139647   143022   143682   141757   137481   131193   123364 
  114577   105446    96549    88395    81402    75878    72042    70039 
   69911    71557    74698    78896    83607    88244    92244    95122 
   96509    96165    93990    90014    84398    77443    69566    61247 
   52952    45099    38060    32189    27824    25278    24793    26478 
   30257    35896    43067    51403    60504    69946    79303    88137 
   96032   102645   107725   111065   112496   111926   109394   105076 
   99228    92127    84051    75302    66218    57170    48555    40765 
   34133    28877    25094    22777    21817    22002    23064    24778 
   26981    29557    32434    35564    38868    42204    45430    48470 
   51302    53903    56240    58291    60021    61333    62071    62085 
   61268    59545    56845    53115    48344    42549    35762    28056 
   19570    10525     1240    -7863   -16307   -23642   -29493   -33582 
  -35761   -36057   -34674   -31935   -28197   -23802   -19057   -14231 
   -9574    -5338    -1787      809     2194     2146      520    -2685 
   -7265   -12848   -18988   -25251   -31262   -36764   -41635   -45854 
  -49435   -52415   -54869   -56904   -58663   -60346   -62204   -64482 
  -67350   -70917   -75253   -80399   -86356   -93089  -100531  -108565 
 -117032  -125786  -134730  -143780  -152811  -161678  -170259  -178476 
 -186259  -193563  -200377  -206706  -212511  -217714  -222240  -226029 
 -229050  -231346  -233043  -234293  -235182  -235708  -235799  -235373 
 -234357  -232694  -230348  -227300  -223520  -218953  -213556  -207312 
 -200226  -192342  -183769  -174683  -165304  -155879  -146679  -137984 
 -130034  -122970  -116845  -111661  -107365  -103850  -101001   -98730 
  -96946   -95528   -94321   -93154   -91847   -90214   -88092   -85332 
  -81797   -77383   -72039   -65829   -58972   -51762   -44489   -37433 
  -30864   -25045   -20216   -16576   -14275   -13387   -13895   -15668 
  -18448   -21908   -25736   -29668   -33475   -36968   -40024   -42549 
  -44403   -45356   -45127   -43458   -40199   -35345   -29045   -21590 
  -13355    -4713     4012    12558    20717    28336    35297    41527 
   47018    51835    56064    59739    62842    65355    67326    68874 
   70160    71373    72673    74113    75629    77076    78260    78950 
   78934    78062    76263    73537    69944    65572    60528    54927 
   48885    42540    36082    29759    23855    18657    14411    11282 
    9360     8685     9273    11084    14001    17849    22406    27377 
   32399    37109    41214    44479    46708    47758    47576    46216 
   43848    40767    37340    33930    30824    28218    26242    24971 
   24410    24486    25062    25951    26926    27737    28145    27952 
   27021    25286    22754    19512    15723    11622     7516     3744 
     621    -1596    -2714    -2593    -1150     1658     5854    11396 
   18133    25809    34110    42694    51185    59171    66238    71997 
   76089    78224    78242    76132    72013    66117    58788    50467 
   41649    32836    24502    17048    10767     5845     2372      364 
    -216      562     2634     5917    10279    15515    21365    27524 
   33666    39499    44799    49402    53185    56080    58086    59253 
   59641    59319    58365    56864    54906    52595    50045    47375 
   44702    42119    39688    37440    35372    33480    31784    30343 
   29222    28470    28137    28286    28975    30214    31957    34115 
   36555    39113    41601    43824    45588    46711    47070    46612 
   45311    43137    40070    36146    31470    26203    20557    14801 
    9220     4051     -515    -4302    -7138    -8887    -9466    -8864 
   -7144    -4450     -973     3076     7478    11974    16269    20075 
   23152    25305    26397    26357    25160    22795    19293    14796 
    9588     4043    -1454    -6548   -10925   -14315   -16483   -17232 
  -16450   -14162   -10517    -5737      -97     6109    12615    19200 
   25653    31732    37163    41693    45157    47499    48757    49014 
   48340    46766    44335    41159    37442    33445    29443    25713 
   22524    20098    18619    18243    19093    21217    24563    28998 
   34334    40318    46634    52916    58771    63778    67513    69623 
   69919    68418    65309    60922    55667    49944    44079    38319 
   32842    27775    23210    19208    15787    12914    10514     8488 
    6706     4958     2946      336    -3185    -7875   -13896   -21263 
  -29811   -39227   -49113   -59026   -68498   -77071   -84355   -90040 
  -93878   -95692   -95400   -93045   -88810   -83026   -76152   -68696 
  -61128   -53864   -47282   -41734   -37522   -34862   -33853   -34460 
  -36530   -39815   -43965   -48539   -53056   -57068   -60199   -62148 
  -62668   -61591   -58875   -54612   -48988   -42232   -34608   -26404 
  -17925    -9493    -1492     5627    11421    15536    17754    18025 
   16479    13384     9085     3964    -1566    -7065   -12070   -16145 
  -18933   -20188   -19766   -17614   -13772    -8377    -1652     6118 
   14629    23536    32429    40838    48296    54353    58588    60664 
   60423    57939    53509    47566    40559    32873    24815    16647 
    8646     1129    -5597   -11328   -15967   -19488   -21907   -23284 
  -23722   -23352   -22361   -20994   -19481   -17995   -16689   -15716 
  -15217   -15293   -16002   -17377   -19415   -22078   -25326   -29114 
  -33362   -37941   -42713   -47581   -52493   -57419   -62353   -67294 
  -72215   -77041   -81665   -85976   -89868   -93247   -96046   -98239 
  -99822  -100800  -101204  -101094  -100516   -99491   -98027   -96133 
  -93814   -91067   -87926   -84493   -80912   -77326   -73844   -70509 
  -67281   -64064   -60762   -57283   -53515   -49311   -44556   -39231 
  -33431   -27332   -21153   -15132    -9482    -4350      195     4158 
    7590    10579    13206    15525    17568    19356    20914    22292 
   23605    25025    26717    28795    31316    34276    37598    41149 
   44789    48398    51870    55086    57933    60354    62355    63995 
   65381    66653    67930    69270    70675    72105    73477    74688 
   75664    76380    76834    77019    76918    76496    75689    74383 
   72435    69717    66135    61640    56258    50133    43508    36679 
   29978    23751    18321    13950    10825     9057     8664     9557 
   11580    14536    18177    22208    26336    30294    33835    36710 
   38671    39485    38939    36869    33223    28102    21745    14472 
    6631    -1416    -9303   -16653   -23080   -28207   -31740   -33515 
  -33496   -31752   -28433   -23769   -18033   -11516    -4523     2607 
    9524    15893    21424    25906    29225    31369    32415    32498 
   31791    30478    28749    26789    24757    22800    21046    19574 
   18405    17545    17008    16825    17046    17727    18883    20410 
   22089    23638    24758    25141    24535    22831    20099    16543 
   12452     8175     4066      419    -2550    -4684    -5855    -5979 
   -5019    -2972      135     4220     9129    14670    20616    26692 
   32596    38043    42782    46586    49256    50660    50739    49495 
   46964    43227    38400    32601    25952    18637    10929     3158 
   -4327   -11172   -17044   -21678   -24906   -26646   -26906   -25807 
