Origin Time       2003/09/26 04:50:00
Lat.              41.781
Long.             144.074
Depth. (km)       42
Mag.              8.0
Station Code      ABSH11
Station Lat.      43.9144
Station Long.     144.1913
Station Height(m) 40
Record Time       2003/09/26 04:50:47
Sampling Freq(Hz) 200Hz
Duration Time(s)  300
Dir.              5
Scale Factor      2000(gal)/8388608
Max. Acc. (gal)   50.200
Last Correction   2003/09/26 04:00:00
Memo.             
[...]
 -114894  -116319  -116066  -114139  -110606  -105624   -99467   -92519 
  -85228   -78054   -71414   -65636   -60939   -57431   -55119   -53926 
  -53727   -54342   -55514   -56916   -58202   -59054   -59219   -58546 
  -57003   -54666   -51700   -48318   -44744   -41196   -37882   -35003 
  -32727   -31165   -30362   -30295   -30870   -31902   -33121   -34211 
  -34873   -34900   -34213   -32854   -30947   -28655   -26169   -23711 
  -21530   -19875   -18979   -19052   -20259   -22703   -26399   -31240 
  -37006   -43414   -50162   -56980   -63639   -69929   -75608   -80398 
  -84005   -86173   -86760   -85765   -83267   -79353   -74084   -67511 
  -59693   -50734   -40823   -30225   -19243    -8191     2613    12862 
   22241    30439    37185    42311    45798    47777    48458    48041 
   46657    44378    41258    37375    32864    27921    22753    17511 
   12305     7253     2530    -1644    -5032    -7418    -8636    -8580 
   -7193    -4460     -404     4915    11413    18962    27373    36401 
   45776    55256    64631    73670    82091    89585    95867   100723 
  104011   105621   105431   103315    99168    92924    84617    74443 
   62780    50144    37124    24322    12296     1551    -7460   -14333 
  -18720   -20370   -19213   -15413    -9344    -1519     7493    17127 
   26827    36024    44145    50664    55194    57530    57664    55745 
   52014    46732    40160    32586    24348    15820     7344     -830 
   -8583   -15911   -22892   -29614   -36116   -42369   -48287   -53756 
  -58679   -63024   -66832   -70211   -73282   -76133   -78780   -81165 
  -83183   -84737   -85796   -86426   -86776   -87055   -87494   -88312 
  -89685   -91695   -94307   -97374  -100691  -104036  -107183  -109892 
 -111901  -112955  -112852  -111461  -108734  -104743   -99697   -93931 
  -87837   -81824   -76276   -71534   -67872   -65498   -64557   -65118 
  -67139   -70427   -74654   -79400   -84198   -88577   -92098   -94392 
  -95194   -94369   -91900   -87876   -82452   -75830   -68277   -60117 
  -51698   -43326   -35255   -27686   -20781   -14676    -9464    -5183 
   -1782      888     3049     4934     6730     8547    10409    12269 
   14029    15571    16779    17567    17916    17880    17553    17034 
   16382    15571    14486    12957    10814     7958     4417      354 
   -4007    -8490   -13007   -17546   -22117   -26701   -31209   -35501 
  -39440   -42955   -46057   -48779   -51104   -52946   -54209   -54842 
  -54880   -54445   -53707   -52823   -51890   -50944   -49996   -49058 
  -48156   -47368   -46824   -46636   -46828   -47330   -48007   -48711 
  -49327   -49778   -49993   -49878   -49315   -48229   -46652   -44771 
  -42914   -41459   -40711   -40784   -41592   -42943   -44654   -46606 
  -48727   -50930   -53082   -54988   -56413   -57142   -57050   -56112 
  -54387   -51993   -49115   -46019   -43040   -40571   -39026   -38774 
  -40067   -42980   -47384   -52995   -59458   -66398   -73455   -80293 
  -86627   -92230   -96943  -100674  -103395  -105140  -106003  -106127 
 -105706  -104962  -104124  -103389  -102887  -102691  -102817  -103235 
 -103886  -104697  -105577  -106400  -107013  -107282  -107135  -106573 
 -105649  -104433  -102973  -101262   -99254   -96883   -94078   -90773 
  -86927   -82541   -77668   -72407   -66922   -61442   -56262   -51695 
  -48000   -45316   -43664   -42976   -43157   -44126   -45802   -48092 
  -50883   -54065   -57538   -61213   -65020   -68910   -72841   -76738 
  -80495   -84013   -87224   -90087   -92581   -94706   -96472   -97892 
  -98993   -99806  -100319  -100427   -99954   -98696   -96476   -93201 
  -88921   -83831   -78241   -72523   -67082   -62337   -58691   -56491 
  -56003   -57409   -60815   -66246   -73644   -82878   -93747  -105967 
 -119156  -132855  -146586  -159885  -172343  -183642  -193546  -201841 
 -208315  -212781  -215119  -215342  -213616  -210227  -205481  -199629 
 -192869  -185427  -177655  -170063  -163241  -157709  -153797  -151600 
 -151033  -151890  -153887  -156684  -159896  -163112  -165903  -167822 
 -168425  -167301  -164103  -158580  -150631  -140340  -127977  -113977 
  -98912   -83436   -68233   -53967   -41231   -30503   -22121   -16271 
  -12986   -12174   -13666   -17237   -22595   -29373   -37117   -45298 
  -53354   -60743   -67006   -71831   -75105   -76909   -77470   -77080 
  -76039   -74613   -73003   -71351   -69765   -68329   -67084   -66028 
  -65170   -64545   -64199   -64153   -64409   -64956   -65784   -66887 
  -68270   -69944   -71901   -74117   -76534   -79063   -81592   -83990 
  -86117   -87834   -89017   -89567   -89417   -88534   -86921   -84600 
  -81625   -78096   -74151   -69938   -65594   -61248   -57052   -53196 
  -49898   -47365   -45757   -45171   -45650   -47163   -49588   -52716 
  -56285   -60023   -63662   -66950   -69687   -71759   -73141   -73865 
  -73970   -73477   -72372   -70627   -68237   -65260   -61838   -58187 
  -54574   -51273   -48509   -46418   -45041   -44335   -44167   -44324 
  -44537   -44538   -44102   -43070   -41351   -38916   -35762   -31866 
  -27155   -21495   -14701    -6603     2821    13375    24676    36258 
   47668    58546    68640    77735    85592    91946    96571    99335 
  100221    99293    96674    92538    87122    80765    73928    67151 
   60970    55816    51946    49418    48111    47817    48315    49394 
   50839    52412    53837    54836    55199    54833    53764    52059 
   49756    46843    43310    39209    34700    30044    25527    21401 
   17850    15006    13003    12018    12227    13746    16574    20565 
   25406    30700    36083    41280    46092    50386    54072    57070 
   59311    60761    61446    61425    60784    59648    58166    56465 
   54633    52722    50766    48760    46636    44264    41493    38207 
   34340    29887    24916    19541    13899     8148     2451    -3057 
   -8280   -13146   -17600   -21607   -25131   -28134   -30578   -32445 
  -33753   -34570   -35013   -35241   -35426   -35704   -36146   -36786 
  -37654   -38759   -40073   -41490   -42818   -43800   -44161   -43688 
  -42303   -40057   -37094   -33602   -29775   -25749   -21586   -17303 
  -12926    -8519    -4195     -124     3511     6572     8972    10639 
   11512    11556    10775     9211     6944     4092      796    -2798 
   -6566   -10373   -14035   -17275   -19739   -21066   -20988   -19410 
  -16427   -12256    -7168    -1457     4573    10615    16360    21499 
   25750    28942    31058    32207    32561    32311    31651    30773 
   29883    29222    29045    29524    30661    32284    34084    35684 
   36713    36840    35776    33285    29204    23453    16035     7017 
   -3457   -15151   -27728   -40774   -53824   -66390   -77984   -88139 
  -96444  -102548  -106169  -107107  -105280  -100733   -93672   -84462 
  -73584   -61544   -48820   -35847   -23009   -10635     1004    11671 
   21155    29267    35854    40819    44165    46026    46661    46411 
   45640    44656    43631    42578    41389    39897    37924    35311 
   31942    27758    22759    16997    10574     3636    -3648   -11132 
  -18710   -26281   -33702   -40755   -47150   -52537   -56574   -58989 
  -59625   -58445   -55520   -51031   -45270   -38616   -31501   -24366 
  -17606   -11540    -6427    -2492       98     1277     1085     -337 
   -2777    -5970    -9657   -13616   -17648   -21507   -24880   -27424 
  -28848   -29013   -27983   -26019   -23505   -20848   -18403   -16428 
  -15049   -14253   -13939   -13956   -14117   -14181   -13859   -12835 
  -10806    -7549    -2969     2882     9848    17714    26233    35107 
   43984    52477    60190    66753    71879    75380    77169    77235 
   75640    72495    67937    62131    55286    47667    39595    31437 
   23581    16412    10293     5574     2588     1614     2795     6078 
   11222    17835    25439    33538    41692    49555    56861    63360 
   68757    72700    74844    74932    72830    68529    62120    53801 
   43872    32721    20799     8596    -3395   -14728   -25025   -34003 
  -41468   -47287   -51343   -53526   -53782   -52189   -49001   -44639 
  -39612   -34403   -29391   -24847   -20927   -17662   -14970   -12708 
  -10748    -9053    -7691    -6759    -6298    -6250    -6499    -6922 
   -7439    -8043    -8804    -9834   -11264   -13233   -15872   -19277 
  -23471   -28399   -33939   -39892   -45999   -51980   -57604   -62726 
  -67287   -71297   -74788   -77766   -80185   -81965   -83019   -83278 
  -82678   -81164   -78704   -75293   -70958   -65763   -59800   -53186 
  -46039   -38479   -30664   -22834   -15300    -8388    -2393     2467 
    6094     8497     9744     9909     9064     7298     4728     1501 
   -2203    -6191   -10258   -14216   -17908   -21245   -24211   -26827 
  -29120   -31086   -32700   -33946   -34843   -35453   -35892   -36299 
  -36807   -37559   -38730   -40532   -43176   -46807   -51437   -56924 
  -62998   -69314   -75517   -81295   -86412   -90725   -94183   -96806 
  -98670   -99886  -100580  -100870  -100881  -100766  -100728  -101011 
 -101852  -103417  -105758  -108776  -112189  -115566  -118421  -120288 
 -120774  -119607  -116670  -111990  -105730   -98150   -89521   -80058 
  -69909   -59198   -48078   -36759   -25505   -14626    -4441     4790 
   12894    19754    25274    29393    32097    33427    33475    32376 
   30285    27365    23762    19641    15204    10675     6251     2072 
   -1809    -5435    -8920   -12395   -15943   -19586   -23286   -26954 
  -30478   -33769   -36790   -39538   -42009   -44167   -45936   -47228 
  -47981   -48182   -47851   -46997   -45607   -43669   -41193   -38206 
  -34778   -31041   -27167   -23352   -19791   -16675   -14185   -12491 
  -11744   -12069   -13547   -16170   -19800   -24163   -28902   -33626 
  -37972   -41657   -44513   -46487   -47625   -48037   -47851   -47179 
  -46112   -44741   -43196   -41662   -40362   -39516   -39276   -39677 
  -40654   -42093   -43871   -45855   -47880   -49746   -51228   -52126 
  -52318   -51791   -50638   -49024   -47148   -45197   -43307   -41535 
  -39869   -38264   -36678   -35100   -33583   -32230   -31174   -30545 
  -30462   -31011   -32225   -34045   -36321   -38856   -41460   -44017 
  -46500   -48956   -51459   -54044   -56681   -59280   -61719   -63874 
  -65659   -67043   -68049   -68735   -69200   -69582   -70022   -70618 
  -71405   -72358   -73411   -74488   -75516   -76428   -77165   -77657 
  -77822   -77571   -76801   -75370   -73127   -69943   -65727   -60430 
  -54069   -46740   -38614   -29926   -20982   -12138    -3775     3727 
   10038    14914    18227    19988    20340    19541    17913    15800 
   13524    11367     9549     8208     7377     6993     6931     7062 
    7302     7603     7939     8286     8599     8811     8866     8758 
    8530     8245     7937     7598     7190     6668     6014     5265 
    4528     3947     3655     3738     4203     4965     5854     6675 
    7246     7428     7130     6307     4954     3102      811    -1817 
   -4656    -7529   -10202   -12384   -13774   -14120   -13274   -11211 
   -8016    -3861     1050     6526    12377    18382    24270    29709 
   34340    37838    39982    40683    39952    37857    34495    29980 
   24443    18065    11102     3889    -3204    -9832   -15706   -20615 
  -24427   -27079   -28552   -28876   -28149   -26539   -24280   -21633 
  -18850   -16121   -13559   -11222    -9174    -7516    -6356    -5755 
   -5685    -6031    -6625    -7279    -7837    -8202    -8326    -8201 
   -7866    -7412    -6969    -6687    -6713    -7164    -8095    -9511 
  -11389   -13687   -16339   -19256   -22356   -25593   -28929   -32312 
  -35654   -38845   -41776   -44358   -46543   -48319   -49685   -50639 
  -51201   -51460   -51595   -51855   -52507   -53783   -55844   -58747 
  -62461   -66918   -72041   -77749   -83922   -90379   -96871  -103099 
 -108754  -113565  -117334  -119960  -121452  -121903  -121439  -120180 
 -118237  -115719  -112728  -109354  -105701  -101902   -98110   -94484 
  -91189   -88390   -86221   -84767   -84074   -84143   -84936   -86375 
  -88360   -90752   -93368   -96010   -98502  -100689  -102424  -103582 
 -104066  -103804  -102720  -100735   -97784   -93832   -88873   -82974 
  -76291   -69049   -61495   -53884   -46460   -39444   -33022   -27331 
  -22475   -18524   -15504   -13377   -12027   -11280   -10968   -10984 
  -11290   -11874   -12700   -13692   -14750   -15765   -16630   -17232 
  -17462   -17222   -16422   -14985   -12877   -10112    -6742    -2853 
    1444     6020    10724    15386    19804    23747    26952    29156 
   30147    29794    28064    25029    20835    15653     9661     3048 
   -3985   -11214   -18389   -25267   -31625   -37236   -41854   -45251 
  -47270   -47850   -47035   -44943   -41726   -37528   -32487   -26757 
  -20528   -14020    -7455    -1035     5067    10740    15912    20539 
   24605    28133    31198    33898    36334    38597    40747    42833 
   44914    47068    49371    51874    54582    57426    60245    62813 
   64892    66287    66892    66668    65590    63609    60646    56631 
   51533    45391    38302    30372    21669    12233     2101    -8663 
  -19967   -31674   -43623   -55684   -67788   -79878   -91841  -103479 
 -114522  -124687  -133729  -141504  -147993  -153281  -157495  -160783 
 -163322  -165327  -167047  -168739  -170636  -172924  -175717  -179080 
 -183051  -187650  -192873  -198685  -204997  -211620  -218271  -224620 
 -230320  -234999  -238273  -239797  -239321  -236744  -232165  -225879 
 -218330  -210004  -201328  -192619  -184104  -175976  -168409  -161552 
 -155502  -150276  -145784  -141840  -138217  -134716  -131253  -127870 
 -124683  -121803  -119307  -117249  -115691  -114719  -114434  -114900 
 -116093  -117881  -120039  -122318  -124507  -126453  -128073  -129338 
 -130229  -130713  -130761  -130407  -129753  -128943  -128099  -127258 
 -126358  -125272  -123879  -122133  -120098  -117926  -115809  -113933 
 -112422  -111316  -110593  -110208  -110133  -110368  -110921  -111797 
 -113004  -114561  -116507  -118908  -121832  -125300  -129258  -133556 
 -137968  -142268  -146296  -149971  -153273  -156200  -158732  -160830 
 -162427  -163444  -163832  -163606  -162827  -161550  -159801  -157571 
 -154830  -151555  -147749  -143444  -138696  -133570  -128137  -122495 
 -116783  -111173  -105869  -101073   -96932   -93498   -90768   -88712 
  -87284   -86410   -85970   -85773   -85557   -85045   -84036   -82457 
  -80341   -77779   -74870   -71688   -68286   -64727   -61122   -57648 
  -54534   -52009   -50241   -49334   -49348   -50317   -52234   -55034 
  -58575   -62631   -66921   -71151   -75065   -78452   -81153   -83049 
  -84045   -84090   -83191   -81410   -78837   -75593   -71819   -67659 
  -63233   -58608   -53808   -48847   -43750   -38553   -33310   -28077 
  -22896   -17794   -12814    -8041    -3594      412     3913     6904 
    9433    11569    13396    15023    16586    18223    20040    22094 
   24395    26882    29413    31786    33780    35198    35878    35717 
   34681    32809    30205    27016    23417    19599    15788    12272 
    9407     7576     7128     8299    11168    15654    21568    28685 
   36798    45714    55205    64966    74611    83704    91824    98612 
  103776   107050   108187   107032   103611    98150    91053    82825 
   73985    64967    56093    47614    39787    32921    27366    23443 
   21371    21214    22851    26000    30304    35393    40921    46574 
   52064    57116    61461    64817    66904    67488    66405    63564 
   58958    52669    44883    35906    26149    16082     6158    -3236 
  -11790   -19239   -25344   -29869   -32597   -33399   -32297   -29478 
  -25242   -19916   -13805    -7192     -330     6538    13161    19267 
   24607    29004    32386    34796    36371    37288    37708    37758 
   37529    37073    36404    35515    34391    33032    31463    29751 
   27995    26280    24645    23089    21576    20025    18305    16275 
   13833    10938     7590     3806     -399    -5017   -10046   -15490 
  -21327   -27490   -33886   -40386   -46810   -52930   -58499   -63277 
  -67032   -69580   -70807   -70672   -69209   -66529   -62804   -58232 
  -53014   -47361   -41521   -35798   -30518   -25973   -22381   -19862 
  -18416   -17930   -18237   -19172   -20591   -22348   -24312   -26394 
  -28535   -30698   -32855   -34987   -37060   -39018   -40772   -42221 
  -43243   -43705   -43476   -42465   -40661   -38158   -35143   -31855 
  -28547   -25452   -22767   -20634   -19145   -18348   -18228   -18684 
  -19514   -20427   -21102   -21255   -20666   -19192   -16789   -13504 
   -9467    -4862       78     5111    10032    14716    19129    23301 
   27295    31162    34923    38556    42024    45310    48408    51286 
   53879    56114    57939    59335    60331    60967    61260    61214 
   60867    60321    59726    59245    59030    59206    59843    60935 
   62417    64180    66077    67933    69558    70777    71464    71556 
   71047    69975    68383    66303    63781    60912    57838    54712 
   51667    48794    46137    43719    41573    39786    38489    37817 
   37869    38694    40286    42574    45443    48771    52445    56342 
   60309    64165    67719    70803    73286    75088    76167    76507 
   76110    75018    73325    71167    68698    66073    63438    60938 
   58716    56884    55509    54615    54196    54222    54634    55327 
   56138    56853    57221    56970    55861    53739    50570    46427 
   41462    35884    29926    23825    17827    12185     7127     2793 
    -801    -3751    -6201    -8318   -10278   -12248   -14365   -16746 
  -19493   -22696   -26426   -30723   -35567   -40838   -46306   -51661 
  -56598   -60868   -64291   -66737   -68124   -68413   -67611   -65770 
  -62992   -59409   -55158   -50358   -45108   -39505   -33673   -27801 
  -22174   -17139   -13032   -10114    -8542    -8356    -9488   -11788 
  -15082   -19221   -24092   -29604   -35652   -42107   -48822   -55661 
  -62521   -69350   -76128   -82835   -89435   -95895  -102205  -108382 
 -114480  -120576  -126756  -133073  -139521  -146028  -152480  -158735 
 -164638  -170053  -174869  -179008  -182395  -184935  -186484  -186872 
 -185959  -183659  -179942  -174837  -168433  -160867  -152312  -142993 
 -133184  -123193  -113314  -103791   -94806   -86481   -78897   -72115 
  -66208   -61269   -57400   -54673   -53110   -52689   -53361   -55073 
  -57767   -61354   -65674   -70475   -75440   -80220   -84481   -87976 
  -90586   -92319   -93249   -93448   -92994   -92011   -90689   -89290 
  -88126   -87525   -87777   -89115   -91726   -95762  -101309  -108364 
 -116825  -126470  -136975  -147928  -158866  -169329  -178902  -187233 
 -194027  -199049  -202117  -203092  -201893  -198516  -193026  -185523 
 -176133  -165021  -152398  -138527  -123696  -108211   -92378   -76481 
  -60784   -45539   -30987   -17314    -4638     6966    17440    26734 
   34804    41624    47206    51623    55001    57483    59169    60100 
   60261    59598    58048    55564    52138    47790    42562    36509 
   29708    22289    14473     6566    -1106    -8283   -14805   -20607 
  -25651   -29876   -33179   -35453   -36612   -36625   -35534   -33463 
  -30596   -27154   -23359   -19421   -15522   -11805    -8359    -5220 
