Origin Time       2019/06/18 07:22:00
Lat.              40.050
Long.             140.598
Depth. (km)       6
Mag.              3.9
Station Code      AKTH13
Station Lat.      39.9819
Station Long.     140.4072
Station Height(m) 45
Record Time       2019/06/18 07:22:10
Sampling Freq(Hz) 100Hz
Duration Time(s)  120
Dir.              1
Scale Factor      2940(gal)/6170270
Max. Acc. (gal)   2.537
Last Correction   2019/06/18 07:21:55
Memo.             
[...]
   58679    58679    58678    58677    58678    58681    58679    58678 
   58680    58678    58678    58679    58678    58678    58680    58679 
   58679    58680    58679    58677    58679    58680    58678    58678 
   58678    58678    58680    58679    58677    58679    58680    58679 
   58679    58678    58678    58678    58677    58678    58680    58679 
   58678    58678    58678    58679    58679    58677    58679    58680 
   58678    58679    58679    58677    58677    58678    58679    58679 
   58679    58680    58679    58676    58677    58678    58678    58678 
   58678    58679    58680    58677    58677    58680    58678    58676 
   58680    58681    58679    58678    58677    58677    58679    58679 
   58678    58677    58676    58678    58680    58680    58679    58678 
   58678    58679    58679    58680    58679    58678    58678    58679 
   58679    58678    58677    58678    58678    58678    58677    58676 
   58678    58680    58679    58680    58680    58677    58677    58681 
   58680    58678    58678    58678    58677    58676    58679    58681 
   58680    58681    58679    58676    58678    58678    58678    58680 
   58679    58679    58679    58677    58679    58679    58677    58678 
   58680    58679    58678    58678    58678    58678    58678    58678 
   58678    58678    58676    58677    58679    58679    58679    58680 
   58678    58677    58679    58679    58677    58678    58682    58679 
   58676    58677    58678    58679    58679    58680    58681    58678 
   58677    58678    58679    58679    58679    58679    58678    58676 
   58676    58679    58680    58679    58678    58678    58681    58680 
   58679    58679    58679    58680    58680    58679    58678    58678 
   58679    58681    58680    58678    58678    58678    58680    58682 
   58679    58679    58680    58678    58678    58679    58680    58680 
   58679    58678    58679    58679    58679    58679    58678    58677 
   58678    58679    58678    58678    58679    58679    58680    58679 
   58678    58679    58680    58679    58678    58678    58677    58679 
   58680    58677    58678    58680    58679    58678    58679    58679 
   58677    58678    58678    58677    58678    58679    58677    58677 
   58678    58677    58678    58679    58677    58679    58681    58679 
   58678    58678    58678    58679    58679    58678    58677    58678 
   58678    58678    58677    58677    58680    58680    58679    58677 
   58676    58678    58680    58679    58678    58678    58679    58679 
   58677    58678    58679    58676    58676    58679    58681    58679 
   58677    58678    58678    58676    58675    58678    58680    58679 
   58678    58679    58679    58679    58679    58678    58678    58679 
   58678    58678    58680    58680    58677    58678    58679    58679 
   58680    58679    58678    58679    58679    58679    58678    58678 
   58679    58678    58675    58677    58681    58680    58678    58679 
   58679    58680    58679    58679    58678    58677    58678    58679 
   58678    58678    58677    58678    58679    58679    58679    58678 
   58679    58680    58679    58678    58677    58676    58680    58680 
   58677    58678    58679    58677    58677    58679    58678    58677 
   58679    58679    58678    58680    58678    58676    58679    58680 
   58677    58678    58679    58678    58679    58680    58678    58677 
   58678    58679    58680    58679    58676    58676    58678    58678 
   58678    58680    58679    58677    58677    58677    58678    58679 
   58677    58679    58681    58679    58679    58679    58677    58677 
   58679    58679    58677    58676    58676    58678    58678    58676 
   58678    58679    58678    58677    58678    58679    58680    58678 
   58678    58679    58677    58676    58679    58679    58678    58678 
   58678    58677    58678    58679    58679    58677    58678    58677 
   58676    58679    58680    58676    58676    58679    58678    58678 
   58678    58677    58677    58676    58676    58679    58679    58676 
   58676    58679    58681    58680    58679    58677    58675    58677 
   58678    58676    58677    58678    58678    58677    58676    58678 
   58680    58679    58679    58679    58679    58678    58675    58677 
   58679    58677    58677    58679    58678    58677    58678    58679 
   58677    58678    58679    58677    58676    58678    58677    58677 
   58679    58678    58677    58676    58677    58679    58677    58676 
   58677    58678    58678    58679    58679    58679    58680    58679 
   58677    58678    58680    58678    58676    58678    58677    58676 
   58678    58678    58677    58678    58677    58676    58679    58678 
   58679    58681    58678    58676    58679    58678    58677    58679 
   58676    58675    58680    58680    58676    58678    58679    58675 
   58676    58678    58676    58677    58679    58677    58679    58681 
   58677    58676    58678    58676    58675    58678    58679    58677 
   58678    58679    58678    58677    58679    58679    58678    58679 
   58678    58676    58677    58678    58677    58675    58675    58678 
   58678    58679    58679    58677    58677    58678    58678    58678 
   58680    58680    58679    58678    58676    58678    58679    58678 
   58678    58678    58677    58677    58678    58680    58678    58678 
   58679    58678    58678    58680    58679    58677    58678    58678 
   58678    58680    58680    58677    58678    58680    58680    58677 
   58676    58678    58681    58679    58676    58680    58681    58678 
   58677    58678    58677    58676    58678    58679    58679    58678 
   58677    58678    58678    58677    58677    58678    58679    58677 
   58676    58676    58675    58677    58678    58676    58676    58677 
   58677    58678    58678    58677    58677    58678    58678    58678 
   58679    58679    58678    58678    58679    58677    58679    58681 
   58679    58678    58678    58676    58678    58680    58678    58676 
   58677    58679    58679    58678    58679    58679    58678    58679 
   58680    58679    58678    58680    58678    58677    58678    58677 
   58676    58676    58677    58678    58678    58679    58679    58678 
   58678    58678    58678    58678    58676    58678    58678    58675 
   58677    58680    58678    58677    58679    58679    58678    58678 
   58680    58680    58677    58679    58681    58678    58677    58679 
   58678    58679    58679    58677    58678    58679    58677    58677 
   58679    58677    58677    58678    58677    58678    58680    58679 
   58678    58679    58679    58678    58680    58681    58678    58678 
   58679    58680    58679    58679    58678    58677    58680    58680 
   58677    58676    58678    58678    58677    58677    58677    58679 
   58678    58675    58678    58680    58678    58678    58680    58681 
   58679    58678    58680    58680    58678    58679    58679    58678 
   58679    58679    58678    58678    58679    58680    58680    58677 
   58677    58677    58678    58680    58679    58677    58678    58679 
   58677    58676    58678    58677    58676    58676    58676    58679 
   58681    58679    58677    58678    58678    58678    58680    58679 
   58678    58679    58678    58678    58678    58677    58678    58678 
   58678    58679    58679    58679    58678    58677    58677    58677 
   58677    58679    58680    58678    58678    58678    58677    58678 
   58678    58677    58680    58680    58676    58678    58680    58677 
   58677    58679    58678    58677    58679    58679    58678    58677 
   58677    58677    58676    58676    58677    58677    58677    58677 
   58678    58678    58677    58676    58677    58678    58679    58678 
   58678    58679    58679    58679    58681    58679    58677    58679 
   58679    58677    58677    58675    58677    58679    58677    58679 
   58680    58677    58676    58677    58678    58678    58679    58680 
   58679    58677    58678    58679    58677    58677    58677    58676 
   58677    58679    58679    58678    58680    58682    58677    58676 
   58680    58679    58677    58678    58679    58679    58680    58679 
   58678    58678    58678    58679    58677    58675    58675    58678 
   58678    58676    58677    58680    58678    58674    58675    58679 
   58678    58677    58677    58676    58678    58679    58678    58678 
   58679    58679    58679    58680    58677    58674    58677    58678 
   58676    58679    58680    58676    58678    58679    58676    58677 
   58680    58679    58679    58680    58679    58676    58677    58678 
   58677    58677    58679    58678    58676    58678    58679    58677 
   58677    58679    58679    58678    58678    58677    58677    58679 
   58679    58679    58678    58679    58680    58680    58678    58678 
   58679    58680    58678    58676    58677    58680    58681    58679 
   58677    58678    58677    58678    58678    58678    58679    58677 
   58676    58680    58679    58677    58679    58677    58677    58681 
   58679    58677    58677    58678    58678    58677    58677    58679 
   58678    58678    58678    58678    58679    58678    58678    58678 
   58677    58678    58679    58678    58680    58680    58682    58699 
   58735    58771    58787    58782    58755    58685    58634    58684 
   58779    58858    58898    58807    58598    58498    58597    58696 
   58797    58846    58437    58009    58253    58613    58840    59267 
   59273    58529    58087    58458    58581    58484    59079    59121 
   58334    58376    58656    58407    58536    58990    58944    58501 
   58475    58723    58641    58729    58984    58762    58484    58493 
   58608    58839    58967    58911    58682    58336    58341    58610 
   58773    58835    58708    58586    58601    58588    58729    58863 
   58745    58740    58715    58421    58386    58658    58855    58972 
   58870    58575    58367    58382    58628    58800    58788    58799 
   58886    58986    58934    58751    58544    58455    58674    58908 
   58925    58854    58695    58555    58603    58710    58728    58710 
   58756    58833    58782    58676    58712    58648    58391    58402 
   58614    58611    58492    58413    58453    58569    58634    58706 
   58675    58499    58428    58492    58588    58700    58734    58700 
   58737    58770    58870    59028    58933    58741    58632    58666 
   58855    58928    59021    59014    58716    58526    58321    58245 
   58532    58694    58826    58890    58742    58798    58765    58525 
   58438    58387    58606    59119    59156    58717    58399    58214 
   58229    58578    58913    59011    58938    58757    58468    58331 
   58627    58775    58581    58668    58778    58666    58673    58648 
   58586    58656    58809    58865    58617    58550    58739    58669 
   58610    58642    58624    58716    58735    58606    58505    58484 
   58555    58699    58692    58511    58639    58995    58898    58491 
   58434    58620    58801    59005    58836    58403    58402    58672 
   58852    59030    59021    58781    58637    58563    58548    58760 
   58969    58900    58668    58562    58714    58785    58561    58607 
   58874    58776    58721    58949    58918    58647    58772    58910 
   58338    57980    58325    58574    58645    58180    56639    55438 
   56167    58413    60480    60859    60395    60592    60434    59305 
   57302    54454    54810    59772    63612    63049    59328    56689 
   56846    57833    60901    61564    57644    57706    58932    56981 
   58424    60327    58121    57723    60198    61215    60670    59138 
   55856    54512    58397    60631    58100    57960    59528    58967 
   58908    59708    59172    57280    56591    57545    58155    59251 
   60444    59553    58046    57902    58339    58807    59293    59296 
   59148    58876    58496    58653    58751    58316    57839    57620 
   58476    59768    59197    58151    58586    58677    58404    59199 
   59425    58157    58098    59454    58624    57192    58867    60331 
   59307    58499    58285    58312    58788    58539    57460    57484 
   59196    60191    59526    57959    56632    57931    60335    60513 
   58868    57384    58135    59789    59609    58513    57571    57695 
   58362    57969    58614    59206    57743    58302    59593    57999 
   57714    59572    59428    58739    59897    59956    58453    58729 
   59262    58109    57516    58422    59899    59824    58605    58468 
   57574    57581    59908    59140    57403    58761    59179    58733 
   59622    59585    58758    59273    59460    58138    58107    59117 
   58573    57854    58568    59635    59596    58240    57436    57954 
   58526    59268    58957    56759    56554    58976    60459    60228 
   59234    58504    59355    60608    59486    57483    56663    57114 
   59379    60227    58708    58057    57779    58696    60359    58428 
   56069    57863    59971    59010    57245    57176    58057    59512 
   61395    60473    57673    57410    58176    58314    59050    58987 
   58171    58503    59129    59188    59237    59448    58763    57169 
   57326    59191    59269    57631    57928    59461    59373    59400 
   59102    57161    57256    59071    59685    59846    59567    58829 
   58760    59358    59348    57932    57687    59758    60439    58916 
   58104    58916    59530    58008    56642    57686    59007    60913 
   62216    58074    53353    55743    60649    61251    58821    56015 
   54685    58458    63382    61326    57405    57974    58257    57405 
   57987    57795    57308    59767    62641    61298    58207    56948 
   56821    56835    56619    58542    61360    60265    59639    60835 
   57743    55869    58296    57326    57277    61632    61894    58532 
   57244    57546    57538    58091    59871    59904    58095    57827 
   58348    57953    58444    59254    58220    57494    58396    59180 
   58917    58929    60008    59225    57797    58625    58605    58340 
   59579    59252    57970    58592    59562    58691    58120    58945 
   59325    59715    59730    58301    57465    57791    57978    58117 
   58902    60393    60787    59198    57834    57586    57653    58408 
   59129    58657    58885    60278    59911    57889    57230    58633 
   60259    60166    58299    56153    56002    59116    61443    59805 
   57628    57257    58800    60854    59568    55898    54633    56947 
   60464    61643    59690    57483    56928    58425    59984    58888 
   57584    57883    58550    59636    59027    57086    57667    59396 
   60387    60739    59288    57551    57707    58621    59313    59846 
   59046    57381    57711    59482    59862    59057    58610    58378 
   58040    58294    58553    58235    58693    59469    59150    58639 
   58528    58237    58181    59062    59892    59443    58594    58534 
   59074    59447    58736    57730    58101    58779    58803    59147 
   59276    58787    58626    58597    58318    58019    57988    58470 
   58989    59209    59312    58979    58350    58308    58503    58388 
   58342    58176    58174    58835    59450    59512    58931    58063 
   57820    58447    58847    58117    57731    58600    59392    59614 
   59101    57955    57613    58815    60144    59477    57919    57778 
   58090    58473    59251    58814    57784    58157    59183    59327 
   58630    58266    58623    58632    58345    58819    59253    58942 
   58925    59113    58526    57916    58432    59197    59266    59185 
   58958    58562    58623    58642    58310    58443    58917    59250 
   59453    58939    57879    57790    58528    58903    59134    59233 
   58937    58734    58726    58829    58938    58982    59061    58806 
   58290    58075    58391    58916    58936    58798    58870    58545 
   58277    58860    59348    58645    57888    58183    58530    58801 
   59164    58539    57909    58525    58930    58239    57607    58182 
   59193    59138    58493    58213    58152    58634    59480    59198 
   58171    57879    58025    58412    59172    59536    59148    58353 
   57978    58480    58908    58932    59125    58810    58024    58307 
   59207    59029    58532    58943    58807    58018    58457    59017 
   58731    58976    59259    58603    58104    58398    58662    58818 
   59329    59744    59514    58698    58032    58019    58240    58868 
   59563    58970    58149    58499    58886    58731    58555    58299 
   58018    58411    59196    59110    58449    58102    58257    58990 
   59246    58714    58674    58740    58478    58621    58634    58392 
   58666    59118    59209    58924    58525    58332    58469    58798 
   58796    58558    58668    58857    58934    58947    58363    57830 
   58480    59169    59099    59047    58754    58364    58346    58143 
   58289    59008    59251    59168    59207    58995    58488    58121 
   58250    58839    59186    58827    58532    58892    59254    59004 
   58256    57646    58051    58997    59143    58873    58897    58795 
   58574    58473    58421    58604    59151    59431    58825    58086 
   58219    58823    59104    58956    58545    58289    58500    58833 
   58931    58823    58676    58631    58649    58573    58552    58771 
   58796    58432    58245    58482    58750    58824    58736    58491 
   58324    58425    58583    58626    58711    58888    58952    58908 
   58673    58332    58350    58519    58642    58829    58598    58085 
   58258    58821    58847    58782    58836    58546    58609    59054 
   58788    58210    58418    59033    59135    58904    58641    58382 
   58668    59110    58815    58439    58662    58823    58590    58527 
   58651    58681    58947    59260    58927    58255    58232    58745 
   58823    58726    58809    58734    58936    59177    58749    58345 
   58487    58901    59173    58809    58047    57819    58546    59266 
   59035    58568    58570    58662    58586    58549    58633    58567 
   58413    58528    58736    58748    58665    58559    58399    58423 
   58535    58319    58277    58877    59342    58860    57956    57860 
   58626    59227    59094    58602    58478    58825    59193    59095 
   58482    58208    58560    58856    58830    58605    58663    59044 
   59064    58889    58752    58446    58509    59036    59116    58692 
   58669    58985    58743    58327    58404    58540    58818    59161 
   58966    58769    58802    58635    58585    58673    58603    58568 
   58596    58701    58904    58817    58490    58333    58371    58673 
   59074    58957    58474    58411    58728    58860    58746    58474 
   58140    58075    58417    59012    59455    59285    58628    58120 
   58220    58812    59102    58590    58100    58440    59255    59747 
   59252    58226    57961    58495    58950    58985    58737    58463 
   58425    58653    58846    58853    58688    58442    58450    58600 
   58537    58391    58431    58753    59034    58864    58488    58360 
   58421    58481    58520    58486    58647    59111    59150    58629 
   58364    58399    58416    58640    58898    58964    59008    58884 
   58646    58674    58933    58972    58511    58199    58712    59305 
   59080    58491    58330    58642    59027    59021    58580    58409 
