Origin Time       2019/06/18 07:22:00
Lat.              40.050
Long.             140.598
Depth. (km)       6
Mag.              3.9
Station Code      AKTH13
Station Lat.      39.9819
Station Long.     140.4072
Station Height(m) 45
Record Time       2019/06/18 07:22:10
Sampling Freq(Hz) 100Hz
Duration Time(s)  120
Dir.              3
Scale Factor      2940(gal)/6170270
Max. Acc. (gal)   1.062
Last Correction   2019/06/18 07:21:55
Memo.             
[...]
   27219    27219    27220    27218    27218    27219    27219    27219 
   27219    27219    27219    27220    27219    27218    27217    27216 
   27217    27217    27218    27218    27218    27220    27221    27220 
   27218    27218    27219    27219    27218    27219    27218    27216 
   27217    27220    27221    27219    27218    27218    27219    27219 
   27219    27219    27219    27219    27219    27219    27217    27217 
   27217    27217    27217    27218    27219    27218    27218    27220 
   27221    27219    27217    27217    27218    27218    27218    27219 
   27220    27220    27220    27221    27220    27218    27218    27219 
   27220    27219    27218    27219    27217    27216    27220    27221 
   27218    27218    27219    27220    27220    27219    27219    27221 
   27221    27220    27220    27220    27219    27219    27219    27220 
   27221    27220    27219    27218    27218    27218    27219    27220 
   27220    27218    27218    27219    27219    27218    27218    27218 
   27217    27219    27220    27219    27218    27217    27218    27218 
   27217    27219    27221    27220    27217    27217    27217    27217 
   27216    27218    27220    27221    27217    27216    27218    27218 
   27217    27218    27217    27217    27219    27219    27217    27218 
   27220    27219    27217    27218    27220    27219    27218    27219 
   27220    27219    27217    27219    27219    27216    27216    27219 
   27219    27220    27219    27217    27218    27220    27220    27219 
   27218    27217    27217    27216    27217    27217    27217    27217 
   27218    27220    27220    27218    27218    27219    27220    27220 
   27219    27218    27218    27218    27218    27220    27220    27220 
   27219    27219    27217    27218    27220    27220    27219    27219 
   27219    27218    27219    27220    27219    27218    27220    27220 
   27219    27220    27221    27218    27219    27221    27220    27220 
   27220    27218    27218    27220    27221    27219    27217    27217 
   27217    27218    27218    27220    27220    27216    27217    27220 
   27219    27218    27217    27215    27217    27220    27220    27220 
   27220    27219    27218    27219    27218    27218    27219    27220 
   27219    27218    27218    27219    27219    27221    27220    27217 
   27217    27220    27219    27218    27219    27219    27218    27218 
   27218    27218    27220    27220    27219    27220    27220    27219 
   27220    27219    27218    27219    27220    27219    27219    27220 
   27220    27220    27219    27217    27220    27223    27219    27217 
   27219    27219    27219    27220    27219    27220    27221    27218 
   27217    27221    27220    27217    27217    27219    27219    27219 
   27219    27217    27217    27218    27217    27218    27220    27220 
   27219    27220    27219    27217    27218    27219    27219    27218 
   27218    27219    27219    27218    27218    27217    27218    27218 
   27217    27218    27218    27216    27218    27219    27218    27219 
   27218    27219    27220    27218    27216    27217    27218    27219 
   27219    27218    27219    27219    27217    27217    27218    27217 
   27218    27218    27217    27217    27218    27218    27219    27220 
   27220    27218    27219    27221    27221    27219    27218    27218 
   27219    27220    27219    27219    27219    27218    27218    27218 
   27219    27219    27218    27218    27219    27218    27219    27220 
   27219    27219    27221    27219    27217    27219    27219    27218 
   27218    27219    27220    27219    27218    27217    27219    27220 
   27219    27219    27219    27219    27219    27217    27219    27220 
   27218    27218    27219    27218    27218    27218    27218    27217 
   27218    27218    27218    27219    27219    27217    27217    27218 
   27216    27217    27220    27220    27218    27218    27219    27218 
   27218    27218    27219    27217    27216    27218    27220    27219 
   27218    27219    27219    27217    27217    27219    27221    27219 
   27218    27219    27219    27219    27218    27218    27219    27219 
   27218    27220    27220    27218    27219    27218    27216    27217 
   27220    27219    27216    27217    27218    27220    27218    27217 
   27219    27217    27216    27219    27220    27218    27218    27218 
   27218    27218    27218    27218    27217    27217    27219    27218 
   27219    27220    27219    27219    27219    27216    27218    27221 
   27221    27219    27217    27217    27218    27218    27219    27219 
   27219    27220    27218    27217    27219    27219    27217    27217 
   27217    27217    27218    27219    27219    27220    27219    27219 
   27220    27221    27220    27219    27219    27219    27218    27218 
   27221    27221    27219    27218    27219    27219    27219    27218 
   27218    27220    27220    27219    27221    27221    27218    27217 
   27219    27221    27219    27219    27220    27219    27219    27221 
   27221    27220    27220    27219    27217    27217    27218    27218 
   27218    27220    27219    27218    27219    27220    27221    27220 
   27219    27219    27219    27218    27219    27220    27219    27219 
   27221    27221    27219    27220    27220    27219    27219    27218 
   27217    27219    27221    27218    27217    27219    27219    27217 
   27219    27219    27218    27220    27221    27220    27220    27219 
   27216    27217    27218    27218    27219    27218    27218    27221 
   27220    27218    27218    27218    27218    27218    27219    27217 
   27216    27217    27218    27220    27220    27219    27219    27219 
   27218    27218    27219    27219    27218    27219    27219    27218 
   27219    27219    27219    27219    27219    27219    27219    27218 
   27217    27218    27219    27219    27219    27220    27221    27219 
   27218    27219    27220    27217    27217    27218    27219    27219 
   27219    27219    27219    27219    27218    27217    27218    27219 
   27220    27218    27218    27220    27221    27219    27219    27219 
   27219    27218    27220    27220    27218    27218    27220    27220 
   27220    27219    27217    27217    27219    27220    27219    27218 
   27221    27221    27218    27218    27219    27218    27218    27218 
   27219    27222    27219    27216    27218    27219    27219    27220 
   27219    27218    27221    27221    27219    27220    27220    27220 
   27220    27219    27219    27220    27220    27220    27219    27217 
   27219    27221    27218    27219    27221    27218    27219    27220 
   27219    27220    27220    27218    27218    27219    27220    27220 
   27219    27219    27220    27219    27219    27219    27218    27218 
   27220    27220    27220    27220    27219    27219    27219    27219 
   27219    27218    27217    27218    27219    27217    27217    27218 
   27218    27218    27219    27220    27219    27219    27220    27219 
   27220    27220    27220    27220    27218    27216    27217    27218 
   27218    27219    27219    27219    27219    27219    27221    27220 
   27218    27219    27221    27219    27219    27219    27218    27219 
   27219    27219    27220    27218    27219    27221    27220    27219 
   27219    27219    27218    27218    27220    27220    27218    27219 
   27220    27218    27217    27218    27219    27219    27219    27219 
   27219    27219    27219    27218    27218    27218    27218    27219 
   27219    27219    27219    27218    27218    27218    27219    27219 
   27218    27218    27217    27218    27219    27219    27221    27220 
   27217    27217    27218    27219    27218    27218    27218    27218 
   27219    27221    27219    27219    27220    27220    27219    27220 
   27220    27218    27218    27218    27219    27221    27218    27218 
   27220    27219    27217    27218    27218    27218    27219    27218 
   27217    27219    27218    27216    27218    27220    27218    27216 
   27219    27220    27219    27220    27218    27217    27219    27217 
   27216    27220    27221    27218    27218    27219    27219    27218 
   27218    27218    27218    27219    27220    27220    27219    27220 
   27220    27219    27218    27218    27219    27218    27218    27219 
   27219    27218    27218    27218    27218    27218    27218    27218 
   27218    27218    27217    27218    27220    27218    27217    27220 
   27222    27218    27216    27217    27219    27219    27218    27218 
   27219    27220    27219    27217    27218    27219    27219    27218 
   27219    27221    27221    27219    27218    27218    27219    27218 
   27219    27221    27221    27220    27220    27219    27219    27220 
   27219    27219    27219    27220    27220    27218    27218    27220 
   27220    27220    27220    27218    27219    27219    27202    27145 
   27040    26953    26922    26846    26806    27015    27187    27088 
   27142    27362    27409    27544    27791    27714    27423    27262 
   27089    27149    27855    27832    26828    27202    27868    26814 
   26685    27888    27456    26506    27346    27959    26869    26646 
   27613    27236    26640    27474    27572    26625    26908    27709 
   27329    26758    27206    27565    27070    27097    27479    27180 
   27123    27362    27362    27370    27161    27157    27333    27093 
   27204    27375    26969    27006    27385    27261    27007    27040 
   27172    27059    27076    27530    27444    26955    27163    27438 
   27158    26906    26979    27073    27195    27483    27348    27003 
   27056    27111    27250    27374    27199    27259    27284    27067 
   27172    27197    26997    27011    27110    27336    27458    27270 
   27199    27233    27379    27701    27594    27236    27474    27665 
   27228    27175    27600    27469    27031    27296    27660    27276 
   26893    26957    27254    27333    26933    26689    26902    27431 
   27410    26677    26720    27127    27087    27055    27253    27605 
   27057    26711    27780    27620    26603    27038    27504    27389 
   27345    27364    27528    27145    26788    27204    27427    27554 
   27587    27259    27094    26939    27040    27257    27068    27419 
   27726    27165    27229    27554    27071    26891    27360    27540 
   27167    26964    27172    27224    27189    27179    27133    27362 
   27566    27340    26973    27164    27691    27150    26638    27550 
   27627    26723    26932    27262    26988    27022    27011    27041 
   27229    26812    26999    27750    27162    26731    27318    27403 
   27298    27321    27109    27021    27348    27700    27624    27377 
   27126    27014    27288    27470    27169    26705    26937    27625 
   27233    26845    27675    27506    26458    26842    27607    27480 
   27250    27126    26984    26799    26850    27451    27497    26940 
   27187    27669    27490    27202    27174    27342    27540    27887 
   28122    27203    26117    26912    28314    27624    25522    25923 
   28798    28491    26145    26681    26863    25842    26438    27195 
   28057    28341    26910    26263    26560    27042    27561    27573 
   28433    28403    26309    25707    26893    27813    27911    27351 
   26978    27767    28441    26952    26445    28551    28654    27267 
   27595    27104    25894    26761    27320    26311    26106    26637 
   26264    25908    27476    28821    27931    27032    27140    27404 
   27304    26529    26513    27770    27628    26966    28046    27942 
   26499    27361    29303    28845    27254    27243    27192    26133 
   26871    28407    26848    25279    26981    27837    27182    27366 
   27325    26935    26646    26645    26900    26749    27194    27843 
   27521    26905    26128    27062    28945    27499    25899    27011 
   27781    28393    28204    26921    27425    27529    26506    27190 
   27552    27414    28047    27644    27114    26957    26997    28052 
   27787    26393    26778    28270    28291    26221    25531    26772 
   26925    26743    26803    27757    29428    28118    25497    26286 
   28135    27025    25833    26682    27564    28354    27642    26319 
   26969    27129    26883    27779    28108    27139    26552    27525 
   27242    26459    28405    28292    25536    26395    28185    27135 
   26884    27760    27328    26532    26727    27423    26837    26612 
   28100    27520    26474    27667    27890    27470    27030    25765 
   26759    29180    28515    26819    26943    26763    26445    26639 
   26762    27486    27303    27291    28209    26756    26131    27341 
   26553    27117    28233    26679    26983    27650    26028    27433 
   29215    26660    26095    28265    27886    27446    27642    26487 
   26772    28011    27510    27086    27826    27421    26185    26802 
   27788    27487    27162    26802    26864    26983    26225    26798 
   27876    27477    27621    27308    26177    27498    28801    27774 
   27441    27624    27493    27776    27328    27094    27459    26466 
   26597    28734    27861    25492    27050    27956    25044    25517 
   28330    26695    25842    28679    28270    25424    26101    28313 
   27442    26172    27912    28392    26808    27235    27226    25747 
   26641    28138    26733    25879    28222    28520    26088    26099 
   27038    26760    27126    27885    28084    27994    28357    28830 
   27572    26394    27974    28718    26987    26447    27695    28864 
   28742    27873    26971    25383    24990    27152    28824    27993 
   26533    26377    26605    26512    26593    26702    27264    27580 
   27096    27153    26992    26669    27269    27318    27303    27862 
   27503    27009    27261    27542    27457    27154    27082    27569 
   27991    26985    25951    26696    27476    27549    27347    26884 
   27286    27831    27254    26959    27379    27301    26626    26556 
   27336    27330    26935    27610    28278    28230    27133    25249 
   25700    28025    28350    27921    27778    26573    26638    27601 
   27137    27355    27796    26507    26020    27283    27782    27286 
   27268    27589    27463    27326    27552    26765    26031    27628 
   28621    27489    27373    27846    26964    26402    27036    27591 
   27762    27132    26421    27413    27832    26502    26760    27616 
   26619    26518    27661    27174    26456    27355    27962    27394 
   27006    27347    27807    27854    27536    27054    27009    27637 
   27834    27492    27122    26590    26877    27656    27215    26714 
   27191    27196    26539    26187    26510    27305    27133    26161 
   26692    27839    27713    27303    27099    26866    27044    27387 
   27573    27538    27283    27597    27958    27077    26507    27381 
   27920    27535    27360    27569    27503    27037    26643    27118 
   27915    27158    26055    26623    27453    27661    27525    26987 
   26786    27003    27197    27251    27034    27138    27623    27668 
   27447    27182    26713    26936    27928    27880    26956    27179 
   27757    27307    27050    27214    27074    27426    27858    27181 
   26694    27227    27580    27329    26872    27010    27601    27343 
   26864    27060    27081    26851    27077    27443    27244    27128 
   27602    27628    27112    26798    26602    26770    27381    27414 
   26926    26903    27018    26885    26975    27463    27752    27283 
   27173    27702    27242    26776    27633    28107    27479    26982 
   27276    27790    27481    26621    26570    27263    27572    27507 
   27460    27289    27061    26888    26904    27377    27761    27542 
   27281    26885    26329    26665    27464    27560    27101    26750 
   26920    27176    27262    27554    27685    27475    27142    26841 
   27089    27383    27435    27777    27699    27380    27391    27022 
   26961    27548    27576    27165    26873    26667    26826    27143 
   27050    27247    27749    27190    26506    26953    27389    27345 
   27283    27160    27032    26888    26728    27111    27811    27499 
   26734    27026    27275    26835    27046    27514    27273    26952 
   27197    27523    27232    26961    27272    27677    28021    27820 
   26996    26873    27352    27095    26641    27144    27649    27184 
   26952    27450    27598    27166    26799    27045    27457    27084 
   26691    27226    27557    27292    27307    27254    27050    27154 
   27260    27367    27482    27471    27428    27347    27455    27324 
   26820    27146    27601    26894    26627    27572    27915    27182 
   26892    27303    27219    26732    26720    27238    27734    27563 
   27220    27267    27048    26835    27205    27398    27362    27568 
   27463    27036    27030    27227    27151    27113    27289    27318 
   27244    27357    27270    26954    26987    27179    27345    27420 
   27068    27087    27471    26993    26720    27398    27437    26973 
   27049    27293    27315    27166    27216    27483    27525    27204 
   26792    26938    27519    27606    27149    27004    27239    27163 
   27058    27222    27198    27102    27168    27325    27562    27431 
   26713    26529    27279    27647    27561    27634    27198    26515 
   26684    27321    27634    27600    27414    27265    26988    26820 
   27328    27682    27256    26921    27123    27227    27019    27283 
   27588    27147    27010    27224    26942    26847    27164    27268 
   27258    27250    26999    26817    27107    27350    27266    27304 
   27307    27108    27137    27344    27375    27305    27398    27620 
   27714    27751    27669    27205    27105    27635    27566    27057 
   27197    27391    27077    26966    27275    27446    27184    26804 
   26890    27287    27355    27158    27067    27119    27105    26991 
   27157    27454    27318    27001    27018    27229    27199    27003 
   27180    27431    27184    27125    27491    27435    27132    27180 
   27231    27142    27370    27523    27057    26951    27448    27324 
   27013    27285    27253    26912    26912    26996    27130    27353 
   27392    27298    27090    26897    27206    27578    27237    26928 
   27177    27209    27113    27336    27309    27064    27127    27205 
   27190    27256    27293    27311    27231    27160    27279    27280 
   27128    27050    27207    27528    27446    27155    27145    27066 
   27044    27198    27167    27138    27066    26933    27143    27384 
   27289    27240    27309    27087    26982    27453    27651    27328 
   27217    27160    27167    27527    27562    27385    27527    27331 
   26971    27235    27636    27618    27394    27257    27250    27215 
   27182    27423    27577    27196    26944    27110    27127    26996 
   27144    27552    27454    26864    26770    26882    26871    27284 
   27565    27270    27039    26983    26948    27056    27130    27019 
   27089    27282    27063    26871    27256    27688    27555    26984 
   26806    27199    27330    27181    27353    27725    27778    27275 
   26793    26967    27391    27490    27208    27046    27345    27453 
   27125    27038    27265    27237    27067    27290    27583    27493 
   27214    27049    27169    27280    27128    27038    27173    27340 
   27238    26992    27167    27360    26877    26565    27101    27446 
