Origin Time       2019/06/18 07:22:00
Lat.              40.050
Long.             140.598
Depth. (km)       6
Mag.              3.9
Station Code      AKTH13
Station Lat.      39.9819
Station Long.     140.4072
Station Height(m) 145
Record Time       2019/06/18 07:22:10
Sampling Freq(Hz) 100Hz
Duration Time(s)  120
Dir.              4
Scale Factor      3920(gal)/6170801
Max. Acc. (gal)   36.075
Last Correction   2019/06/18 07:21:55
Memo.             
[...]
   -5153    -5151    -5148    -5146    -5146    -5145    -5145    -5146 
   -5147    -5151    -5153    -5153    -5153    -5151    -5147    -5144 
   -5144    -5145    -5146    -5148    -5151    -5151    -5151    -5154 
   -5153    -5150    -5149    -5147    -5145    -5147    -5145    -5144 
   -5147    -5150    -5152    -5153    -5153    -5152    -5150    -5148 
   -5147    -5144    -5144    -5146    -5146    -5149    -5153    -5154 
   -5153    -5151    -5147    -5146    -5148    -5148    -5146    -5146 
   -5147    -5148    -5149    -5148    -5149    -5148    -5147    -5149 
   -5151    -5148    -5145    -5147    -5149    -5148    -5145    -5147 
   -5149    -5150    -5151    -5152    -5150    -5148    -5149    -5148 
   -5147    -5147    -5148    -5148    -5150    -5151    -5150    -5148 
   -5148    -5149    -5150    -5148    -5147    -5147    -5147    -5147 
   -5147    -5146    -5147    -5149    -5150    -5149    -5149    -5149 
   -5150    -5148    -5145    -5144    -5145    -5148    -5150    -5151 
   -5153    -5152    -5150    -5149    -5149    -5146    -5145    -5146 
   -5148    -5148    -5148    -5148    -5151    -5151    -5150    -5149 
   -5148    -5147    -5147    -5146    -5145    -5147    -5150    -5151 
   -5151    -5151    -5152    -5152    -5151    -5149    -5145    -5143 
   -5146    -5149    -5149    -5148    -5150    -5150    -5149    -5150 
   -5150    -5148    -5146    -5147    -5147    -5147    -5147    -5149 
   -5152    -5151    -5148    -5148    -5152    -5151    -5147    -5145 
   -5147    -5149    -5150    -5149    -5149    -5150    -5152    -5152 
   -5153    -5151    -5148    -5146    -5146    -5147    -5148    -5148 
   -5148    -5150    -5152    -5152    -5149    -5147    -5148    -5148 
   -5147    -5147    -5149    -5149    -5149    -5152    -5155    -5151 
   -5148    -5149    -5149    -5149    -5149    -5149    -5150    -5150 
   -5150    -5152    -5151    -5150    -5152    -5151    -5148    -5146 
   -5146    -5148    -5149    -5150    -5151    -5152    -5151    -5150 
   -5149    -5147    -5149    -5151    -5148    -5148    -5151    -5151 
   -5150    -5150    -5151    -5151    -5150    -5150    -5150    -5149 
   -5148    -5147    -5148    -5149    -5148    -5151    -5153    -5151 
   -5150    -5150    -5149    -5148    -5148    -5146    -5147    -5150 
   -5149    -5149    -5151    -5152    -5151    -5149    -5149    -5148 
   -5146    -5145    -5148    -5150    -5150    -5151    -5154    -5153 
   -5152    -5151    -5149    -5148    -5150    -5147    -5145    -5147 
   -5149    -5149    -5150    -5153    -5152    -5148    -5148    -5148 
   -5148    -5145    -5145    -5148    -5149    -5150    -5150    -5149 
   -5150    -5152    -5151    -5148    -5145    -5144    -5146    -5148 
   -5149    -5149    -5149    -5150    -5149    -5150    -5150    -5146 
   -5144    -5145    -5146    -5146    -5147    -5148    -5149    -5149 
   -5148    -5150    -5150    -5146    -5147    -5147    -5143    -5144 
   -5147    -5148    -5151    -5150    -5146    -5148    -5151    -5149 
   -5145    -5144    -5145    -5147    -5149    -5149    -5151    -5152 
   -5152    -5150    -5145    -5144    -5147    -5146    -5146    -5149 
   -5148    -5147    -5150    -5152    -5151    -5151    -5150    -5148 
   -5148    -5146    -5146    -5148    -5148    -5149    -5149    -5149 
   -5151    -5151    -5149    -5148    -5147    -5146    -5145    -5148 
   -5149    -5147    -5149    -5153    -5151    -5147    -5149    -5148 
   -5146    -5146    -5147    -5148    -5149    -5151    -5150    -5148 
   -5149    -5149    -5148    -5148    -5148    -5148    -5147    -5147 
   -5148    -5149    -5149    -5151    -5151    -5149    -5148    -5148 
   -5148    -5148    -5149    -5148    -5146    -5146    -5148    -5151 
   -5150    -5149    -5148    -5147    -5147    -5147    -5148    -5147 
   -5147    -5148    -5148    -5148    -5149    -5149    -5149    -5147 
   -5146    -5147    -5149    -5149    -5147    -5146    -5148    -5148 
   -5147    -5149    -5151    -5149    -5149    -5150    -5147    -5147 
   -5149    -5147    -5147    -5149    -5150    -5150    -5149    -5150 
   -5149    -5147    -5146    -5147    -5147    -5148    -5150    -5151 
   -5149    -5149    -5148    -5147    -5148    -5149    -5149    -5150 
   -5149    -5148    -5149    -5149    -5149    -5148    -5147    -5148 
   -5148    -5147    -5148    -5150    -5150    -5150    -5149    -5148 
   -5149    -5150    -5149    -5148    -5148    -5148    -5146    -5149 
   -5151    -5149    -5148    -5148    -5148    -5148    -5148    -5147 
   -5147    -5148    -5150    -5152    -5149    -5145    -5146    -5148 
   -5147    -5149    -5151    -5150    -5149    -5149    -5148    -5147 
   -5148    -5150    -5150    -5150    -5149    -5148    -5147    -5148 
   -5150    -5150    -5149    -5149    -5149    -5149    -5149    -5148 
   -5147    -5148    -5152    -5153    -5151    -5149    -5151    -5149 
   -5148    -5149    -5149    -5147    -5148    -5149    -5150    -5151 
   -5150    -5148    -5149    -5151    -5151    -5150    -5148    -5146 
   -5147    -5150    -5152    -5149    -5147    -5148    -5150    -5149 
   -5148    -5149    -5147    -5144    -5146    -5147    -5148    -5150 
   -5149    -5148    -5149    -5148    -5145    -5149    -5151    -5145 
   -5143    -5148    -5150    -5148    -5149    -5151    -5151    -5150 
   -5150    -5150    -5148    -5147    -5148    -5148    -5149    -5149 
   -5146    -5146    -5149    -5149    -5150    -5150    -5149    -5148 
   -5146    -5145    -5147    -5148    -5147    -5148    -5152    -5150 
   -5148    -5150    -5151    -5148    -5147    -5148    -5149    -5149 
   -5148    -5148    -5148    -5149    -5151    -5152    -5150    -5148 
   -5148    -5148    -5146    -5146    -5147    -5150    -5151    -5151 
   -5152    -5151    -5148    -5147    -5147    -5146    -5146    -5145 
   -5147    -5150    -5150    -5152    -5153    -5150    -5149    -5148 
   -5146    -5147    -5148    -5148    -5148    -5148    -5149    -5151 
   -5152    -5150    -5149    -5149    -5148    -5147    -5146    -5146 
   -5147    -5149    -5151    -5152    -5150    -5149    -5150    -5150 
   -5148    -5148    -5147    -5145    -5148    -5151    -5151    -5149 
   -5148    -5148    -5148    -5148    -5147    -5146    -5147    -5147 
   -5148    -5150    -5150    -5149    -5148    -5148    -5148    -5147 
   -5146    -5148    -5149    -5148    -5147    -5147    -5150    -5150 
   -5147    -5147    -5149    -5149    -5147    -5145    -5145    -5146 
   -5148    -5149    -5148    -5148    -5148    -5148    -5148    -5148 
   -5150    -5148    -5146    -5149    -5150    -5148    -5148    -5146 
   -5146    -5149    -5149    -5149    -5149    -5149    -5148    -5148 
   -5148    -5147    -5148    -5148    -5148    -5151    -5152    -5150 
   -5149    -5148    -5147    -5148    -5148    -5149    -5149    -5151 
   -5151    -5148    -5148    -5150    -5150    -5147    -5147    -5149 
   -5150    -5149    -5147    -5148    -5150    -5149    -5148    -5147 
   -5148    -5150    -5150    -5148    -5147    -5148    -5148    -5147 
   -5150    -5151    -5149    -5149    -5150    -5150    -5148    -5149 
   -5147    -5143    -5144    -5148    -5149    -5150    -5149    -5148 
   -5148    -5149    -5148    -5146    -5146    -5148    -5148    -5149 
   -5152    -5152    -5150    -5149    -5149    -5148    -5146    -5146 
   -5145    -5145    -5149    -5150    -5147    -5148    -5151    -5150 
   -5148    -5148    -5147    -5147    -5146    -5146    -5147    -5148 
   -5148    -5151    -5151    -5147    -5148    -5149    -5146    -5146 
   -5149    -5147    -5146    -5148    -5149    -5148    -5150    -5150 
   -5150    -5150    -5148    -5147    -5147    -5146    -5146    -5147 
   -5147    -5147    -5148    -5150    -5150    -5149    -5148    -5148 
   -5147    -5146    -5146    -5148    -5148    -5147    -5149    -5151 
   -5151    -5150    -5150    -5150    -5148    -5146    -5146    -5147 
   -5146    -5147    -5150    -5153    -5152    -5147    -5146    -5150 
   -5149    -5146    -5147    -5147    -5147    -5150    -5152    -5150 
   -5149    -5149    -5148    -5151    -5152    -5149    -5147    -5147 
   -5146    -5146    -5148    -5151    -5149    -5147    -5148    -5149 
   -5148    -5146    -5146    -5145    -5145    -5148    -5149    -5150 
   -5151    -5150    -5147    -5147    -5148    -5148    -5149    -5150 
   -5149    -5148    -5147    -5145    -5148    -5152    -5151    -5149 
   -5149    -5150    -5149    -5149    -5147    -5145    -5146    -5148 
   -5150    -5152    -5150    -5147    -5148    -5149    -5147    -5147 
   -5146    -5146    -5148    -5149    -5149    -5150    -5151    -5149 
   -5148    -5150    -5150    -5149    -5149    -5149    -5149    -5148 
   -5150    -5151    -5150    -5148    -5148    -5146    -5147    -5150 
   -5150    -5149    -5148    -5149    -5152    -5152    -5149    -5150 
   -5149    -5147    -5150    -5150    -5147    -5147    -5147    -5147 
   -5149    -5151    -5150    -5150    -5151    -5150    -5149    -5147 
   -5147    -5148    -5150    -5150    -5149    -5151    -5152    -5151 
   -5150    -5149    -5147    -5148    -5149    -5148    -5148    -5147 
   -5149    -5151    -5149    -5148    -5150    -5149    -5148    -5150 
   -5150    -5147    -5148    -5149    -5150    -5150    -5150    -5149 
   -5149    -5149    -5149    -5148    -5148    -5149    -5149    -5149 
   -5148    -5149    -5152    -5152    -5150    -5148    -5148    -5150 
   -5151    -5147    -5146    -5149    -5149    -5148    -5149    -5151 
   -5151    -5152    -5150    -5147    -5146    -5148    -5149    -5150 
   -5149    -5149    -5150    -5151    -5149    -5150    -5151    -5148 
   -5147    -5148    -5150    -5149    -5147    -5147    -5149    -5149 
   -5149    -5150    -5149    -5148    -5148    -5146    -5147    -5148 
   -5147    -5147    -5148    -5149    -5151    -5153    -5150    -5148 
   -5147    -5146    -5147    -5147    -5147    -5148    -5150    -5150 
   -5149    -5150    -5150    -5150    -5150    -5147    -5146    -5148 
   -5150    -5149    -5148    -5150    -5151    -5150    -5150    -5151 
   -5149    -5147    -5146    -5145    -5146    -5148    -5149    -5149 
   -5149    -5151    -5151    -5151    -5149    -5146    -5146    -5147 
   -5148    -5148    -5148    -5149    -5149    -5147    -5147    -5149 
   -5148    -5147    -5148    -5148    -5146    -5146    -5149    -5150 
   -5148    -5150    -5151    -5149    -5148    -5147    -5147    -5148 
   -5146    -5147    -5148    -5151    -5153    -5151    -5148    -5148 
   -5148    -5148    -5150    -5149    -5147    -5150    -5151    -5149 
   -5149    -5151    -5148    -5147    -5148    -5149    -5148    -5148 
   -5148    -5148    -5148    -5149    -5149    -5149    -5150    -5151 
   -5150    -5149    -5155    -5167    -5169    -5131    -5038    -4917 
   -4768    -4587    -4530    -4724    -5044    -5429    -5884    -6199 
   -6274    -6146    -5719    -5070    -4397    -3668    -3080    -3349 
   -4512    -5576    -6551    -7775    -7990    -6986    -5898    -4505 
   -2758    -1558    -1478    -2660    -4842    -7573    -9676   -10205 
   -9484    -7376    -4124    -1195      494      601     -831    -3353 
   -6290    -8887   -10939   -11639   -10001    -7094    -3915     -484 
    1599     1004    -1233    -3969    -6799    -9210   -10631   -10909 
  -10202    -8086    -4382     -487     1958     2371      655    -2924 
   -7187   -10609   -12437   -12753   -11392    -8098    -3647      811 
    3956     4532     2257    -2563    -8306   -12881   -15433   -14962 
  -11135    -5623     -391     3304     5037     4347      547    -5315 
  -10991   -15023   -16449   -14474    -9363    -3000     2321     5257 
    5172     2119    -2855    -8166   -12363   -14447   -14107   -11677 
   -7735    -3017     1250     3559     3202      417    -3875    -7951 
  -10711   -11992   -11450    -9427    -6884    -4041    -1060     1065 
    1246     -422    -2842    -5573    -8584   -10554   -10472    -9213 
   -7209    -4503    -2321    -1312    -1078    -1467    -2680    -4794 
   -7150    -9112   -10140    -9303    -7216    -5049    -2555     -439 
    -291    -2062    -4405    -6375    -8249    -9696    -9220    -7448 
   -5819    -3653    -1454     -840    -1402    -2563    -4606    -7108 
   -8715    -8980    -8728    -7695    -5684    -3803    -2242     -987 
   -1164    -3246    -5519    -6317    -6894    -8227    -8664    -7712 
   -6439    -4880    -2821    -1249    -1275    -2607    -4383    -6090 
   -7390    -8172    -8383    -8116    -7224    -5316    -2741     -628 
    -272    -1895    -4340    -6587    -8414    -9295    -8457    -6907 
   -5754    -3975    -1648     -688    -1797    -3683    -5109    -7026 
   -9219    -9149    -7251    -5390    -3457    -2152    -2406    -3193 
   -3835    -5127    -6733    -7234    -7029    -7004    -6642    -5762 
   -4863    -4033    -3324    -3513    -4967    -6466    -7508    -9302 
  -11373   -11393    -8467    -3652     1616     6426     9620     9436 
    4564    -4579   -15040   -22489   -24130   -21381   -17038   -10320 
    -545     9548    16499    17289    13236     7777    -1454   -14337 
  -24907   -32194   -36144   -32423   -19388     -671    17763    31074 
   35735    30010    15396    -5892   -29395   -48177   -56005   -48389 
  -27975    -2153    22998    40356    44633    36144    18968    -4334 
  -30119   -47742   -52611   -47584   -32676   -10785    13688    35698 
   45948    41388    26753     2630   -29193   -54967   -61933   -50004 
  -26012      762    22758    37008    41082    32553    13074   -11335 
  -32604   -44713   -45699   -35225   -16397     4027    20970    30013 
   27191    15679     1763   -12708   -25274   -32013   -32491   -27982 
  -18083    -2769    13313    23810    25216    18470     7734    -5887 
  -21420   -32776   -35445   -29203   -17025    -5051     4406    13036 
   19272    20159    14716     3643   -11824   -27183   -33768   -30934 
  -23181   -10065     4492    14419    18787    17956    12424     2256 
   -9371   -18805   -25799   -26956   -21253   -13817    -6568     1338 
    8562    13251    13693     7513    -2398   -10082   -15595   -19257 
  -19828   -18019   -12484    -3190     5684    10226     8874     4049 
   -1252    -8107   -14963   -16520   -13505   -10220    -7123    -2605 
    2655     4505      592    -6222   -10526   -10156    -8872    -7958 
   -5205    -1440     1919     3265      746    -3629    -7349   -11503 
  -15874   -17843   -16371   -12648    -8318     -158    12499    18993 
   14901     6227    -5365   -18176   -28320   -32832   -27570   -14422 
     179    11584    16679    19089    19504    10164    -6020   -21163 
  -34904   -40477   -31247   -14942     1116    15796    24791    24184 
   16172     4423   -10583   -26052   -34605   -33448   -25181   -11564 
    3778    15112    20897    20705    12831      323   -12230   -22916 
  -28997   -26901   -17281    -7799    -1070     9126    18514    16849 
    6133    -6860   -16764   -21357   -23398   -21188   -12958    -3156 
    5667    10635     8989     4697     1363    -3744   -13588   -23627 
  -25433   -17148    -4498     4077     5411     6003     9306     8280 
    -725   -11802   -20412   -25071   -22522   -14153    -5730     3097 
   13999    19656    12143    -2509   -11566   -15427   -20701   -22723 
  -18442   -13599    -6753     5076    16113    18874    10583    -2000 
  -12751   -21296   -23325   -19099   -13524    -7049     -869     3799 
    6617     7032     4367    -3467   -11838   -14248   -13941   -11999 
   -6355    -2338    -1324      -34    -1419    -5537    -7369    -5430 
   -1695     -265    -3024    -7392   -10966   -14183   -16052   -11759 
   -1889     7085    12305    12102     4169    -8914   -21283   -28122 
  -26240   -15681     -576    12630    18162    14564     4812    -6456 
  -15388   -20410   -20201   -14860    -8726    -3980      541     3122 
    1877    -1507    -3851    -4618    -5235    -4080    -2197    -5523 
  -13031   -18181   -17846   -11950    -3556     3833     8005     7746 
    6422     4455    -3241   -14508   -22692   -24537   -20019   -13136 
   -4463     6629    13281    13708    11243     3743    -6662   -16020 
  -24665   -27892   -22809   -13400     -944    13015    22110    20339 
    7800    -9250   -23491   -28457   -23095   -14457    -6666     2111 
    9722    10885     5326    -1751    -6561   -11456   -17680   -19461 
  -13607    -4364     3714     7288     5060      144    -4644    -8581 
  -10643   -10912   -11272   -11845    -9363    -2815     3582     5647 
    3119    -1687    -7755   -13770   -15222   -12053    -8712    -4595 
     499     2435      871    -2756    -8025   -11579   -10737    -6792 
   -2499     -410     -710    -2140    -4971    -8896   -12029   -12398 
   -8668    -2717     2036     3963     2476     -981    -5248   -11016 
  -15760   -16459   -13768    -8043     -794     4010     5902     5834 
    1907    -5068   -11090   -14750   -15847   -13372    -8648    -5111 
   -3052      294     4119     4596     1840    -1559    -6094   -12003 
  -16033   -15963   -12259    -6755    -1909     1569     3809     3780 
    1032    -2734    -5804    -9397   -13865   -15727   -13572    -8737 
   -1879     3702     4268     1744     -938    -4007    -7468   -10521 
  -12185   -11048    -7405    -3337    -1020    -1703    -3776    -4217 
   -3047    -3138    -5512    -7798    -8382    -7813    -6826    -6293 
   -5466    -3459    -2734    -3736    -3510    -2517    -3329    -5736 
   -8227   -10070   -10017    -7012    -3603    -2664    -2569    -2350 
   -3738    -5691    -6377    -6600    -6471    -5482    -5189    -5867 
   -5149    -3750    -4519    -6138    -6252    -5480    -4531    -3746 
   -3488    -3052    -2845    -4363    -7194    -9496    -9652    -7701 
   -5143    -2724    -1215    -1419    -2758    -4924    -7121    -7285 
   -5745    -4722    -4526    -4640    -5456    -6613    -6850    -6027 
   -5334    -5145    -4097    -1922     -655    -1357    -2957    -5255 
   -9483   -13854   -14199   -10705    -6212    -1090     3696     5223 
    2780    -1574    -6178   -10663   -14254   -15540   -13478    -8288 
   -2429     1764     4388     4898     2106    -2903    -8494   -13216 
  -15467   -14423    -9940    -3969      619     2822     2350     -128 
   -3398    -7161    -9853   -10395    -9731    -7534    -5003    -4585 
   -4110    -2251    -1649    -2308    -3306    -5050    -6046    -5610 
   -5632    -6723    -7943    -8963    -9222    -7338    -3615      -31 
    2557     3128     -208    -6455   -11816   -13708   -12471   -10230 
   -7899    -4607     -725     2308     3542     1934    -1894    -6358 
  -11363   -15029   -14264    -9857    -4925     -893     1999     2881 
    1266    -2040    -5964    -9654   -12267   -12467    -9908    -6654 
   -3862     -939     1380     1616     -705    -4427    -7594    -9725 
  -10955   -10922    -9579    -6835    -3465    -1030      559     1279 
    -214    -3392    -6482    -9091   -11399   -12844   -12008    -8225 
   -3156     1108     3639     3423       95    -4755    -8943   -11503 
  -12745   -12211    -9409    -5879    -2592      584     2563     2230 
    -274    -3979    -7548   -10110   -11600   -11719    -9970    -7131 
   -4158    -1365      445     1131      712    -1695    -5081    -7717 
