Origin Time       2019/06/18 07:22:00
Lat.              40.050
Long.             140.598
Depth. (km)       6
Mag.              3.9
Station Code      AKTH13
Station Lat.      39.9819
Station Long.     140.4072
Station Height(m) 145
Record Time       2019/06/18 07:22:10
Sampling Freq(Hz) 100Hz
Duration Time(s)  120
Dir.              6
Scale Factor      3920(gal)/6170801
Max. Acc. (gal)   13.308
Last Correction   2019/06/18 07:21:55
Memo.             
[...]
  -16402   -16401   -16403   -16401   -16401   -16401   -16399   -16399 
  -16401   -16400   -16401   -16401   -16399   -16399   -16401   -16401 
  -16401   -16401   -16401   -16401   -16401   -16401   -16399   -16400 
  -16402   -16402   -16402   -16402   -16401   -16398   -16398   -16401 
  -16400   -16399   -16400   -16400   -16401   -16400   -16400   -16402 
  -16404   -16402   -16401   -16402   -16401   -16401   -16403   -16402 
  -16399   -16400   -16401   -16401   -16401   -16401   -16400   -16400 
  -16402   -16400   -16398   -16400   -16402   -16401   -16400   -16401 
  -16402   -16403   -16402   -16400   -16401   -16402   -16400   -16400 
  -16401   -16401   -16402   -16403   -16403   -16400   -16399   -16401 
  -16401   -16401   -16400   -16402   -16402   -16400   -16401   -16401 
  -16401   -16402   -16403   -16402   -16400   -16401   -16401   -16401 
  -16401   -16399   -16399   -16401   -16401   -16401   -16400   -16399 
  -16401   -16402   -16402   -16400   -16399   -16399   -16403   -16403 
  -16401   -16402   -16402   -16402   -16400   -16401   -16401   -16399 
  -16400   -16403   -16402   -16399   -16401   -16402   -16400   -16399 
  -16400   -16399   -16401   -16401   -16400   -16399   -16399   -16399 
  -16399   -16399   -16400   -16400   -16399   -16400   -16399   -16398 
  -16399   -16400   -16400   -16401   -16400   -16400   -16400   -16400 
  -16400   -16399   -16398   -16399   -16401   -16399   -16397   -16399 
  -16400   -16399   -16399   -16399   -16399   -16401   -16400   -16400 
  -16400   -16398   -16400   -16401   -16400   -16400   -16400   -16401 
  -16402   -16399   -16399   -16400   -16399   -16401   -16403   -16399 
  -16399   -16402   -16402   -16404   -16403   -16401   -16402   -16402 
  -16400   -16400   -16402   -16401   -16399   -16401   -16402   -16401 
  -16402   -16401   -16401   -16400   -16399   -16400   -16400   -16400 
  -16401   -16400   -16400   -16400   -16401   -16401   -16399   -16398 
  -16400   -16400   -16400   -16400   -16400   -16398   -16401   -16404 
  -16400   -16399   -16399   -16397   -16398   -16404   -16402   -16398 
  -16399   -16401   -16400   -16400   -16402   -16403   -16402   -16399 
  -16399   -16399   -16400   -16401   -16401   -16401   -16402   -16403 
  -16403   -16402   -16400   -16400   -16400   -16401   -16401   -16401 
  -16399   -16399   -16403   -16405   -16401   -16401   -16402   -16400 
  -16400   -16403   -16402   -16399   -16400   -16401   -16402   -16402 
  -16400   -16399   -16402   -16402   -16400   -16402   -16401   -16400 
  -16401   -16400   -16398   -16401   -16402   -16398   -16398   -16401 
  -16402   -16400   -16398   -16399   -16399   -16401   -16403   -16400 
  -16399   -16401   -16402   -16403   -16402   -16400   -16398   -16400 
  -16402   -16401   -16399   -16399   -16400   -16401   -16400   -16401 
  -16401   -16399   -16398   -16398   -16398   -16400   -16401   -16402 
  -16400   -16400   -16401   -16400   -16398   -16399   -16399   -16397 
  -16397   -16400   -16401   -16400   -16400   -16400   -16400   -16402 
  -16402   -16399   -16399   -16399   -16398   -16399   -16401   -16401 
  -16401   -16402   -16400   -16401   -16401   -16399   -16401   -16402 
  -16401   -16401   -16402   -16400   -16398   -16399   -16401   -16401 
  -16399   -16398   -16398   -16400   -16401   -16402   -16401   -16399 
  -16400   -16401   -16401   -16402   -16402   -16400   -16400   -16401 
  -16401   -16400   -16399   -16399   -16399   -16399   -16400   -16402 
  -16401   -16398   -16398   -16399   -16401   -16401   -16402   -16401 
  -16399   -16398   -16399   -16403   -16403   -16401   -16399   -16399 
  -16399   -16401   -16402   -16400   -16399   -16400   -16402   -16403 
  -16404   -16402   -16401   -16401   -16401   -16402   -16400   -16400 
  -16401   -16401   -16401   -16403   -16401   -16399   -16400   -16400 
  -16400   -16402   -16402   -16400   -16398   -16398   -16399   -16401 
  -16401   -16400   -16399   -16399   -16400   -16400   -16401   -16401 
  -16399   -16398   -16399   -16400   -16402   -16402   -16401   -16400 
  -16400   -16402   -16403   -16401   -16402   -16401   -16400   -16402 
  -16403   -16401   -16400   -16399   -16400   -16402   -16401   -16401 
  -16399   -16398   -16402   -16404   -16399   -16400   -16402   -16400 
  -16399   -16398   -16399   -16402   -16403   -16401   -16401   -16401 
  -16401   -16402   -16403   -16401   -16398   -16400   -16402   -16401 
  -16399   -16398   -16400   -16401   -16401   -16404   -16404   -16400 
  -16400   -16401   -16402   -16401   -16401   -16400   -16399   -16400 
  -16402   -16401   -16400   -16401   -16401   -16402   -16402   -16401 
  -16401   -16400   -16399   -16400   -16401   -16401   -16402   -16402 
  -16400   -16399   -16399   -16399   -16401   -16401   -16400   -16399 
  -16399   -16400   -16400   -16401   -16400   -16400   -16402   -16400 
  -16398   -16401   -16402   -16400   -16401   -16401   -16400   -16401 
  -16401   -16399   -16400   -16400   -16398   -16398   -16401   -16401 
  -16399   -16399   -16401   -16400   -16400   -16401   -16401   -16401 
  -16398   -16399   -16403   -16403   -16400   -16400   -16400   -16401 
  -16403   -16402   -16400   -16399   -16400   -16401   -16401   -16401 
  -16400   -16400   -16400   -16400   -16402   -16403   -16401   -16401 
  -16402   -16400   -16400   -16401   -16400   -16399   -16401   -16402 
  -16401   -16400   -16401   -16401   -16401   -16402   -16403   -16401 
  -16399   -16400   -16402   -16403   -16403   -16402   -16401   -16400 
  -16401   -16402   -16402   -16400   -16401   -16403   -16401   -16402 
  -16406   -16403   -16398   -16400   -16401   -16399   -16401   -16404 
  -16401   -16400   -16402   -16403   -16401   -16402   -16404   -16402 
  -16400   -16401   -16402   -16401   -16400   -16400   -16401   -16400 
  -16400   -16401   -16401   -16401   -16402   -16402   -16400   -16402 
  -16402   -16400   -16402   -16404   -16403   -16402   -16403   -16402 
  -16401   -16402   -16402   -16401   -16399   -16400   -16402   -16402 
  -16403   -16404   -16404   -16403   -16403   -16402   -16400   -16400 
  -16402   -16401   -16400   -16401   -16401   -16401   -16403   -16402 
  -16400   -16401   -16402   -16400   -16398   -16400   -16403   -16402 
  -16402   -16403   -16401   -16399   -16400   -16402   -16402   -16399 
  -16398   -16400   -16401   -16401   -16402   -16403   -16403   -16402 
  -16401   -16401   -16401   -16402   -16401   -16399   -16399   -16401 
  -16400   -16400   -16401   -16402   -16401   -16400   -16400   -16403 
  -16401   -16400   -16402   -16400   -16397   -16398   -16401   -16402 
  -16401   -16400   -16400   -16399   -16399   -16400   -16402   -16402 
  -16402   -16401   -16400   -16403   -16402   -16399   -16399   -16400 
  -16401   -16401   -16401   -16400   -16400   -16403   -16406   -16404 
  -16400   -16399   -16400   -16399   -16399   -16401   -16401   -16401 
  -16400   -16398   -16400   -16403   -16401   -16398   -16399   -16399 
  -16400   -16403   -16403   -16400   -16399   -16401   -16401   -16401 
  -16402   -16401   -16401   -16401   -16401   -16402   -16402   -16400 
  -16400   -16400   -16401   -16402   -16402   -16399   -16399   -16401 
  -16403   -16401   -16399   -16400   -16403   -16402   -16400   -16400 
  -16402   -16401   -16399   -16399   -16401   -16402   -16402   -16402 
  -16401   -16400   -16400   -16400   -16400   -16400   -16401   -16401 
  -16400   -16401   -16402   -16403   -16401   -16397   -16397   -16402 
  -16403   -16402   -16403   -16401   -16399   -16400   -16400   -16399 
  -16398   -16400   -16401   -16402   -16402   -16403   -16402   -16401 
  -16403   -16401   -16399   -16400   -16401   -16400   -16400   -16402 
  -16403   -16401   -16402   -16403   -16400   -16397   -16400   -16403 
  -16403   -16401   -16398   -16399   -16403   -16401   -16400   -16402 
  -16402   -16399   -16399   -16402   -16403   -16402   -16400   -16400 
  -16400   -16401   -16402   -16402   -16401   -16401   -16399   -16401 
  -16403   -16401   -16400   -16400   -16400   -16399   -16401   -16402 
  -16401   -16400   -16401   -16401   -16401   -16402   -16401   -16399 
  -16398   -16399   -16402   -16402   -16401   -16401   -16401   -16399 
  -16400   -16402   -16401   -16400   -16400   -16400   -16401   -16402 
  -16401   -16399   -16399   -16401   -16401   -16399   -16401   -16401 
  -16399   -16400   -16403   -16403   -16402   -16401   -16401   -16402 
  -16401   -16400   -16399   -16400   -16400   -16400   -16402   -16403 
  -16402   -16401   -16401   -16400   -16401   -16401   -16402   -16402 
  -16399   -16400   -16402   -16400   -16399   -16400   -16399   -16398 
  -16399   -16400   -16400   -16399   -16399   -16401   -16401   -16400 
  -16400   -16401   -16399   -16399   -16401   -16401   -16398   -16397 
  -16398   -16401   -16401   -16400   -16400   -16400   -16399   -16400 
  -16400   -16400   -16400   -16401   -16400   -16399   -16400   -16401 
  -16400   -16401   -16401   -16402   -16402   -16400   -16400   -16402 
  -16403   -16402   -16401   -16402   -16404   -16403   -16401   -16400 
  -16401   -16400   -16401   -16404   -16403   -16400   -16400   -16400 
  -16401   -16404   -16403   -16400   -16399   -16400   -16401   -16401 
  -16400   -16400   -16400   -16400   -16401   -16402   -16404   -16402 
  -16399   -16402   -16403   -16401   -16401   -16402   -16400   -16400 
  -16401   -16402   -16403   -16402   -16400   -16401   -16401   -16401 
  -16402   -16400   -16399   -16401   -16402   -16402   -16403   -16403 
  -16401   -16401   -16402   -16401   -16401   -16402   -16402   -16401 
  -16401   -16401   -16401   -16402   -16402   -16400   -16400   -16401 
  -16400   -16400   -16402   -16401   -16400   -16401   -16402   -16402 
  -16401   -16399   -16400   -16403   -16401   -16399   -16400   -16400 
  -16400   -16400   -16401   -16401   -16400   -16402   -16401   -16399 
  -16399   -16401   -16401   -16402   -16400   -16400   -16401   -16401 
  -16401   -16401   -16400   -16401   -16400   -16401   -16402   -16401 
  -16399   -16399   -16400   -16402   -16404   -16403   -16401   -16400 
  -16401   -16402   -16402   -16402   -16399   -16397   -16400   -16401 
  -16401   -16402   -16400   -16399   -16403   -16404   -16401   -16399 
  -16399   -16401   -16402   -16404   -16403   -16399   -16397   -16400 
  -16402   -16402   -16401   -16400   -16399   -16400   -16400   -16400 
  -16401   -16401   -16397   -16398   -16400   -16399   -16399   -16400 
  -16399   -16399   -16402   -16402   -16402   -16404   -16401   -16397 
  -16399   -16403   -16401   -16400   -16401   -16401   -16401   -16400 
  -16399   -16401   -16402   -16401   -16399   -16399   -16401   -16399 
  -16398   -16398   -16400   -16401   -16400   -16401   -16399   -16397 
  -16399   -16403   -16402   -16399   -16397   -16397   -16400   -16402 
  -16402   -16402   -16400   -16398   -16401   -16402   -16398   -16400 
  -16405   -16430   -16536   -16746   -16947   -16995   -16969   -16870 
  -16407   -15879   -15927   -16104   -15973   -15977   -15739   -15162 
  -15531   -16660   -17444   -18072   -17656   -15170   -13733   -15682 
  -17240   -17140   -18219   -17413   -13931   -14453   -17368   -17363 
  -17526   -17922   -15251   -13516   -15564   -17417   -17747   -18234 
  -17495   -15337   -14745   -15657   -16270   -16934   -17458   -16954 
  -15718   -14938   -15521   -16656   -17763   -18439   -17074   -15068 
  -14539   -14644   -16168   -18414   -18155   -16781   -15754   -14624 
  -15692   -17863   -17960   -17528   -16796   -14815   -14021   -15160 
  -16602   -17526   -17742   -17515   -16848   -16371   -16867   -17036 
  -15922   -14908   -15101   -15349   -15187   -16330   -18172   -18609 
  -18066   -17337   -16526   -15750   -14940   -14695   -15021   -15533 
  -16477   -17195   -17621   -18068   -17691   -16817   -15806   -14519 
  -14200   -14691   -15141   -16401   -17390   -17166   -17686   -18253 
  -17427   -16728   -16093   -14902   -14643   -15529   -16066   -16568 
  -17942   -18188   -16608   -16214   -17369   -17377   -16441   -16286 
  -15734   -14325   -14340   -15952   -17193   -17332   -17536   -18073 
  -17080   -15774   -16265   -16124   -14946   -15030   -15779   -16426 
  -16923   -17466   -17790   -16502   -15895   -17253   -16871   -15192 
  -14888   -15182   -15639   -16408   -17449   -18050   -17042   -16425 
  -16984   -16068   -15288   -16318   -16208   -15470   -15791   -15880 
  -16996   -18916   -17966   -15932   -15794   -15255   -14293   -15278 
  -17281   -18447   -17585   -15960   -15772   -15803   -16637   -18542 
  -17763   -15826   -15264   -14349   -15201   -17695   -17392   -16896 
  -17724   -16058   -15029   -16713   -16945   -16644   -16759   -15602 
  -15265   -15715   -14918   -15611   -18548   -18879   -16525   -15707 
  -15743   -15759   -16959   -17516   -16779   -15538   -14024   -15198 
  -17867   -17918   -18098   -18069   -14852   -14340   -17157   -16657 
  -15705   -17039   -16441   -15550   -16468   -15791   -15145   -17086 
  -17798   -16568   -16276   -16209   -16070   -16272   -14477   -12617 
  -15961   -20488   -20184   -19542   -19314   -15443   -14282   -16024 
  -12324    -9671   -13232   -16257   -20116   -25135   -24928   -21073 
  -16321   -12328   -12498   -13635   -12225    -9061    -7765   -12822 
  -18542   -22021   -28549   -30263   -23443   -18156   -11931    -2971 
   -1909    -7777   -13357   -18089   -19538   -18757   -21994   -27903 
  -30820   -28533   -19922    -7703      374     1335    -2148    -9138 
  -17983   -25056   -30641   -36135   -35981   -24400    -6926     4549 
    3120    -7412   -16442   -18167   -15687   -16059   -23100   -31230 
  -31267   -22470   -11343    -4038    -4117   -10463   -15930   -14982 
  -12807   -16291   -23872   -31011   -31641   -22989   -10759    -1415 
   -1181   -10184   -16674   -17230   -19532   -22617   -23378   -23951 
  -22967   -18473   -10979    -3875    -5335   -13046   -14808   -14868 
  -20679   -23216   -22418   -25575   -24234   -14447    -7850    -6843 
   -7025   -12927   -19469   -17124   -16658   -20979   -20408   -22784 
  -27244   -18631    -6738    -7266   -12123   -14377   -18078   -19332 
  -15368   -13763   -17331   -22036   -23202   -19505   -15547   -13593 
  -12568   -13086   -13398   -12909   -15744   -19919   -20279   -19263 
  -17569   -14273   -14888   -18232   -17441   -15707   -16061   -13406 
  -10921   -16501   -22315   -19643   -17461   -18820   -14756   -11796 
  -16684   -17246   -14367   -17511   -17898   -14015   -15624   -18150 
  -15992   -15914   -19665   -19048   -13639   -11908   -14600   -16444 
  -18529   -21413   -18736   -13051   -13383   -16996   -18955   -18878 
  -15560   -12554   -12839   -15078   -19348   -20709   -17429   -16530 
  -16437   -16846   -21364   -19280   -10307    -8843   -10329   -10449 
  -17170   -22819   -22124   -23573   -23023   -16680   -12438   -11329 
  -12082   -15203   -13413    -7520   -11650   -23536   -29290   -27856 
  -21802   -13659    -9114    -9458   -12472   -14406   -14291   -15793 
  -16813   -15923   -19827   -24711   -20263   -13113   -12445   -13866 
  -14270   -14464   -14754   -17140   -18796   -18598   -19837   -18786 
  -16378   -17231   -16473   -14979   -15286   -12380   -11368   -17093 
  -21494   -21285   -19200   -16836   -15748   -14998   -15050   -15783 
  -11961    -7698   -11533   -19057   -27119   -33766   -27864   -12198 
   -2196    -1332    -9122   -22540   -26708   -17732   -11200   -12921 
  -16528   -20927   -23087   -18749   -13092   -11526   -12827   -13533 
  -13059   -14243   -15801   -16567   -21355   -25948   -22331   -17520 
  -14793    -9531    -9577   -16004   -16804   -14467   -15974   -17110 
  -18621   -23818   -25438   -20369   -15329   -10059    -3530    -4542 
  -13934   -21973   -26616   -28347   -23049   -14269    -8670    -6092 
   -9436   -19163   -24187   -21236   -17956   -15175   -11338   -10544 
  -14803   -19905   -22030   -22203   -20746   -16160   -11305    -9638 
   -9771   -11207   -15997   -21910   -23828   -21742   -19868   -19480 
  -17326   -11759    -8298   -11834   -14654   -10649   -11891   -21743 
  -25333   -24476   -25815   -18917    -8487    -8710   -11747   -12869 
  -18669   -20678   -12971    -8163   -12992   -22278   -29571   -28535 
  -19733   -11583    -7125    -5049    -8943   -16606   -17359   -14026 
  -19286   -28388   -28765   -22629   -14618    -6151    -5254   -12058 
  -16149   -17089   -18411   -17935   -17734   -20444   -22707   -21257 
  -15458    -9987    -9789   -11704   -13573   -16412   -18762   -20840 
  -21667   -18999   -16071   -14545   -11798   -10829   -15834   -20706 
  -19028   -16629   -18102   -17615   -14749   -15762   -17456   -15612 
  -16085   -18773   -18162   -17259   -16174   -11916   -10776   -15006 
  -18781   -21532   -21719   -17022   -14217   -15214   -14346   -13439 
  -14534   -15131   -16376   -18050   -18518   -19470   -18479   -14251 
  -13760   -17005   -17440   -16618   -16379   -14721   -13742   -15133 
  -16798   -17991   -19591   -20337   -18372   -15890   -15046   -13965 
  -12600   -12989   -14393   -16379   -19319   -20069   -18063   -18806 
  -20999   -17342   -11674   -11433   -12728   -12200   -14028   -18886 
  -21805   -20202   -18140   -18390   -16953   -14111   -13957   -14616 
  -15441   -16488   -14983   -14805   -17479   -17437   -17426   -19984 
  -19159   -16397   -15929   -14184   -12893   -15810   -16915   -14904 
  -15803   -18181   -18688   -18438   -17410   -16981   -17864   -15700 
  -12483   -13883   -15234   -13856   -15973   -20292   -19890   -16673 
  -16308   -17214   -16374   -15990   -15798   -13611   -13036   -15387 
  -16669   -17760   -19895   -19802   -18186   -17019   -14586   -12678 
  -14305   -15730   -14980   -16569   -19206   -18008   -16201   -17230 
  -18333   -17771   -16186   -14700   -14589   -14938   -14714   -15414 
  -17437   -18649   -18148   -17086   -15892   -15077   -15702   -16648 
  -16521   -15676   -14927   -15431   -17132   -18480   -18592   -16997 
  -14804   -14654   -15574   -16029   -17898   -18950   -16602   -15274 
  -15976   -15915   -16595   -17416   -16071   -14966   -15503   -16290 
  -17183   -17747   -17590   -17608   -17400   -16287   -15074   -14177 
  -14244   -15658   -16794   -17283   -18220   -18778   -17608   -15471 
  -14469   -14752   -15002   -16235   -18077   -17098   -14838   -15447 
  -17340   -18414   -19105   -17411   -14004   -13497   -15160   -16976 
  -19338   -18601   -14514   -13343   -14757   -15729   -18443   -20392 
  -17793   -15744   -16133   -14535   -13574   -16263   -17519   -15662 
  -14836   -16149   -17761   -18438   -18531   -18722   -17617   -14413 
  -12072   -12893   -15430   -17589   -18155   -17227   -16445   -17090 
  -18793   -19611   -18074   -15261   -12740   -11235   -12053   -15192 
  -18630   -21000   -20917   -18740   -17421   -16316   -13981   -13014 
  -13784   -14353   -15001   -16701   -19337   -20527   -18898   -17012 
  -16127   -15556   -15377   -14622   -13556   -14366   -16046   -16608 
  -17924   -20642   -20780   -17462   -14642   -13472   -13122   -14364 
  -16488   -17531   -16964   -16045   -16861   -18567   -18255   -16569 
  -15645   -15066   -14898   -16122   -17217   -16923   -16260   -15334 
  -14884   -16415   -18013   -18144   -18461   -18211   -15907   -14093 
  -14180   -14397   -14463   -15376   -17627   -19943   -19836   -18098 
