Origin Time       2019/06/18 07:22:00
Lat.              40.050
Long.             140.598
Depth. (km)       6
Mag.              3.9
Station Code      AKTH13
Station Lat.      39.9819
Station Long.     140.4072
Station Height(m) 45
Record Time       2019/06/18 07:22:10
Sampling Freq(Hz) 100Hz
Duration Time(s)  120
Dir.              2
Scale Factor      2940(gal)/6170270
Max. Acc. (gal)   2.197
Last Correction   2019/06/18 07:21:55
Memo.             
[...]
  105098   105100   105100   105098   105098   105099   105098   105097 
  105099   105100   105097   105100   105101   105097   105097   105098 
  105100   105101   105099   105098   105099   105099   105098   105098 
  105099   105100   105099   105098   105100   105103   105103   105103 
  105099   105095   105100   105102   105097   105098   105099   105097 
  105103   105104   105095   105093   105098   105099   105100   105099 
  105098   105101   105099   105098   105099   105098   105099   105099 
  105097   105098   105099   105099   105098   105099   105098   105098 
  105101   105100   105098   105097   105097   105099   105101   105099 
  105098   105099   105099   105099   105100   105098   105098   105099 
  105099   105098   105100   105100   105099   105099   105099   105098 
  105098   105099   105099   105099   105100   105098   105098   105099 
  105098   105097   105098   105100   105100   105100   105100   105099 
  105097   105099   105101   105098   105098   105100   105098   105097 
  105099   105099   105099   105100   105099   105098   105100   105098 
  105096   105098   105099   105097   105098   105100   105100   105099 
  105100   105099   105097   105098   105098   105097   105099   105101 
  105099   105098   105100   105099   105097   105099   105100   105098 
  105098   105100   105099   105099   105100   105098   105098   105101 
  105100   105099   105100   105099   105097   105098   105097   105098 
  105099   105100   105099   105097   105098   105099   105098   105098 
  105099   105100   105101   105099   105099   105101   105100   105099 
  105100   105100   105097   105098   105101   105101   105100   105100 
  105099   105098   105098   105101   105100   105098   105100   105102 
  105100   105098   105099   105099   105097   105099   105102   105100 
  105098   105099   105098   105099   105099   105097   105098   105099 
  105097   105099   105100   105097   105098   105099   105098   105098 
  105102   105103   105100   105096   105095   105099   105101   105096 
  105099   105102   105098   105100   105100   105098   105100   105099 
  105096   105098   105097   105097   105100   105101   105098   105099 
  105100   105097   105098   105100   105097   105098   105100   105099 
  105099   105098   105098   105099   105099   105098   105097   105096 
  105098   105100   105100   105099   105099   105100   105100   105098 
  105099   105100   105098   105097   105097   105097   105098   105099 
  105099   105099   105099   105099   105099   105099   105099   105098 
  105097   105100   105101   105098   105098   105101   105099   105097 
  105100   105100   105099   105101   105100   105099   105101   105098 
  105097   105098   105099   105099   105098   105097   105099   105100 
  105098   105101   105100   105097   105098   105099   105097   105099 
  105099   105096   105096   105098   105096   105096   105099   105100 
  105098   105098   105098   105098   105099   105100   105100   105100 
  105100   105099   105098   105100   105098   105096   105097   105097 
  105097   105098   105098   105098   105099   105099   105098   105098 
  105099   105098   105096   105098   105099   105097   105098   105099 
  105098   105098   105099   105099   105099   105100   105099   105098 
  105097   105097   105098   105099   105099   105098   105098   105097 
  105098   105098   105098   105099   105097   105096   105099   105101 
  105099   105099   105099   105098   105097   105096   105098   105098 
  105098   105100   105099   105096   105096   105098   105098   105098 
  105098   105097   105096   105097   105098   105099   105099   105099 
  105098   105099   105100   105099   105099   105099   105099   105099 
  105099   105100   105099   105099   105100   105099   105097   105099 
  105100   105098   105098   105101   105101   105098   105099   105100 
  105099   105099   105100   105099   105099   105099   105099   105098 
  105098   105101   105100   105098   105099   105098   105098   105100 
  105098   105096   105097   105099   105100   105100   105099   105098 
  105099   105101   105100   105098   105098   105099   105098   105097 
  105098   105100   105100   105098   105097   105098   105100   105098 
  105096   105098   105099   105098   105099   105100   105100   105099 
  105098   105098   105097   105098   105099   105098   105098   105098 
  105098   105099   105097   105097   105099   105099   105099   105100 
  105100   105099   105100   105097   105096   105101   105101   105098 
  105099   105098   105098   105098   105098   105098   105098   105098 
  105098   105097   105100   105100   105099   105099   105100   105100 
  105100   105098   105098   105099   105098   105098   105099   105101 
  105100   105099   105099   105099   105099   105100   105099   105098 
  105100   105100   105098   105098   105101   105101   105099   105099 
  105098   105098   105099   105100   105100   105100   105100   105100 
  105098   105098   105099   105098   105099   105101   105100   105099 
  105099   105097   105098   105100   105098   105096   105098   105097 
  105098   105101   105101   105100   105100   105099   105097   105096 
  105098   105101   105100   105099   105101   105099   105098   105100 
  105101   105101   105099   105098   105099   105097   105097   105103 
  105102   105097   105098   105100   105098   105098   105100   105099 
  105099   105100   105100   105100   105100   105098   105099   105100 
  105099   105099   105099   105099   105098   105098   105100   105100 
  105099   105098   105097   105098   105100   105098   105098   105100 
  105099   105098   105101   105099   105097   105100   105100   105099 
  105099   105099   105098   105099   105100   105099   105099   105098 
  105098   105099   105099   105099   105099   105098   105099   105099 
  105098   105097   105099   105099   105098   105097   105098   105099 
  105098   105098   105100   105101   105100   105098   105099   105100 
  105099   105099   105099   105098   105098   105098   105099   105100 
  105101   105100   105100   105100   105098   105098   105098   105099 
  105101   105101   105097   105096   105098   105099   105099   105098 
  105097   105098   105100   105099   105098   105099   105101   105100 
  105098   105098   105099   105099   105100   105099   105097   105100 
  105101   105098   105101   105101   105098   105099   105098   105098 
  105102   105101   105099   105100   105101   105100   105100   105101 
  105101   105098   105097   105099   105100   105099   105097   105096 
  105097   105099   105099   105098   105099   105100   105101   105098 
  105097   105102   105104   105096   105096   105101   105098   105096 
  105101   105100   105097   105100   105101   105099   105099   105099 
  105099   105100   105099   105100   105100   105098   105098   105100 
  105101   105100   105097   105098   105102   105100   105099   105101 
  105099   105099   105100   105098   105098   105098   105097   105099 
  105100   105098   105099   105100   105099   105098   105100   105102 
  105098   105098   105099   105098   105099   105100   105099   105100 
  105100   105100   105101   105099   105098   105099   105099   105099 
  105101   105099   105097   105099   105099   105098   105099   105100 
  105098   105097   105098   105099   105099   105099   105098   105098 
  105100   105100   105098   105099   105101   105100   105098   105100 
  105101   105099   105098   105099   105101   105101   105097   105097 
  105101   105100   105099   105101   105100   105097   105098   105099 
  105098   105099   105101   105100   105100   105100   105099   105098 
  105098   105098   105095   105095   105099   105099   105099   105100 
  105100   105099   105101   105102   105102   105101   105100   105099 
  105100   105102   105099   105098   105101   105100   105097   105100 
  105102   105099   105099   105101   105101   105100   105099   105099 
  105099   105098   105099   105100   105099   105099   105099   105098 
  105100   105101   105098   105096   105099   105100   105100   105100 
  105101   105100   105099   105100   105099   105098   105099   105099 
  105099   105100   105099   105098   105099   105099   105099   105099 
  105098   105097   105098   105100   105100   105101   105100   105099 
  105099   105100   105099   105097   105097   105098   105099   105099 
  105099   105099   105097   105097   105099   105099   105097   105098 
  105099   105098   105098   105101   105101   105099   105100   105101 
  105100   105099   105098   105096   105097   105100   105100   105099 
  105100   105099   105098   105100   105101   105099   105099   105100 
  105099   105099   105100   105099   105099   105100   105100   105099 
  105099   105099   105099   105101   105102   105100   105099   105099 
  105099   105099   105099   105099   105099   105100   105102   105102 
  105099   105098   105099   105099   105099   105100   105101   105099 
  105097   105099   105099   105099   105101   105099   105097   105099 
  105099   105099   105102   105099   105097   105097   105098   105101 
  105101   105098   105099   105101   105099   105098   105108   105149 
  105234   105322   105351   105342   105306   105164   104986   104980 
  105128   105237   105219   105085   104931   104929   105159   105450 
  105588   105331   104512   103903   104333   105097   105420   105529 
  105435   104975   104674   105000   105290   105071   104964   105078 
  104980   104819   104916   105095   105187   105430   105502   104990 
  104622   104904   105223   105199   105142   105123   105060   105088 
  105143   105174   105222   105262   105271   105044   104852   105091 
  105250   105058   104974   105051   105030   104987   105035   105131 
  105208   105186   105064   104901   104911   105111   105157   105128 
  105275   105446   105390   105115   104899   104794   104865   105236 
  105564   105643   105448   105031   104845   105012   105232   105256 
  105048   105015   105270   105320   105098   105032   105189   105235 
  105112   105079   105084   104840   104594   104824   105282   105403 
  105184   104881   104713   104830   105033   104983   104797   104874 
  105091   105145   105153   105123   105088   105221   105274   105078 
  104894   104933   105195   105432   105493   105353   104932   104660 
  104897   105196   105179   105022   105111   105421   105418   105045 
  104849   104959   105138   105347   105422   105327   105191   104926 
  104729   104750   105059   105691   105770   105075   104669   104586 
  104449   104878   105543   105402   105052   105129   105116   104963 
  104939   105042   105123   105028   104983   105079   105143   105229 
  105145   104861   104978   105276   105084   104963   105192   105200 
  105058   104923   104855   105048   105286   105283   105087   104859 
  104756   104979   105251   105348   105517   105453   105125   105056 
  105175   105243   105247   105230   105208   105205   105222   105114 
  104992   105216   105557   105284   104627   104599   104964   104919 
  104872   105092   105112   104976   105110   105333   105135   104984 
  105223   105192   104964   104900   104921   105167   105387   105362 
  105350   105298   105199   105014   104720   104967   105767   106570 
  107310   106947   104840   103002   103081   104023   103657   102583 
  104186   107178   107630   106034   103764   102777   103956   104615 
  105296   105984   105280   105785   105596   104125   105464   106340 
  105547   105291   104595   105524   106841   105101   102835   103041 
  105907   107856   106526   105103   104265   103492   103917   104349 
  104897   105592   105854   107026   107562   105978   103844   102484 
  103387   105826   106308   104387   103088   104240   106463   107063 
  105821   104479   104307   105520   105888   104712   104572   104763 
  104143   105193   106731   105850   104907   104530   103718   105094 
  107106   106319   104267   103214   103577   104702   106369   106888 
  105146   104190   104693   105005   105697   106119   104692   103393 
  104759   106527   106241   104880   104131   105664   107292   105738 
  104006   103888   103646   104819   106718   106196   104667   104239 
  104654   105220   106230   106684   104599   103894   106400   106665 
  105063   104074   102785   103710   105828   105197   103980   104044 
  104975   105463   103698   103262   106105   107558   107239   106852 
  104485   103394   105865   105514   103750   105768   105991   104285 
  105543   105378   103695   105185   106281   104540   104105   105563 
  104900   103011   103777   105197   105268   105555   105098   103879 
  104877   107051   106656   105315   106253   106494   104105   103211 
  104631   105637   106651   106846   104903   104347   105180   103798 
  102783   104929   106988   105891   103824   104253   106007   106597 
  105881   104062   102471   103343   105977   106921   105084   103698 
  104694   105856   105611   104646   104777   106724   107272   105234 
  103969   104330   105355   106426   105756   104416   104611   104923 
  105153   106142   105751   103875   103802   104915   104760   105095 
  106233   106077   104803   103891   104617   105717   105464   104904 
  104866   105446   106554   106483   104509   103412   104893   106066 
  104754   103441   104303   106152   106865   105285   103222   102576 
  103864   107188   107168   102724   103035   106983   107202   106930 
  105911   102246   103386   107573   106550   103111   103001   106608 
  108568   106929   105752   102940   100488   104470   107274   105097 
  105681   107695   105616   102566   102205   102838   104639   108225 
  108350   105063   105223   106448   104119   102479   103674   105082 
  106500   107789   106607   104216   104180   104201   102785   103954 
  106780   107044   105391   104404   104345   104481   105221   105444 
  103805   103190   105116   106407   106208   106260   105679   104061 
  103504   104496   105497   105575   105479   105718   105660   104753 
  103348   103322   104988   106437   106785   105893   105026   105611 
  105781   104234   102977   103495   105795   107759   106263   103598 
  103593   104775   105483   105928   105643   105137   105399   105278 
  103861   103402   105362   107321   107216   106147   105147   104368 
  104840   105476   104729   104247   104277   104853   106537   106364 
  104450   103995   104142   104025   104442   105371   106087   105689 
  105278   105381   104680   104126   104360   104960   106316   106200 
  104332   104429   105601   104822   103810   104735   105810   105870 
  106239   105568   103747   104209   105325   104686   105157   106652 
  106713   106123   105203   104080   104251   104778   104734   105410 
  106266   106129   105599   105262   104865   104336   104391   104858 
  105091   105728   105925   104666   104284   104968   104660   104434 
  104764   104905   105164   104957   104720   105653   106368   105433 
  104024   103768   104917   106165   105752   104272   103998   105264 
  106145   105263   104173   104414   104808   105075   105512   105294 
  105198   105744   105486   104505   104434   105241   105534   105253 
  105077   104852   104931   105510   105347   104657   104915   105905 
  106425   105544   104232   104248   104834   105282   105790   105589 
  105362   105723   105268   104324   104237   104672   105136   105596 
  105677   105004   104413   104943   105623   105294   104652   104468 
  104660   105189   105533   104892   104246   105096   106090   105468 
  104666   104969   105564   105682   105011   104523   105222   105935 
  105539   104388   103937   105181   105959   104754   104015   104955 
  105873   105619   104534   104126   105038   105787   105482   104807 
  104695   105399   105681   104852   104274   104548   105120   105789 
  105724   104960   104872   104886   104374   104582   105433   105795 
  105663   105383   105014   104923   105353   105546   105034   104534 
  104597   105231   106078   106276   105565   104645   104281   104763 
  105329   105213   105142   105604   105834   105404   104659   104483 
  105217   105716   105147   104310   104520   105544   105738   104814 
  104150   104619   105557   105858   105354   104529   104324   104932 
  105148   104939   105164   105504   105473   105160   104964   105117 
  105275   105203   105070   105200   105594   105548   104840   104435 
  104924   105660   105716   104895   104211   104721   105787   105978 
  105089   104277   104328   104856   105256   105164   104809   104925 
  105313   105218   105044   105116   104971   105058   105296   104713 
  104267   104962   105702   105710   105319   105019   105029   104905 
  104515   104556   105214   105861   105604   104566   104473   105452 
  105673   104943   104417   104796   105532   105387   104828   105069 
  105861   106184   105318   104046   104016   105058   105723   105405 
  104714   104829   105947   106574   105469   103894   103971   105350 
  106113   105482   104357   104328   105412   105779   104876   104309 
  104959   105744   105593   104792   104412   104978   105720   105547 
  104648   104567   105574   105925   105246   104604   104445   105040 
  105736   105429   104775   104751   105231   105613   105262   104641 
  104597   105032   105502   105417   105024   105102   105200   105088 
  105178   105133   104882   105022   105315   105119   104890   105057 
  105297   105379   105037   104552   104589   105000   105279   105291 
  105208   105161   105193   105161   104875   104664   104705   104887 
  105274   105338   105010   105103   105275   105031   104737   104563 
  104890   105666   105885   105310   104765   104682   104865   105158 
  105294   105217   105220   105265   105340   105334   105001   104825 
  105152   105407   105286   105224   105249   105144   105120   104964 
  104725   104990   105417   105586   105398   104981   105018   105245 
  104931   104615   104881   105235   105203   104996   104909   104954 
  105085   105127   104813   104589   104911   105153   105045   105046 
  105096   105098   105071   104782   104548   104874   105395   105489 
  105261   105122   105201   105354   105242   104926   104939   105327 
  105598   105364   104963   105169   105591   105393   105072   105212 
  105432   105341   105156   105150   105245   105334   105110   104547 
  104503   105143   105378   105093   105083   105128   105001   105025 
  104968   104950   105301   105395   104982   104763   105140   105431 
  104858   104555   105439   105863   105051   104446   104724   105292 
  105439   104926   104510   104930   105461   105209   104649   104644 
  105231   105557   105167   104773   104887   105177   105150   104802 
  104864   105403   105369   104733   104553   105045   105661   105809 
  105096   104334   104663   105364   105300   104997   105143   105482 
  105579   105139   104528   104640   105257   105412   105239   105247 
  105235   105131   104991   104770   104902   105385   105504   105299 
  105227   105222   105211   105181   105055   104948   104876   104862 
  105087   105319   105224   105070   105054   105050   105089   104923 
  104667   104987   105389   105248   105134   105188   105083   105057 
  105153   105127   105081   105019   105062   105486   105693   105230 
  104715   104720   105152   105379   105161   105016   105229   105389 
