Origin Time       2019/06/18 07:22:00
Lat.              40.050
Long.             140.598
Depth. (km)       6
Mag.              3.9
Station Code      AKTH13
Station Lat.      39.9819
Station Long.     140.4072
Station Height(m) 145
Record Time       2019/06/18 07:22:10
Sampling Freq(Hz) 100Hz
Duration Time(s)  120
Dir.              5
Scale Factor      3920(gal)/6170801
Max. Acc. (gal)   17.840
Last Correction   2019/06/18 07:21:55
Memo.             
[...]
   16357    16359    16359    16359    16360    16363    16362    16360 
   16358    16356    16356    16357    16358    16358    16356    16356 
   16361    16362    16361    16361    16357    16357    16359    16356 
   16353    16356    16358    16360    16360    16360    16360    16360 
   16360    16359    16356    16355    16356    16359    16359    16359 
   16362    16364    16364    16362    16358    16357    16356    16358 
   16360    16358    16357    16360    16361    16362    16362    16360 
   16360    16362    16360    16357    16357    16357    16356    16358 
   16362    16363    16361    16361    16362    16359    16358    16358 
   16357    16358    16360    16357    16356    16359    16361    16360 
   16360    16361    16361    16358    16357    16357    16357    16356 
   16357    16359    16359    16360    16363    16363    16361    16359 
   16355    16353    16355    16356    16357    16360    16362    16360 
   16360    16361    16361    16358    16356    16357    16357    16356 
   16359    16361    16361    16362    16361    16362    16362    16357 
   16355    16356    16357    16357    16357    16359    16363    16364 
   16364    16361    16358    16356    16357    16356    16355    16354 
   16356    16359    16363    16364    16361    16360    16359    16357 
   16357    16355    16352    16354    16359    16361    16361    16361 
   16361    16361    16361    16358    16356    16355    16354    16355 
   16358    16360    16360    16360    16361    16360    16360    16361 
   16358    16356    16357    16356    16355    16359    16360    16360 
   16362    16363    16361    16359    16358    16356    16354    16354 
   16355    16356    16359    16362    16361    16360    16362    16361 
   16356    16356    16356    16356    16356    16358    16359    16361 
   16362    16361    16360    16360    16360    16359    16356    16355 
   16358    16359    16358    16359    16360    16359    16361    16363 
   16359    16356    16356    16354    16356    16359    16358    16359 
   16362    16364    16361    16358    16359    16358    16356    16356 
   16356    16355    16358    16360    16360    16360    16361    16361 
   16360    16360    16357    16356    16357    16359    16359    16359 
   16360    16360    16360    16362    16361    16357    16355    16355 
   16357    16358    16356    16358    16362    16361    16360    16360 
   16360    16360    16358    16356    16357    16356    16356    16360 
   16361    16359    16359    16361    16360    16359    16358    16356 
   16355    16357    16359    16357    16358    16361    16361    16360 
   16359    16357    16357    16358    16359    16359    16358    16357 
   16356    16359    16363    16363    16361    16360    16359    16358 
   16359    16358    16355    16355    16359    16361    16361    16362 
   16362    16361    16361    16358    16355    16354    16354    16356 
   16360    16359    16359    16361    16361    16360    16360    16358 
   16356    16356    16357    16356    16356    16358    16360    16363 
   16362    16361    16362    16361    16358    16357    16357    16356 
   16356    16359    16361    16361    16360    16360    16359    16359 
   16360    16357    16356    16358    16359    16359    16358    16358 
   16360    16362    16362    16361    16360    16356    16355    16356 
   16356    16357    16359    16359    16360    16361    16360    16361 
   16360    16354    16354    16359    16358    16356    16358    16360 
   16359    16361    16362    16360    16359    16359    16358    16355 
   16355    16356    16357    16359    16360    16361    16360    16360 
   16358    16355    16354    16356    16357    16357    16359    16361 
   16360    16359    16358    16359    16358    16357    16357    16357 
   16356    16356    16359    16361    16361    16361    16361    16360 
   16358    16358    16358    16355    16355    16358    16357    16356 
   16359    16362    16362    16361    16361    16359    16357    16356 
   16358    16359    16359    16361    16362    16361    16361    16361 
   16360    16359    16358    16358    16357    16359    16360    16358 
   16359    16362    16361    16360    16361    16360    16357    16357 
   16358    16358    16360    16358    16358    16359    16361    16363 
   16363    16360    16358    16355    16355    16356    16356    16358 
   16359    16359    16361    16361    16360    16360    16360    16359 
   16357    16355    16356    16359    16360    16362    16361    16358 
   16358    16360    16360    16358    16358    16356    16354    16356 
   16359    16359    16360    16361    16362    16362    16360    16357 
   16355    16356    16356    16355    16357    16360    16360    16358 
   16358    16360    16361    16359    16356    16357    16359    16359 
   16359    16357    16357    16360    16360    16359    16359    16358 
   16359    16358    16356    16356    16359    16359    16357    16357 
   16358    16360    16360    16359    16359    16358    16357    16357 
   16357    16355    16356    16359    16360    16360    16361    16361 
   16360    16358    16355    16356    16357    16357    16358    16360 
   16361    16360    16359    16360    16360    16358    16357    16357 
   16357    16359    16360    16359    16360    16363    16362    16361 
   16359    16357    16357    16357    16356    16356    16358    16360 
   16360    16361    16361    16359    16358    16360    16360    16355 
   16355    16355    16356    16359    16361    16361    16361    16360 
   16360    16360    16357    16355    16356    16357    16356    16355 
   16358    16362    16362    16361    16359    16359    16360    16359 
   16355    16355    16357    16357    16358    16361    16359    16360 
   16363    16361    16358    16358    16356    16354    16355    16356 
   16359    16361    16362    16362    16361    16359    16357    16357 
   16357    16357    16357    16359    16360    16359    16360    16361 
   16360    16359    16360    16360    16359    16359    16357    16356 
   16357    16359    16361    16360    16361    16363    16361    16357 
   16356    16355    16355    16359    16359    16358    16360    16362 
   16361    16359    16359    16359    16359    16357    16357    16357 
   16356    16358    16360    16361    16361    16360    16358    16358 
   16359    16356    16356    16357    16358    16359    16359    16359 
   16361    16361    16357    16357    16357    16355    16356    16358 
   16359    16358    16359    16360    16358    16359    16360    16359 
   16358    16359    16357    16355    16356    16358    16360    16361 
   16361    16361    16360    16358    16358    16356    16356    16358 
   16357    16358    16359    16359    16360    16361    16359    16359 
   16360    16359    16357    16356    16355    16358    16360    16358 
   16359    16362    16361    16361    16360    16358    16356    16356 
   16358    16357    16356    16358    16360    16362    16361    16360 
   16358    16357    16358    16357    16357    16358    16357    16356 
   16359    16361    16360    16358    16358    16358    16355    16354 
   16355    16355    16357    16359    16359    16358    16357    16358 
   16359    16359    16357    16355    16357    16357    16355    16357 
   16359    16360    16360    16358    16359    16360    16359    16358 
   16359    16356    16357    16361    16361    16360    16361    16359 
   16357    16359    16361    16358    16354    16355    16356    16358 
   16361    16363    16362    16360    16359    16358    16356    16355 
   16356    16355    16356    16358    16359    16360    16360    16361 
   16361    16359    16358    16359    16357    16357    16357    16358 
   16358    16358    16359    16360    16361    16362    16359    16356 
   16356    16355    16355    16357    16358    16358    16361    16360 
   16358    16360    16361    16358    16359    16360    16358    16356 
   16358    16359    16358    16360    16361    16360    16361    16362 
   16357    16356    16358    16356    16355    16359    16362    16361 
   16360    16359    16358    16358    16358    16356    16353    16354 
   16356    16359    16361    16361    16361    16360    16357    16355 
   16358    16357    16355    16355    16357    16358    16359    16360 
   16360    16360    16360    16358    16358    16356    16355    16354 
   16355    16357    16358    16364    16395    16477    16606    16742 
   16889    17050    17066    16814    16464    16082    15530    14974 
   14721    14834    15326    16176    17152    17999    18541    18388 
   17519    16756    15898    14237    13172    13668    14620    15811 
   17613    19251    19737    19270    18179    15893    13771    13403 
   13422    13797    15704    17890    18971    19083    18695    17574 
   15834    14749    14381    14354    15153    16033    16637    17702 
   18162    17267    16406    16119    15946    15824    15852    16049 
   16214    16518    16977    17021    16632    16089    15768    16006 
   16331    16541    16843    16741    16208    15945    15961    16080 
   16339    16786    17239    17072    16684    16328    15499    15299 
   16137    16870    17223    17135    16904    16732    16042    15217 
   14857    14951    15624    16714    18050    19078    18673    17045 
   15376    14208    13564    13410    13986    15599    17747    19328 
   20001    19830    18371    15905    13840    12737    12342    13148 
   15253    17905    20321    21315    20458    18611    16542    14422 
   12259    11162    12386    14860    16898    18543    19667    19487 
   18563    17491    15954    14295    13480    14303    16014    16978 
   17487    17906    17584    17237    16848    15568    14683    15177 
   16167    16541    16428    17138    17874    17043    16051    15819 
   15368    15025    15250    15681    16262    16949    17736    18161 
   17846    17075    15846    14859    14594    14300    14506    15853 
   17147    17372    17480    18760    19526    18158    16549    15641 
   14506    13466    13319    14105    15543    17365    18900    19579 
   19022    17263    15630    14664    14185    14670    15868    17288 
   18286    17972    16855    16011    15407    15057    15721    16546 
   16399    16640    17817    18202    16789    15091    14959    15064 
   14407    14601    15767    17233    18665    19162    18600    17406 
   16195    15140    13983    13810    14798    15780    17121    18626 
   18811    17811    16685    15683    15117    15758    17382    18823 
   19774    20358    20052    18204    14124     8443     4388     4066 
    5599     8643    16150    26309    34125    37239    34158    26416 
   16347     4902    -3991    -8182    -6579     3628    18979    32787 
   41655    43027    36182    24691    13447     4239    -3510    -8145 
   -5220     5149    16546    26833    36360    39984    36236    28854 
   18906     7687    -1842    -5287    -1130     5674    13743    22887 
   29047    32735    32475    23559    11632     5571     5863     9521 
   14620    18683    19916    20787    21491    16839     9861     9581 
   15386    21007    23541    22463    19121    15511    11191     7959 
   10419    15722    17250    17964    23382    25936    18804    11035 
    7964     6351     8715    17005    25813    29491    28322    24044 
   16943    10128     4733      989     3333    10763    18512    25704 
   31190    32285    26226    17086    12094     7587     1260      539 
    7776    17711    25221    29856    31347    27265    21020    15846 
    9785     4225     1502     2934     9408    17220    21857    23007 
   25360    28634    24557    16785    14326    13515    11170     9695 
   10506    13420    16505    19485    22375    23428    21482    16296 
   10693     8873    10037    11868    16074    21116    21708    20134 
   19691    16087    10719    10754    14374    16451    18161    20537 
   21603    21724    20049    14338    10782    13010    12891    10838 
   14358    18613    18454    18802    20463    19965    18909    18153 
   15639    13163    13733    13311     9082    11052    21074    24383 
   20339    18793    17140    13227    11251    11319    11458    12882 
   18298    24026    25795    26997    24304    13717     6392     6188 
    4779     5293    13636    24180    30417    30875    26662    20679 
   15567    10622     3827      -14     3788    10025    16556    25980 
   32857    31633    26196    21020    15307     8386     3103     2495 
    5815    11297    17658    22360    26150    28876    26048    20473 
   15659     8930     5072     7511    10865    14650    18834    21186 
   23200    24805    23342    17709    11987    11308    12923    13260 
   14667    16848    17550    18817    19302    13995     8206    12625 
   22014    23520    20866    19194    13948    11335    15371    16274 
   14625    16346    17568    15243    12554    12545    12848    14367 
   21329    25040    20865    21537    26478    20306     6408      710 
    2316     5946    15692    25424    27880    29834    31832    26130 
   14396     5575      333    -4495     -977    12237    24197    34310 
   41145    35860    22414     8388    -4714    -8734     1350    15162 
   24842    32492    36130    30001    16490     5221     1189     3261 
    9921    17379    23275    28669    28628    18792     7581     5138 
    9979    15813    21257    26237    27757    23290    13335     2269 
   -2649     1302    10842    23067    34643    40693    37586    26522 
   12663    -1823   -11728    -8262     5404    19863    30897    35678 
   34781    31438    24737    13629     2655    -2219    -1239     1948 
    8149    17349    26183    33506    36077    31333    22757    12466 
    3542      193     1147     6489    15492    22654    27727    30117 
   24988    15919    10612    10808    13727    16040    18169    19359 
   15907    10657     9491    13479    19716    22197    20395    21556 
   24738    21102    12459     8449     8910     8117     8247    13689 
   21309    25912    27011    24636    19123    13796    10128     8413 
   10061    12812    12939    12778    17805    26547    30455    25971 
   18876    13648     8182     2612     2476     9177    17810    24413 
   28155    29215    26525    19128     9930     3818     2706     5745 
   12404    20393    25528    26799    24575    19546    15512    13455 
   11008    10731    14847    18251    17622    15935    15253    15606 
   16975    18219    18825    20031    21239    18907    13556    10383 
   10031    10493    12493    15984    20173    24395    25933    22814 
   17829    14316    11055     7490     6869    10284    15229    19613 
   22687    23670    22176    19304    16898    15842    14971    13330 
   12392    13146    13994    13554    13608    16171    19657    22047 
   23179    22967    20568    15417     9799     7026     7517    10398 
   15092    19920    23448    25966    25770    20244    12995     9520 
    8695     8060     9750    14882    20212    23633    25203    23603 
   19249    15480    13059    11150    10543    10578    10900    14190 
   19166    21355    22096    23468    22658    19100    15505    12294 
    9048     7974    10406    13778    17425    22874    26516    24723 
   20831    17668    13768     9607     7792     8910    12311    16974 
   21023    23101    23094    21296    17748    13849    11837    11164 
   11573    14988    19273    19735    17161    15971    16180    14989 
   13769    14914    17290    19220    20066    19321    17142    14807 
   12956    11741    12586    15612    18849    21226    22427    21124 
   16941    12974    11516    11234    11968    14866    18464    20535 
   21099    20856    19058    15647    12424    10380    10359    13308 
   17443    20301    21495    21286    19437    15812    12087    10549 
   11029    13047    16983    21015    22585    21572    19414    16717 
   13056     9758     9527    12061    15351    19387    22982    23560 
   21512    17940    13745    11110     9979     9732    12520    18149 
   22443    23096    21430    19131    16736    14305    12372    11696 
   12213    13903    16385    18004    18701    19779    20457    19286 
   16829    15009    14974    15448    14543    13127    13329    15151 
   17198    18814    19842    19431    17547    16109    15457    14092 
   12824    13383    15486    17499    17835    17736    19392    20842 
   19219    15528    12766    12189    12517    13226    15607    19117 
   20989    20122    17980    15997    14501    13774    14427    16027 
   17003    17005    17366    18026    17054    14660    13558    15073 
   17516    18566    18503    18281    16864    14263    12661    12994 
   14325    16206    18839    21284    21388    18819    15974    13887 
   11993    11181    12095    14246    17100    19698    21441    21806 
   20087    16924    13691    11999    12329    12946    13666    15787 
   18605    20540    20791    19720    18250    16632    14992    13416 
   12067    12053    13542    15505    18078    20685    21494    20891 
   19863    17561    13896    10542     9398    11066    14327    17676 
   20388    22342    22968    21233    17500    13622    11301    10416 
   10343    12212    16008    19243    20769    21409    20926    18726 
   16467    15204    13723    12293    12190    12903    14050    16130 
   18707    20847    21424    19869    17705    16207    14863    13300 
   11949    12002    14054    16826    19382    21456    21917    20276 
   17444    14617    12742    12332    13174    14339    15798    17642 
   18362    17932    18055    18377    17345    15658    15145    15062 
   14608    15381    16701    16349    15571    16263    17515    18025 
   17743    16855    15797    15351    15525    15894    16464    16894 
   16484    15865    16290    16670    15885    15728    16803    17337 
   16825    16135    15903    15768    15406    15302    15222    15428 
   17106    18968    18856    17456    15936    14420    13985    15038 
   16043    16703    17814    18647    18357    17090    15184    13330 
   12464    13492    16014    18477    20526    21456    20094    17461 
   14531    11717    10736    12258    15276    18634    20980    21410 
   19993    17707    15552    13415    11635    11685    13963    17184 
   19643    20474    19860    18429    16848    15249    13593    12718 
   13538    15259    16294    16553    16902    17796    18914    18958 
   17502    16051    15558    15285    14660    14363    14741    15533 
   17178    18933    19036    17946    17042    16426    15721    15039 
   14782    14976    15559    16163    16223    16265    16806    17368 
   17814    18280    18316    17354    15657    14055    13002    12920 
   14272    16424    18194    19313    19623    18656    17018    15525 
   14282    13934    14922    16339    17162    17321    17092    16522 
   15793    15112    15008    15981    17222    18078    18425    17760 
   16252    14714    14216    14900    15371    15478    16117    17242 
   18417    18863    18350    17609    16526    14648    12609    11855 
   13180    15654    18311    20881    22311    21372    18149    14269 
   11506    10302    10745    13363    17681    21490    22836    22022 
   19894    16578    13227    11461    11659    13239    15287    17066 
   18314    18959    18685    17671    17014    16881    16410    15720 
