Origin Time       2013/10/26 02:10:00
Lat.              37.195
Long.             144.568
Depth. (km)       56
Mag.              7.1
Station Code      GIFH25
Station Lat.      35.5214
Station Long.     136.6127
Station Height(m) 75
Record Time       2013/10/26 02:12:03
Sampling Freq(Hz) 100Hz
Duration Time(s)  131
Dir.              6
Scale Factor      3920(gal)/6170801
Max. Acc. (gal)   0.374
Last Correction   2013/10/26 02:11:48
Memo.             
[...]
  -32004   -32001   -32004   -32008   -32007   -32005   -32002   -32001 
  -32004   -32005   -32005   -32005   -32004   -32005   -32006   -32006 
  -32004   -32002   -32003   -32004   -32003   -32004   -32006   -32006 
  -32006   -32005   -32004   -32005   -32004   -32003   -32003   -32005 
  -32007   -32006   -32003   -32003   -32005   -32003   -32003   -32006 
  -32005   -32002   -32004   -32006   -32005   -32005   -32003   -32003 
  -32003   -32004   -32005   -32006   -32004   -32004   -32004   -32003 
  -32004   -32006   -32003   -32002   -32006   -32009   -32005   -32003 
  -32004   -32005   -32004   -32006   -32006   -32003   -32003   -32006 
  -32004   -32003   -32005   -32005   -32003   -32004   -32004   -32003 
  -32002   -32003   -32006   -32005   -32004   -32004   -32004   -32003 
  -32002   -32004   -32006   -32004   -32002   -32002   -32001   -32003 
  -32007   -32006   -32004   -32003   -32001   -32002   -32004   -32003 
  -32003   -32004   -32004   -32005   -32004   -32002   -32004   -32005 
  -32003   -32004   -32005   -32005   -32007   -32006   -32002   -32004 
  -32006   -32004   -32003   -32002   -32002   -32004   -32005   -32003 
  -32003   -32005   -32004   -32003   -32004   -32005   -32007   -32008 
  -32004   -32003   -32005   -32004   -32004   -32006   -32005   -32003 
  -32002   -32003   -32005   -32004   -32002   -32005   -32006   -32004 
  -32005   -32004   -32003   -32004   -32002   -32000   -32001   -32005 
  -32006   -32002   -32003   -32005   -32001   -31999   -32003   -32003 
  -32002   -32006   -32007   -32003   -32003   -32004   -32001   -32001 
  -32006   -32008   -32003   -32002   -32006   -32005   -32002   -32003 
  -32007   -32006   -32003   -32003   -32005   -32004   -32003   -32002 
  -32004   -32005   -32005   -32005   -32004   -32002   -32004   -32006 
  -32004   -32003   -32003   -32003   -32004   -32004   -32003   -32003 
  -32005   -32005   -32005   -32003   -32002   -32003   -32003   -32005 
  -32004   -32002   -32005   -32005   -32001   -32002   -32006   -32006 
  -32005   -32002   -32000   -32003   -32005   -32004   -32004   -32003 
  -32003   -32007   -32006   -32002   -32003   -32005   -32005   -32005 
  -32004   -32005   -32006   -32007   -32006   -32004   -32004   -32008 
  -32007   -32004   -32003   -32004   -32005   -32006   -32004   -32003 
  -32005   -32006   -32005   -32005   -32004   -32006   -32006   -32004 
  -32003   -32004   -32004   -32005   -32007   -32006   -32005   -32006 
  -32005   -32004   -32006   -32007   -32005   -32004   -32007   -32007 
  -32004   -32004   -32007   -32005   -32002   -32004   -32006   -32004 
  -32004   -32006   -32007   -32006   -32006   -32005   -32002   -32002 
  -32005   -32004   -32004   -32006   -32004   -32003   -32005   -32005 
  -32005   -32006   -32006   -32006   -32006   -32004   -32004   -32008 
  -32007   -32003   -32002   -32003   -32006   -32006   -32003   -32005 
  -32008   -32006   -32005   -32006   -32006   -32005   -32004   -32005 
  -32005   -32004   -32003   -32005   -32005   -32005   -32006   -32005 
  -32004   -32003   -32003   -32005   -32007   -32006   -32004   -32005 
  -32004   -32005   -32007   -32006   -32006   -32006   -32004   -32003 
  -32005   -32005   -32003   -32002   -32004   -32006   -32006   -32006 
  -32004   -32003   -32004   -32004   -32003   -32004   -32005   -32006 
  -32006   -32004   -32004   -32006   -32007   -32006   -32006   -32005 
  -32004   -32002   -32002   -32006   -32007   -32003   -32002   -32006 
  -32007   -32006   -32005   -32005   -32004   -32004   -32004   -32005 
  -32005   -32005   -32006   -32005   -32002   -32003   -32004   -32004 
  -32006   -32006   -32004   -32005   -32007   -32005   -32004   -32004 
  -32002   -32003   -32003   -32002   -32005   -32007   -32003   -32002 
  -32005   -32005   -32001   -32003   -32004   -32001   -32002   -32006 
  -32006   -32004   -32003   -32001   -32002   -32004   -32005   -32006 
  -32003   -32001   -32002   -32004   -32005   -32006   -32006   -32004 
  -32003   -32004   -32004   -32003   -32004   -32003   -32001   -32004 
  -32008   -32007   -32005   -32005   -32003   -32002   -32004   -32004 
  -32002   -32004   -32006   -32005   -32004   -32002   -32002   -32006 
  -32005   -32002   -32005   -32006   -32007   -32008   -32006   -32003 
  -32003   -32005   -32004   -32002   -32003   -32006   -32007   -32004 
  -32003   -32003   -32002   -32005   -32006   -32004   -32006   -32006 
  -32006   -32006   -32003   -32003   -32006   -32004   -32003   -32007 
  -32005   -32005   -32007   -32003   -32000   -32005   -32007   -32005 
  -32004   -32002   -32002   -32003   -32002   -32002   -32004   -32007 
  -32006   -32004   -32003   -32006   -32006   -32003   -32004   -32004 
  -32003   -32003   -32003   -32005   -32006   -32004   -32001   -32001 
  -32004   -32006   -32005   -32004   -32005   -32003   -32002   -32004 
  -32004   -32003   -32003   -32002   -32004   -32004   -32003   -32003 
  -32002   -32001   -32001   -32002   -32001   -31999   -32001   -32001 
  -31998   -31997   -31997   -31999   -32000   -31996   -31996   -31999 
  -31997   -31996   -31999   -31998   -31994   -31996   -31999   -31995 
  -31991   -31991   -31991   -31991   -31992   -31993   -31995   -31996 
  -31993   -31992   -31994   -31996   -31995   -31995   -31996   -31995 
  -31995   -31998   -31997   -31994   -31996   -31996   -31993   -31996 
  -31999   -31997   -31999   -32002   -32001   -32001   -32001   -32000 
  -32001   -32001   -31999   -32000   -32000   -32000   -32004   -32005 
  -32003   -32005   -32009   -32009   -32006   -32005   -32006   -32005 
  -32002   -31996   -31993   -31992   -31992   -31993   -31995   -31995 
  -31997   -32001   -32003   -32003   -32006   -32009   -32007   -32002 
  -31998   -31998   -31996   -31989   -31984   -31984   -31984   -31985 
  -31988   -31990   -31993   -31997   -32000   -32003   -32004   -32006 
  -32010   -32012   -32011   -32007   -32002   -31997   -31991   -31985 
  -31980   -31979   -31983   -31988   -31998   -32011   -32022   -32028 
  -32027   -32020   -32012   -32004   -31996   -31990   -31983   -31983 
  -31985   -31988   -31993   -31997   -31997   -31999   -32004   -32010 
  -32014   -32018   -32019   -32014   -32008   -32003   -31996   -31991 
  -31990   -31987   -31981   -31982   -31991   -32000   -32007   -32012 
  -32020   -32031   -32039   -32040   -32037   -32034   -32030   -32020 
  -32006   -31995   -31987   -31980   -31976   -31979   -31992   -32010 
  -32029   -32051   -32070   -32083   -32087   -32081   -32071   -32059 
  -32045   -32036   -32028   -32019   -32008   -31996   -31982   -31969 
  -31961   -31960   -31967   -31985   -32006   -32030   -32055   -32074 
  -32085   -32092   -32088   -32071   -32047   -32023   -31996   -31967 
  -31941   -31920   -31906   -31903   -31913   -31930   -31952   -31985 
  -32021   -32052   -32072   -32081   -32082   -32075   -32058   -32033 
  -32001   -31967   -31938   -31914   -31899   -31899   -31908   -31919 
  -31941   -31986   -32039   -32087   -32119   -32135   -32143   -32140 
  -32118   -32082   -32039   -31992   -31951   -31925   -31915   -31919 
  -31933   -31950   -31967   -31984   -32000   -32020   -32048   -32080 
  -32110   -32133   -32141   -32130   -32103   -32065   -32022   -31979 
  -31944   -31927   -31934   -31955   -31975   -31988   -31993   -31984 
  -31962   -31944   -31942   -31951   -31971   -31990   -31991   -31984 
  -31981   -31982   -31983   -31979   -31976   -31988   -32014   -32041 
  -32054   -32054   -32041   -32018   -31990   -31961   -31939   -31931 
  -31936   -31945   -31953   -31958   -31959   -31956   -31956   -31960 
  -31965   -31974   -31993   -32016   -32038   -32054   -32054   -32027 
  -31981   -31926   -31878   -31850   -31843   -31855   -31890   -31936 
  -31974   -31991   -31998   -32006   -32003   -31987   -31975   -31975 
  -31981   -31985   -31982   -31967   -31939   -31909   -31887   -31875 
  -31878   -31897   -31931   -31977   -32021   -32049   -32056   -32051 
  -32046   -32039   -32024   -32004   -31983   -31962   -31941   -31935 
  -31950   -31973   -32002   -32036   -32062   -32085   -32110   -32117 
  -32097   -32059   -32011   -31966   -31941   -31930   -31925   -31927 
  -31936   -31947   -31964   -31989   -32011   -32023   -32029   -32039 
  -32049   -32040   -32011   -31979   -31955   -31934   -31908   -31878 
  -31856   -31859   -31897   -31951   -32001   -32036   -32052   -32050 
  -32043   -32036   -32020   -31989   -31954   -31930   -31919   -31910 
  -31912   -31929   -31955   -31991   -32039   -32080   -32106   -32124 
  -32124   -32107   -32092   -32081   -32060   -32029   -31998   -31966 
  -31942   -31935   -31938   -31946   -31962   -31976   -31971   -31955 
  -31945   -31950   -31972   -32005   -32041   -32079   -32115   -32141 
  -32150   -32142   -32116   -32072   -32019   -31975   -31947   -31939 
  -31952   -31975   -31991   -32000   -32012   -32032   -32053   -32067 
  -32076   -32079   -32071   -32060   -32047   -32035   -32024   -32014 
  -32005   -32000   -32011   -32056   -32119   -32176   -32226   -32265 
  -32282   -32280   -32269   -32244   -32193   -32126   -32064   -32012 
  -31968   -31928   -31892   -31866   -31865   -31894   -31941   -31992 
  -32058   -32142   -32211   -32251   -32268   -32249   -32178   -32081 
  -31982   -31873   -31759   -31661   -31594   -31567   -31586   -31656 
  -31773   -31906   -32030   -32137   -32208   -32248   -32279   -32308 
  -32312   -32276   -32206   -32116   -32015   -31918   -31844   -31813 
  -31828   -31875   -31937   -32006   -32066   -32104   -32123   -32129 
  -32120   -32100   -32086   -32093   -32128   -32165   -32178   -32166 
  -32142   -32115   -32098   -32087   -32069   -32034   -31987   -31933 
  -31874   -31818   -31776   -31765   -31803   -31877   -31963   -32050 
  -32123   -32163   -32171   -32158   -32133   -32096   -32044   -31988 
  -31941   -31912   -31906   -31907   -31903   -31898   -31906   -31914 
  -31917   -31934   -31981   -32052   -32132   -32205   -32239   -32217 
  -32157   -32083   -32008   -31946   -31906   -31881   -31871   -31891 
  -31935   -31981   -32012   -32036   -32063   -32079   -32080   -32081 
  -32092   -32094   -32082   -32065   -32041   -31996   -31936   -31894 
  -31890   -31915   -31952   -31990   -32010   -32000   -31972   -31952 
  -31958   -31975   -31970   -31941   -31914   -31904   -31913   -31943 
  -31991   -32026   -32021   -31981   -31926   -31873   -31837   -31838 
  -31864   -31876   -31851   -31810   -31791   -31810   -31852   -31899 
  -31946   -31986   -32010   -32018   -32006   -31989   -31987   -31993 
  -31989   -31990   -31995   -31990   -31993   -32013   -32022   -31994 
  -31951   -31941   -31970   -31996   -32010   -32041   -32083   -32113 
  -32121   -32125   -32149   -32195   -32242   -32260   -32215   -32104 
  -31954   -31796   -31655   -31565   -31549   -31599   -31699   -31830 
  -31954   -32031   -32054   -32041   -32009   -31962   -31919   -31897 
  -31895   -31895   -31903   -31927   -31962   -31988   -31999   -32021 
  -32063   -32102   -32124   -32140   -32145   -32127   -32092   -32048 
  -32001   -31968   -31954   -31951   -31955   -31953   -31917   -31834 
  -31732   -31647   -31601   -31601   -31643   -31712   -31794   -31883 
  -31971   -32053   -32119   -32157   -32158   -32122   -32069   -32015 
  -31970   -31940   -31925   -31901   -31847   -31788   -31780   -31842 
  -31937   -32024   -32108   -32188   -32234   -32236   -32220   -32199 
  -32158   -32096   -32022   -31939   -31863   -31831   -31854   -31903 
  -31958   -32016   -32067   -32107   -32143   -32170   -32186   -32188 
  -32171   -32130   -32058   -31973   -31907   -31861   -31822   -31795 
  -31803   -31866   -31971   -32085   -32191   -32299   -32392   -32417 
  -32361   -32257   -32142   -32049   -32008   -32004   -31984   -31924 
  -31843   -31765   -31700   -31657   -31654   -31703   -31784   -31867 
  -31942   -31998   -32029   -32037   -32033   -32024   -32018   -32020 
  -32028   -32056   -32104   -32132   -32109   -32059   -32021   -32004 
  -32007   -32038   -32097   -32158   -32196   -32213   -32216   -32210 
  -32207   -32193   -32150   -32097   -32055   -32007   -31949   -31908 
  -31896   -31905   -31954   -32038   -32108   -32160   -32216   -32256 
  -32241   -32168   -32064   -31953   -31849   -31766   -31719   -31716 
  -31754   -31815   -31882   -31945   -31993   -32008   -31988   -31953 
  -31920   -31886   -31861   -31862   -31876   -31874   -31857   -31849 
  -31865   -31908   -31973   -32053   -32144   -32231   -32308   -32376 
  -32425   -32447   -32468   -32508   -32543   -32539   -32504   -32462 
  -32425   -32376   -32275   -32125   -31979   -31876   -31830   -31855 
  -31953   -32102   -32256   -32372   -32423   -32411   -32348   -32251 
  -32167   -32131   -32137   -32176   -32225   -32251   -32233   -32172 
  -32055   -31892   -31744   -31675   -31697   -31776   -31872   -31950 
  -31982   -31978   -31968   -31968   -31984   -32009   -32017   -32008 
  -32004   -31994   -31966   -31935   -31907   -31872   -31828   -31780 
  -31744   -31740   -31761   -31802   -31855   -31881   -31870   -31861 
  -31862   -31841   -31787   -31730   -31705   -31702   -31709   -31741 
  -31786   -31810   -31813   -31816   -31833   -31860   -31886   -31897 
  -31908   -31957   -32043   -32130   -32200   -32259   -32312   -32345 
  -32346   -32325   -32305   -32291   -32261   -32175   -32028   -31869 
  -31753   -31693   -31691   -31766   -31909   -32079   -32253   -32426 
  -32558   -32592   -32531   -32422   -32297   -32168   -32048   -31951 
  -31883   -31846   -31834   -31836   -31857   -31902   -31970   -32073 
  -32200   -32292   -32307   -32259   -32182   -32109   -32072   -32072 
  -32079   -32081   -32083   -32071   -32033   -32000   -31996   -32000 
  -31976   -31919   -31839   -31743   -31652   -31587   -31550   -31537 
  -31553   -31620   -31734   -31866   -32004   -32135   -32219   -32230 
  -32169   -32061   -31945   -31852   -31789   -31754   -31745   -31771 
  -31823   -31879   -31937   -32008   -32077   -32121   -32144   -32151 
  -32137   -32117   -32114   -32109   -32080   -32051   -32030   -32008 
  -32002   -32027   -32065   -32111   -32179   -32238   -32238   -32187 
  -32129   -32065   -31976   -31889   -31832   -31790   -31764   -31786 
  -31872   -31981   -32056   -32083   -32080   -32048   -32005   -31986 
  -31988   -31995   -31997   -31978   -31927   -31864   -31819   -31806 
  -31831   -31893   -31975   -32061   -32156   -32266   -32361   -32401 
  -32377   -32308   -32218   -32133   -32076   -32054   -32072   -32127 
  -32179   -32197   -32199   -32200   -32185   -32161   -32147   -32139 
  -32143   -32189   -32259   -32300   -32293   -32262   -32218   -32147 
  -32062   -31996   -31955   -31926   -31909   -31897   -31877   -31858 
  -31852   -31848   -31856   -31903   -31963   -31999   -32022   -32062 
  -32118   -32149   -32124   -32054   -31977   -31910   -31847   -31794 
  -31782   -31822   -31881   -31920   -31929   -31919   -31907   -31898 
  -31868   -31791   -31701   -31673   -31735   -31830   -31905   -31970 
  -32034   -32066   -32052   -32022   -31999   -31984   -31971   -31954 
  -31935   -31912   -31886   -31861   -31837   -31813   -31807   -31834 
  -31885   -31931   -31957   -31967   -31973   -31984   -32002   -32033 
  -32085   -32160   -32250   -32341   -32407   -32431   -32417   -32365 
  -32268   -32144   -32016   -31890   -31791   -31736   -31690   -31626 
  -31571   -31571   -31636   -31721   -31783   -31849   -31939   -32010 
  -32035   -32035   -32040   -32056   -32073   -32080   -32081   -32102 
  -32157   -32201   -32184   -32132   -32082   -32014   -31916   -31828 
  -31789   -31803   -31860   -31942   -32022   -32085   -32137   -32186 
  -32237   -32278   -32275   -32217   -32130   -32025   -31906   -31795 
  -31720   -31701   -31735   -31791   -31845   -31900   -31950   -31981 
  -32005   -32041   -32084   -32115   -32122   -32111   -32105   -32104 
  -32088   -32053   -32017   -32014   -32053   -32113   -32168   -32182 
  -32132   -32045   -31972   -31916   -31872   -31871   -31939   -32035 
  -32101   -32134   -32156   -32173   -32179   -32184   -32191   -32195 
  -32177   -32119   -32035   -31946   -31857   -31771   -31689   -31631 
  -31633   -31696   -31780   -31855   -31925   -31997   -32054   -32081 
  -32082   -32067   -32048   -32043   -32051   -32044   -32001   -31945 
  -31930   -31956   -31982   -31987   -31982   -31990   -32027   -32081 
  -32136   -32179   -32176   -32120   -32050   -31997   -31957   -31906 
  -31856   -31829   -31816   -31812   -31825   -31831   -31808   -31784 
  -31789   -31837   -31943   -32091   -32229   -32318   -32367   -32381 
  -32343   -32251   -32136   -32022   -31927   -31878   -31877   -31906 
  -31958   -32027   -32099   -32155   -32188   -32204   -32213   -32221 
  -32217   -32178   -32092   -31970   -31829   -31714   -31672   -31708 
  -31797   -31918   -32035   -32117   -32161   -32172   -32130   -32032 
  -31924   -31861   -31831   -31799   -31776   -31786   -31811   -31825 
  -31834   -31859   -31901   -31949   -32011   -32093   -32166   -32206 
  -32225   -32227   -32208   -32189   -32188   -32187   -32169   -32133 
  -32090   -32051   -32024   -32003   -31984   -31963   -31935   -31906 
  -31893   -31914   -31962   -32008   -32029   -32022   -32005   -31991 
  -31969   -31922   -31865   -31825   -31794   -31764   -31756   -31797 
  -31886   -31986   -32053   -32066   -32037   -31996   -31972   -31976 
  -31994   -32009   -32014   -32013   -32012   -32015   -32020   -32033 
  -32056   -32071   -32076   -32084   -32087   -32069   -32019   -31946 
  -31870   -31810   -31782   -31790   -31824   -31879   -31938   -31977 
  -31992   -31987   -31974   -31973   -31982   -31983   -31977   -31966 
  -31951   -31929   -31899   -31864   -31840   -31837   -31839   -31841 
  -31868   -31930   -32009   -32086   -32152   -32201   -32231   -32255 
  -32280   -32293   -32279   -32243   -32197   -32144   -32093   -32054 
  -32030   -32020   -32008   -31992   -31984   -31992   -32022   -32072 
  -32126   -32168   -32185   -32181   -32177   -32165   -32130   -32085 
  -32049   -32028   -32022   -32026   -32040   -32069   -32112   -32165 
  -32200   -32181   -32131   -32092   -32058   -32006   -31946   -31894 
  -31858   -31841   -31840   -31840   -31846   -31886   -31951   -32002 
  -32027   -32047   -32072   -32102   -32144   -32194   -32233   -32239 
  -32201   -32140   -32089   -32058   -32038   -32010   -31971   -31938 
  -31908   -31867   -31820   -31793   -31802   -31827   -31849   -31867 
  -31891   -31920   -31945   -31965   -31983   -31998   -32001   -31985 
  -31963   -31942   -31924   -31910   -31896   -31872   -31836   -31812 
  -31819   -31851   -31891   -31945   -32009   -32056   -32072   -32072 
  -32074   -32079   -32082   -32079   -32067   -32052   -32040   -32043 
  -32066   -32088   -32091   -32084   -32069   -32048   -32030   -32028 
  -32040   -32054   -32059   -32055   -32054   -32055   -32051   -32042 
  -32031   -32021   -32014   -32008   -31992   -31972   -31949   -31918 
  -31883   -31854   -31833   -31834   -31863   -31902   -31941   -31983 
  -32016   -32028   -32035   -32052   -32070   -32078   -32078   -32073 
  -32068   -32060   -32040   -32001   -31954   -31906   -31864   -31837 
  -31832   -31852   -31880   -31889   -31880   -31872   -31868   -31861 
