Origin Time       2013/10/26 02:10:00
Lat.              37.195
Long.             144.568
Depth. (km)       56
Mag.              7.1
Station Code      GIFH25
Station Lat.      35.5214
Station Long.     136.6127
Station Height(m) -27.5
Record Time       2013/10/26 02:12:03
Sampling Freq(Hz) 100Hz
Duration Time(s)  131
Dir.              2
Scale Factor      2940(gal)/6170270
Max. Acc. (gal)   0.190
Last Correction   2013/10/26 02:11:48
Memo.             
[...]
 -134027  -134026  -134025  -134027  -134027  -134025  -134024  -134024 
 -134024  -134024  -134025  -134026  -134026  -134025  -134026  -134026 
 -134024  -134026  -134028  -134026  -134025  -134026  -134024  -134025 
 -134027  -134026  -134027  -134026  -134025  -134026  -134027  -134027 
 -134026  -134026  -134025  -134025  -134028  -134028  -134024  -134023 
 -134026  -134026  -134025  -134026  -134027  -134025  -134024  -134025 
 -134024  -134025  -134026  -134025  -134025  -134025  -134024  -134023 
 -134024  -134024  -134024  -134025  -134025  -134025  -134025  -134025 
 -134024  -134024  -134025  -134026  -134025  -134024  -134025  -134026 
 -134025  -134025  -134026  -134026  -134024  -134025  -134026  -134024 
 -134024  -134025  -134025  -134025  -134024  -134026  -134029  -134027 
 -134026  -134025  -134026  -134025  -134025  -134024  -134024  -134025 
 -134025  -134024  -134024  -134026  -134025  -134025  -134024  -134023 
 -134023  -134025  -134026  -134026  -134026  -134025  -134025  -134025 
 -134025  -134025  -134026  -134027  -134027  -134026  -134024  -134025 
 -134027  -134025  -134025  -134024  -134023  -134026  -134028  -134025 
 -134024  -134025  -134026  -134026  -134025  -134024  -134024  -134026 
 -134025  -134024  -134024  -134024  -134023  -134024  -134025  -134024 
 -134025  -134024  -134024  -134026  -134026  -134024  -134024  -134025 
 -134024  -134024  -134024  -134024  -134024  -134025  -134025  -134025 
 -134023  -134022  -134024  -134024  -134024  -134025  -134026  -134023 
 -134023  -134026  -134025  -134024  -134024  -134025  -134025  -134025 
 -134026  -134025  -134025  -134026  -134025  -134025  -134027  -134026 
 -134023  -134025  -134024  -134021  -134023  -134024  -134024  -134025 
 -134025  -134024  -134024  -134025  -134026  -134026  -134026  -134027 
 -134026  -134026  -134025  -134025  -134026  -134026  -134025  -134026 
 -134025  -134024  -134025  -134026  -134025  -134024  -134026  -134028 
 -134028  -134026  -134025  -134026  -134027  -134025  -134024  -134026 
 -134026  -134025  -134027  -134026  -134024  -134026  -134028  -134026 
 -134026  -134026  -134025  -134025  -134025  -134027  -134027  -134023 
 -134024  -134027  -134028  -134026  -134025  -134025  -134026  -134025 
 -134024  -134026  -134027  -134024  -134022  -134024  -134026  -134024 
 -134024  -134024  -134025  -134025  -134025  -134025  -134026  -134026 
 -134026  -134026  -134025  -134024  -134023  -134024  -134025  -134025 
 -134025  -134025  -134025  -134025  -134025  -134025  -134026  -134025 
 -134025  -134026  -134022  -134022  -134025  -134023  -134023  -134025 
 -134023  -134023  -134025  -134025  -134025  -134023  -134023  -134025 
 -134025  -134023  -134024  -134025  -134025  -134024  -134024  -134025 
 -134026  -134025  -134024  -134024  -134023  -134023  -134025  -134025 
 -134025  -134025  -134024  -134023  -134023  -134024  -134025  -134028 
 -134026  -134024  -134025  -134027  -134026  -134025  -134025  -134026 
 -134025  -134024  -134026  -134027  -134027  -134026  -134025  -134025 
 -134025  -134025  -134023  -134023  -134025  -134026  -134025  -134026 
 -134024  -134024  -134024  -134024  -134025  -134026  -134024  -134024 
 -134025  -134026  -134026  -134025  -134025  -134025  -134023  -134022 
 -134024  -134025  -134024  -134023  -134024  -134024  -134024  -134025 
 -134024  -134023  -134023  -134026  -134026  -134023  -134025  -134027 
 -134024  -134024  -134027  -134024  -134024  -134025  -134023  -134024 
 -134026  -134024  -134024  -134025  -134023  -134024  -134024  -134022 
 -134024  -134026  -134022  -134022  -134024  -134024  -134024  -134024 
 -134024  -134024  -134024  -134025  -134023  -134022  -134025  -134026 
 -134023  -134023  -134026  -134026  -134025  -134024  -134024  -134025 
 -134024  -134024  -134026  -134026  -134023  -134023  -134024  -134025 
 -134023  -134021  -134023  -134025  -134023  -134023  -134025  -134024 
 -134023  -134023  -134023  -134022  -134023  -134024  -134024  -134024 
 -134023  -134024  -134025  -134025  -134024  -134023  -134025  -134026 
 -134025  -134024  -134023  -134024  -134024  -134023  -134026  -134025 
 -134024  -134026  -134025  -134023  -134025  -134025  -134025  -134026 
 -134027  -134025  -134022  -134021  -134024  -134025  -134024  -134025 
 -134024  -134022  -134023  -134024  -134023  -134025  -134025  -134024 
 -134024  -134024  -134024  -134026  -134024  -134023  -134025  -134025 
 -134023  -134024  -134024  -134024  -134024  -134023  -134022  -134023 
 -134024  -134025  -134025  -134023  -134022  -134024  -134024  -134022 
 -134024  -134023  -134022  -134025  -134025  -134021  -134022  -134025 
 -134025  -134025  -134026  -134024  -134023  -134024  -134026  -134026 
 -134025  -134025  -134025  -134024  -134024  -134025  -134024  -134025 
 -134026  -134023  -134022  -134023  -134023  -134023  -134023  -134024 
 -134025  -134024  -134023  -134022  -134022  -134023  -134024  -134022 
 -134022  -134025  -134024  -134021  -134022  -134023  -134023  -134022 
 -134021  -134023  -134025  -134024  -134022  -134023  -134023  -134023 
 -134026  -134025  -134021  -134023  -134025  -134023  -134023  -134024 
 -134024  -134025  -134025  -134023  -134024  -134027  -134025  -134023 
 -134025  -134025  -134024  -134025  -134025  -134025  -134025  -134025 
 -134026  -134025  -134023  -134026  -134029  -134026  -134025  -134027 
 -134027  -134025  -134024  -134024  -134025  -134024  -134024  -134026 
 -134027  -134026  -134026  -134025  -134025  -134025  -134025  -134025 
 -134026  -134026  -134025  -134025  -134025  -134026  -134024  -134024 
 -134027  -134027  -134026  -134026  -134026  -134027  -134029  -134030 
 -134028  -134027  -134028  -134028  -134027  -134028  -134028  -134028 
 -134030  -134030  -134029  -134028  -134030  -134032  -134032  -134032 
 -134033  -134033  -134031  -134033  -134034  -134032  -134032  -134034 
 -134036  -134035  -134035  -134035  -134034  -134034  -134036  -134037 
 -134037  -134037  -134036  -134037  -134040  -134038  -134037  -134038 
 -134039  -134039  -134039  -134038  -134038  -134038  -134037  -134035 
 -134035  -134037  -134038  -134037  -134037  -134035  -134035  -134036 
 -134036  -134034  -134036  -134036  -134032  -134031  -134032  -134033 
 -134032  -134033  -134033  -134031  -134031  -134033  -134033  -134032 
 -134032  -134032  -134033  -134033  -134033  -134033  -134032  -134032 
 -134033  -134033  -134034  -134031  -134030  -134032  -134032  -134032 
 -134034  -134035  -134033  -134032  -134034  -134036  -134035  -134035 
 -134039  -134037  -134036  -134037  -134036  -134034  -134035  -134033 
 -134031  -134034  -134038  -134036  -134035  -134037  -134036  -134034 
 -134034  -134033  -134029  -134028  -134031  -134033  -134034  -134036 
 -134035  -134035  -134036  -134032  -134029  -134030  -134029  -134028 
 -134031  -134035  -134035  -134034  -134036  -134036  -134032  -134029 
 -134029  -134030  -134030  -134030  -134030  -134032  -134033  -134032 
 -134031  -134031  -134031  -134029  -134026  -134026  -134023  -134021 
 -134023  -134022  -134020  -134021  -134022  -134020  -134020  -134020 
 -134019  -134019  -134018  -134015  -134013  -134011  -134008  -134007 
 -134007  -134007  -134005  -134002  -133999  -133995  -133990  -133986 
 -133986  -133992  -133996  -134000  -134004  -134007  -134010  -134010 
 -134007  -134005  -134005  -134002  -133997  -133995  -133993  -133991 
 -133991  -133995  -133999  -133999  -134001  -134005  -134008  -134009 
 -134010  -134014  -134017  -134022  -134025  -134026  -134027  -134029 
 -134028  -134024  -134019  -134014  -134012  -134013  -134014  -134016 
 -134023  -134033  -134038  -134040  -134042  -134042  -134035  -134027 
 -134021  -134018  -134017  -134016  -134016  -134016  -134017  -134017 
 -134016  -134013  -134011  -134010  -134008  -134008  -134012  -134019 
 -134028  -134035  -134037  -134031  -134021  -134010  -134002  -133995 
 -133989  -133989  -133991  -133996  -134004  -134007  -134003  -133999 
 -133998  -134002  -134007  -134014  -134024  -134030  -134032  -134032 
 -134032  -134031  -134032  -134035  -134038  -134039  -134037  -134034 
 -134034  -134033  -134029  -134028  -134030  -134028  -134029  -134033 
 -134035  -134038  -134042  -134043  -134041  -134042  -134048  -134057 
 -134064  -134068  -134073  -134076  -134076  -134074  -134068  -134059 
 -134054  -134052  -134051  -134053  -134058  -134064  -134069  -134074 
 -134074  -134074  -134072  -134070  -134072  -134078  -134083  -134087 
 -134089  -134092  -134096  -134096  -134093  -134088  -134082  -134083 
 -134088  -134092  -134096  -134096  -134093  -134093  -134090  -134086 
 -134087  -134090  -134092  -134089  -134083  -134078  -134074  -134073 
 -134075  -134077  -134077  -134079  -134077  -134071  -134064  -134053 
 -134044  -134041  -134041  -134041  -134043  -134050  -134055  -134055 
 -134055  -134054  -134050  -134049  -134049  -134050  -134053  -134056 
 -134058  -134061  -134060  -134056  -134050  -134045  -134044  -134047 
 -134048  -134051  -134056  -134059  -134061  -134064  -134063  -134062 
 -134066  -134068  -134069  -134074  -134077  -134077  -134074  -134070 
 -134063  -134055  -134052  -134056  -134063  -134066  -134063  -134054 
 -134044  -134038  -134038  -134036  -134035  -134035  -134033  -134032 
 -134030  -134025  -134022  -134024  -134025  -134026  -134026  -134020 
 -134014  -134013  -134017  -134027  -134039  -134048  -134050  -134047 
 -134038  -134028  -134018  -134011  -134012  -134016  -134017  -134016 
 -134015  -134014  -134015  -134014  -134012  -134010  -134008  -134009 
 -134011  -134011  -134011  -134017  -134023  -134027  -134024  -134018 
 -134011  -134004  -133998  -133994  -133988  -133981  -133971  -133962 
 -133953  -133941  -133930  -133924  -133920  -133914  -133903  -133893 
 -133892  -133896  -133902  -133911  -133916  -133921  -133930  -133936 
 -133944  -133951  -133955  -133959  -133959  -133952  -133944  -133938 
 -133931  -133927  -133926  -133927  -133931  -133941  -133955  -133972 
 -133993  -134011  -134027  -134043  -134052  -134051  -134047  -134042 
 -134045  -134051  -134047  -134033  -134012  -133988  -133966  -133953 
 -133952  -133957  -133969  -133982  -133984  -133981  -133982  -133985 
 -133994  -134009  -134023  -134033  -134039  -134037  -134027  -134011 
 -133992  -133975  -133958  -133946  -133938  -133931  -133925  -133921 
 -133924  -133935  -133946  -133957  -133973  -133990  -134005  -134016 
 -134020  -134018  -134017  -134018  -134018  -134016  -134014  -134014 
 -134012  -134006  -133994  -133983  -133980  -133983  -133990  -134000 
 -134013  -134019  -134021  -134028  -134034  -134030  -134021  -134007 
 -133987  -133971  -133969  -133974  -133984  -133998  -134011  -134015 
 -134010  -134003  -133996  -133993  -133996  -134002  -134011  -134018 
 -134022  -134023  -134025  -134027  -134022  -134014  -134009  -134005 
 -134001  -134002  -134009  -134015  -134022  -134024  -134021  -134016 
 -134013  -134014  -134024  -134036  -134041  -134038  -134031  -134030 
 -134037  -134048  -134059  -134064  -134057  -134043  -134032  -134029 
 -134035  -134046  -134054  -134058  -134057  -134056  -134066  -134085 
 -134106  -134120  -134131  -134138  -134133  -134123  -134119  -134123 
 -134132  -134141  -134143  -134138  -134129  -134120  -134110  -134103 
 -134105  -134112  -134120  -134131  -134139  -134137  -134129  -134122 
 -134122  -134124  -134115  -134099  -134086  -134077  -134068  -134057 
 -134045  -134038  -134039  -134046  -134054  -134062  -134070  -134075 
 -134074  -134063  -134050  -134041  -134043  -134057  -134078  -134098 
 -134112  -134119  -134113  -134096  -134079  -134070  -134070  -134075 
 -134083  -134091  -134095  -134093  -134086  -134074  -134062  -134063 
 -134069  -134072  -134076  -134082  -134087  -134091  -134095  -134099 
 -134107  -134117  -134132  -134154  -134174  -134193  -134208  -134213 
 -134205  -134194  -134180  -134168  -134163  -134167  -134170  -134165 
 -134150  -134132  -134118  -134114  -134123  -134131  -134132  -134135 
 -134141  -134151  -134166  -134177  -134179  -134178  -134172  -134163 
 -134157  -134158  -134161  -134158  -134146  -134130  -134114  -134103 
 -134101  -134104  -134101  -134089  -134077  -134071  -134065  -134057 
 -134049  -134042  -134038  -134037  -134042  -134042  -134037  -134031 
 -134024  -134016  -134016  -134019  -134016  -134008  -134000  -133993 
 -133988  -133981  -133972  -133963  -133962  -133966  -133969  -133961 
 -133948  -133932  -133916  -133912  -133927  -133962  -134005  -134042 
 -134062  -134065  -134059  -134055  -134055  -134060  -134071  -134077 
 -134074  -134069  -134063  -134057  -134046  -134026  -134006  -133996 
 -134002  -134018  -134031  -134039  -134045  -134045  -134039  -134030 
 -134022  -134020  -134024  -134025  -134019  -134006  -133991  -133975 
 -133956  -133942  -133938  -133947  -133958  -133959  -133947  -133930 
 -133921  -133919  -133919  -133916  -133910  -133910  -133916  -133920 
 -133921  -133924  -133928  -133935  -133942  -133946  -133953  -133967 
 -133988  -134012  -134035  -134051  -134054  -134049  -134043  -134040 
 -134040  -134044  -134051  -134061  -134071  -134072  -134065  -134057 
 -134047  -134034  -134018  -133994  -133965  -133933  -133896  -133853 
 -133810  -133782  -133774  -133777  -133777  -133770  -133763  -133762 
 -133766  -133767  -133762  -133755  -133748  -133741  -133737  -133737 
 -133744  -133763  -133787  -133803  -133796  -133762  -133717  -133672 
 -133639  -133627  -133633  -133656  -133696  -133743  -133781  -133807 
 -133824  -133838  -133850  -133862  -133879  -133902  -133930  -133962 
 -133980  -133972  -133957  -133948  -133947  -133957  -133970  -133978 
 -133983  -133989  -133999  -134013  -134029  -134047  -134062  -134075 
 -134087  -134099  -134109  -134118  -134123  -134128  -134139  -134154 
 -134169  -134182  -134189  -134190  -134193  -134197  -134202  -134210 
 -134216  -134221  -134227  -134235  -134244  -134245  -134229  -134203 
 -134177  -134154  -134133  -134115  -134102  -134096  -134095  -134090 
 -134079  -134069  -134066  -134072  -134082  -134087  -134085  -134072 
 -134045  -134014  -133989  -133969  -133953  -133939  -133922  -133904 
 -133890  -133877  -133864  -133856  -133850  -133852  -133868  -133896 
 -133927  -133952  -133960  -133955  -133949  -133945  -133948  -133957 
 -133965  -133968  -133969  -133964  -133954  -133947  -133948  -133956 
 -133975  -134000  -134016  -134019  -134020  -134025  -134038  -134064 
 -134098  -134132  -134158  -134170  -134168  -134159  -134144  -134132 
 -134129  -134126  -134122  -134127  -134142  -134163  -134181  -134185 
 -134181  -134175  -134166  -134154  -134136  -134119  -134112  -134111 
 -134111  -134115  -134118  -134121  -134127  -134134  -134139  -134145 
 -134150  -134156  -134162  -134158  -134143  -134125  -134108  -134093 
 -134074  -134052  -134029  -134008  -133994  -133990  -133992  -133993 
 -133990  -133986  -133986  -133988  -133989  -133991  -133997  -134005 
 -134014  -134022  -134025  -134022  -134016  -134006  -133993  -133985 
 -133987  -133994  -134004  -134015  -134020  -134022  -134027  -134034 
 -134035  -134030  -134018  -134001  -133991  -133991  -133990  -133988 
 -133985  -133980  -133970  -133961  -133958  -133958  -133959  -133960 
 -133959  -133954  -133948  -133941  -133933  -133922  -133904  -133882 
 -133864  -133854  -133855  -133865  -133874  -133881  -133889  -133897 
 -133906  -133919  -133935  -133950  -133960  -133963  -133959  -133949 
 -133938  -133936  -133939  -133943  -133944  -133945  -133948  -133953 
 -133960  -133960  -133958  -133964  -133971  -133976  -133980  -133991 
 -134014  -134038  -134053  -134057  -134055  -134059  -134071  -134077 
 -134074  -134068  -134064  -134061  -134058  -134056  -134062  -134076 
 -134092  -134102  -134106  -134105  -134105  -134111  -134121  -134133 
 -134147  -134161  -134167  -134166  -134162  -134160  -134162  -134165 
 -134167  -134170  -134170  -134160  -134138  -134111  -134085  -134063 
 -134045  -134030  -134019  -134009  -133998  -133987  -133980  -133976 
 -133978  -133985  -133996  -134013  -134033  -134049  -134059  -134066 
 -134072  -134077  -134084  -134092  -134103  -134116  -134125  -134127 
 -134115  -134092  -134065  -134036  -134009  -133993  -133993  -134000 
 -134010  -134021  -134036  -134059  -134084  -134099  -134102  -134100 
 -134095  -134091  -134086  -134077  -134066  -134051  -134032  -134016 
 -134003  -133995  -133997  -134003  -134003  -133995  -133983  -133975 
 -133978  -133993  -134009  -134020  -134028  -134030  -134020  -134000 
 -133982  -133976  -133979  -133986  -133994  -133997  -133995  -133990 
 -133980  -133969  -133960  -133959  -133968  -133989  -134012  -134030 
 -134040  -134031  -134006  -133980  -133963  -133957  -133964  -133975 
 -133978  -133973  -133962  -133943  -133918  -133897  -133888  -133893 
 -133901  -133907  -133914  -133922  -133928  -133934  -133945  -133959 
 -133972  -133983  -133990  -133999  -134012  -134024  -134027  -134019 
 -134007  -134002  -134004  -134004  -133994  -133973  -133951  -133939 
 -133938  -133942  -133952  -133968  -133986  -134004  -134029  -134059 
 -134085  -134097  -134098  -134092  -134083  -134079  -134082  -134088 
 -134096  -134105  -134112  -134118  -134125  -134126  -134114  -134088 
 -134055  -134025  -134007  -134000  -134001  -134006  -134013  -134016 
 -134009  -133998  -133994  -134000  -134015  -134033  -134043  -134053 
 -134067  -134076  -134079  -134076  -134062  -134047  -134039  -134041 
 -134051  -134064  -134070  -134070  -134065  -134055  -134046  -134046 
 -134059  -134076  -134083  -134081  -134070  -134049  -134028  -134027 
 -134044  -134068  -134096  -134121  -134138  -134143  -134138  -134125 
 -134108  -134092  -134079  -134064  -134047  -134029  -134007  -133987 
 -133973  -133963  -133964  -133973  -133983  -133987  -133988  -133987 
 -133986  -133983  -133979  -133978  -133979  -133988  -134008  -134030 
 -134048  -134063  -134076  -134088  -134100  -134108  -134106  -134098 
 -134091  -134091  -134098  -134111  -134124  -134130  -134131  -134137 
 -134150  -134171  -134190  -134194  -134185  -134169  -134154  -134142 
 -134134  -134128  -134121  -134109  -134097  -134091  -134089  -134093 
 -134100  -134101  -134094  -134079  -134060  -134044  -134031  -134022 
 -134015  -134008  -134002  -134000  -134005  -134016  -134027  -134035 
 -134037  -134039  -134044  -134045  -134046  -134053  -134065  -134075 
 -134078  -134072  -134067  -134074  -134090  -134103  -134107  -134105 
 -134102  -134098  -134093  -134090  -134085  -134073  -134061  -134051 
 -134039  -134025  -134014  -134007  -133999  -133987  -133973  -133963 
 -133958  -133950  -133935  -133914  -133895  -133881  -133872  -133869 
 -133866  -133858  -133848  -133837  -133820  -133801  -133787  -133779 
 -133778  -133783  -133785  -133779  -133775  -133779  -133781  -133780 
 -133779  -133784  -133795  -133808  -133822  -133839  -133863  -133893 
 -133925  -133947  -133954  -133955  -133958  -133962  -133966  -133975 
 -133988  -133998  -134003  -134003  -134003  -134007  -134014  -134021 
 -134025  -134022  -134015  -134013  -134024  -134047  -134075  -134099 
 -134114  -134122  -134132  -134140  -134143  -134142  -134136  -134126 
 -134118  -134112  -134102  -134087  -134071  -134064  -134066  -134068 
