Origin Time       2013/10/26 02:10:00
Lat.              37.195
Long.             144.568
Depth. (km)       56
Mag.              7.1
Station Code      GIFH25
Station Lat.      35.5214
Station Long.     136.6127
Station Height(m) -27.5
Record Time       2013/10/26 02:12:03
Sampling Freq(Hz) 100Hz
Duration Time(s)  131
Dir.              1
Scale Factor      2940(gal)/6170270
Max. Acc. (gal)   0.142
Last Correction   2013/10/26 02:11:48
Memo.             
[...]
  132376   132378   132378   132380   132381   132378   132378   132378 
  132375   132373   132371   132369   132367   132364   132363   132361 
  132357   132357   132357   132356   132358   132359   132359   132361 
  132362   132363   132367   132371   132375   132382   132388   132392 
  132396   132400   132401   132400   132399   132400   132401   132399 
  132396   132395   132396   132396   132395   132393   132393   132397 
  132401   132399   132398   132400   132400   132398   132398   132398 
  132395   132391   132387   132383   132377   132371   132366   132361 
  132357   132358   132359   132359   132362   132369   132372   132377 
  132382   132386   132392   132400   132407   132414   132421   132422 
  132420   132418   132416   132413   132410   132410   132413   132410 
  132407   132408   132409   132407   132401   132396   132392   132387 
  132383   132380   132375   132370   132366   132359   132352   132348 
  132344   132341   132340   132336   132332   132331   132327   132326 
  132328   132331   132335   132341   132346   132347   132349   132352 
  132354   132353   132353   132353   132354   132353   132353   132357 
  132365   132370   132376   132386   132394   132402   132409   132412 
  132415   132421   132423   132428   132435   132439   132442   132445 
  132446   132450   132455   132458   132462   132465   132467   132471 
  132475   132477   132475   132469   132462   132455   132450   132444 
  132439   132437   132435   132433   132435   132440   132442   132442 
  132442   132439   132436   132433   132431   132429   132426   132424 
  132421   132415   132411   132408   132403   132396   132390   132385 
  132381   132377   132373   132372   132369   132367   132368   132369 
  132367   132364   132363   132361   132358   132358   132359   132359 
  132357   132353   132352   132350   132347   132345   132344   132342 
  132343   132346   132346   132346   132348   132350   132352   132357 
  132362   132364   132366   132368   132369   132372   132374   132372 
  132372   132376   132379   132382   132384   132387   132392   132396 
  132402   132409   132416   132425   132437   132447   132455   132459 
  132462   132468   132475   132480   132484   132488   132490   132493 
  132498   132500   132502   132500   132498   132501   132500   132494 
  132495   132498   132494   132492   132490   132483   132476   132475 
  132472   132467   132463   132457   132448   132440   132436   132431 
  132424   132422   132422   132421   132420   132417   132413   132411 
  132407   132402   132400   132396   132389   132382   132374   132361 
  132351   132343   132334   132329   132330   132329   132327   132327 
  132325   132323   132323   132327   132330   132331   132333   132337 
  132339   132339   132340   132342   132339   132333   132331   132330 
  132328   132326   132327   132327   132329   132329   132328   132330 
  132332   132334   132337   132341   132345   132350   132354   132357 
  132358   132356   132356   132353   132348   132346   132346   132344 
  132341   132340   132338   132340   132345   132351   132357   132361 
  132366   132371   132375   132379   132384   132385   132383   132383 
  132385   132384   132382   132379   132378   132376   132372   132369 
  132366   132361   132361   132361   132358   132355   132356   132359 
  132360   132359   132360   132362   132364   132365   132369   132371 
  132373   132374   132377   132381   132384   132383   132382   132386 
  132389   132388   132391   132397   132403   132407   132406   132408 
  132414   132415   132416   132420   132419   132418   132420   132422 
  132423   132426   132424   132419   132418   132422   132425   132425 
  132426   132427   132422   132418   132416   132415   132413   132410 
  132408   132406   132404   132402   132401   132399   132397   132393 
  132388   132384   132380   132375   132373   132370   132367   132365 
  132365   132362   132360   132360   132358   132357   132361   132365 
  132367   132371   132377   132380   132379   132380   132381   132380 
  132380   132379   132378   132377   132375   132369   132363   132360 
  132355   132347   132340   132333   132328   132323   132316   132311 
  132310   132308   132306   132308   132314   132319   132324   132330 
  132337   132343   132349   132355   132362   132366   132369   132375 
  132376   132376   132382   132390   132395   132396   132398   132402 
  132405   132406   132407   132411   132414   132416   132414   132415 
  132418   132420   132418   132416   132414   132412   132410   132409 
  132405   132401   132399   132396   132395   132398   132401   132404 
  132408   132410   132412   132417   132418   132417   132418   132421 
  132424   132426   132429   132435   132442   132447   132452   132456 
  132461   132468   132469   132469   132471   132470   132469   132469 
  132466   132462   132458   132456   132455   132455   132455   132459 
  132466   132473   132477   132480   132484   132487   132487   132487 
  132486   132480   132473   132470   132465   132456   132448   132442 
  132437   132435   132435   132435   132436   132436   132437   132438 
  132437   132439   132439   132435   132432   132429   132422   132414 
  132407   132401   132397   132391   132384   132376   132369   132362 
  132356   132353   132351   132346   132344   132345   132343   132340 
  132341   132342   132340   132339   132339   132338   132337   132339 
  132341   132341   132345   132349   132353   132359   132366   132374 
  132382   132387   132394   132404   132410   132414   132420   132424 
  132426   132430   132431   132429   132429   132431   132429   132426 
  132425   132423   132416   132409   132404   132399   132396   132394 
  132393   132392   132390   132389   132395   132402   132405   132406 
  132409   132412   132414   132419   132422   132419   132418   132416 
  132408   132401   132397   132391   132385   132379   132375   132372 
  132370   132366   132361   132356   132351   132342   132335   132329 
  132322   132316   132313   132311   132312   132314   132320   132327 
  132333   132344   132356   132368   132381   132391   132401   132412 
  132420   132428   132433   132436   132440   132443   132444   132445 
  132446   132443   132436   132429   132425   132419   132412   132404 
  132400   132396   132390   132385   132385   132384   132383   132382 
  132383   132387   132389   132392   132396   132398   132400   132406 
  132414   132422   132428   132435   132445   132458   132471   132482 
  132493   132503   132511   132518   132523   132526   132527   132525 
  132522   132518   132513   132507   132500   132493   132484   132473 
  132464   132457   132449   132439   132427   132416   132408   132402 
  132398   132392   132388   132389   132392   132395   132400   132405 
  132413   132421   132427   132437   132449   132461   132472   132480 
  132482   132487   132492   132495   132496   132496   132494   132494 
  132492   132486   132479   132468   132454   132441   132428   132412 
  132396   132381   132363   132348   132333   132317   132302   132289 
  132276   132268   132262   132255   132250   132250   132250   132252 
  132256   132261   132267   132275   132287   132299   132311   132324 
  132333   132342   132351   132359   132371   132378   132383   132388 
  132392   132394   132398   132399   132399   132398   132394   132387 
  132378   132366   132351   132335   132320   132307   132296   132285 
  132276   132273   132274   132278   132285   132298   132312   132325 
  132342   132359   132373   132386   132398   132406   132413   132419 
  132420   132422   132424   132421   132418   132418   132415   132413 
  132413   132413   132411   132408   132405   132397   132386   132374 
  132358   132346   132340   132334   132328   132323   132319   132318 
  132319   132319   132319   132321   132322   132323   132328   132330 
  132329   132330   132330   132328   132327   132328   132329   132331 
  132332   132332   132330   132330   132330   132323   132317   132318 
  132317   132310   132302   132294   132286   132280   132275   132268 
  132264   132264   132262   132260   132263   132267   132271   132275 
  132280   132287   132296   132306   132317   132326   132335   132347 
  132361   132375   132390   132403   132412   132419   132427   132434 
  132437   132441   132444   132444   132445   132446   132446   132446 
  132443   132439   132435   132429   132422   132413   132404   132397 
  132389   132381   132374   132366   132359   132355   132354   132353 
  132355   132361   132367   132370   132375   132385   132392   132397 
  132403   132409   132415   132422   132426   132430   132435   132438 
  132439   132438   132435   132433   132432   132432   132435   132434 
  132429   132428   132426   132421   132419   132419   132413   132406 
  132400   132392   132386   132381   132375   132372   132375   132378 
  132379   132381   132385   132389   132392   132396   132401   132405 
  132411   132421   132429   132435   132440   132444   132445   132444 
  132441   132441   132443   132446   132447   132449   132455   132462 
  132466   132473   132480   132483   132484   132486   132485   132482 
  132478   132471   132463   132456   132451   132447   132444   132441 
  132439   132438   132435   132434   132436   132439   132441   132442 
  132441   132440   132440   132439   132438   132437   132436   132435 
  132433   132431   132430   132428   132420   132414   132410   132404 
  132398   132395   132392   132388   132386   132381   132375   132371 
  132368   132363   132357   132354   132351   132347   132342   132337 
  132330   132322   132315   132308   132301   132295   132289   132284 
  132279   132275   132275   132274   132270   132268   132269   132268 
  132267   132268   132269   132271   132274   132277   132281   132286 
  132291   132296   132300   132305   132312   132316   132325   132337 
  132347   132358   132370   132377   132382   132387   132390   132392 
  132393   132394   132395   132393   132390   132388   132388   132387 
  132387   132389   132391   132397   132405   132413   132423   132434 
  132448   132459   132469   132479   132488   132492   132496   132499 
  132500   132499   132495   132491   132489   132486   132482   132479 
  132476   132473   132468   132464   132463   132460   132457   132451 
  132443   132439   132435   132426   132417   132412   132405   132396 
  132389   132384   132381   132381   132385   132389   132391   132392 
  132395   132397   132400   132401   132399   132399   132399   132396 
  132393   132389   132386   132382   132376   132372   132371   132369 
  132368   132373   132379   132384   132392   132403   132413   132424 
  132433   132438   132441   132448   132454   132457   132460   132464 
  132469   132471   132473   132477   132482   132487   132493   132499 
  132504   132509   132510   132512   132512   132512   132512   132511 
  132510   132510   132508   132506   132506   132506   132506   132506 
  132503   132500   132499   132497   132494   132493   132492   132489 
  132488   132486   132482   132478   132471   132462   132455   132448 
  132441   132436   132431   132425   132419   132412   132404   132396 
  132386   132375   132364   132353   132342   132327   132313   132302 
  132291   132281   132275   132272   132270   132270   132272   132277 
  132282   132289   132296   132304   132311   132319   132328   132336 
  132345   132354   132361   132366   132371   132373   132374   132376 
  132377   132378   132379   132379   132378   132378   132379   132380 
  132380   132381   132382   132384   132387   132384   132381   132383 
  132382   132378   132378   132377   132373   132370   132367   132365 
  132365   132365   132369   132375   132381   132390   132401   132410 
  132417   132422   132425   132428   132431   132432   132432   132430 
  132426   132425   132422   132417   132414   132410   132404   132402 
  132402   132399   132396   132397   132398   132396   132397   132397 
  132396   132396   132396   132397   132401   132405   132406   132407 
  132410   132410   132408   132406   132405   132402   132396   132389 
  132380   132371   132365   132358   132349   132341   132335   132328 
  132322   132319   132318   132319   132323   132328   132334   132341 
  132350   132361   132371   132381   132392   132401   132411   132423 
  132430   132438   132448   132454   132457   132464   132471   132476 
  132478   132483   132486   132488   132491   132492   132490   132486 
  132484   132482   132477   132469   132464   132454   132444   132435 
  132424   132411   132400   132390   132381   132373   132365   132361 
  132359   132357   132356   132359   132362   132365   132370   132375 
  132379   132385   132394   132402   132408   132415   132423   132428 
  132434   132443   132452   132458   132464   132470   132478   132483 
  132486   132489   132490   132487   132486   132488   132486   132482 
  132476   132466   132454   132444   132433   132420   132407   132398 
  132392   132386   132383   132382   132384   132388   132392   132397 
  132402   132407   132412   132415   132415   132415   132416   132417 
  132413   132407   132402   132396   132386   132376   132366   132356 
  132346   132333   132319   132307   132294   132281   132268   132255 
  132240   132224   132208   132195   132184   132173   132163   132154 
  132146   132136   132127   132124   132119   132113   132108   132101 
  132094   132093   132096   132102   132107   132114   132125   132134 
  132144   132157   132173   132191   132211   132228   132244   132263 
  132284   132302   132321   132338   132353   132367   132377   132388 
  132398   132405   132412   132418   132421   132424   132428   132433 
  132439   132443   132446   132449   132451   132455   132460   132462 
  132464   132468   132468   132467   132472   132472   132469   132467 
  132462   132459   132459   132456   132455   132456   132453   132449 
  132448   132448   132445   132444   132441   132434   132427   132421 
  132413   132406   132399   132387   132378   132373   132364   132355 
  132351   132346   132341   132339   132340   132341   132344   132350 
  132354   132357   132359   132362   132364   132366   132369   132373 
  132376   132380   132384   132387   132390   132393   132398   132404 
  132409   132414   132420   132428   132433   132437   132440   132441 
  132439   132435   132433   132430   132428   132426   132420   132414 
  132414   132411   132411   132417   132422   132425   132433   132441 
  132447   132457   132470   132481   132493   132506   132517   132527 
  132533   132537   132539   132538   132536   132531   132522   132514 
  132505   132495   132485   132475   132467   132464   132460   132452 
  132445   132442   132438   132431   132427   132428   132428   132424 
  132420   132419   132421   132421   132419   132422   132429   132434 
  132435   132434   132430   132426   132420   132413   132407   132400 
  132389   132379   132371   132362   132352   132340   132328   132321 
  132316   132308   132302   132297   132294   132293   132291   132290 
  132291   132293   132294   132294   132294   132296   132300   132305 
  132316   132330   132342   132354   132370   132387   132400   132411 
  132421   132429   132433   132435   132437   132435   132431   132426 
  132420   132411   132401   132398   132399   132395   132393   132396 
  132399   132400   132400   132401   132404   132407   132408   132409 
  132410   132410   132412   132415   132416   132414   132413   132414 
  132413   132411   132410   132409   132407   132404   132399   132393 
  132386   132381   132377   132368   132357   132347   132336   132322 
  132311   132302   132293   132285   132281   132277   132273   132273 
  132275   132278   132283   132288   132292   132297   132303   132306 
  132309   132312   132314   132316   132320   132325   132327   132327 
  132325   132320   132316   132314   132308   132300   132296   132290 
  132281   132277   132273   132269   132266   132267   132271   132275 
  132280   132287   132293   132299   132303   132306   132311   132317 
  132321   132321   132319   132319   132317   132313   132309   132307 
  132304   132298   132294   132287   132281   132276   132268   132260 
  132256   132253   132250   132249   132247   132244   132242   132240 
  132240   132240   132242   132247   132253   132260   132271   132280 
  132290   132302   132316   132331   132345   132359   132377   132395 
  132413   132431   132448   132463   132477   132489   132498   132505 
  132511   132517   132525   132528   132528   132527   132523   132517 
  132508   132499   132491   132483   132474   132469   132463   132456 
  132452   132450   132449   132450   132455   132461   132467   132476 
  132485   132495   132503   132508   132514   132518   132521   132526 
  132530   132531   132533   132534   132535   132534   132534   132534 
  132533   132532   132532   132533   132532   132532   132532   132531 
  132528   132526   132523   132521   132519   132515   132513   132512 
  132509   132506   132505   132503   132501   132500   132498   132496 
  132498   132500   132501   132501   132503   132507   132508   132507 
  132508   132507   132505   132502   132499   132495   132492   132489 
  132483   132478   132472   132469   132465   132458   132457   132463 
  132467   132471   132476   132484   132491   132497   132502   132506 
  132507   132511   132512   132512   132512   132512   132510   132505 
  132498   132493   132486   132478   132469   132456   132441   132426 
  132414   132402   132392   132382   132373   132364   132356   132350 
  132345   132342   132338   132333   132328   132326   132326   132328 
  132334   132341   132347   132352   132358   132365   132372   132377 
  132382   132386   132388   132389   132392   132393   132391   132385 
  132379   132373   132365   132359   132351   132340   132330   132316 
  132300   132281   132262   132245   132231   132217   132205   132192 
  132181   132175   132174   132173   132176   132181   132186   132193 
  132199   132203   132209   132214   132217   132220   132223   132225 
  132225   132225   132226   132226   132227   132224   132221   132220 
  132218   132216   132221   132228   132234   132241   132246   132252 
  132261   132268   132274   132282   132291   132296   132301   132306 
  132312   132318   132324   132330   132340   132349   132356   132361 
  132366   132374   132384   132391   132399   132406   132411   132413 
  132417   132422   132427   132431   132433   132434   132434   132431 
  132427   132423   132415   132405   132392   132380   132367   132352 
  132336   132321   132308   132298   132292   132289   132286   132281 
  132275   132272   132271   132271   132270   132267   132263   132258 
  132256   132254   132250   132245   132241   132235   132230   132226 
  132220   132215   132211   132208   132206   132206   132209   132211 
  132214   132217   132219   132222   132224   132227   132232   132237 
  132241   132246   132249   132251   132254   132258   132260   132261 
  132264   132269   132273   132277   132283   132288   132294   132297 
  132295   132293   132291   132287   132284   132281   132278   132278 
  132281   132287   132297   132308   132319   132334   132350   132363 
