Origin Time       2013/10/26 02:10:00
Lat.              37.195
Long.             144.568
Depth. (km)       56
Mag.              7.1
Station Code      GIFH25
Station Lat.      35.5214
Station Long.     136.6127
Station Height(m) 75
Record Time       2013/10/26 02:12:03
Sampling Freq(Hz) 100Hz
Duration Time(s)  131
Dir.              5
Scale Factor      3920(gal)/6170801
Max. Acc. (gal)   0.357
Last Correction   2013/10/26 02:11:48
Memo.             
[...]
     799      801      798      795      800      802      794      793 
     796      797      797      798      797      796      793      796 
     800      801      800      799      797      795      794      795 
     795      797      799      798      798      798      798      797 
     795      797      800      795      793      799      802      799 
     796      795      794      795      799      803      802      798 
     795      797      801      800      795      794      794      795 
     795      796      798      797      797      799      800      801 
     800      797      797      797      796      799      800      796 
     792      791      795      797      796      797      800      801 
     800      799      798      798      798      794      793      795 
     799      800      797      797      798      796      796      799 
     800      798      798      799      797      794      795      798 
     798      797      797      796      797      798      797      797 
     799      801      799      797      796      794      794      795 
     796      797      797      797      800      803      802      799 
     797      796      797      798      797      797      797      795 
     794      796      795      794      795      797      797      798 
     799      799      798      796      795      795      793      793 
     797      798      797      799      798      797      798      798 
     798      799      798      797      796      795      795      796 
     796      798      799      796      794      794      799      802 
     802      800      797      793      792      794      793      790 
     794      799      798      799      803      802      800      799 
     797      795      794      796      799      801      799      793 
     791      793      795      797      798      799      800      798 
     795      798      799      795      794      797      797      794 
     795      797      798      799      798      796      794      793 
     796      798      797      795      796      796      797      800 
     797      793      794      795      795      798      801      799 
     797      798      797      795      795      794      793      794 
     792      793      799      803      803      802      799      799 
     799      798      798      799      798      796      794      795 
     794      794      796      796      795      798      800      799 
     801      801      797      796      794      792      794      797 
     798      796      796      798      797      796      797      795 
     797      800      799      797      796      794      796      799 
     797      796      797      798      797      798      799      798 
     797      798      799      795      790      792      794      794 
     798      801      797      794      797      801      802      798 
     797      797      796      796      799      799      795      793 
     794      792      793      799      799      796      798      798 
     794      796      798      796      795      794      793      795 
     796      797      799      801      798      795      796      797 
     795      797      798      796      796      796      794      796 
     798      796      795      799      801      799      797      796 
     798      799      797      794      793      794      793      793 
     795      798      800      801      801      800      796      794 
     795      797      799      800      797      794      794      794 
     794      794      795      796      796      796      800      803 
     798      793      796      796      794      795      796      796 
     798      798      798      797      796      794      795      799 
     798      797      798      798      796      796      796      794 
     794      793      794      800      802      800      797      795 
     794      797      800      797      793      791      790      791 
     795      798      801      802      799      797      798      797 
     798      800      797      797      798      793      792      795 
     794      792      796      797      798      799      798      800 
     801      795      794      796      795      795      797      796 
     796      798      800      798      796      795      795      796 
     797      797      797      797      795      794      797      798 
     797      795      795      798      800      799      798      799 
     797      794      795      796      793      791      793      795 
     796      798      803      806      802      798      797      795 
     793      796      799      799      797      795      793      794 
     795      795      795      798      800      801      800      800 
     799      796      794      796      796      795      797      798 
     795      796      799      798      797      798      797      796 
     797      798      799      798      797      795      795      795 
     794      794      799      801      799      800      799      797 
     797      794      793      794      793      794      795      795 
     798      800      797      797      799      800      800      798 
     794      792      796      796      794      794      792      791 
     793      795      796      798      800      798      796      797 
     797      797      795      792      792      793      793      796 
     799      799      796      793      793      794      794      798 
     802      797      792      792      794      793      794      798 
     798      795      796      797      796      797      797      796 
     796      795      793      794      792      790      791      794 
     796      800      801      799      795      792      792      793 
     791      793      795      794      794      792      789      787 
     791      793      794      797      796      792      793      794 
     790      789      788      786      785      789      792      791 
     789      787      783      783      785      786      788      788 
     784      783      784      783      782      785      786      783 
     782      782      783      787      789      788      785      783 
     783      782      782      781      782      784      786      786 
     787      790      792      791      790      791      792      793 
     791      790      792      791      786      787      792      795 
     794      792      791      791      795      796      794      792 
     791      791      789      788      791      790      787      784 
     785      786      789      791      790      791      792      789 
     783      784      787      785      786      789      786      786 
     787      785      784      784      782      785      788      788 
     787      787      785      786      788      790      794      799 
     801      800      799      798      792      785      777      773 
     773      778      788      800      805      805      804      799 
     790      782      776      778      786      792      795      798 
     801      798      789      782      780      779      783      794 
     799      801      805      804      801      804      805      800 
     794      788      783      788      795      803      816      829 
     834      835      834      827      819      815      810      805 
     803      801      799      801      811      824      837      850 
     857      853      846      834      816      805      806      810 
     817      819      812      800      784      770      764      768 
     782      806      832      847      850      849      844      838 
     834      821      797      775      759      747      739      736 
     741      754      769      783      797      807      816      827 
     835      839      840      831      816      804      785      768 
     762      761      767      777      780      780      789      806 
     831      858      877      873      852      830      811      791 
     776      765      759      762      775      791      802      807 
     810      813      815      824      844      867      881      883 
     878      852      811      766      720      686      679      696 
     735      786      832      856      847      810      763      723 
     708      719      752      795      825      833      826      810 
     787      769      757      753      765      790      811      817 
     809      787      758      730      704      679      667      671 
     681      698      734      780      821      856      879      880 
     860      828      787      748      722      707      697      693 
     688      678      668      663      671      696      725      743 
     756      757      751      755      771      788      806      821 
     821      796      751      703      671      674      708      756 
     807      847      861      850      818      777      745      727 
     729      747      769      784      784      778      781      797 
     818      834      833      811      781      758      742      728 
     720      721      733      757      782      792      786      773 
     765      767      770      774      781      789      802      812 
     810      795      766      722      675      638      628      651 
     705      775      836      874      887      876      852      826 
     803      790      788      789      790      793      789      779 
     777      792      823      851      860      842      803      771 
     766      786      818      838      824      785      743      711 
     704      733      776      817      848      852      826      796 
     779      780      793      812      827      829      811      781 
     751      739      751      783      825      869      904      919 
     912      888      860      840      832      835      841      847 
     856      872      898      929      957      975      982      983 
     978      967      952      929      899      866      833      803 
     786      775      765      761      762      765      767      771 
     779      788      807      838      875      912      936      939 
     934      924      898      854      790      710      636      593 
     579      583      602      630      661      715      801      898 
     983     1036     1043     1020      995      979      968      954 
     910      828      735      662      628      645      707      795 
     883      944      967      961      934      905      886      884 
     897      913      911      879      821      754      706      693 
     710      733      740      727      705      690      690      698 
     707      713      723      753      806      865      906      924 
     931      947      973      992      990      962      912      861 
     826      800      774      746      713      685      669      666 
     691      755      846      946     1022     1042      995      902 
     789      685      617      593      608      645      688      732 
     775      814      844      863      859      828      783      748 
     748      779      823      865      894      901      891      883 
     881      869      837      781      710      657      646      676 
     720      748      741      703      665      656      682      738 
     803      839      822      759      679      620      600      604 
     616      624      620      611      620      656      707      756 
     784      779      739      675      619      616      680      780 
     878      940      947      899      821      752      724      744 
     799      864      903      898      866      824      783      753 
     731      724      745      776      794      786      750      707 
     676      664      682      728      775      798      790      757 
     714      677      664      684      732      783      810      799 
     751      689      646      637      652      667      664      646 
     628      622      635      666      711      751      759      721 
     662      616      606      637      694      742      750      722 
     689      692      751      836      906      934      900      809 
     687      571      490      457      459      491      559      649 
     727      764      750      698      640      614      648      730 
     830      928     1018     1097     1153     1169     1135     1055 
     935      796      669      571      519      526      587      683 
     785      853      857      807      736      682      674      710 
     762      813      849      857      842      817      785      765 
     786      855      954     1063     1161     1215     1199     1119 
    1005      900      826      766      697      620      544      483 
     453      469      519      586      668      756      821      843 
     824      784      751      739      751      774      798      819 
     826      818      807      797      795      822      887      979 
    1065     1118     1130     1104     1055     1013      992      982 
     961      916      855      809      792      794      806      835 
     874      910      934      930      885      806      710      613 
     528      463      424      413      430      480      571      690 
     809      902      954      959      923      863      816      822 
     892     1002     1099     1135     1090      995      910      886 
     940     1055     1185     1287     1346     1358     1321     1243 
    1149     1061      983      922      877      844      842      878 
     937     1000     1033     1024      999      983      994     1049 
    1127     1183     1193     1149     1063      971      907      884 
     902      935      950      933      883      794      661      506 
     373      307      342      464      621      761      858      925 
     979     1014     1007      953      863      759      668      604 
     568      555      571      617      681      740      758      719 
     648      583      554      572      626      688      734      755 
     753      738      721      704      691      681      669      650 
     631      619      609      599      591      593      604      632 
     688      778      882      980     1056     1091     1076     1028 
     980      964      988     1029     1042     1013      969      953 
     982     1034     1080     1101     1082     1021      922      793 
     668      577      537      549      588      614      604      573 
     559      586      658      764      884      997     1076     1100 
    1066      983      873      766      695      676      698      726 
     727      693      634      581      576      637      744      846 
     894      867      784      679      578      508      478      475 
     495      544      609      676      738      778      795      807 
     821      832      847      866      879      880      866      826 
     747      631      517      447      441      503      609      728 
     842      935      986      993      961      890      794      719 
     710      778      894     1017     1092     1082     1000      884 
     770      679      610      557      530      553      635      758 
     891      991     1030     1022      998      974      950      918 
     881      861      863      871      863      828      769      703 
     659      661      719      818      929     1012     1029      972 
     868      752      659      613      620      683      791      917 
    1034     1129     1178     1170     1122     1056      992      954 
     953      985     1022     1028      984      894      787      698 
     651      646      661      679      696      701      707      734 
     768      798      811      785      725      666      633      654 
     741      858      953      997      974      893      790      716 
     694      710      730      737      732      722      710      701 
     698      698      701      700      681      650      621      610 
     621      634      646      679      731      779      811      822 
     809      769      710      647      601      589      614      666 
     730      796      866      943     1022     1093     1134     1139 
    1119     1072     1007      941      874      812      760      698 
     624      555      505      480      479      494      510      527 
     547      580      632      697      763      827      893      963 
    1031     1073     1061     1002      912      801      694      600 
     514      444      405      426      523      666      810      947 
    1082     1196     1259     1251     1180     1075      969      889 
     846      830      812      769      717      677      662      683 
     728      764      768      732      669      625      625      667 
     752      871     1000     1105     1146     1103      998      863 
     740      681      704      779      865      913      903      852 
     790      743      723      738      786      844      886      892 
     860      810      787      826      922     1033     1115     1141 
    1104     1025      937      862      799      736      677      637 
     627      641      677      738      831      951     1060     1112 
    1088     1003      891      784      695      627      567      510 
     457      411      383      388      431      510      617      729 
     821      885      926      952      981     1026     1077     1109 
    1091     1010      886      753      628      537      510      556 
     664      803      922      964      905      785      666      591 
     566      579      612      661      734      843      971     1084 
    1158     1176     1138     1061      968      886      830      790 
     746      686      605      508      422      389      421      499 
     599      683      719      709      672      630      597      581 
     583      604      641      695      770      871      979     1071 
    1150     1214     1255     1269     1256     1222     1169     1095 
    1008      919      849      803      762      701      618      538 
     501      517      561      586      564      490      395      329 
     317      352      424      519      623      728      818      865 
     861      825      779      741      729      751      795      840 
     861      843      795      740      707      715      765      838 
     905      941      925      854      760      681      633      626 
     661      723      799      882      950      979      977      959 
     920      856      778      701      644      617      626      669 
     732      791      828      839      822      787      752      728 
     710      681      637      590      557      545      562      616 
     712      831      943     1023     1064     1074     1067     1058 
    1052     1040     1018      994      973      958      953      962 
     990     1026     1051     1055     1044     1032     1033     1047 
    1074     1113     1148     1167     1168     1147     1101     1040 
     974      890      786      696      652      653      683      714 
     727      727      721      715      718      731      745      760 
     775      781      773      752      731      720      716      712 
