Origin Time       2013/10/26 02:10:00
Lat.              37.195
Long.             144.568
Depth. (km)       56
Mag.              7.1
Station Code      GIFH25
Station Lat.      35.5214
Station Long.     136.6127
Station Height(m) 75
Record Time       2013/10/26 02:12:03
Sampling Freq(Hz) 100Hz
Duration Time(s)  131
Dir.              4
Scale Factor      3920(gal)/6170801
Max. Acc. (gal)   0.372
Last Correction   2013/10/26 02:11:48
Memo.             
[...]
   -6979    -6980    -6979    -6978    -6978    -6978    -6976    -6973 
   -6974    -6974    -6971    -6971    -6971    -6969    -6972    -6979 
   -6981    -6981    -6981    -6979    -6976    -6974    -6974    -6974 
   -6970    -6966    -6964    -6963    -6962    -6965    -6969    -6970 
   -6974    -6979    -6982    -6984    -6982    -6977    -6971    -6965 
   -6961    -6961    -6962    -6964    -6968    -6970    -6972    -6974 
   -6972    -6971    -6975    -6982    -6986    -6986    -6986    -6985 
   -6980    -6976    -6974    -6966    -6960    -6959    -6961    -6966 
   -6975    -6983    -6986    -6989    -6991    -6992    -6991    -6985 
   -6978    -6973    -6967    -6963    -6966    -6971    -6976    -6980 
   -6980    -6976    -6972    -6970    -6970    -6973    -6982    -6990 
   -6992    -6991    -6989    -6984    -6973    -6962    -6953    -6945 
   -6943    -6946    -6947    -6953    -6964    -6971    -6976    -6985 
   -6989    -6987    -6989    -6988    -6980    -6972    -6966    -6961 
   -6961    -6964    -6964    -6959    -6953    -6947    -6945    -6948 
   -6953    -6959    -6969    -6982    -6995    -7006    -7015    -7018 
   -7012    -6997    -6980    -6957    -6934    -6920    -6915    -6919 
   -6935    -6956    -6977    -6994    -7005    -7012    -7018    -7011 
   -6998    -6992    -6988    -6981    -6976    -6970    -6959    -6953 
   -6947    -6939    -6932    -6926    -6922    -6928    -6942    -6965 
   -6994    -7022    -7041    -7052    -7055    -7044    -7023    -6999 
   -6967    -6933    -6908    -6890    -6883    -6898    -6928    -6963 
   -6996    -7022    -7034    -7033    -7016    -6994    -6977    -6970 
   -6979    -7001    -7021    -7032    -7031    -7011    -6979    -6947 
   -6921    -6904    -6904    -6923    -6951    -6983    -7011    -7025 
   -7032    -7029    -7010    -6980    -6947    -6914    -6894    -6894 
   -6909    -6935    -6963    -6980    -6983    -6975    -6961    -6943 
   -6929    -6921    -6926    -6947    -6973    -6995    -7008    -7007 
   -6993    -6974    -6956    -6944    -6943    -6951    -6964    -6972 
   -6975    -6977    -6975    -6970    -6969    -6973    -6977    -6981 
   -6983    -6981    -6983    -6989    -6992    -6998    -7013    -7031 
   -7043    -7046    -7034    -7010    -6985    -6969    -6967    -6973 
   -6979    -6980    -6979    -6974    -6968    -6966    -6966    -6968 
   -6976    -6986    -6998    -7013    -7029    -7043    -7049    -7043 
   -7024    -6990    -6945    -6901    -6865    -6848    -6856    -6886 
   -6930    -6976    -7012    -7029    -7029    -7013    -6986    -6955 
   -6933    -6924    -6921    -6929    -6944    -6959    -6973    -6991 
   -7004    -7007    -7006    -7002    -6993    -6984    -6982    -6984 
   -6987    -6988    -6985    -6980    -6974    -6963    -6947    -6935 
   -6929    -6928    -6927    -6925    -6925    -6928    -6938    -6958 
   -6988    -7020    -7040    -7036    -7011    -6978    -6950    -6938 
   -6948    -6976    -7016    -7056    -7080    -7076    -7043    -6999 
   -6960    -6934    -6928    -6937    -6944    -6947    -6944    -6942 
   -6951    -6974    -6999    -7021    -7041    -7059    -7067    -7067 
   -7067    -7064    -7053    -7037    -7020    -6997    -6977    -6968 
   -6964    -6957    -6948    -6940    -6938    -6942    -6947    -6957 
   -6977    -7000    -7017    -7021    -7012    -7001    -6986    -6961 
   -6931    -6906    -6884    -6867    -6855    -6845    -6845    -6860 
   -6892    -6942    -6997    -7036    -7049    -7036    -7008    -6977 
   -6948    -6921    -6896    -6876    -6861    -6850    -6848    -6863 
   -6891    -6931    -6985    -7041    -7091    -7136    -7166    -7178 
   -7179    -7169    -7145    -7105    -7052    -6992    -6932    -6880 
   -6842    -6818    -6808    -6817    -6844    -6894    -6963    -7033 
   -7084    -7102    -7082    -7036    -6992    -6957    -6936    -6940 
   -6949    -6946    -6933    -6909    -6881    -6868    -6869    -6880 
   -6902    -6929    -6953    -6972    -6980    -6977    -6973    -6975 
   -6985    -7004    -7031    -7053    -7063    -7054    -7029    -6997 
   -6966    -6938    -6918    -6908    -6907    -6919    -6946    -6975 
   -7004    -7030    -7049    -7062    -7074    -7084    -7084    -7070 
   -7046    -7023    -7002    -6979    -6958    -6935    -6905    -6879 
   -6863    -6861    -6882    -6919    -6957    -6990    -7009    -7005 
   -6993    -6978    -6952    -6922    -6896    -6867    -6840    -6818 
   -6797    -6778    -6762    -6752    -6751    -6764    -6796    -6850 
   -6923    -6996    -7051    -7087    -7098    -7084    -7059    -7033 
   -7013    -7006    -7010    -7021    -7043    -7071    -7093    -7114 
   -7129    -7120    -7083    -7028    -6974    -6949    -6973    -7037 
   -7115    -7179    -7206    -7187    -7130    -7055    -6978    -6912 
   -6868    -6839    -6821    -6827    -6864    -6929    -7012    -7085 
   -7125    -7123    -7077    -7002    -6926    -6871    -6846    -6843 
   -6848    -6849    -6840    -6824    -6803    -6785    -6782    -6808 
   -6863    -6934    -7002    -7052    -7077    -7087    -7092    -7093 
   -7094    -7105    -7129    -7158    -7182    -7185    -7165    -7126 
   -7076    -7018    -6958    -6905    -6874    -6866    -6866    -6870 
   -6883    -6905    -6939    -6988    -7038    -7079    -7103    -7105 
   -7087    -7055    -7012    -6965    -6921    -6878    -6838    -6805 
   -6782    -6762    -6742    -6728    -6733    -6769    -6832    -6911 
   -7005    -7108    -7205    -7280    -7326    -7339    -7319    -7266 
   -7181    -7084    -6995    -6925    -6878    -6849    -6833    -6833 
   -6847    -6872    -6907    -6943    -6967    -6981    -6985    -6981 
   -6979    -6982    -6977    -6955    -6922    -6889    -6867    -6870 
   -6892    -6919    -6943    -6961    -6973    -6986    -7005    -7023 
   -7035    -7038    -7029    -7017    -7016    -7030    -7052    -7076 
   -7082    -7048    -6988    -6921    -6861    -6829    -6838    -6888 
   -6977    -7090    -7195    -7257    -7264    -7211    -7106    -6977 
   -6854    -6755    -6690    -6659    -6664    -6706    -6775    -6849 
   -6919    -6985    -7051    -7125    -7189    -7224    -7228    -7197 
   -7137    -7079    -7047    -7045    -7063    -7082    -7082    -7044 
   -6967    -6875    -6790    -6721    -6682    -6686    -6721    -6772 
   -6831    -6884    -6916    -6926    -6920    -6908    -6897    -6890 
   -6877    -6851    -6824    -6808    -6816    -6858    -6939    -7048 
   -7155    -7217    -7211    -7151    -7070    -7001    -6976    -7006 
   -7088    -7199    -7298    -7353    -7354    -7301    -7218    -7138 
   -7070    -7017    -6993    -6998    -7008    -7013    -7015    -7015 
   -7020    -7024    -7015    -6986    -6944    -6902    -6878    -6888 
   -6932    -6995    -7053    -7080    -7069    -7025    -6962    -6892 
   -6837    -6807    -6796    -6791    -6789    -6779    -6748    -6710 
   -6676    -6652    -6644    -6667    -6731    -6829    -6943    -7058 
   -7156    -7207    -7190    -7111    -6994    -6887    -6824    -6805 
   -6830    -6886    -6945    -6977    -6979    -6959    -6936    -6925 
   -6931    -6956    -7009    -7075    -7122    -7136    -7117    -7071 
   -7023    -6991    -6983    -7001    -7040    -7075    -7089    -7083 
   -7061    -7032    -7007    -6989    -6981    -6984    -6992    -7005 
   -7030    -7069    -7121    -7167    -7181    -7145    -7055    -6931 
   -6810    -6723    -6685    -6698    -6746    -6803    -6844    -6855 
   -6836    -6799    -6757    -6736    -6751    -6798    -6862    -6932 
   -6999    -7052    -7081    -7082    -7062    -7033    -6996    -6953 
   -6914    -6895    -6907    -6947    -6996    -7043    -7086    -7126 
   -7168    -7213    -7248    -7268    -7261    -7212    -7135    -7068 
   -7036    -7039    -7070    -7105    -7121    -7108    -7067    -7018 
   -6994    -7006    -7043    -7094    -7145    -7177    -7176    -7129 
   -7038    -6915    -6785    -6681    -6629    -6624    -6644    -6673 
   -6696    -6703    -6701    -6703    -6714    -6740    -6777    -6810 
   -6830    -6832    -6817    -6812    -6847    -6922    -7021    -7101 
   -7116    -7060    -6959    -6846    -6754    -6715    -6743    -6827 
   -6938    -7044    -7119    -7144    -7120    -7067    -7003    -6937 
   -6884    -6863    -6880    -6925    -6978    -7016    -7028    -7016 
   -6979    -6924    -6875    -6857    -6877    -6930    -7003    -7088 
   -7180    -7272    -7346    -7390    -7405    -7389    -7330    -7234 
   -7128    -7031    -6956    -6916    -6910    -6926    -6952    -6979 
   -7008    -7035    -7063    -7097    -7134    -7166    -7185    -7187 
   -7175    -7140    -7075    -6979    -6871    -6789    -6768    -6807 
   -6884    -6967    -7023    -7027    -6979    -6896    -6809    -6742 
   -6709    -6715    -6764    -6861    -6993    -7118    -7198    -7197 
   -7106    -6950    -6773    -6616    -6513    -6484    -6520    -6595 
   -6687    -6777    -6849    -6895    -6911    -6894    -6858    -6831 
   -6823    -6833    -6857    -6886    -6922    -6969    -7029    -7109 
   -7202    -7297    -7390    -7467    -7504    -7502    -7464    -7396 
   -7322    -7249    -7168    -7083    -7007    -6948    -6913    -6907 
   -6928    -6960    -6980    -6983    -6968    -6941    -6923    -6935 
   -6978    -7039    -7101    -7134    -7119    -7058    -6979    -6909 
   -6856    -6813    -6783    -6771    -6783    -6804    -6825    -6838 
   -6834    -6808    -6767    -6725    -6704    -6714    -6752    -6806 
   -6868    -6927    -6974    -7014    -7053    -7087    -7109    -7114 
   -7097    -7067    -7028    -6984    -6940    -6901    -6873    -6862 
   -6871    -6901    -6943    -6994    -7052    -7107    -7149    -7183 
   -7208    -7222    -7218    -7189    -7137    -7080    -7032    -6991 
   -6951    -6917    -6896    -6891    -6891    -6889    -6882    -6873 
   -6864    -6861    -6879    -6926    -6996    -7074    -7143    -7196 
   -7237    -7252    -7230    -7184    -7122    -7046    -6966    -6896 
   -6844    -6811    -6782    -6746    -6712    -6699    -6714    -6757 
   -6815    -6868    -6906    -6930    -6941    -6941    -6934    -6929 
   -6938    -6957    -6971    -6974    -6967    -6960    -6971    -7003 
   -7043    -7079    -7097    -7081    -7028    -6946    -6865    -6815 
   -6815    -6864    -6944    -7019    -7058    -7047    -6986    -6883 
   -6767    -6678    -6646    -6678    -6759    -6857    -6937    -6975 
   -6975    -6961    -6968    -7014    -7095    -7189    -7271    -7330 
   -7360    -7355    -7317    -7256    -7185    -7111    -7034    -6960 
   -6900    -6860    -6839    -6837    -6853    -6878    -6909    -6939 
   -6958    -6962    -6969    -6997    -7038    -7077    -7106    -7112 
   -7090    -7046    -6987    -6921    -6863    -6825    -6823    -6847 
   -6881    -6909    -6923    -6920    -6915    -6923    -6947    -6980 
   -7008    -7029    -7037    -7022    -6990    -6953    -6919    -6900 
   -6900    -6924    -6975    -7036    -7081    -7095    -7076    -7033 
   -6984    -6939    -6907    -6892    -6887    -6884    -6881    -6879 
   -6873    -6854    -6818    -6773    -6737    -6731    -6770    -6851 
   -6940    -6999    -7013    -7000    -6981    -6978    -6997    -7026 
   -7054    -7079    -7091    -7077    -7038    -6994    -6958    -6934 
   -6932    -6951    -6977    -6999    -7014    -7018    -7015    -7008 
   -6997    -6974    -6932    -6876    -6804    -6732    -6688    -6690 
   -6740    -6833    -6945    -7052    -7148    -7227    -7277    -7294 
   -7284    -7257    -7231    -7211    -7196    -7182    -7167    -7151 
   -7142    -7135    -7122    -7102    -7075    -7035    -6985    -6929 
   -6866    -6794    -6716    -6645    -6596    -6587    -6627    -6710 
   -6821    -6941    -7045    -7113    -7141    -7146    -7140    -7132 
   -7121    -7096    -7055    -7012    -6969    -6937    -6936    -6961 
   -6996    -7031    -7050    -7047    -7031    -7008    -6990    -6993 
   -7027    -7082    -7136    -7171    -7172    -7136    -7068    -6980 
   -6893    -6818    -6752    -6696    -6653    -6630    -6633    -6671 
   -6742    -6822    -6888    -6929    -6942    -6931    -6901    -6861 
   -6825    -6801    -6792    -6800    -6833    -6898    -6993    -7099 
   -7190    -7244    -7243    -7194    -7123    -7047    -6983    -6952 
   -6955    -6978    -6999    -7007    -7011    -7024    -7051    -7093 
   -7142    -7184    -7204    -7209    -7208    -7206    -7204    -7196 
   -7173    -7139    -7093    -7033    -6963    -6891    -6828    -6783 
   -6756    -6739    -6729    -6724    -6727    -6745    -6782    -6838 
   -6907    -6979    -7039    -7075    -7092    -7098    -7091    -7059 
   -6998    -6919    -6843    -6787    -6763    -6770    -6797    -6829 
   -6858    -6888    -6919    -6951    -6986    -7027    -7061    -7081 
   -7085    -7078    -7077    -7099    -7146    -7201    -7239    -7246 
   -7228    -7197    -7162    -7133    -7114    -7096    -7079    -7070 
   -7074    -7094    -7123    -7141    -7135    -7100    -7037    -6954 
   -6865    -6782    -6718    -6688    -6694    -6731    -6782    -6837 
   -6892    -6939    -6967    -6975    -6968    -6956    -6944    -6937 
   -6933    -6924    -6907    -6887    -6875    -6884    -6926    -6994 
   -7073    -7144    -7192    -7204    -7180    -7124    -7048    -6975 
   -6934    -6935    -6969    -7016    -7049    -7034    -6960    -6841 
   -6697    -6559    -6454    -6395    -6386    -6420    -6471    -6525 
   -6580    -6640    -6703    -6769    -6836    -6900    -6960    -7022 
   -7086    -7148    -7204    -7239    -7248    -7246    -7244    -7252 
   -7273    -7297    -7306    -7283    -7224    -7146    -7082    -7047 
   -7043    -7062    -7086    -7096    -7088    -7067    -7041    -7014 
   -6990    -6973    -6966    -6971    -6984    -6992    -6994    -6990 
   -6976    -6955    -6938    -6935    -6949    -6974    -7004    -7029 
   -7030    -6993    -6917    -6814    -6719    -6668    -6673    -6718 
   -6781    -6844    -6892    -6911    -6909    -6899    -6894    -6908 
   -6951    -7017    -7084    -7126    -7122    -7070    -6982    -6880 
   -6791    -6734    -6723    -6762    -6835    -6920    -7005    -7077 
   -7123    -7147    -7150    -7139    -7124    -7120    -7134    -7164 
   -7195    -7206    -7183    -7118    -7022    -6907    -6792    -6700 
   -6646    -6630    -6660    -6732    -6823    -6920    -7007    -7066 
   -7091    -7083    -7047    -7001    -6971    -6969    -6991    -7029 
   -7071    -7093    -7076    -7019    -6939    -6863    -6815    -6802 
   -6823    -6873    -6944    -7018    -7087    -7148    -7191    -7204 
   -7191    -7157    -7104    -7041    -6979    -6934    -6912    -6912 
   -6925    -6943    -6955    -6956    -6950    -6949    -6964    -6988 
   -6996    -6981    -6947    -6905    -6878    -6879    -6905    -6953 
   -7018    -7087    -7142    -7170    -7166    -7137    -7095    -7055 
   -7021    -6991    -6970    -6949    -6919    -6888    -6872    -6874 
   -6892    -6914    -6926    -6920    -6889    -6848    -6827    -6842 
   -6893    -6974    -7066    -7150    -7209    -7233    -7222    -7178 
   -7104    -7004    -6890    -6783    -6699    -6644    -6623    -6642 
   -6702    -6789    -6884    -6966    -7018    -7036    -7038    -7029 
   -7014    -7006    -7006    -7009    -7014    -7023    -7041    -7072 
   -7115    -7166    -7217    -7257    -7282    -7277    -7229    -7148 
   -7054    -6970    -6915    -6891    -6893    -6916    -6946    -6960 
   -6946    -6905    -6847    -6786    -6732    -6702    -6706    -6738 
   -6788    -6851    -6927    -7007    -7075    -7111    -7109    -7079 
   -7044    -7022    -7013    -7006    -6993    -6972    -6954    -6940 
   -6932    -6936    -6946    -6951    -6950    -6936    -6902    -6850 
   -6791    -6736    -6703    -6709    -6754    -6828    -6916    -6996 
   -7048    -7064    -7043    -6996    -6931    -6862    -6810    -6793 
   -6819    -6881    -6971    -7075    -7178    -7262    -7313    -7326 
   -7296    -7225    -7136    -7056    -7003    -6984    -6996    -7025 
   -7058    -7091    -7115    -7130    -7137    -7132    -7120    -7112 
   -7100    -7069    -7023    -6974    -6933    -6910    -6908    -6919 
   -6928    -6925    -6906    -6879    -6847    -6810    -6766    -6728 
   -6709    -6707    -6722    -6758    -6818    -6900    -6989    -7063 
   -7102    -7109    -7094    -7063    -7036    -7029    -7043    -7071 
   -7108    -7137    -7139    -7103    -7030    -6926    -6812    -6708 
   -6620    -6552    -6521    -6534    -6584    -6663    -6757    -6834 
   -6873    -6885    -6889    -6898    -6920    -6953    -6994    -7041 
   -7084    -7117    -7136    -7133    -7111    -7079    -7050    -7033 
   -7034    -7053    -7082    -7107    -7115    -7111    -7109    -7109 
   -7105    -7099    -7086    -7070    -7063    -7065    -7074    -7088 
   -7103    -7116    -7125    -7131    -7139    -7145    -7151    -7152 
   -7134    -7084    -7007    -6918    -6835    -6765    -6706    -6659 
   -6628    -6621    -6643    -6697    -6781    -6876    -6957    -7011 
   -7037    -7034    -7007    -6975    -6947    -6921    -6897    -6872 
   -6845    -6821    -6815    -6840    -6895    -6967    -7038    -7083 
   -7087    -7057    -6996    -6912    -6828    -6774    -6770    -6819 
   -6901    -6986    -7059    -7110    -7128    -7125    -7121    -7116 
   -7105    -7085    -7057    -7026    -7010    -7026    -7069    -7115 
   -7140    -7130    -7090    -7041    -7007    -6998    -7018    -7065 
   -7117    -7145    -7144    -7112    -7046    -6958    -6865    -6775 
   -6702    -6670    -6693    -6765    -6868    -6977    -7071    -7139 
   -7170    -7169    -7145    -7104    -7057    -7016    -6990    -6991 
   -7024    -7080    -7138    -7180    -7189    -7152    -7077    -6978 
   -6867    -6767    -6701    -6676    -6695    -6745    -6804    -6850 
   -6875    -6878    -6862    -6838    -6820    -6814    -6814    -6821 
   -6838    -6863    -6892    -6923    -6946    -6960    -6964    -6954 
   -6933    -6903    -6864    -6817    -6774    -6741    -6728    -6746 
   -6802    -6887    -6990    -7097    -7185    -7230    -7221    -7168 
   -7084    -6992    -6916    -6874    -6873    -6905    -6944    -6967 
   -6967    -6946    -6912    -6886    -6887    -6915    -6963    -7033 
   -7117    -7201    -7278    -7337    -7367    -7359    -7322    -7268 
   -7212    -7163    -7122    -7085    -7044    -7002    -6964    -6928 
   -6897    -6872    -6856    -6853    -6856    -6857    -6857    -6856 
   -6852    -6845    -6833    -6816    -6799    -6787    -6788    -6812 
   -6858    -6918    -6984    -7048    -7098    -7125    -7124    -7107 
   -7087    -7067    -7050    -7046    -7051    -7061    -7075    -7087 
   -7091    -7091    -7093    -7086    -7059    -7019    -6980    -6952 
   -6938    -6932    -6937    -6951    -6958    -6953    -6945    -6928 
   -6910    -6901    -6900    -6901    -6904    -6905    -6907    -6906 
   -6900    -6898    -6909    -6929    -6961    -7004    -7051    -7093 
   -7113    -7107    -7079    -7030    -6971    -6922    -6890    -6882 
   -6901    -6944    -6997    -7041    -7067    -7076    -7072    -7061 
   -7042    -7014    -6988    -6977    -6980    -6984    -6982    -6973 
