Origin Time       2013/10/26 02:10:00
Lat.              37.195
Long.             144.568
Depth. (km)       56
Mag.              7.1
Station Code      GIFH25
Station Lat.      35.5214
Station Long.     136.6127
Station Height(m) -27.5
Record Time       2013/10/26 02:12:03
Sampling Freq(Hz) 100Hz
Duration Time(s)  131
Dir.              3
Scale Factor      2940(gal)/6170270
Max. Acc. (gal)   0.274
Last Correction   2013/10/26 02:11:48
Memo.             
[...]
   84251    84254    84256    84253    84252    84254    84252    84250 
   84251    84251    84250    84251    84253    84254    84253    84251 
   84251    84251    84252    84252    84253    84251    84250    84252 
   84251    84249    84252    84253    84253    84253    84253    84253 
   84253    84251    84249    84250    84251    84250    84247    84249 
   84255    84256    84253    84252    84250    84250    84252    84252 
   84253    84251    84251    84251    84250    84250    84250    84250 
   84250    84250    84251    84251    84250    84251    84252    84250 
   84251    84252    84252    84251    84250    84250    84251    84251 
   84251    84251    84250    84248    84249    84251    84252    84251 
   84251    84252    84251    84251    84254    84252    84249    84249 
   84251    84251    84251    84250    84250    84250    84248    84250 
   84256    84254    84249    84253    84254    84250    84252    84252 
   84250    84252    84253    84252    84252    84251    84249    84250 
   84253    84255    84253    84251    84252    84252    84250    84250 
   84251    84251    84252    84253    84252    84251    84252    84252 
   84249    84249    84252    84251    84250    84253    84253    84250 
   84251    84253    84253    84253    84251    84250    84252    84253 
   84252    84251    84252    84253    84253    84252    84252    84253 
   84252    84251    84252    84251    84250    84253    84252    84250 
   84250    84252    84254    84253    84250    84251    84252    84253 
   84254    84254    84252    84252    84253    84253    84253    84251 
   84250    84250    84252    84254    84253    84252    84252    84252 
   84252    84252    84253    84253    84251    84251    84252    84252 
   84251    84252    84253    84252    84251    84251    84251    84252 
   84254    84253    84251    84251    84253    84253    84252    84252 
   84251    84252    84254    84253    84251    84253    84253    84251 
   84251    84253    84252    84252    84253    84253    84251    84251 
   84253    84253    84252    84254    84254    84252    84251    84252 
   84252    84252    84252    84251    84252    84253    84252    84253 
   84253    84252    84253    84254    84252    84251    84254    84254 
   84252    84253    84253    84252    84251    84252    84252    84252 
   84251    84251    84252    84253    84252    84251    84252    84252 
   84253    84253    84253    84252    84251    84251    84253    84255 
   84253    84251    84251    84253    84253    84254    84253    84252 
   84253    84255    84254    84252    84253    84253    84252    84252 
   84253    84253    84254    84252    84253    84254    84252    84251 
   84252    84253    84252    84251    84251    84252    84252    84250 
   84251    84253    84252    84253    84253    84253    84252    84250 
   84251    84253    84252    84251    84251    84252    84252    84253 
   84252    84252    84251    84250    84251    84250    84249    84250 
   84252    84252    84252    84252    84252    84252    84253    84252 
   84251    84252    84253    84255    84254    84252    84251    84252 
   84252    84252    84251    84252    84252    84252    84253    84254 
   84253    84254    84254    84252    84251    84252    84251    84252 
   84253    84253    84253    84250    84248    84250    84251    84251 
   84252    84252    84250    84251    84253    84252    84251    84253 
   84253    84252    84251    84251    84252    84252    84251    84252 
   84252    84250    84250    84251    84252    84252    84250    84253 
   84253    84250    84249    84252    84252    84252    84251    84250 
   84251    84254    84253    84252    84252    84252    84253    84253 
   84252    84252    84253    84252    84252    84253    84252    84250 
   84250    84250    84251    84253    84252    84250    84250    84250 
   84250    84252    84252    84250    84251    84252    84253    84253 
   84252    84251    84250    84251    84251    84250    84251    84253 
   84252    84251    84251    84252    84254    84255    84254    84253 
   84251    84249    84251    84252    84250    84250    84250    84250 
   84250    84251    84253    84252    84249    84251    84254    84253 
   84250    84251    84253    84252    84251    84250    84252    84253 
   84251    84251    84252    84252    84251    84251    84250    84249 
   84250    84251    84250    84250    84251    84251    84250    84250 
   84251    84251    84251    84251    84251    84251    84251    84251 
   84252    84252    84252    84253    84252    84253    84254    84251 
   84250    84253    84251    84249    84250    84250    84250    84251 
   84251    84250    84250    84251    84251    84249    84250    84251 
   84251    84250    84251    84253    84252    84250    84251    84251 
   84250    84253    84254    84251    84252    84252    84250    84249 
   84250    84252    84252    84251    84251    84251    84251    84252 
   84252    84251    84251    84251    84251    84251    84250    84249 
   84252    84253    84250    84250    84252    84251    84251    84251 
   84252    84251    84249    84250    84251    84251    84251    84251 
   84251    84252    84251    84251    84251    84251    84251    84249 
   84250    84252    84251    84250    84252    84252    84251    84252 
   84252    84251    84252    84250    84249    84250    84250    84252 
   84254    84253    84252    84250    84250    84251    84251    84252 
   84252    84251    84252    84252    84251    84252    84252    84250 
   84252    84254    84251    84249    84251    84252    84252    84252 
   84253    84252    84252    84253    84251    84250    84252    84251 
   84249    84251    84253    84253    84253    84252    84250    84251 
   84253    84252    84251    84252    84252    84251    84252    84253 
   84251    84252    84254    84252    84251    84253    84253    84253 
   84253    84255    84256    84256    84257    84256    84255    84257 
   84257    84257    84260    84261    84258    84259    84261    84260 
   84261    84263    84263    84262    84264    84264    84262    84263 
   84265    84265    84265    84265    84265    84266    84265    84264 
   84266    84267    84266    84266    84265    84266    84266    84264 
   84264    84264    84263    84263    84262    84261    84262    84261 
   84259    84258    84258    84258    84258    84259    84259    84256 
   84256    84256    84254    84253    84254    84254    84253    84253 
   84252    84252    84252    84250    84250    84254    84256    84256 
   84258    84259    84258    84259    84258    84260    84262    84262 
   84260    84258    84257    84258    84257    84256    84259    84262 
   84262    84263    84265    84266    84268    84268    84267    84267 
   84267    84266    84265    84263    84259    84257    84256    84255 
   84254    84255    84257    84258    84261    84264    84265    84264 
   84262    84258    84256    84253    84252    84253    84252    84253 
   84253    84251    84252    84254    84255    84258    84261    84264 
   84264    84262    84263    84263    84259    84255    84254    84253 
   84254    84255    84256    84257    84257    84258    84259    84262 
   84263    84262    84262    84258    84251    84248    84249    84245 
   84237    84234    84235    84233    84233    84236    84238    84241 
   84245    84247    84248    84248    84244    84236    84227    84219 
   84214    84209    84203    84198    84195    84194    84191    84194 
   84201    84212    84223    84233    84241    84245    84249    84251 
   84249    84248    84247    84242    84235    84227    84217    84210 
   84208    84209    84215    84225    84235    84247    84262    84275 
   84283    84288    84293    84294    84291    84284    84274    84262 
   84250    84242    84236    84231    84233    84240    84246    84256 
   84269    84280    84290    84301    84306    84302    84288    84269 
   84252    84237    84223    84213    84204    84195    84190    84193 
   84201    84210    84221    84230    84237    84251    84267    84277 
   84283    84283    84274    84259    84240    84221    84205    84192 
   84186    84186    84190    84199    84208    84214    84220    84225 
   84231    84241    84256    84272    84285    84293    84297    84295 
   84290    84287    84290    84297    84302    84302    84297    84289 
   84281    84274    84269    84263    84261    84260    84260    84262 
   84265    84264    84261    84258    84256    84258    84264    84275 
   84289    84298    84303    84307    84308    84306    84303    84299 
   84293    84286    84281    84281    84284    84292    84304    84312 
   84318    84322    84324    84323    84323    84323    84326    84330 
   84330    84327    84321    84311    84303    84297    84295    84297 
   84304    84315    84325    84330    84330    84324    84320    84321 
   84322    84321    84319    84315    84308    84294    84278    84265 
   84258    84257    84259    84259    84259    84255    84244    84234 
   84228    84224    84223    84221    84217    84216    84220    84229 
   84239    84247    84254    84262    84268    84274    84277    84278 
   84277    84271    84266    84265    84265    84265    84267    84272 
   84280    84291    84307    84320    84325    84328    84327    84321 
   84311    84302    84297    84294    84291    84287    84279    84273 
   84274    84279    84283    84291    84301    84308    84311    84303 
   84285    84267    84252    84241    84233    84225    84213    84198 
   84184    84179    84186    84202    84218    84231    84242    84248 
   84248    84253    84265    84283    84300    84309    84306    84295 
   84278    84255    84234    84221    84211    84202    84196    84192 
   84191    84190    84193    84200    84207    84215    84226    84235 
   84242    84245    84242    84235    84226    84219    84212    84209 
   84207    84203    84203    84207    84211    84209    84200    84187 
   84170    84150    84130    84111    84095    84077    84055    84030 
   84010    84008    84022    84042    84070    84104    84139    84177 
   84211    84236    84254    84264    84262    84250    84236    84219 
   84196    84177    84170    84174    84190    84217    84251    84289 
   84330    84378    84425    84457    84465    84454    84431    84405 
   84378    84349    84308    84252    84192    84139    84105    84101 
   84122    84149    84169    84180    84185    84185    84188    84194 
   84204    84215    84225    84228    84218    84200    84180    84162 
   84145    84138    84139    84139    84134    84123    84107    84096 
   84099    84119    84154    84194    84230    84263    84295    84319 
   84338    84346    84341    84327    84313    84304    84301    84297 
   84282    84258    84237    84230    84236    84248    84261    84273 
   84284    84294    84301    84304    84304    84296    84281    84258 
   84228    84193    84161    84141    84136    84144    84160    84173 
   84180    84191    84208    84230    84254    84276    84289    84290 
   84279    84263    84251    84246    84244    84240    84239    84239 
   84240    84250    84270    84289    84303    84305    84295    84282 
   84272    84271    84281    84291    84293    84285    84277    84279 
   84289    84306    84321    84325    84312    84289    84272    84275 
   84294    84322    84353    84372    84371    84365    84370    84385 
   84404    84417    84419    84406    84383    84365    84356    84355 
   84365    84377    84378    84371    84354    84327    84303    84293 
   84294    84296    84296    84294    84287    84273    84256    84246 
   84249    84252    84252    84250    84236    84211    84185    84161 
   84137    84115    84106    84117    84146    84192    84242    84283 
   84314    84336    84352    84368    84387    84413    84440    84457 
   84456    84441    84412    84380    84360    84358    84366    84374 
   84371    84351    84316    84276    84245    84227    84218    84216 
   84215    84212    84214    84218    84219    84223    84226    84230 
   84233    84239    84260    84303    84362    84426    84485    84530 
   84553    84557    84555    84552    84543    84524    84488    84433 
   84372    84316    84276    84250    84238    84233    84226    84217 
   84218    84234    84254    84264    84261    84250    84237    84228 
   84227    84228    84222    84209    84195    84188    84187    84196 
   84210    84226    84243    84262    84276    84280    84275    84262 
   84247    84232    84217    84201    84183    84166    84156    84161 
   84183    84219    84261    84299    84323    84330    84320    84298 
   84267    84231    84194    84162    84138    84119    84107    84098 
   84086    84075    84074    84100    84151    84214    84274    84322 
   84351    84364    84369    84373    84376    84378    84380    84382 
   84375    84351    84316    84280    84253    84234    84221    84218 
   84224    84233    84239    84241    84234    84215    84188    84165 
   84155    84154    84157    84154    84141    84121    84107    84104 
   84117    84144    84174    84195    84205    84209    84203    84186 
   84169    84159    84153    84150    84153    84155    84156    84161 
   84171    84190    84218    84248    84275    84300    84322    84340 
   84360    84384    84410    84429    84439    84440    84431    84422 
   84418    84421    84432    84441    84436    84414    84372    84318 
   84267    84225    84189    84149    84100    84046    83981    83904 
   83827    83760    83712    83687    83677    83680    83699    83738 
   83797    83869    83946    84009    84043    84052    84049    84048 
   84055    84067    84081    84091    84083    84056    84022    83991 
   83969    83974    84000    84031    84066    84107    84146    84178 
   84201    84217    84236    84265    84309    84352    84378    84375 
   84347    84312    84288    84279    84284    84298    84314    84330 
   84346    84361    84375    84390    84407    84427    84447    84460 
   84465    84464    84462    84461    84463    84475    84495    84514 
   84528    84534    84538    84540    84538    84536    84540    84542 
   84535    84517    84490    84465    84446    84423    84392    84351 
   84303    84248    84190    84138    84098    84067    84042    84017 
   83996    83995    84027    84088    84161    84226    84265    84268 
   84246    84222    84200    84170    84132    84093    84052    84015 
   83985    83965    83958    83971    84003    84053    84111    84161 
   84192    84202    84196    84178    84155    84140    84137    84142 
   84150    84155    84151    84138    84120    84107    84105    84117 
   84141    84161    84167    84161    84156    84170    84217    84294 
   84384    84468    84530    84564    84579    84585    84582    84569 
   84549    84524    84496    84468    84447    84426    84397    84365 
   84340    84324    84318    84321    84323    84319    84312    84301 
   84286    84269    84247    84220    84198    84186    84188    84200 
   84216    84227    84235    84243    84252    84257    84252    84235 
   84208    84180    84166    84172    84186    84202    84216    84226 
   84233    84247    84271    84290    84294    84287    84276    84270 
   84269    84269    84268    84260    84243    84225    84218    84227 
   84248    84271    84292    84312    84327    84331    84321    84296 
   84253    84200    84147    84102    84066    84042    84025    84012 
   84001    83990    83981    83975    83970    83970    83980    84000 
   84025    84049    84068    84083    84096    84102    84100    84093 
   84085    84081    84087    84099    84112    84123    84127    84133 
   84151    84179    84218    84261    84296    84323    84342    84345 
   84341    84337    84332    84324    84305    84276    84247    84222 
   84207    84207    84222    84244    84265    84281    84294    84309 
   84333    84365    84397    84421    84438    84453    84468    84480 
   84483    84479    84468    84450    84428    84409    84397    84385 
   84375    84369    84363    84354    84349    84348    84348    84347 
   84342    84336    84332    84324    84316    84317    84329    84350 
   84372    84387    84388    84371    84337    84292    84242    84191 
   84142    84094    84046    84005    83979    83973    83991    84028 
   84078    84134    84195    84260    84328    84391    84439    84473 
   84496    84511    84515    84511    84502    84485    84456    84418 
   84375    84332    84290    84248    84205    84166    84141    84132 
   84134    84146    84170    84200    84228    84250    84267    84275 
   84272    84265    84256    84241    84216    84182    84151    84136 
   84147    84181    84228    84272    84301    84314    84321    84330 
   84344    84362    84379    84383    84370    84339    84296    84255 
   84226    84208    84201    84200    84200    84197    84186    84163 
   84138    84118    84107    84116    84147    84184    84216    84238 
   84250    84250    84240    84230    84224    84225    84231    84233 
   84221    84189    84146    84106    84087    84103    84141    84186 
   84229    84261    84289    84322    84359    84394    84425    84445 
   84450    84444    84429    84402    84368    84330    84295    84266 
   84241    84218    84200    84186    84176    84172    84170    84173 
   84183    84192    84198    84200    84197    84194    84200    84221 
   84248    84272    84287    84297    84304    84313    84329    84354 
   84380    84402    84423    84438    84443    84439    84422    84384 
   84339    84305    84283    84269    84257    84240    84213    84185 
   84168    84159    84154    84150    84142    84131    84124    84117 
   84107    84096    84082    84064    84047    84046    84062    84096 
   84147    84202    84242    84261    84261    84251    84243    84245 
   84259    84273    84286    84301    84311    84318    84330    84354 
   84388    84427    84464    84494    84507    84498    84480    84458 
   84436    84414    84387    84354    84313    84264    84212    84160 
   84111    84065    84032    84017    84016    84027    84041    84050 
   84056    84063    84080    84111    84146    84179    84201    84214 
   84223    84231    84242    84257    84270    84282    84300    84328 
   84362    84392    84411    84417    84413    84405    84403    84408 
   84417    84428    84430    84421    84402    84378    84359    84350 
   84346    84340    84326    84297    84255    84213    84182    84170 
   84175    84194    84223    84250    84272    84293    84309    84315 
   84319    84324    84326    84324    84321    84318    84315    84312 
   84308    84303    84302    84303    84305    84307    84313    84322 
   84334    84345    84356    84366    84368    84359    84342    84316 
   84284    84252    84224    84196    84163    84127    84098    84078 
   84072    84082    84098    84113    84130    84144    84158    84175 
   84195    84211    84219    84215    84198    84176    84153    84132 
   84113    84098    84088    84080    84073    84069    84070    84075 
   84081    84089    84094    84089    84077    84063    84056    84062 
   84075    84089    84104    84126    84150    84176    84205    84242 
   84282    84316    84335    84341    84340    84330    84316    84303 
   84287    84264    84233    84205    84190    84188    84191    84197 
