Origin Time       2016/04/16 01:25:00
Lat.              32.753
Long.             130.762
Depth. (km)       12
Mag.              7.3
Station Code      EHMH11
Station Lat.      33.5807
Station Long.     132.6011
Station Height(m) 110
Record Time       2016/04/16 01:25:40
Sampling Freq(Hz) 100Hz
Duration Time(s)  208
Dir.              1
Scale Factor      2940(gal)/6170270
Max. Acc. (gal)   11.081
Last Correction   2016/04/16 01:25:25
Memo.             
[...]
   33688    33405    33202    33142    33255    33450    33555    33509 
   33406    33326    33269    33247    33318    33484    33672    33821 
   33904    33919    33920    34000    34179    34403    34635    34832 
   34922    34912    34900    34941    35010    35082    35156    35205 
   35196    35162    35181    35280    35404    35464    35427    35374 
   35405    35463    35425    35284    35116    34943    34751    34595 
   34581    34718    34880    34956    34953    34934    34912    34872 
   34822    34802    34862    35024    35215    35325    35328    35246 
   35090    34907    34716    34460    34168    33971    33886    33813 
   33723    33686    33745    33823    33815    33744    33709    33759 
   33830    33830    33769    33709    33637    33545    33476    33426 
   33373    33321    33229    33090    33018    33091    33231    33359 
   33461    33506    33474    33412    33386    33428    33519    33589 
   33612    33656    33748    33818    33843    33871    33924    34002 
   34095    34192    34314    34477    34656    34828    34995    35168 
   35350    35504    35602    35692    35812    35916    35987    36077 
   36174    36237    36319    36445    36518    36511    36486    36407 
   36223    36006    35828    35653    35447    35226    34998    34777 
   34621    34572    34580    34543    34405    34237    34181    34291 
   34459    34563    34607    34669    34770    34857    34879    34819 
   34738    34733    34804    34892    34980    35062    35119    35149 
   35159    35146    35123    35111    35138    35255    35447    35599 
   35638    35584    35474    35341    35258    35321    35530    35761 
   35942    36061    36076    36026    36004    35965    35845    35739 
   35727    35783    35872    35931    35891    35772    35620    35460 
   35320    35168    34950    34733    34651    34729    34874    34937 
   34840    34670    34563    34553    34592    34610    34579    34552 
   34550    34511    34440    34441    34535    34643    34701    34705 
   34686    34674    34717    34841    34966    34980    34875    34734 
   34650    34655    34658    34582    34465    34324    34144    34016 
   34060    34255    34487    34667    34769    34805    34830    34932 
   35131    35302    35348    35312    35263    35273    35410    35581 
   35620    35516    35348    35172    35044    34971    34898    34823 
   34784    34810    34915    35045    35090    35020    34913    34857 
   34847    34813    34730    34644    34579    34544    34541    34505 
   34369    34166    33959    33782    33679    33664    33689    33724 
   33771    33850    33991    34162    34282    34361    34486    34684 
   34884    35025    35104    35095    34982    34849    34798    34857 
   35019    35254    35501    35690    35770    35765    35726    35632 
   35472    35308    35188    35140    35157    35136    35028    34902 
   34787    34682    34632    34607    34534    34409    34254    34148 
   34199    34355    34472    34504    34479    34462    34505    34535 
   34493    34456    34466    34498    34573    34664    34711    34743 
   34795    34851    34907    34933    34903    34879    34893    34880 
   34816    34765    34804    34953    35134    35280    35428    35592 
   35707    35728    35650    35531    35488    35546    35669    35862 
   36047    36088    35971    35755    35509    35334    35234    35119 
   34994    34881    34747    34633    34579    34525    34449    34392 
   34352    34359    34491    34739    35007    35220    35378    35518 
   35621    35635    35570    35487    35446    35487    35573    35668 
   35794    35905    35876    35731    35621    35622    35704    35793 
   35802    35729    35660    35646    35665    35674    35653    35640 
   35645    35631    35614    35635    35652    35616    35524    35377 
   35193    35013    34863    34772    34759    34773    34763    34739 
   34708    34691    34726    34782    34820    34870    34925    34952 
   34970    34971    34945    34974    35099    35244    35348    35380 
   35366    35410    35520    35572    35563    35596    35661    35689 
   35663    35606    35566    35533    35438    35309    35189    35035 
   34862    34708    34525    34338    34221    34121    33988    33858 
   33738    33647    33658    33785    33968    34153    34334    34520 
   34672    34740    34774    34819    34838    34811    34765    34716 
   34683    34665    34608    34484    34323    34147    33957    33748 
   33511    33279    33138    33128    33199    33260    33273    33265 
   33283    33354    33452    33520    33581    33696    33832    33914 
   33951    33989    34028    34055    34064    34062    34052    34055 
   34134    34279    34418    34569    34730    34806    34821    34853 
   34837    34742    34645    34557    34487    34458    34406    34315 
   34226    34078    33860    33685    33586    33535    33540    33563 
   33574    33572    33516    33410    33331    33307    33353    33467 
   33598    33739    33886    33975    33997    33999    33993    34022 
   34107    34163    34158    34150    34141    34101    34026    33934 
   33905    33990    34093    34109    34056    33976    33905    33880 
   33908    34012    34199    34382    34490    34561    34623    34680 
   34733    34768    34815    34931    35080    35168    35169    35128 
   35086    35026    34921    34803    34710    34652    34640    34644 
   34619    34596    34591    34564    34552    34612    34725    34851 
   34927    34924    34957    35086    35177    35172    35162    35193 
   35258    35342    35387    35365    35324    35298    35248    35143 
   35024    34960    34951    34934    34902    34925    34982    34970 
   34896    34845    34826    34835    34898    34982    35049    35106 
   35132    35131    35146    35129    35037    34968    34978    35011 
   35040    35050    35010    34946    34891    34847    34837    34832 
   34785    34738    34729    34740    34750    34718    34658    34647 
   34667    34680    34721    34756    34737    34692    34626    34570 
   34591    34653    34727    34850    34969    35031    35085    35145 
   35217    35327    35416    35443    35437    35355    35216    35111 
   35020    34939    34928    34953    34957    34926    34866    34853 
   34919    34989    35026    35046    35069    35152    35295    35422 
   35522    35599    35616    35579    35503    35393    35297    35248 
   35241    35294    35377    35404    35372    35348    35367    35428 
   35508    35581    35607    35558    35479    35407    35300    35156 
   35048    35019    35064    35122    35113    35092    35186    35357 
   35494    35592    35674    35711    35709    35730    35806    35877 
   35861    35776    35693    35630    35571    35480    35323    35138 
   35002    34938    34933    34954    34954    34919    34861    34782 
   34711    34659    34565    34427    34312    34237    34211    34281 
   34446    34628    34760    34862    34994    35145    35259    35355 
   35483    35654    35849    36012    36089    36106    36108    36100 
   36103    36136    36190    36252    36295    36293    36264    36229 
   36172    36093    36037    36032    36023    35945    35815    35696 
   35625    35599    35599    35626    35697    35768    35758    35666 
   35557    35476    35425    35400    35396    35395    35388    35378 
   35372    35366    35318    35209    35090    34990    34885    34804 
   34825    34946    35078    35154    35169    35161    35183    35278 
   35427    35521    35494    35439    35465    35557    35644    35678 
   35624    35462    35217    34969    34793    34691    34651    34699 
   34788    34842    34857    34854    34863    34936    35046    35093 
   35074    35074    35101    35107    35101    35128    35167    35164 
   35141    35133    35107    35026    34910    34792    34687    34599 
   34532    34506    34527    34562    34569    34525    34425    34296 
   34189    34138    34154    34203    34220    34200    34164    34121 
   34095    34067    34003    33981    34071    34217    34400    34623 
   34782    34857    34930    34959    34924    34931    34996    35088 
   35220    35325    35340    35273    35117    34934    34812    34687 
   34532    34465    34495    34550    34642    34737    34779    34833 
   34962    35121    35255    35332    35371    35435    35479    35441 
   35416    35476    35546    35600    35639    35625    35615    35716 
   35887    36024    36095    36113    36112    36112    36112    36126 
   36127    36079    36039    36062    36091    36078    36041    36003 
   35976    35939    35866    35804    35816    35862    35847    35722 
   35534    35370    35251    35158    35070    34938    34787    34690 
   34585    34452    34428    34493    34480    34415    34447    34572 
   34691    34766    34861    35068    35326    35472    35493    35504 
   35551    35594    35580    35512    35473    35542    35703    35847 
   35891    35891    35926    35939    35835    35616    35343    35147 
   35139    35206    35151    34977    34805    34688    34620    34564 
   34535    34659    34969    35261    35380    35399    35391    35366 
   35391    35467    35496    35480    35463    35409    35319    35215 
   35082    34984    34991    35010    34952    34921    35008    35125 
   35199    35272    35316    35233    35099    35110    35255    35384 
   35457    35421    35206    35013    35006    34996    34902    34868 
   34842    34722    34590    34496    34423    34370    34331    34374 
   34521    34665    34813    35000    35088    35060    35045    35069 
   35144    35254    35290    35324    35509    35754    35946    36058 
   35963    35769    35828    36100    36294    36404    36471    36379 
   36183    36032    35868    35647    35522    35514    35468    35441 
   35571    35739    35813    35856    35886    35830    35765    35850 
   36049    36174    36179    36192    36235    36239    36237    36234 
   36196    36243    36380    36377    36228    36091    35917    35725 
   35681    35745    35757    35700    35650    35661    35661    35546 
   35393    35322    35351    35433    35441    35324    35187    35057 
   34968    35043    35174    35157    35088    35111    35183    35290 
   35420    35464    35419    35400    35404    35347    35222    35121 
   35157    35267    35223    35009    34872    34892    34935    34984 
   35135    35367    35544    35604    35608    35576    35517    35549 
   35695    35817    35839    35741    35591    35556    35591    35539 
   35454    35392    35316    35257    35182    35070    35040    35045 
   34969    34916    34913    34862    34860    35046    35366    35619 
   35632    35524    35518    35588    35620    35594    35558    35687 
   35952    36038    36017    36166    36318    36344    36357    36239 
   36041    36093    36279    36341    36424    36536    36475    36347 
   36356    36485    36594    36557    36449    36437    36476    36498 
   36579    36708    36829    36936    36999    37082    37271    37430 
   37498    37604    37719    37806    37912    37926    37896    38038 
   38170    38086    37928    37741    37652    37911    38239    38296 
   38275    38235    38061    37963    38019    38017    38008    38124 
   38212    38203    38247    38338    38394    38459    38508    38552 
   38676    38716    38579    38520    38559    38498    38381    38204 
   37982    37985    38047    37779    37532    37614    37561    37196 
   36922    36895    36987    37095    37187    37322    37477    37624 
   37824    37933    37882    37923    38097    38275    38473    38545 
   38402    38339    38420    38372    38198    38060    37966    37903 
   37815    37719    37854    38218    38491    38638    38827    39009 
   39107    39133    39072    38995    38991    39045    39150    39231 
   39099    38775    38470    38256    38085    37885    37590    37280 
   37052    36816    36525    36251    35932    35464    34926    34438 
   34045    33747    33489    33200    32913    32676    32411    32129 
   31952    31831    31696    31594    31459    31248    31027    30703 
   30230    29797    29450    29070    28637    28228    27925    27632 
   27150    26595    26179    25847    25538    25218    24795    24371 
   24083    23848    23566    23237    22950    22821    22800    22808 
   22817    22712    22583    22642    22716    22757    22947    23062 
   22981    22998    23093    23131    23243    23363    23462    23780 
   24189    24406    24519    24589    24578    24566    24490    24288 
   24181    24205    24113    23873    23585    23340    23327    23427 
   23278    22950    22786    22905    23278    23788    24285    24784 
   25322    25896    26606    27442    28186    28715    29149    29685 
   30299    30818    31231    31562    31894    32377    32896    33300 
   33627    33975    34459    34952    35175    35225    35435    35787 
   36023    36123    36171    36209    36419    36925    37494    37824 
   37964    38105    38212    38248    38359    38518    38478    38203 
   37910    37674    37402    37088    36844    36756    36805    36931 
   37133    37381    37517    37439    37250    37189    37364    37572 
   37647    37716    37862    38054    38356    38769    39215    39772 
   40462    41103    41674    42347    43120    43932    44844    45838 
   46863    47878    48750    49546    50506    51572    52617    53719 
   54837    55803    56590    57186    57514    57721    57995    58146 
   58038    57854    57618    57199    56658    56052    55259    54308 
   53350    52317    51148    49939    48628    47199    45847    44555 
   43179    41790    40477    39302    38357    37577    36850    36216 
   35680    35089    34315    33459    32632    31787    30945    30202 
   29615    29218    28877    28516    28427    28717    29095    29463 
   29872    30291    30763    31304    31864    32434    32935    33299 
   33631    34012    34396    34762    35052    35152    35130    35138 
   35195    35318    35579    35945    36337    36760    37224    37670 
   38032    38283    38504    38833    39103    39093    39086    39289 
   39444    39430    39277    38975    38601    38145    37529    36890 
   36381    35884    35225    34465    33811    33384    33140    32963 
   32754    32467    32162    31943    31832    31775    31713    31668 
   31743    31933    32114    32245    32326    32338    32341    32392 
   32420    32362    32302    32275    32150    31898    31713    31661 
   31547    31306    31108    31021    30976    30934    30877    30778 
   30626    30458    30313    30190    30114    30103    30035    29803 
   29475    29154    28886    28676    28468    28180    27775    27320 
   26963    26657    26285    26029    26032    26114    26130    26168 
   26366    26728    27100    27361    27536    27718    27962    28249 
   28566    28942    29326    29694    30150    30713    31290    31840 
   32328    32655    32862    33118    33376    33506    33552    33599 
   33662    33785    34046    34300    34366    34482    34755    34864 
   34876    35064    35146    34960    34768    34525    34088    33608 
   33061    32335    31639    31096    30544    30021    29672    29398 
   29170    29073    29045    29044    29102    29236    29566    30149 
   30856    31572    32254    32846    33347    33858    34335    34579 
   34666    34871    35189    35425    35517    35538    35522    35389 
   35125    34855    34694    34630    34563    34459    34352    34204 
   33964    33648    33333    33098    32881    32587    32295    32106 
   31979    31846    31669    31497    31463    31561    31663    31724 
   31747    31768    31901    32143    32343    32434    32365    32113 
   31956    31869    31451    31166    31319    31148    30899    31108 
   31002    30643    30805    30774    30090    29775    29706    29153 
   28775    28676    28231    27759    27533    27325    27179    27221 
   27361    27495    27624    27734    27826    27902    27956    28080 
   28258    28458    28800    29122    29148    29035    29053    29225 
   29497    29853    30305    30803    31211    31442    31456    31246 
   30876    30369    29783    29333    29026    28635    28143    27598 
   26946    26283    25696    25130    24629    24245    23957    23788 
   23717    23681    23711    23845    24094    24544    25233    26081 
   27012    27976    28924    29823    30672    31518    32357    33097 
   33665    34059    34287    34379    34448    34601    34789    34959 
   35162    35335    35392    35426    35485    35495    35468    35468 
   35508    35555    35536    35453    35385    35273    35040    34735 
   34380    34025    33730    33400    33015    32707    32495    32368 
   32314    32169    31914    31741    31669    31653    31755    31911 
   32035    32109    32031    31830    31641    31508    31508    31658 
   31845    32092    32396    32626    32841    33150    33510    33930 
   34431    34918    35320    35601    35775    35915    36003    36082 
   36293    36512    36608    36726    36800    36675    36566    36577 
   36597    36710    36894    37001    37157    37426    37637    37799 
   37982    38132    38226    38247    38235    38278    38310    38326 
   38441    38546    38594    38800    39146    39483    39881    40246 
   40321    40177    39995    39808    39706    39726    39734    39639 
   39468    39267    39028    38693    38317    37993    37659    37310 
   36999    36605    36128    35778    35511    35210    35009    34820 
   34320    33610    33037    32682    32536    32599    32711    32754 
   32752    32702    32585    32410    32234    32177    32267    32423 
   32600    32721    32687    32594    32584    32554    32367    32110 
   31920    31783    31637    31492    31406    31401    31399    31311 
   31233    31338    31554    31673    31696    31785    32015    32349 
   32729    33069    33314    33560    33887    34192    34450    34757 
   35054    35272    35430    35455    35299    35034    34747    34576 
   34604    34720    34847    34988    35058    35031    34934    34688 
   34388    34317    34506    34814    35198    35588    35890    36123 
   36292    36330    36225    36066    35971    35967    35996    36015 
   35972    35817    35587    35341    35119    34987    34921    34816 
   34692    34605    34503    34372    34243    34085    33932    33873 
   33845    33697    33447    33251    33167    33157    33269    33531 
   33784    33934    34035    34101    34151    34226    34286    34348 
   34478    34584    34593    34619    34700    34751    34768    34767 
   34718    34681    34724    34778    34794    34846    34960    35069 
   35110    35074    35022    35031    35108    35225    35335    35386 
   35409    35470    35603    35820    36079    36312    36505    36678 
   36873    37112    37304    37381    37485    37752    38068    38333 
   38535    38628    38678    38761    38834    38904    39080    39380 
   39622    39656    39515    39296    39116    38977    38781    38584 
   38460    38326    38171    38112    38138    38110    37957    37684 
   37372    37180    37173    37302    37431    37382    37167    36946 
   36762    36615    36496    36339    36165    36038    35906    35690 
