Origin Time       2016/04/16 01:25:00
Lat.              32.753
Long.             130.762
Depth. (km)       12
Mag.              7.3
Station Code      EHMH11
Station Lat.      33.5807
Station Long.     132.6011
Station Height(m) 110
Record Time       2016/04/16 01:25:40
Sampling Freq(Hz) 100Hz
Duration Time(s)  208
Dir.              3
Scale Factor      2940(gal)/6170270
Max. Acc. (gal)   5.631
Last Correction   2016/04/16 01:25:25
Memo.             
[...]
   60833    60890    60927    60934    60987    61104    61228    61332 
   61381    61334    61240    61150    61030    60872    60768    60807 
   60962    61132    61262    61360    61456    61567    61690    61808 
   61909    61992    62043    62046    62037    62054    62067    62079 
   62148    62271    62390    62452    62441    62391    62350    62342 
   62361    62393    62438    62484    62514    62519    62488    62438 
   62405    62388    62380    62369    62337    62330    62362    62396 
   62435    62461    62397    62227    62011    61834    61763    61780 
   61818    61816    61774    61761    61794    61828    61840    61766 
   61531    61218    60965    60761    60534    60287    60048    59839 
   59692    59580    59449    59331    59310    59393    59520    59641 
   59742    59836    59967    60182    60464    60695    60759    60671 
   60523    60368    60221    60101    60028    60012    60058    60131 
   60166    60186    60249    60344    60441    60573    60740    60853 
   60851    60762    60679    60650    60609    60514    60405    60275 
   60072    59825    59594    59396    59210    59034    58913    58878 
   58889    58894    58875    58801    58663    58503    58367    58265 
   58201    58187    58251    58408    58629    58913    59293    59710 
   60035    60232    60354    60423    60411    60286    60065    59802 
   59539    59316    59196    59193    59273    59383    59437    59382 
   59256    59097    58928    58771    58615    58475    58400    58387 
   58449    58647    58947    59240    59482    59696    59897    60067 
   60158    60162    60124    60065    59979    59874    59770    59699 
   59698    59761    59859    59968    60081    60212    60368    60507 
   60571    60566    60532    60456    60315    60133    59931    59710 
   59516    59398    59380    59514    59832    60252    60694    61150 
   61555    61787    61829    61737    61548    61276    60904    60464 
   60110    59930    59844    59790    59799    59894    60064    60273 
   60465    60609    60686    60677    60610    60496    60324    60131 
   59980    59891    59859    59886    59956    60015    60072    60178 
   60336    60517    60696    60842    60940    60999    61031    61026 
   60996    60978    60977    60973    60993    61085    61276    61556 
   61833    62007    62095    62150    62138    62030    61918    61897 
   61927    61924    61901    61934    62053    62220    62387    62554 
   62721    62840    62865    62815    62731    62632    62511    62350 
   62163    62009    61921    61881    61879    61928    62025    62138 
   62228    62278    62320    62359    62342    62231    62078    61961 
   61871    61749    61632    61572    61527    61455    61381    61264 
   61007    60615    60178    59751    59351    59005    58722    58462 
   58202    58003    57911    57890    57886    57899    57975    58124 
   58277    58409    58569    58737    58894    59107    59400    59705 
   59985    60233    60438    60607    60751    60858    60929    60981 
   61041    61135    61241    61320    61385    61441    61448    61401 
   61329    61217    61062    60902    60733    60529    60320    60142 
   60005    59929    59893    59849    59807    59815    59874    59957 
   60051    60155    60284    60444    60606    60734    60827    60875 
   60857    60787    60665    60464    60237    60061    59934    59829 
   59744    59691    59659    59601    59482    59306    59126    58990 
   58862    58720    58631    58642    58728    58839    58950    59089 
   59280    59500    59736    59995    60276    60561    60781    60888 
   60916    60878    60744    60544    60334    60163    60076    60051 
   60032    60049    60128    60233    60324    60385    60400    60359 
   60274    60181    60109    60052    59968    59879    59874    59947 
   60013    60022    59939    59769    59601    59478    59356    59244 
   59196    59201    59192    59137    59069    59053    59120    59232 
   59331    59404    59504    59658    59830    59994    60170    60392 
   60671    60973    61233    61434    61597    61706    61739    61699 
   61570    61357    61122    60920    60763    60641    60575    60620 
   60776    60974    61154    61291    61400    61508    61593    61610 
   61547    61426    61279    61121    60957    60807    60664    60521 
   60417    60379    60365    60324    60267    60245    60260    60291 
   60339    60378    60381    60399    60481    60590    60684    60776 
   60883    60999    61107    61180    61200    61159    61051    60928 
   60863    60823    60725    60583    60453    60348    60244    60132 
   60036    59994    60003    60038    60104    60192    60249    60254 
   60230    60195    60135    60051    59976    59926    59851    59721 
   59607    59564    59572    59639    59781    59954    60130    60305 
   60428    60476    60468    60417    60334    60241    60171    60180 
   60297    60486    60693    60898    61103    61287    61410    61433 
   61355    61246    61171    61116    61034    60920    60803    60710 
   60686    60735    60790    60831    60900    61021    61180    61323 
   61407    61469    61554    61680    61821    61874    61821    61777 
   61808    61874    61905    61864    61775    61656    61487    61270 
   61025    60776    60578    60453    60375    60333    60328    60343 
   60365    60367    60300    60168    60012    59836    59640    59476 
   59383    59354    59386    59490    59651    59820    59942    59997 
   60007    60002    59998    60010    60048    60087    60100    60108 
   60142    60177    60190    60188    60175    60163    60167    60166 
   60147    60135    60138    60147    60160    60155    60117    60079 
   60055    60011    59969    59984    60032    60050    60051    60077 
   60118    60146    60172    60204    60225    60206    60130    60029 
   59979    59987    59971    59921    59903    59929    59995    60127 
   60295    60442    60554    60647    60730    60793    60844    60917 
   61005    61066    61104    61150    61208    61262    61324    61408 
   61475    61474    61425    61377    61337    61292    61217    61070 
   60869    60685    60559    60485    60467    60509    60564    60577 
   60558    60541    60506    60431    60334    60209    60039    59861 
   59713    59630    59624    59649    59655    59656    59719    59878 
   60039    60077    60025    59978    59923    59829    59758    59775 
   59881    60016    60120    60217    60350    60499    60651    60803 
   60907    60937    60932    60915    60859    60757    60661    60612 
   60570    60473    60329    60211    60190    60252    60333    60425 
   60550    60682    60793    60893    60995    61103    61243    61418 
   61586    61708    61783    61827    61837    61789    61695    61600 
   61515    61412    61294    61200    61131    61051    60964    60914 
   60891    60879    60893    60903    60891    60893    60922    60954 
   60998    61056    61085    61054    61006    60998    61036    61100 
   61178    61280    61392    61465    61503    61557    61603    61583 
   61523    61511    61554    61543    61408    61212    61059    60979 
   60928    60844    60724    60620    60565    60554    60542    60497 
   60488    60584    60739    60916    61127    61333    61471    61508 
   61440    61259    60958    60612    60293    59959    59573    59191 
   58885    58706    58696    58839    59071    59365    59736    60159 
   60586    60968    61231    61342    61364    61372    61415    61488 
   61535    61546    61571    61613    61632    61625    61624    61674 
   61785    61891    61892    61774    61626    61535    61466    61310 
   61060    60831    60727    60747    60763    60682    60582    60541 
   60507    60418    60313    60254    60231    60225    60198    60086 
   59961    59975    60079    60117    60112    60207    60430    60675 
   60843    60941    61043    61191    61358    61501    61596    61653 
   61720    61782    61747    61610    61464    61323    61172    61081 
   61088    61131    61133    61092    61085    61087    60983    60807 
   60674    60608    60598    60613    60609    60610    60633    60629 
   60616    60682    60842    60973    60972    60884    60804    60786 
   60828    60882    60930    60928    60849    60836    60989    61189 
   61365    61533    61645    61655    61589    61536    61551    61543 
   61402    61171    60927    60725    60593    60507    60440    60371 
   60319    60320    60386    60520    60627    60624    60674    60845 
   60967    61043    61096    60980    60774    60717    60760    60742 
   60716    60762    60819    60902    61075    61230    61257    61208 
   61130    61017    60887    60770    60709    60667    60548    60335 
   60069    59876    59885    60049    60245    60358    60323    60260 
   60263    60225    60124    60041    59946    59838    59825    59938 
   60157    60413    60549    60602    60767    60936    60866    60655 
   60531    60449    60321    60246    60237    60172    60069    60001 
   60010    60118    60192    60223    60438    60733    60780    60618 
   60479    60430    60413    60369    60321    60258    60142    60106 
   60193    60261    60375    60624    60857    60946    60883    60737 
   60620    60510    60243    59792    59363    59127    59015    58912 
   58865    58953    59133    59342    59542    59712    59924    60179 
   60398    60584    60675    60566    60366    60209    60067    59980 
   59999    60011    60041    60180    60216    60120    60216    60447 
   60539    60573    60609    60532    60397    60253    60115    60125 
   60154    59996    59857    59847    59726    59466    59292    59266 
   59228    59156    59190    59288    59359    59484    59628    59710 
   59844    60041    60215    60413    60466    60156    59809    59781 
   59911    59994    60054    60133    60192    60137    59974    59831 
   59794    59822    59759    59632    59671    59783    59755    59738 
   59818    59833    59774    59741    59738    59712    59615    59485 
   59438    59426    59260    59034    58958    58946    58990    59149 
   59164    58960    58796    58733    58702    58644    58536    58496 
   58492    58326    58034    57732    57516    57517    57622    57653 
   57665    57666    57561    57454    57489    57530    57351    57073 
   56925    56843    56787    56826    56830    56704    56613    56658 
   56684    56592    56518    56556    56611    56557    56401    56291 
   56278    56309    56364    56380    56339    56334    56335    56199 
   55945    55730    55579    55430    55346    55340    55308    55240 
   55248    55442    55774    56098    56393    56713    57114    57596 
   58001    58255    58538    58965    59397    59700    59930    60183 
   60454    60752    61120    61519    61864    62164    62552    63079 
   63517    63735    63940    64176    64285    64326    64388    64444 
   64487    64488    64482    64498    64518    64642    64853    64951 
   65002    65251    65631    65858    65943    66074    66192    66193 
   66201    66399    66783    67140    67320    67401    67513    67652 
   67754    67777    67670    67503    67451    67374    67079    66799 
   66651    66405    66022    65640    65238    64759    64288    63883 
   63512    63164    62773    62308    61846    61429    61027    60579 
   60058    59460    58795    58153    57526    56873    56327    55925 
   55584    55293    55016    54767    54624    54481    54182    53884 
   53862    54039    54138    54058    53897    53846    53976    54193 
   54567    55083    55452    55769    56336    57036    57759    58459 
   58991    59488    60082    60686    61335    62006    62527    62911 
   63195    63329    63431    63576    63603    63485    63516    63803 
   63927    63798    63924    64271    64511    64728    64862    64871 
   64908    64861    64584    64141    63671    63241    62806    62325 
   61770    61112    60413    59773    59259    58833    58409    58028 
   57765    57592    57476    57379    57325    57476    57835    58218 
   58565    58842    59018    59139    59100    58825    58512    58222 
   57849    57421    57005    56678    56547    56606    56780    57070 
   57537    58187    58938    59694    60413    61073    61664    62210 
   62754    63323    63857    64236    64466    64643    64864    65156 
   65467    65797    66051    66150    66333    66617    66668    66545 
   66473    66367    66168    65824    65254    64611    64067    63603 
   63063    62347    61550    60832    60251    59751    59244    58698 
   58122    57578    57163    56906    56758    56662    56612    56618 
   56638    56649    56686    56789    56980    57208    57377    57467 
   57630    57955    58249    58600    59309    60086    60670    61361 
   62325    63438    64424    65145    65887    66641    67094    67302 
   67302    67041    66679    66229    65673    65189    64861    64650 
   64515    64434    64428    64529    64679    64651    64280    63699 
   63027    62176    61107    59863    58536    57299    56203    55212 
   54381    53735    53252    52916    52680    52499    52354    52300 
   52467    52864    53346    53803    54230    54680    55187    55725 
   56265    56829    57424    57970    58404    58824    59323    59832 
   60278    60731    61298    61913    62458    63058    63820    64567 
   65252    65972    66675    67377    68144    68857    69508    70215 
   70895    71443    71883    72168    72283    72257    72008    71553 
   70987    70250    69301    68214    67098    66022    64929    63818 
   62809    61917    61132    60516    59996    59432    58854    58310 
   57707    57063    56429    55673    54832    54142    53469    52616 
   51802    51130    50489    49957    49540    49183    48942    48826 
   48889    49197    49666    50204    50854    51714    52707    53729 
   54904    56238    57479    58580    59639    60568    61334    61946 
   62415    62856    63228    63467    63671    63874    64023    64187 
   64514    64916    65256    65506    65582    65531    65434    65203 
   64861    64534    64198    63756    63246    62855    62666    62561 
   62466    62430    62434    62371    62185    61930    61709    61573 
   61507    61410    61218    61060    61014    60988    60939    60932 
   61090    61404    61672    61806    61882    61969    61967    61723 
   61327    60865    60275    59698    59251    58778    58245    57802 
   57529    57371    57238    57100    56958    56800    56650    56498 
   56326    56264    56398    56592    56817    57179    57548    57715 
   57771    57847    57842    57697    57503    57318    57169    57064 
   56944    56858    56917    57092    57359    57710    58048    58372 
   58724    59069    59451    59894    60317    60703    61062    61351 
   61575    61760    61836    61750    61573    61426    61373    61314 
   61188    61188    61350    61443    61499    61644    61774    61898 
   62102    62277    62329    62222    62000    61862    61919    62051 
   62131    62215    62454    62865    63200    63389    63723    64295 
   64920    65438    65952    66677    67384    67877    68349    68773 
   69154    69624    70014    70278    70557    70746    70791    70806 
   70742    70509    70188    69856    69416    68790    68094    67458 
   66915    66513    66249    66021    65777    65585    65502    65434 
   65275    64989    64552    63987    63310    62511    61641    60737 
   59800    58887    58083    57378    56684    56011    55412    54861 
   54376    53979    53665    53463    53360    53400    53673    54082 
   54530    55058    55644    56281    56998    57659    58194    58747 
   59294    59669    59870    59916    59838    59794    59771    59587 
   59231    58759    58171    57537    56913    56291    55771    55450 
   55224    54994    54807    54711    54740    54944    55264    55594 
   55922    56253    56576    56871    57068    57146    57194    57302 
   57459    57638    57855    58099    58418    58850    59263    59656 
   60195    60832    61388    61802    62090    62251    62282    62251 
   62233    62208    62108    61946    61755    61501    61176    60828 
   60444    60002    59543    59116    58757    58491    58295    58083 
   57799    57482    57187    56915    56696    56549    56409    56224 
   55971    55662    55427    55346    55364    55478    55741    56139 
   56536    56782    56918    57039    57094    57066    57028    56931 
   56722    56519    56400    56298    56148    55998    55954    56020 
   56144    56334    56619    57003    57442    57908    58463    59147 
   59867    60486    60953    61353    61750    62025    62113    62174 
   62344    62587    62865    63155    63339    63396    63493    63708 
   63917    63967    63876    63818    63810    63726    63581    63467 
   63388    63306    63175    63005    62872    62786    62699    62591 
   62433    62227    62051    61972    61980    62057    62241    62527 
   62843    63175    63509    63779    64008    64255    64483    64617 
   64619    64505    64325    64123    63932    63783    63698    63688 
   63710    63689    63655    63730    63949    64228    64474    64673 
   64846    64917    64841    64728    64612    64448    64321    64277 
   64201    64010    63786    63653    63586    63489    63407    63451 
   63605    63763    63878    63954    63950    63889    63902    63997 
   64076    64139    64172    64084    63910    63766    63613    63363 
   63087    62847    62539    62101    61621    61237    61027    60925 
   60820    60717    60608    60453    60336    60315    60312    60287 
   60257    60182    60070    60032    60109    60256    60496    60831 
   61128    61316    61454    61509    61432    61293    61150    60983 
   60741    60421    60133    59909    59636    59244    58754    58219 
   57684    57142    56577    56046    55615    55294    55041    54799 
   54582    54416    54262    54157    54140    54143    54184    54306 
   54435    54562    54793    55129    55508    55951    56461    56956 
   57386    57774    58173    58620    59076    59448    59715    59953 
   60235    60558    60888    61197    61423    61525    61574    61604 
   61517    61270    60928    60548    60185    59875    59606    59445 
   59466    59587    59693    59797    59954    60162    60349    60435 
   60453    60490    60515    60442    60268    60065    59879    59677 
   59466    59354    59350    59323    59207    59067    59003    59011 
   58994    58903    58801    58751    58744    58777    58872    59064 
   59332    59546    59622    59635    59644    59588    59393    59095 
   58809    58563    58310    58085    57940    57887    57938    58038 
   58116    58189    58247    58254    58223    58189    58145    58050 
   57935    57831    57693    57584    57603    57685    57768    57881 
   58023    58164    58242    58212    58113    57994    57874    57777 
   57720    57656    57523    57343    57197    57095    56991    56875 
   56793    56809    56909    57026    57135    57239    57360    57481 
   57522    57499    57497    57521    57535    57509    57420    57302 
   57213    57104    56897    56660    56491    56379    56313    56313 
   56365    56449    56548    56637    56705    56780    56915    57120 
