Origin Time       2016/04/16 01:25:00
Lat.              32.753
Long.             130.762
Depth. (km)       12
Mag.              7.3
Station Code      EHMH11
Station Lat.      33.5807
Station Long.     132.6011
Station Height(m) 210
Record Time       2016/04/16 01:25:40
Sampling Freq(Hz) 100Hz
Duration Time(s)  208
Dir.              5
Scale Factor      3920(gal)/6170801
Max. Acc. (gal)   7.901
Last Correction   2016/04/16 01:25:25
Memo.             
[...]
   52848    53494    53766    53612    53629    53785    53775    53745 
   53612    53233    52835    52560    52505    52828    53333    53680 
   53894    53970    53737    53496    53611    53821    53952    54146 
   54324    54470    54614    54443    53807    52891    51876    51161 
   51158    51842    52994    54238    55038    55184    54846    54316 
   53948    54054    54711    55544    56018    55924    55284    54370 
   53710    53617    54157    55140    55965    56197    55739    54615 
   53263    52279    51956    52330    53110    53918    54604    55054 
   55211    55182    55078    54965    54877    54894    55140    55555 
   55944    56112    55830    55027    53916    52846    52238    52330 
   52963    53864    54731    55213    55168    54667    53899    53154 
   52647    52490    52693    53013    53160    53081    52863    52611 
   52403    52246    52109    52006    52073    52510    53327    54220 
   54788    54805    54326    53579    52864    52533    52773    53409 
   54079    54484    54506    54199    53664    53010    52452    52149 
   51998    51812    51548    51282    51092    51002    51048    51288 
   51686    52112    52489    52821    53073    53157    53073    52937 
   52871    52964    53283    53828    54460    54971    55224    55208 
   55009    54716    54376    54005    53578    53102    52683    52424 
   52318    52271    52168    51960    51746    51732    52074    52753 
   53613    54452    55018    55045    54456    53438    52276    51228 
   50523    50321    50619    51187    51742    52150    52307    52029 
   51328    50551    50092    50134    50654    51398    51932    51933 
   51492    50975    50664    50684    51040    51532    51797    51589 
   51015    50521    50576    51321    52490    53560    54027    53714 
   52755    51473    50347    49806    50046    50972    52143    53069 
   53506    53384    52857    52260    51801    51685    52178    53133 
   54060    54558    54275    53102    51513    50211    49757    50436 
   52001    53845    55298    55769    55173    53986    52692    51704 
   51447    51902    52531    52886    52792    52233    51530    51146 
   51305    52077    53308    54544    55371    55486    54728    53366 
   51944    51007    51016    51979    53380    54631    55285    55094 
   54129    52715    51362    50619    50752    51610    52808    53916 
   54612    54750    54341    53592    52895    52548    52558    52753 
   53008    53223    53274    53199    53167    53271    53476    53628 
   53584    53314    52867    52455    52417    52968    54112    55577 
   56782    57199    56706    55550    54217    53221    52931    53482 
   54569    55519    55804    55400    54623    53808    53197    52913 
   52904    53058    53445    54259    55463    56621    57140    56655 
   55225    53314    51649    50888    51252    52451    53947    55178 
   55651    55190    54176    53262    52826    52876    53282    53821 
   54152    54053    53590    53020    52622    52632    53189    54175 
   55173    55774    55769    55097    53939    52763    52058    52009 
   52452    53099    53664    53898    53730    53297    52749    52157 
   51596    51171    50957    51007    51357    51944    52559    52885 
   52672    52000    51320    51128    51636    52715    54007    55078 
   55604    55467    54777    53833    52927    52221    51817    51729 
   51838    52081    52455    52806    52884    52608    52117    51602 
   51245    51250    51697    52370    52897    53003    52545    51605 
   50575    49886    49693    49971    50660    51604    52546    53269 
   53685    53819    53667    53182    52457    51721    51167    50964 
   51263    52010    52913    53623    53862    53549    52835    51989 
   51285    50943    51081    51688    52551    53337    53853    54044 
   53814    53135    52195    51258    50527    50185    50315    50769 
   51252    51558    51638    51474    51110    50790    50757    50990 
   51373    51878    52449    52878    52958    52690    52194    51537 
   50860    50430    50447    50902    51642    52513    53278    53614 
   53435    52970    52449    52039    51908    52099    52521    53074 
   53636    54032    54093    53752    53082    52163    51078    50101 
   49630    49854    50607    51482    52087    52256    52071    51746 
   51498    51456    51701    52253    52990    53690    54137    54170 
   53726    52862    51787    50807    50165    50027    50446    51241 
   52130    52896    53329    53274    52806    52149    51478    50892 
   50504    50478    50921    51735    52682    53475    53825    53626 
   53068    52500    52173    52179    52502    52973    53303    53314 
   53030    52577    52124    51857    51951    52441    53096    53590 
   53752    53554    53101    52682    52633    53071    53728    54149 
   54058    53440    52469    51476    50846    50848    51517    52610 
   53754    54606    54903    54582    53836    52963    52228    51839 
   51914    52403    53077    53575    53556    52932    51969    51085 
   50630    50822    51673    52928    54144    54889    54955    54426 
   53538    52588    51873    51526    51445    51503    51719    52131 
   52650    53089    53312    53319    53254    53309    53552    53848 
   53972    53743    53068    52052    51012    50365    50467    51373 
   52757    54104    54943    55013    54366    53334    52378    51915 
   52190    53166    54522    55816    56607    56521    55487    53901 
   52369    51360    51140    51783    53064    54501    55657    56330 
   56458    56032    55170    54161    53346    52901    52821    53041 
   53429    53766    53848    53590    53036    52336    51690    51276 
   51224    51596    52310    53132    53815    54194    54132    53638 
   52966    52402    52022    51793    51781    52093    52683    53364 
   53958    54350    54425    54104    53544    53074    52932    53213 
   53891    54723    55340    55451    54968    54082    53168    52567 
   52503    53004    53835    54664    55279    55561    55426    54894 
   54149    53470    53108    53181    53634    54270    54833    55117 
   55042    54619    53938    53225    52783    52805    53261    53944 
   54583    54953    54944    54551    53909    53297    52979    53056 
   53412    53768    53816    53390    52594    51754    51228    51251 
   51830    52701    53510    54010    54090    53799    53386    53153 
   53234    53489    53619    53495    53228    52892    52491    52158 
   52095    52371    52869    53410    53858    54105    54083    53841 
   53468    52975    52461    52230    52486    53093    53738    54201 
   54373    54183    53653    52988    52486    52270    52226    52293 
   52529    52922    53369    53741    53854    53553    52855    51962 
   51162    50681    50616    50994    51780    52772    53647    54106 
   53978    53261    52147    50983    50179    50082    50835    52249 
   53821    54978    55341    54821    53624    52230    51195    50841 
   51107    51725    52459    53130    53626    53988    54348    54714 
   54920    54821    54409    53706    52775    51894    51416    51449 
   51845    52386    52871    53168    53241    53138    52942    52720 
   52528    52442    52459    52513    52650    52978    53454    53882 
   54097    54053    53841    53674    53762    54139    54593    54758 
   54355    53388    52163    51184    50925    51577    52949    54518 
   55664    55957    55341    54142    52894    52116    52093    52725 
   53612    54321    54597    54428    53943    53331    52902    52969 
   53553    54360    55069    55412    55174    54383    53348    52496 
   52165    52422    53011    53498    53568    53318    53107    53163 
   53493    54001    54503    54742    54525    53883    53126    52695 
   52843    53530    54527    55444    55876    55709    55043    53948 
   52594    51427    50989    51543    52844    54379    55704    56398 
   56076    54729    52829    51080    50143    50408    51735    53470 
   54870    55482    55188    54166    52901    52035    52002    52743 
   53835    54906    55630    55606    54792    53667    52669    51987 
   51753    51959    52429    52925    53243    53359    53308    53068 
   52717    52305    51847    51554    51641    52048    52586    53207 
   54006    54942    55724    55992    55479    54230    52689    51389 
   50694    50799    51643    52805    53675    53879    53500    52872 
   52264    51779    51429    51165    50947    50925    51314    52070 
   52943    53531    53509    53067    52640    52452    52642    53175 
   53690    53849    53557    52916    52242    51892    52030    52513 
   52929    53004    52814    52510    52269    52291    52539    52658 
   52322    51632    50949    50516    50561    51232    52289    53268 
   53784    53656    53027    52271    51731    51496    51310    50946 
   50729    51132    52034    53002    53761    54027    53631    52930 
   52593    52948    53697    54306    54510    54221    53245    51664 
   50257    49728    49949    50596    51665    53061    54409    55274 
   55518    55224    54227    52617    51237    50664    50707    51065 
   51465    51639    51560    51429    51536    51970    52510    53033 
   53464    53454    52785    51697    50596    49880    49768    50086 
   50508    50912    51250    51380    51226    50937    50761    50811 
   51011    51207    51275    51202    51172    51481    52209    53086 
   53697    53711    53139    52382    51886    51975    52747    53828 
   54632    54796    54165    52887    51479    50459    50039    50094 
   50335    50619    51021    51575    52028    51961    51256    50178 
   49016    48111    47959    48795    50297    51743    52474    52343 
   51561    50452    49601    49445    49683    49867    49937    49973 
   50204    50723    51306    51927    52349    52034    51188    50445 
   50198    50744    51871    52994    53775    53797    52709    50859 
   49058    48163    48542    49768    51261    52648    53486    53475 
   52838    52049    51332    50785    50781    51531    52554    53141 
   52966    52000    50234    48076    46545    46212    46935    48652 
   50904    52570    52971    52187    50677    49228    48434    48335 
   48921    50121    51507    52591    53057    52935    52549    51988 
   51215    50613    50608    51203    52226    53311    54046    54417 
   54337    53532    52342    51434    51149    51656    52826    54177 
   55291    55882    55859    55509    55201    54841    54144    53524 
   53543    54004    54671    55438    55802    55554    54981    54321 
   53966    54082    54409    55005    55845    56548    57029    57163 
   56751    56048    55269    54416    53697    53278    53223    53672 
   54605    55729    56575    56805    56465    55729    54886    54305 
   54133    54411    54866    54950    54628    54086    53286    52500 
   52031    51764    51785    52483    54027    56006    57406    57565 
   56655    55063    53404    52386    52321    53252    54779    56075 
   56533    56010    54745    52994    51000    49614    49675    50892 
   52410    53633    54153    53824    52837    51521    50293    49509 
   49378    50139    51680    53236    54205    54655    54656    54022 
   52978    52268    52424    53397    54774    56037    56857    57040 
   56480    55458    54381    53433    52951    53349    54626    56480 
   58517    60201    61071    60951    59943    58445    56989    56106 
   56247    57318    58602    59438    59497    58649    57033    55188 
   53894    53637    54373    55818    57588    59256    60472    60997 
   60797    59892    58208    55998    53801    51977    50801    50388 
   50411    50345    49768    48546    47027    45781    45255    45686 
   46833    48090    49040    49460    49068    47712    45767    44088 
   43314    43444    44256    45748    47735    49457    50212    49864 
   48545    46752    45399    45009    45526    46786    48428    49929 
   50910    51194    50975    50695    50630    50993    51995    53472 
   54880    55687    55559    54372    52478    50571    49091    48440 
   49092    50823    52955    55107    56768    57310    56888    56151 
   55449    54901    54504    54250    54046    53540    52755    51971 
   51072    50203    49615    49079    48787    49037    49427    49731 
   49819    49347    48687    48271    47955    48096    48841    49342 
   49229    48633    47363    45626    44131    43559    44271    45842 
   47534    49054    50081    50118    49203    47940    46940    46638 
   47303    48906    51063    53220    54849    55621    55430    54288 
   52522    50845    49866    49772    50460    51783    53466    54721 
   54947    54489    53603    52377    51553    51398    51473    51783 
   52272    52649    52859    52667    51985    51142    50207    49279 
   48751    48696    48941    49254    49292    49178    49398    50200 
   51789    54160    56844    59244    60722    60940    60115    58563 
   56621    54658    52861    51306    50090    49592    50149    51396 
   52719    53739    54157    53916    53228    52514    52190    52054 
   51694    50993    49703    47868    46311    45818    46781    49230 
   52522    55902    58817    60474    60472    59190    57124    54906 
   53364    53191    54680    57267    60049    62559    64255    64633 
   63802    62275    61017    60827    61546    62829    64309    65239 
   65326    64686    63340    61730    60444    59594    59063    58491 
   57432    55924    54213    52426    50821    49773    49496    49835 
   50417    51106    51948    52881    53636    53786    53141    51792 
   49899    47867    46152    45050    44894    45744    47283    49116 
   50596    51317    51619    51797    51809    51731    51853    52614 
   54221    56439    59060    61648    63250    63481    62870    61938 
   61111    60793    61046    61709    62358    62543    62369    62170 
   62174    62608    63345    63821    63584    62495    60591    58102 
   55477    53292    52131    52389    54053    56637    59269    60884 
   60646    58558    55332    51778    48847    47477    47979    50116 
   53291    56578    59077    60054    59147    56731    53605    50558 
   48425    47991    49420    52029    54940    57390    58612    58525 
   57708    56419    54864    53458    52202    51073    50319    49867 
   49712    50103    50635    50758    50578    50090    49323    48933 
   49261    50134    51304    52160    52342    52138    51471    50187 
   48827    47844    47426    47855    49036    50776    53033    55313 
   57116    58265    58421    57434    55617    53628    52531    52951 
   54529    56722    58991    60794    61945    62272    61776    60948 
   60098    59287    58565    57793    56943    56181    55504    54768 
   53816    52594    51288    50253    49905    50526    51936    53567 
   54908    55686    55788    55214    54187    53210    52796    53072 
   53736    54475    55228    55944    56524    56988    57360    57562 
   57486    57084    56452    55844    55523    55739    56559    57628 
   58527    59031    58898    57975    56390    54515    52891    51976 
   51900    52498    53460    54383    54794    54372    53094    51281 
   49583    48697    49080    50852    53499    55946    57307    57355 
   56412    55058    53935    53713    54691    56329    57718    58262 
   57697    56020    53514    50680    48137    46360    45552    45731 
   46673    47939    49187    50292    51029    51019    50306    49425 
   48854    48917    49955    52137    55249    58595    61092    61907 
   60834    58075    54481    51483    50033    50316    52006    54215 
   56082    57184    57210    56167    54488    52467    50258    48331 
   47378    47850    49696    52449    55354    57553    58533    58056 
   56206    53876    51947    50690    50579    51685    53177    54679 
   55993    56389    55833    54584    52460    50233    48928    48516 
   49158    50903    52807    54440    55720    55997    55349    54289 
   52747    51230    50432    50043    49912    50199    50399    50163 
   49680    49099    48873    49401    50435    51790    53320    54384 
   54450    53479    51642    49357    47281    46023    45941    47086 
   49259    51926    54110    54889    53992    51791    49168    47198 
   46451    46840    47879    48976    49881    50375    50042    49214 
   48647    48482    48918    50111    51465    52536    53098    52749 
   51827    50899    49930    49235    49142    49116    48804    48334 
   47692    47160    47258    48048    49286    50679    51720    52017 
   51718    51142    50628    50814    52030    54004    56454    58763 
   60081    60270    59296    57177    55034    53980    54188    55629 
   57723    59457    60474    60761    60326    59444    58224    56741 
   55380    54347    53616    53327    53602    54128    54281    53736 
   52712    51689    51107    51180    51962    53350    54901    56055 
   56412    55691    54026    51984    50099    48814    48438    48963 
   50216    51840    53294    54148    54184    53477    52489    51782 
   51657    52126    53035    54051    54670    54472    53303    51440 
   49766    49141    49645    50919    52565    54110    55288    56049 
   56328    56196    55715    54851    53787    52674    51610    50996 
   51003    51391    52061    52865    53563    54184    54627    54643 
   54208    53174    51472    49623    48168    47378    47510    48453 
   49710    50763    51188    50914    50259    49588    49220    49297 
   49723    50367    51141    52056    53067    53731    53556    52440 
   50669    49028    48260    48409    49378    50844    51708    51265 
   49796    47737    45868    45157    45743    47375    49678    51658 
   52675    52674    51298    48689    45741    43080    41532    41971 
   44083    47187    50740    53453    54342    53525    51236    48145 
   45582    44270    44398    45974    48225    50354    52110    52990 
   52796    52123    51249    50214    49427    49001    48762    48744 
   48919    49274    49874    50531    50996    51180    51099    50929 
   50907    51083    51361    51704    52104    52434    52566    52504 
   52215    51724    51342    51371    51852    52762    54029    55375 
   56275    56167    54890    52783    50405    48420    47536    48191 
   50204    52827    55178    56467    56173    54471    52205    50275 
   49196    49144    50198    51997    53575    54422    54688    54236 
   53111    51943    50977    50299    50084    49935    49695    49722 
   49668    49265    49160    49562    50371    51813    53314    54131 
   54359    53752    52155    50402    49071    48391    48670    49532 
   50370    51033    51236    50867    50414    50184    50166    50464 
   51008    51498    51858    52080    51983    51627    51313    51199 
   51458    52253    53255    53873    53753    52804    51227    49456 
   47925    47152    47541    48857    50432    51765    52559    52624 
   52123    51463    50809    50214    49852    49805    50217    51202 
   52314    53067    53288    52731    51529    50239    49196    48736 
   48989    49627    50490    51370    51909    52223    52422    52488 
   52803    53518    54392    55303    56009    56316    56162    55307 
