Origin Time       2016/04/16 01:25:00
Lat.              32.753
Long.             130.762
Depth. (km)       12
Mag.              7.3
Station Code      EHMH11
Station Lat.      33.5807
Station Long.     132.6011
Station Height(m) 110
Record Time       2016/04/16 01:25:40
Sampling Freq(Hz) 100Hz
Duration Time(s)  208
Dir.              2
Scale Factor      2940(gal)/6170270
Max. Acc. (gal)   5.608
Last Correction   2016/04/16 01:25:25
Memo.             
[...]
   -5064    -5148    -5212    -5260    -5364    -5494    -5527    -5460 
   -5428    -5476    -5525    -5530    -5475    -5335    -5162    -5061 
   -5053    -5080    -5077    -5007    -4914    -4872    -4862    -4838 
   -4850    -4941    -5034    -5085    -5200    -5435    -5666    -5793 
   -5874    -5961    -6053    -6213    -6451    -6625    -6687    -6773 
   -6977    -7253    -7486    -7567    -7505    -7445    -7455    -7452 
   -7394    -7312    -7214    -7118    -7069    -7024    -6878    -6681 
   -6594    -6614    -6595    -6528    -6473    -6408    -6375    -6483 
   -6690    -6873    -7008    -7129    -7271    -7476    -7723    -7918 
   -8041    -8185    -8363    -8479    -8525    -8561    -8546    -8423 
   -8260    -8097    -7876    -7603    -7347    -7105    -6890    -6746 
   -6624    -6467    -6352    -6334    -6321    -6244    -6152    -6095 
   -6087    -6147    -6265    -6402    -6568    -6783    -6979    -7101 
   -7185    -7231    -7219    -7228    -7259    -7194    -7063    -7022 
   -7071    -7122    -7212    -7395    -7622    -7876    -8207    -8606 
   -8971    -9180    -9203    -9146    -9140    -9175    -9184    -9187 
   -9235    -9295    -9308    -9301    -9352    -9485    -9656    -9827 
   -9992   -10097   -10025    -9782    -9574    -9507    -9431    -9258 
   -9111    -9061    -9007    -8903    -8809    -8735    -8673    -8700 
   -8827    -8941    -8976    -8939    -8836    -8726    -8658    -8572 
   -8451    -8391    -8400    -8358    -8188    -7953    -7780    -7722 
   -7731    -7741    -7717    -7656    -7587    -7539    -7535    -7560 
   -7527    -7395    -7281    -7302    -7416    -7511    -7530    -7463 
   -7378    -7377    -7462    -7538    -7579    -7647    -7723    -7706 
   -7565    -7352    -7109    -6906    -6837    -6867    -6890    -6923 
   -6994    -7015    -6997    -7062    -7177    -7237    -7266    -7328 
   -7426    -7553    -7665    -7700    -7664    -7607    -7549    -7478 
   -7402    -7380    -7443    -7511    -7480    -7358    -7222    -7114 
   -7014    -6919    -6900    -6963    -6976    -6859    -6680    -6519 
   -6413    -6358    -6281    -6129    -5960    -5790    -5546    -5247 
   -5039    -4988    -5002    -4974    -4920    -4931    -5029    -5150 
   -5239    -5298    -5363    -5404    -5353    -5266    -5281    -5399 
   -5494    -5508    -5483    -5483    -5535    -5590    -5598    -5604 
   -5703    -5903    -6089    -6142    -6120    -6179    -6287    -6313 
   -6327    -6453    -6629    -6731    -6721    -6598    -6403    -6240 
   -6182    -6223    -6328    -6459    -6588    -6652    -6581    -6411 
   -6285    -6279    -6372    -6491    -6535    -6505    -6511    -6606 
   -6769    -7015    -7315    -7568    -7735    -7843    -7892    -7917 
   -7993    -8110    -8180    -8183    -8203    -8269    -8267    -8134 
   -7942    -7754    -7586    -7452    -7314    -7154    -7019    -6913 
   -6808    -6737    -6715    -6726    -6820    -7040    -7314    -7556 
   -7741    -7836    -7838    -7854    -7974    -8138    -8288    -8466 
   -8633    -8673    -8656    -8746    -8881    -8930    -8948    -8978 
   -8931    -8812    -8719    -8647    -8561    -8499    -8469    -8416 
   -8346    -8269    -8128    -7951    -7883    -7937    -7996    -8026 
   -8069    -8117    -8122    -8049    -7945    -7897    -7879    -7835 
   -7812    -7854    -7915    -7994    -8131    -8282    -8356    -8361 
   -8394    -8502    -8636    -8776    -8918    -8997    -9026    -9145 
   -9341    -9449    -9438    -9385    -9312    -9226    -9156    -9117 
   -9133    -9199    -9251    -9236    -9163    -9061    -8946    -8853 
   -8828    -8846    -8810    -8696    -8569    -8449    -8313    -8166 
   -8000    -7814    -7676    -7612    -7571    -7579    -7704    -7887 
   -8010    -8053    -8080    -8159    -8308    -8469    -8566    -8608 
   -8670    -8777    -8881    -8926    -8882    -8758    -8610    -8507 
   -8437    -8346    -8216    -8087    -8038    -8113    -8252    -8365 
   -8433    -8471    -8484    -8485    -8481    -8472    -8501    -8605 
   -8719    -8748    -8706    -8687    -8697    -8659    -8605    -8617 
   -8632    -8572    -8490    -8425    -8332    -8216    -8120    -8038 
   -7986    -8003    -8036    -7981    -7841    -7700    -7614    -7593 
   -7590    -7545    -7459    -7357    -7226    -7104    -7083    -7159 
   -7230    -7251    -7273    -7349    -7451    -7498    -7459    -7375 
   -7303    -7279    -7289    -7287    -7280    -7304    -7335    -7355 
   -7355    -7274    -7130    -7059    -7135    -7301    -7468    -7580 
   -7649    -7722    -7782    -7777    -7741    -7787    -7920    -7965 
   -7830    -7668    -7621    -7652    -7708    -7756    -7740    -7712 
   -7766    -7866    -7911    -7847    -7714    -7609    -7550    -7497 
   -7473    -7475    -7478    -7512    -7548    -7505    -7389    -7261 
   -7172    -7161    -7225    -7332    -7443    -7494    -7447    -7334 
   -7173    -6949    -6697    -6487    -6374    -6370    -6431    -6465 
   -6432    -6408    -6452    -6477    -6411    -6345    -6329    -6269 
   -6160    -6073    -5982    -5858    -5747    -5668    -5623    -5647 
   -5696    -5682    -5666    -5790    -6033    -6264    -6459    -6682 
   -6925    -7130    -7266    -7320    -7319    -7344    -7431    -7534 
   -7608    -7648    -7682    -7738    -7758    -7682    -7565    -7488 
   -7440    -7393    -7360    -7343    -7315    -7244    -7127    -6957 
   -6727    -6499    -6368    -6343    -6354    -6336    -6267    -6190 
   -6172    -6188    -6152    -6072    -6008    -5962    -5915    -5908 
   -5961    -6011    -5999    -5964    -5950    -5935    -5913    -5906 
   -5895    -5860    -5843    -5857    -5825    -5715    -5611    -5602 
   -5679    -5766    -5824    -5878    -5939    -5954    -5885    -5810 
   -5817    -5891    -6009    -6192    -6420    -6639    -6829    -6961 
   -6998    -6987    -7008    -7058    -7101    -7131    -7132    -7084 
   -7012    -6953    -6939    -6975    -7011    -7014    -7034    -7093 
   -7140    -7174    -7268    -7409    -7485    -7453    -7377    -7317 
   -7300    -7321    -7299    -7179    -7071    -7085    -7139    -7104 
   -6981    -6866    -6855    -6949    -7041    -7063    -7089    -7163 
   -7209    -7173    -7113    -7095    -7166    -7352    -7576    -7684 
   -7676    -7716    -7855    -7966    -7985    -7977    -7985    -8002 
   -8044    -8125    -8207    -8249    -8231    -8162    -8092    -8055 
   -8013    -7933    -7839    -7767    -7728    -7720    -7727    -7731 
   -7744    -7762    -7740    -7715    -7744    -7713    -7499    -7212 
   -6997    -6850    -6777    -6836    -6985    -7077    -7015    -6880 
   -6820    -6849    -6911    -7010    -7121    -7171    -7175    -7208 
   -7306    -7499    -7736    -7862    -7796    -7615    -7475    -7492 
   -7579    -7563    -7436    -7285    -7129    -6943    -6716    -6505 
   -6432    -6496    -6531    -6479    -6465    -6547    -6659    -6763 
   -6833    -6852    -6866    -6908    -6955    -6983    -6959    -6860 
   -6696    -6497    -6356    -6364    -6435    -6425    -6370    -6344 
   -6284    -6166    -6080    -6091    -6176    -6269    -6302    -6235 
   -6129    -6111    -6210    -6371    -6540    -6607    -6541    -6577 
   -6839    -7012    -6837    -6547    -6467    -6580    -6655    -6536 
   -6293    -6129    -6118    -6143    -6100    -6036    -6034    -6102 
   -6208    -6293    -6260    -6151    -6166    -6298    -6279    -6096 
   -6059    -6277    -6496    -6494    -6358    -6311    -6425    -6583 
   -6624    -6539    -6548    -6805    -7089    -7093    -6867    -6651 
   -6516    -6442    -6482    -6622    -6702    -6661    -6611    -6612 
   -6595    -6541    -6532    -6632    -6821    -7023    -7184    -7330 
   -7444    -7449    -7408    -7472    -7610    -7697    -7765    -7838 
   -7717    -7345    -7057    -7078    -7203    -7214    -7125    -6943 
   -6741    -6715    -6833    -6898    -6938    -7005    -7008    -7035 
   -7278    -7619    -7846    -8028    -8238    -8341    -8328    -8384 
   -8504    -8552    -8577    -8567    -8371    -8107    -7972    -7813 
   -7582    -7574    -7757    -7814    -7786    -7763    -7588    -7430 
   -7587    -7819    -7803    -7671    -7591    -7573    -7710    -7968 
   -8048    -7873    -7747    -7841    -8015    -8168    -8270    -8243 
   -8176    -8199    -8161    -8015    -8040    -8274    -8429    -8462 
   -8483    -8391    -8230    -8328    -8673    -8859    -8763    -8547 
   -8225    -7930    -7939    -8046    -7818    -7444    -7403    -7645 
   -7794    -7750    -7659    -7630    -7707    -7859    -7942    -7896 
   -7835    -7791    -7777    -7910    -8034    -7821    -7520    -7612 
   -7914    -8003    -7947    -7932    -7953    -8113    -8484    -8774 
   -8757    -8660    -8722    -8848    -8896    -8864    -8793    -8761 
   -8858    -9034    -9207    -9412    -9599    -9624    -9592    -9744 
  -10029   -10255   -10423   -10505   -10372   -10072    -9734    -9347 
   -8999    -8906    -8992    -8937    -8732    -8578    -8372    -7997 
   -7724    -7685    -7618    -7499    -7538    -7592    -7540    -7676 
   -8025    -8215    -8216    -8279    -8424    -8630    -8974    -9315 
   -9481    -9655    -9972   -10217   -10305   -10406   -10513   -10543 
  -10577   -10629   -10651   -10745   -10908   -10945   -10912   -11012 
  -11134   -11051   -10781   -10494   -10372   -10488   -10654   -10563 
  -10174    -9770    -9550    -9425    -9346    -9451    -9678    -9741 
   -9577    -9408    -9490    -9809    -9999    -9839    -9596    -9538 
   -9611    -9733    -9848    -9758    -9367    -8955    -8890    -9147 
   -9330    -9292    -9333    -9569    -9812   -10030   -10204   -10222 
  -10284   -10561   -10791   -10832   -10846   -10905   -11006   -11179 
  -11355   -11395   -11271   -11142   -11058   -10757   -10206    -9850 
   -9903   -10050   -10021    -9776    -9274    -8733    -8608    -8746 
   -8598    -8283    -8158    -8023    -7797    -7737    -7667    -7330 
   -7053    -7043    -6988    -6733    -6436    -6222    -6082    -5934 
   -5742    -5485    -5180    -5037    -5136    -5230    -5170    -5032 
   -4825    -4609    -4602    -4802    -4949    -4929    -4840    -4753 
   -4637    -4483    -4433    -4583    -4794    -4958    -5032    -4918 
   -4770    -4889    -5182    -5320    -5240    -5164    -5292    -5538 
   -5612    -5455    -5351    -5491    -5739    -5915    -6055    -6274 
   -6510    -6617    -6601    -6545    -6458    -6374    -6405    -6475 
   -6367    -6134    -6016    -6068    -6142    -6074    -5898    -5835 
   -5937    -5963    -5798    -5767    -6155    -6676    -6910    -6903 
   -7001    -7316    -7615    -7762    -7942    -8268    -8583    -8761 
   -8837    -8856    -8828    -8741    -8622    -8537    -8434    -8239 
   -7993    -7691    -7321    -6944    -6541    -6114    -5687    -5190 
   -4711    -4451    -4306    -4045    -3686    -3321    -2909    -2432 
   -1995    -1651    -1342    -1057     -796     -468     -157      -11 
     168      453      537      522      724      866      656      369 
     254      243      226       85     -215     -459     -437     -260 
    -179     -326     -747    -1297    -1682    -1905    -2168    -2521 
   -3023    -3775    -4683    -5548    -6426    -7502    -8596    -9394 
  -10022   -10692   -11304   -11881   -12634   -13454   -14030   -14309 
  -14486   -14723   -14998   -15108   -14887   -14620   -14683   -14855 
  -14784   -14591   -14511   -14544   -14540   -14402   -14171   -13931 
  -13729   -13529   -13222   -12761   -12230   -11771   -11416   -10996 
  -10414    -9861    -9560    -9491    -9465    -9321    -9046    -8757 
   -8587    -8514    -8343    -7963    -7535    -7265    -7133    -6922 
   -6597    -6438    -6526    -6615    -6705    -6934    -7121    -7173 
   -7343    -7697    -8067    -8461    -8950    -9475   -10004   -10540 
  -11041   -11526   -12081   -12747   -13430   -13917   -14179   -14466 
  -14848   -15092   -15219   -15484   -15776   -15815   -15675   -15568 
  -15586   -15714   -15825   -15854   -15827   -15711   -15468   -15111 
  -14745   -14406   -13923   -13272   -12720   -12418   -12157   -11755 
  -11309   -10898   -10490   -10151    -9890    -9574    -9276    -9200 
   -9238    -9144    -8958    -8826    -8735    -8665    -8690    -8817 
   -9002    -9248    -9501    -9706    -9963   -10351   -10751   -11035 
  -11177   -11215   -11321   -11566   -11719   -11643   -11387   -10945 
  -10356    -9687    -8967    -8295    -7654    -6891    -6080    -5458 
   -5021    -4626    -4293    -4017    -3594    -2992    -2514    -2371 
   -2474    -2718    -3079    -3513    -4014    -4615    -5240    -5768 
   -6251    -6854    -7566    -8212    -8689    -8975    -9118    -9216 
   -9222    -9011    -8680    -8447    -8334    -8174    -7851    -7426 
   -7048    -6702    -6232    -5639    -5024    -4380    -3699    -3091 
   -2598    -2100    -1468     -742      -71      530     1133     1683 
    2110     2458     2817     3229     3623     3868     3885     3637 
    3138     2479     1723      885       29     -747    -1401    -1977 
   -2543    -3088    -3581    -4041    -4527    -5131    -5867    -6632 
   -7342    -7937    -8373    -8703    -9012    -9302    -9482    -9548 
   -9680    -9928   -10096   -10162   -10267   -10296   -10042    -9563 
   -9007    -8348    -7488    -6517    -5643    -4872    -4072    -3170 
   -2199    -1306     -520      306     1144     1815     2351     2889 
    3408     3856     4209     4358     4319     4318     4372     4164 
    3634     3105     2718     2387     2083     1734     1227      646 
      72     -565    -1137    -1532    -2049    -2753    -3229    -3364 
   -3419    -3561    -3912    -4521    -5226    -5805    -6162    -6380 
   -6544    -6561    -6382    -6154    -5997    -5891    -5774    -5581 
   -5276    -4967    -4828    -4886    -5059    -5278    -5539    -5928 
   -6411    -6759    -6976    -7335    -7818    -8154    -8364    -8694 
   -9157    -9618    -9996   -10224   -10319   -10427   -10640   -10890 
  -11024   -10994   -10898   -10804   -10647   -10391   -10097    -9760 
   -9278    -8674    -8111    -7707    -7411    -7049    -6497    -5813 
   -5137    -4549    -4055    -3588    -3024    -2375    -1807    -1416 
   -1167     -962     -754     -664     -769     -847     -754     -913 
   -1486    -1638    -1493    -2211    -2970    -2939    -3532    -4715 
   -5036    -4954    -5486    -6030    -5909    -5905    -6237    -6151 
   -6025    -6319    -6347    -5836    -5473    -5396    -4967    -4393 
   -4180    -3928    -3591    -3537    -3493    -3096    -2562    -2309 
   -2243    -2103    -2061    -2165    -2318    -2641    -3022    -3184 
   -3292    -3641    -4019    -4240    -4655    -5391    -6160    -6851 
   -7437    -7807    -7961    -8037    -8111    -8138    -8132    -8041 
   -7655    -7014    -6378    -5762    -5009    -4246    -3730    -3396 
   -3103    -2913    -2895    -3099    -3520    -3995    -4438    -4971 
   -5652    -6348    -6963    -7511    -7993    -8476    -8997    -9376 
   -9537    -9697    -9860    -9724    -9259    -8704    -8147    -7611 
   -7180    -6809    -6370    -5924    -5587    -5253    -4878    -4704 
   -4811    -5009    -5230    -5470    -5637    -5792    -6121    -6595 
   -6977    -7130    -7116    -7066    -7028    -6990    -6995    -7087 
   -7215    -7235    -6973    -6525    -6246    -6214    -6182    -6074 
   -6054    -6185    -6386    -6596    -6773    -6860    -6858    -6887 
   -7048    -7225    -7256    -7157    -7004    -6897    -6910    -6963 
   -6984    -7029    -7205    -7622    -8182    -8598    -8891    -9320 
   -9771    -9954    -9941   -10015   -10248   -10441   -10409   -10249 
  -10213   -10394   -10689   -10873   -10827   -10698   -10569   -10337 
  -10091   -10026   -10125   -10359   -10712   -10996   -11118   -11181 
  -11192   -11123   -11082   -11142   -11250   -11366   -11518   -11695 
  -11766   -11668   -11529   -11419   -11330   -11354   -11447   -11390 
  -11191   -10976   -10694   -10378   -10228   -10234   -10252   -10375 
  -10717   -11074   -11275   -11467   -11733   -11916   -12002   -12104 
  -12153   -12109   -12097   -12024   -11669   -11128   -10591    -9959 
   -9190    -8473    -7814    -7084    -6345    -5621    -4825    -4072 
   -3531    -3148    -2822    -2525    -2224    -1907    -1620    -1405 
   -1285    -1302    -1487    -1760    -2005    -2218    -2475    -2808 
   -3171    -3488    -3752    -4062    -4501    -4970    -5324    -5611 
   -5945    -6309    -6613    -6803    -6909    -7029    -7259    -7610 
   -7986    -8276    -8487    -8655    -8735    -8714    -8668    -8563 
   -8335    -8160    -8182    -8243    -8259    -8352    -8538    -8681 
   -8681    -8539    -8309    -8087    -7953    -7854    -7711    -7595 
   -7536    -7394    -7177    -7066    -6993    -6759    -6454    -6280 
   -6317    -6581    -6930    -7081    -6974    -6830    -6768    -6770 
   -6911    -7250    -7665    -8049    -8406    -8677    -8802    -8926 
   -9154    -9404    -9742   -10310   -10879   -11129   -11197   -11365 
  -11572   -11653   -11638   -11590   -11467   -11249   -11044   -10950 
  -10902   -10799   -10646   -10486   -10332   -10210   -10192   -10354 
  -10705   -11141   -11544   -11874   -12123   -12289   -12382   -12432 
  -12474   -12490   -12492   -12608   -12885   -13151   -13234   -13188 
  -13161   -13178   -13148   -13066   -13073   -13158   -13129   -13083 
  -13207   -13238   -12962   -12585   -12319   -12172   -12018   -11837 
  -11682   -11520   -11347   -11182   -11106   -11166   -11262   -11347 
  -11397   -11389   -11371   -11362   -11378   -11427   -11473   -11483 
  -11496   -11613   -11737   -11686   -11538   -11374   -11117   -10784 
  -10480   -10213    -9916    -9614    -9394    -9231    -9007    -8667 
   -8318    -8071    -7922    -7867    -7899    -8007    -8146    -8175 
   -8068    -7985    -8006    -8097    -8240    -8346    -8289    -8132 
   -8035    -7995    -7968    -8048    -8226    -8316    -8262    -8208 
   -8176    -8096    -8083    -8289    -8664    -9064    -9319    -9367 
   -9450    -9777   -10150   -10307   -10268   -10178   -10118   -10047 
   -9899    -9755    -9731    -9750    -9629    -9369    -9198    -9255 
   -9425    -9557    -9647    -9766    -9955   -10154   -10259   -10278 
  -10310   -10367   -10364   -10298   -10259   -10238   -10095    -9823 
   -9584    -9470    -9438    -9461    -9560    -9732    -9934   -10093 
  -10117   -10030    -9978   -10044   -10195   -10346   -10428   -10471 
  -10516   -10518   -10494   -10506   -10467   -10271   -10008    -9820 
   -9735    -9712    -9688    -9629    -9570    -9544    -9529    -9556 
   -9727   -10007   -10196   -10255   -10323   -10390   -10309   -10088 
   -9811    -9486    -9166    -8923    -8658    -8268    -7911    -7758 
   -7706    -7592    -7406    -7173    -6927    -6755    -6688    -6625 
   -6499    -6381    -6320    -6251    -6162    -6150    -6249    -6361 
   -6397    -6313    -6141    -6105    -6327    -6569    -6727    -6956 
   -7207    -7359    -7412    -7318    -7121    -7084    -7331    -7642 
   -7790    -7819    -7868    -7981    -8159    -8332    -8306    -8061 
   -7905    -8015    -8229    -8415    -8577    -8662    -8650    -8586 
   -8456    -8318    -8293    -8341    -8351    -8330    -8268    -8104 
