Origin Time       2016/04/16 01:25:00
Lat.              32.753
Long.             130.762
Depth. (km)       12
Mag.              7.3
Station Code      EHMH11
Station Lat.      33.5807
Station Long.     132.6011
Station Height(m) 210
Record Time       2016/04/16 01:25:40
Sampling Freq(Hz) 100Hz
Duration Time(s)  208
Dir.              6
Scale Factor      3920(gal)/6170801
Max. Acc. (gal)   5.749
Last Correction   2016/04/16 01:25:25
Memo.             
[...]
  -26575   -26692   -26775   -26824   -26864   -26840   -26788   -26814 
  -26989   -27291   -27510   -27442   -27104   -26629   -26258   -26211 
  -26432   -26723   -26922   -26939   -26808   -26689   -26846   -27412 
  -28126   -28524   -28304   -27569   -26826   -26537   -26763   -27267 
  -27788   -28176   -28364   -28333   -28230   -28254   -28417   -28694 
  -29064   -29367   -29529   -29578   -29472   -29267   -29150   -29205 
  -29320   -29302   -29039   -28538   -27958   -27582   -27532   -27659 
  -27782   -27893   -28136   -28630   -29271   -29727   -29663   -29005 
  -28029   -27208   -26926   -27306   -28102   -28795   -29016   -28791 
  -28357   -27949   -27712   -27668   -27782   -28022   -28269   -28428 
  -28603   -28893   -29218   -29459   -29530   -29432   -29304   -29276 
  -29377   -29578   -29754   -29777   -29662   -29495   -29360   -29395 
  -29718   -30268   -30777   -30926   -30574   -29867   -29113   -28550 
  -28212   -27987   -27806   -27756   -27949   -28333   -28705   -28941 
  -29083   -29225   -29356   -29401   -29326   -29124   -28854   -28646 
  -28568   -28662   -29040   -29644   -30203   -30527   -30557   -30289 
  -29824   -29316   -28945   -28866   -28996   -29029   -28774   -28316 
  -27950   -27995   -28485   -29058   -29306   -29110   -28644   -28239 
  -28160   -28419   -28855   -29277   -29494   -29330   -28722   -27871 
  -27212   -27071   -27389   -27864   -28243   -28472   -28702   -29077 
  -29498   -29711   -29574   -29180   -28724   -28363   -28144   -27894 
  -27483   -27064   -26738   -26517   -26595   -27093   -27905   -28830 
  -29478   -29520   -29162   -28817   -28632   -28613   -28684   -28668 
  -28466   -28092   -27688   -27482   -27528   -27729   -28050   -28416 
  -28678   -28840   -28980   -29059   -29069   -29031   -28848   -28510 
  -28155   -27843   -27592   -27427   -27313   -27275   -27374   -27651 
  -28094   -28511   -28669   -28514   -28109   -27603   -27206   -27017 
  -26989   -27028   -27014   -26903   -26845   -26984   -27251   -27465 
  -27488   -27353   -27202   -27130   -27214   -27454   -27657   -27554 
  -27019   -26250   -25647   -25475   -25770   -26395   -27096   -27606 
  -27737   -27438   -26920   -26616   -26831   -27441   -27967   -27984 
  -27413   -26528   -25811   -25678   -26259   -27273   -28134   -28365 
  -27944   -27284   -26882   -26974   -27489   -28078   -28232   -27770 
  -27148   -27030   -27664   -28807   -29969   -30646   -30645   -30198 
  -29706   -29470   -29583   -29955   -30375   -30588   -30494   -30208 
  -29922   -29731   -29613   -29566   -29568   -29454   -29118   -28714 
  -28407   -28143   -27833   -27560   -27514   -27796   -28276   -28638 
  -28626   -28265   -27799   -27462   -27333   -27376   -27550   -27759 
  -27821   -27699   -27613   -27771   -28164   -28629   -28931   -28936 
  -28772   -28617   -28505   -28485   -28657   -28965   -29219   -29263 
  -29066   -28742   -28461   -28262   -28030   -27696   -27404   -27402 
  -27759   -28248   -28544   -28540   -28414   -28362   -28432   -28561 
  -28639   -28646   -28697   -28869   -29075   -29198   -29272   -29412 
  -29627   -29847   -29999   -30008   -29856   -29633   -29471   -29392 
  -29337   -29304   -29239   -28951   -28392   -27747   -27240   -27046 
  -27230   -27621   -27972   -28162   -28212   -28278   -28492   -28806 
  -29053   -29042   -28691   -28204   -27904   -27862   -27938   -28046 
  -28166   -28282   -28382   -28453   -28525   -28614   -28694   -28796 
  -28974   -29128   -29082   -28839   -28588   -28539   -28786   -29158 
  -29349   -29310   -29299   -29459   -29604   -29534   -29297   -29020 
  -28761   -28564   -28501   -28647   -28980   -29296   -29284   -28790 
  -27994   -27261   -26849   -26753   -26785   -26797   -26803   -26877 
  -27079   -27474   -28031   -28553   -28863   -28922   -28703   -28228 
  -27728   -27521   -27664   -27878   -27869   -27602   -27296   -27202 
  -27332   -27469   -27437   -27311   -27344   -27712   -28331   -28891 
  -29076   -28818   -28374   -28106   -28155   -28368   -28534   -28584 
  -28547   -28456   -28335   -28209   -28097   -28021   -28001   -27992 
  -27916   -27824   -27857   -27985   -28009   -27820   -27478   -27144 
  -27004   -27185   -27665   -28221   -28578   -28679   -28655   -28598 
  -28545   -28538   -28616   -28780   -28951   -29011   -28906   -28652 
  -28305   -27956   -27739   -27792   -28146   -28668   -29100   -29224 
  -29085   -28942   -28985   -29151   -29201   -28986   -28565   -28100 
  -27754   -27646   -27791   -28131   -28516   -28753   -28785   -28713 
  -28643   -28604   -28542   -28369   -28028   -27544   -27073   -26842 
  -26975   -27379   -27816   -28086   -28165   -28110   -27980   -27878 
  -27912   -28095   -28366   -28604   -28617   -28301   -27795   -27366 
  -27157   -27086   -26986   -26854   -26858   -27110   -27515   -27763 
  -27609   -27194   -26844   -26732   -26868   -27180   -27591   -28021 
  -28353   -28517   -28530   -28431   -28272   -28124   -28073   -28151 
  -28273   -28318   -28283   -28278   -28386   -28638   -29000   -29339 
  -29547   -29631   -29560   -29263   -28814   -28407   -28175   -28145 
  -28291   -28563   -28843   -28975   -28913   -28762   -28632   -28555 
  -28519   -28513   -28549   -28596   -28571   -28454   -28378   -28498 
  -28779   -28988   -28930   -28626   -28260   -28001   -27938   -28066 
  -28302   -28602   -28905   -29060   -28991   -28798   -28612   -28498 
  -28487   -28525   -28457   -28233   -28025   -28047   -28352   -28786 
  -29109   -29172   -29002   -28693   -28345   -28137   -28223   -28553 
  -28919   -29052   -28755   -28182   -27803   -27841   -28048   -28064 
  -27781   -27416   -27265   -27417   -27761   -28132   -28384   -28386 
  -28095   -27607   -27104   -26798   -26841   -27212   -27710   -28095 
  -28313   -28429   -28476   -28508   -28586   -28681   -28651   -28367 
  -27903   -27494   -27378   -27691   -28321   -28969   -29401   -29541 
  -29418   -29118   -28763   -28469   -28325   -28374   -28563   -28747 
  -28836   -28870   -28869   -28790   -28711   -28741   -28793   -28760 
  -28708   -28735   -28819   -28828   -28673   -28435   -28226   -28054 
  -27885   -27693   -27448   -27223   -27202   -27492   -28011   -28540 
  -28865   -28923   -28787   -28598   -28474   -28422   -28374   -28280 
  -28139   -27994   -27927   -27972   -28058   -28087   -27991   -27753 
  -27462   -27235   -27093   -27007   -26985   -27079   -27326   -27675 
  -27962   -28025   -27865   -27634   -27519   -27603   -27821   -28025 
  -28072   -27949   -27773   -27709   -27885   -28219   -28436   -28373 
  -28096   -27777   -27627   -27769   -28051   -28172   -27996   -27642 
  -27330   -27207   -27281   -27461   -27614   -27647   -27601   -27618 
  -27701   -27661   -27422   -27137   -26985   -27049   -27353   -27842 
  -28325   -28596   -28591   -28393   -28206   -28251   -28521   -28751 
  -28670   -28269   -27834   -27636   -27683   -27858   -28048   -28030 
  -27592   -26848   -26290   -26448   -27449   -28908   -30179   -30720 
  -30462   -29854   -29415   -29328   -29426   -29400   -29051   -28438 
  -27787   -27331   -27217   -27398   -27631   -27660   -27460   -27252 
  -27296   -27632   -27959   -27929   -27544   -27112   -26894   -26983 
  -27349   -27792   -27991   -27749   -27143   -26588   -26626   -27389 
  -28371   -28878   -28665   -28080   -27643   -27617   -27919   -28269 
  -28446   -28438   -28361   -28335   -28460   -28755   -29039   -29109 
  -28913   -28473   -27988   -27882   -28293   -28801   -28966   -28741 
  -28269   -27710   -27292   -27171   -27270   -27421   -27481   -27359 
  -27126   -27002   -27146   -27509   -27869   -28053   -28083   -28000 
  -27830   -27748   -27892   -28090   -28131   -28070   -28076   -28194 
  -28317   -28342   -28311   -28254   -28120   -28008   -28065   -28177 
  -28159   -28008   -27841   -27815   -27960   -28080   -28002   -27766 
  -27612   -27850   -28440   -28882   -28821   -28344   -27674   -27136 
  -27066   -27371   -27636   -27578   -27157   -26627   -26512   -27186 
  -28318   -29033   -28845   -28099   -27457   -27399   -28010   -28890 
  -29518   -29573   -28981   -28052   -27318   -27131   -27445   -27785 
  -27815   -27687   -27552   -27580   -27954   -28350   -28428   -28397 
  -28321   -27942   -27420   -27215   -27480   -28108   -28796   -28918 
  -28086   -26843   -26199   -26584   -27655   -28749   -29292   -29175 
  -28738   -28371   -28341   -28693   -29107   -29097   -28454   -27434 
  -26731   -27124   -28615   -30181   -30763   -30165   -28888   -27650 
  -27119   -27507   -28289   -28686   -28331   -27575   -27167   -27449 
  -28136   -28844   -29308   -29340   -28953   -28421   -28089   -28063 
  -28265   -28573   -28703   -28446   -28019   -27862   -28234   -28795 
  -28765   -28029   -27340   -27291   -27957   -28957   -29539   -29354 
  -28797   -28369   -28189   -28031   -27776   -27600   -27563   -27617 
  -27889   -28403   -28904   -29178   -29233   -29192   -29277   -29650 
  -30056   -30128   -29850   -29364   -28829   -28497   -28471   -28502 
  -28335   -27910   -27296   -26840   -26963   -27675   -28575   -29194 
  -29307   -29062   -28720   -28409   -28251   -28272   -28174   -27850 
  -27653   -27729   -27945   -28320   -28812   -29186   -29247   -28845 
  -28069   -27558   -27832   -28616   -29394   -29791   -29632   -29321 
  -29370   -29647   -29723   -29499   -29232   -29052   -28741   -28205 
  -27734   -27634   -28017   -28732   -29218   -29048   -28491   -27930 
  -27679   -28142   -28990   -29395   -29243   -28747   -28002   -27430 
  -27450   -28196   -29542   -30637   -30381   -28885   -27469   -27106 
  -27701   -28653   -29257   -29087   -28518   -28266   -28512   -28956 
  -29318   -29450   -29313   -29001   -28696   -28659   -29058   -29677 
  -30094   -30082   -29603   -28806   -28274   -28540   -29263   -29754 
  -29947   -30108   -30239   -30278   -30321   -30291   -30140   -30099 
  -30068   -29829   -29692   -29891   -30212   -30506   -30793   -30974 
  -30900   -30680   -30612   -30674   -30747   -31027   -31357   -31259 
  -30869   -30584   -30510   -30782   -31505   -32282   -32474   -31921 
  -31039   -30439   -30514   -31042   -31433   -31507   -31443   -31327 
  -31352   -31658   -31943   -32046   -32112   -32047   -31970   -32148 
  -32242   -32067   -31887   -31700   -31497   -31214   -30674   -30232 
  -30277   -30494   -30322   -29567   -28699   -28379   -28570   -28763 
  -28652   -28189   -27646   -27382   -27390   -27417   -27196   -26721 
  -26246   -25883   -25575   -25279   -25094   -25200   -25444   -25495 
  -25345   -25129   -24962   -25097   -25638   -26206   -26243   -25694 
  -25066   -24673   -24486   -24531   -24646   -24516   -24296   -24382 
  -24656   -24683   -24403   -24120   -23904   -23416   -22587   -21954 
  -21964   -22552   -23300   -23687   -23606   -23439   -23424   -23441 
  -23398   -23528   -24055   -24710   -25161   -25430   -25605   -25750 
  -25993   -26429   -26938   -27224   -27216   -27147   -27277   -27823 
  -28754   -29662   -30184   -30254   -30068   -30124   -30750   -31682 
  -32566   -33239   -33487   -33291   -32969   -32829   -32941   -33127 
  -33249   -33459   -33865   -34159   -33987   -33454   -32926   -32684 
  -32816   -33031   -32874   -32278   -31458   -30703   -30478   -30880 
  -31296   -31025   -29867   -28396   -27435   -27127   -27069   -26893 
  -26431   -25863   -25522   -25482   -25676   -26011   -26166   -25904 
  -25508   -25300   -25147   -24906   -24685   -24430   -24074   -23811 
  -23757   -23910   -24265   -24671   -25000   -25383   -25982   -26717 
  -27385   -27785   -27831   -27741   -27742   -27911   -28447   -29393 
  -30369   -31000   -31100   -30634   -29969   -29615   -29604   -29689 
  -29605   -29059   -28231   -27697   -27705   -28239   -29111   -29827 
  -30261   -30768   -31287   -31504   -31581   -31700   -31644   -31396 
  -31070   -30425   -29406   -28408   -27827   -27742   -27825   -27723 
  -27199   -26193   -25351   -25186   -25139   -24798   -24379   -23927 
  -23612   -23637   -23600   -23344   -23161   -22918   -22599   -22439 
  -22280   -22267   -22846   -23783   -24505   -24735   -24504   -24267 
  -24626   -25684   -27015   -28173   -29001   -29538   -29876   -30139 
  -30483   -31007   -31589   -31987   -32130   -32109   -32019   -31890 
  -31708   -31552   -31525   -31679   -32013   -32234   -32022   -31578 
  -31152   -30790   -30819   -31167   -31088   -30444   -29456   -28028 
  -26502   -25406   -24832   -24564   -24113   -23300   -22563   -22192 
  -22132   -22218   -22169   -21981   -22021   -22444   -23117   -23865 
  -24476   -24877   -25009   -24696   -24171   -24014   -24504   -25408 
  -26145   -26381   -26478   -27099   -28602   -30723   -32857   -34490 
  -35218   -35033   -34436   -33892   -33731   -34035   -34452   -34681 
  -34590   -34237   -34025   -34060   -33966   -33563   -32846   -31974 
  -31399   -31287   -31415   -31493   -31149   -30324   -29396   -28693 
  -28364   -28289   -28216   -28122   -27889   -27294   -26363   -25174 
  -24089   -23611   -23601   -23758   -23880   -23472   -22487   -21310 
  -20132   -19412   -19466   -19853   -20260   -20669   -20904   -20879 
  -20638   -20376   -20542   -21420   -22909   -24671   -26223   -27283 
  -27887   -28211   -28547   -28966   -29310   -29569   -29736   -29803 
  -29949   -30291   -30813   -31488   -32233   -32912   -33408   -33774 
  -34202   -34692   -35124   -35473   -35643   -35561   -35445   -35603 
  -36166   -36927   -37325   -36991   -36068   -34817   -33572   -32696 
  -31987   -31137   -30358   -29746   -29199   -28771   -28411   -28047 
  -27679   -27137   -26386   -25796   -25636   -25839   -26275   -26585 
  -26263   -25414   -24724   -24619   -24916   -25130   -24957   -24599 
  -24578   -25143   -26060   -26907   -27321   -27243   -27011   -27027 
  -27409   -27864   -27987   -27717   -27212   -26640   -26249   -26265 
  -26799   -27734   -28663   -29064   -28597   -27696   -27238   -27330 
  -27662   -28145   -28390   -28000   -27107   -26014   -25208   -25344 
  -26417   -27747   -28873   -29523   -29644   -29830   -30384   -30901 
  -31258   -31408   -31130   -30680   -30422   -30461   -30849   -31289 
  -31438   -31391   -31134   -30688   -30421   -30357   -30394   -30603 
  -30601   -30071   -29383   -28955   -29025   -29633   -30363   -30876 
  -31112   -30953   -30549   -30269   -30266   -30560   -30884   -30766 
  -30071   -29125   -28444   -28233   -28310   -28456   -28413   -28019 
  -27390   -26794   -26551   -26784   -27223   -27550   -27751   -27960 
  -28200   -28385   -28474   -28542   -28601   -28487   -28091   -27493 
  -26913   -26606   -26697   -27141   -27746   -28181   -28200   -27831 
  -27307   -26899   -26687   -26622   -26615   -26406   -25880   -25286 
  -24825   -24571   -24476   -24268   -23827   -23259   -22585   -21899 
  -21426   -21210   -21171   -21225   -21137   -20732   -20130   -19569 
  -19364   -19767   -20603   -21494   -22269   -22874   -23199   -23244 
  -23308   -23717   -24430   -25149   -25607   -25655   -25318   -24872 
  -24629   -24669   -24943   -25356   -25745   -26110   -26567   -27160 
  -27966   -28943   -29755   -30182   -30416   -30709   -31142   -31792 
  -32628   -33409   -34002   -34446   -34667   -34567   -34146   -33384 
  -32470   -31763   -31304   -30974   -30763   -30557   -30251   -29884 
  -29485   -29168   -29061   -29007   -28779   -28422   -28180   -28330 
  -28882   -29565   -30223   -30757   -31162   -31585   -31968   -32339 
  -32780   -33010   -33004   -32888   -32467   -32043   -32070   -32086 
  -31785   -31411   -30771   -30115   -30097   -30288   -30278   -30238 
  -29872   -29398   -29484   -29840   -30196   -30582   -30450   -29669 
  -28631   -27427   -26523   -26384   -26445   -26211   -25946   -25843 
  -26048   -26727   -27551   -28107   -28338   -28251   -27937   -27621 
  -27506   -27716   -28160   -28660   -29187   -29730   -30271   -30857 
  -31363   -31529   -31251   -30604   -29927   -29781   -30339   -31166 
  -31773   -32040   -32110   -32130   -32130   -32083   -31840   -31223 
  -30602   -30507   -30664   -30740   -30743   -30409   -29960   -30000 
  -30458   -31159   -32002   -32483   -32358   -31848   -31125   -30462 
  -30303   -30670   -31095   -31306   -31306   -31026   -30542   -29931 
  -29089   -28203   -27502   -26849   -26333   -26204   -26297   -26446 
  -26552   -26455   -26418   -26645   -26819   -26803   -26557   -25984 
  -25399   -25064   -24950   -25220   -25907   -26675   -27199   -27320 
  -27188   -27115   -27116   -26902   -26323   -25751   -25744   -26367 
  -27255   -27984   -28198   -27896   -27427   -27040   -26808   -26725 
  -26711   -26742   -26803   -26807   -26564   -25813   -24607   -23461 
  -22949   -23320   -24372   -25653   -26794   -27518   -27609   -27105 
  -26366   -25784   -25472   -25298   -25022   -24492   -23986   -23952 
  -24405   -25112   -25785   -25887   -25295   -24689   -24638   -25135 
  -25877   -26412   -26514   -26366   -26235   -26285   -26396   -26307 
  -26140   -25991   -25685   -25395   -25350   -25520   -25927   -26384 
  -26566   -26477   -26182   -25699   -25210   -24854   -24734   -25077 
  -25867   -26743   -27431   -27828   -27891   -27745   -27662   -27795 
  -28062   -28322   -28441   -28260   -27837   -27478   -27379   -27618 
  -28169   -28718   -29071   -29220   -28909   -28248   -27811   -27565 
  -27250   -27082   -27017   -26975   -27299   -27775   -28007   -28220 
  -28389   -28358   -28362   -28336   -28243   -28467   -28928   -29368 
  -29937   -30528   -31028   -31645   -32099   -32077   -31929   -31820 
  -31721   -31937   -32372   -32578   -32516   -32235   -31827   -31719 
  -32035   -32453   -32779   -32790   -32301   -31558   -30779   -30061 
  -29662   -29597   -29554   -29352   -29069   -28831   -28677   -28580 
  -28445   -28202   -27925   -27757   -27746   -27796   -27732   -27522 
  -27399   -27544   -27842   -28200   -28626   -29042   -29431   -29779 
  -29874   -29601   -29149   -28705   -28359   -28203   -28280   -28562 
  -28934   -29175   -29125   -28782   -28283   -27889   -27889   -28358 
  -29040   -29535   -29587   -29344   -29127   -28847   -28506   -28574 
  -29062   -29606   -30052   -30039   -29547   -29231   -29163   -29002 
  -28949   -29002   -28878   -28794   -28754   -28547   -28617   -29038 
  -29314   -29572   -29931   -30090   -30122   -30161   -30102   -30019 
  -29951   -29792   -29632   -29528   -29330   -29049   -28911   -29062 
  -29527   -30174   -30683   -30895   -30877   -30736   -30652   -30713 
  -30741   -30527   -29999   -29254   -28598   -28352   -28658   -29476 
  -30542   -31421   -31764   -31465   -30735   -30050   -29836   -30215 
  -30859   -31283   -31367   -31161   -30807   -30635   -30597   -30485 
  -30401   -30215   -29859   -29721   -29860   -30084   -30281   -30242 
  -30111   -30241   -30641   -31219   -31680   -31741   -31655   -31555 
  -31335   -31183   -31138   -31093   -31094   -31013   -30776   -30485 
  -30222   -30292   -30723   -31008   -30947   -30544   -29884   -29524 
  -29640   -29769   -29815   -29880   -29950   -30256   -30776   -31182 
  -31436   -31510   -31374   -31149   -30894   -30698   -30526   -30219 
  -29791   -29250   -28756   -28639   -28778   -28845   -28796   -28621 
  -28322   -28041   -27823   -27728   -27926   -28391   -28949   -29415 
