Origin Time       2016/04/16 01:25:00
Lat.              32.753
Long.             130.762
Depth. (km)       12
Mag.              7.3
Station Code      EHMH11
Station Lat.      33.5807
Station Long.     132.6011
Station Height(m) 210
Record Time       2016/04/16 01:25:40
Sampling Freq(Hz) 100Hz
Duration Time(s)  208
Dir.              4
Scale Factor      3920(gal)/6170801
Max. Acc. (gal)   13.815
Last Correction   2016/04/16 01:25:25
Memo.             
[...]
  -27235   -26793   -27084   -27765   -28442   -28958   -29236   -29248 
  -29149   -28950   -28486   -27852   -27211   -26643   -26318   -26298 
  -26604   -27317   -28128   -28645   -28860   -28643   -27858   -26934 
  -26279   -25969   -26052   -26368   -26634   -26768   -26775   -26720 
  -26726   -26834   -26948   -26877   -26667   -26625   -26805   -27051 
  -27319   -27479   -27428   -27466   -27895   -28656   -29500   -29953 
  -29487   -28038   -26054   -24207   -23189   -23417   -24793   -26834 
  -28839   -30095   -30330   -29766   -28681   -27370   -26227   -25564 
  -25682   -26765   -28459   -29990   -30750   -30554   -29614   -28438 
  -27539   -27132   -27148   -27389   -27671   -27901   -28035   -28126 
  -28278   -28490   -28753   -29140   -29584   -29832   -29708   -29233 
  -28548   -27973   -27861   -28194   -28649   -28880   -28645   -28062 
  -27589   -27525   -27860   -28451   -29008   -29282   -29277   -29014 
  -28419   -27547   -26613   -25959   -25974   -26676   -27640   -28444 
  -28807   -28591   -27951   -27193   -26513   -25953   -25548   -25458 
  -25874   -26728   -27589   -27979   -27720   -26890   -25795   -24949 
  -24667   -24822   -25079   -25290   -25615   -26220   -27115   -28212 
  -29217   -29709   -29510   -28768   -27806   -27008   -26678   -26926 
  -27615   -28402   -28938   -29008   -28591   -27862   -27032   -26349 
  -26174   -26688   -27699   -28780   -29445   -29412   -28764   -27821 
  -26962   -26408   -26172   -26161   -26188   -26175   -26363   -27003 
  -28023   -29090   -29798   -29823   -29059   -27727   -26277   -25064 
  -24274   -24086   -24627   -25836   -27385   -28702   -29239   -28779 
  -27491   -25864   -24573   -24194   -24882   -26300   -27876   -29110 
  -29665   -29416   -28523   -27309   -26124   -25340   -25286   -26048 
  -27370   -28772   -29749   -29924   -29245   -28042   -26797   -25881 
  -25513   -25772   -26564   -27626   -28585   -29112   -29071   -28575 
  -27912   -27412   -27270   -27430   -27673   -27790   -27676   -27336 
  -26901   -26614   -26653   -26980   -27452   -27988   -28572   -29110 
  -29354   -29066   -28295   -27407   -26831   -26812   -27309   -27973 
  -28311   -28056   -27379   -26667   -26170   -25965   -26090   -26529 
  -27158   -27783   -28196   -28239   -27890   -27295   -26708   -26368 
  -26401   -26799   -27402   -27976   -28394   -28600   -28531   -28259 
  -27981   -27778   -27625   -27500   -27370   -27207   -27071   -27046 
  -27160   -27432   -27869   -28337   -28631   -28646   -28370   -27883 
  -27512   -27715   -28612   -29758   -30432   -30135   -28855   -27036 
  -25362   -24366   -24204   -24825   -26060   -27480   -28509   -28772 
  -28236   -27164   -26041   -25393   -25525   -26302   -27200   -27705 
  -27625   -27054   -26282   -25659   -25395   -25554   -26198   -27291 
  -28495   -29313   -29503   -29168   -28536   -27919   -27561   -27363 
  -27113   -26880   -26843   -27050   -27528   -28269   -29062   -29543 
  -29409   -28654   -27613   -26674   -26090   -25977   -26305   -26947 
  -27777   -28611   -29146   -29112   -28433   -27248   -26034   -25435 
  -25751   -26780   -28017   -28890   -29080   -28611   -27740   -26843 
  -26233   -26069   -26368   -26955   -27501   -27680   -27313   -26551 
  -25820   -25485   -25681   -26281   -26977   -27485   -27665   -27478 
  -27026   -26598   -26475   -26773   -27487   -28474   -29428   -29988 
  -29879   -29040   -27692   -26287   -25342   -25190   -25810   -26870 
  -27928   -28576   -28540   -27820   -26738   -25726   -25081   -24954 
  -25416   -26391   -27569   -28555   -29064   -28969   -28332   -27318 
  -26119   -25077   -24644   -25037   -26100   -27426   -28495   -28874 
  -28453   -27499   -26448   -25693   -25470   -25778   -26450   -27350 
  -28367   -29218   -29502   -29000   -27879   -26650   -25891   -25956 
  -26819   -28099   -29296   -30023   -30031   -29239   -27819   -26196 
  -24884   -24272   -24526   -25582   -27085   -28520   -29508   -29856 
  -29496   -28600   -27543   -26637   -26010   -25700   -25711   -25991 
  -26421   -26824   -27050   -27017   -26675   -26095   -25577   -25468 
  -25938   -26878   -27913   -28680   -29089   -29212   -29120   -28897 
  -28647   -28462   -28423   -28528   -28653   -28657   -28528   -28348 
  -28151   -27886   -27500   -27042   -26671   -26567   -26776   -27166 
  -27554   -27783   -27748   -27523   -27345   -27401   -27760   -28402 
  -29129   -29643   -29829   -29705   -29268   -28641   -28108   -27876 
  -27993   -28407   -28943   -29293   -29197   -28610   -27670   -26650 
  -25924   -25809   -26344   -27291   -28304   -29103   -29565   -29664 
  -29404   -28852   -28159   -27526   -27144   -27084   -27261   -27497 
  -27594   -27432   -27075   -26762   -26743   -27062   -27531   -27946 
  -28229   -28384   -28458   -28470   -28370   -28168   -27992   -28006 
  -28293   -28746   -29105   -29143   -28814   -28341   -28059   -28050 
  -28127   -28138   -28083   -28031   -28085   -28333   -28673   -28839 
  -28648   -28075   -27221   -26368   -25923   -26125   -26842   -27714 
  -28406   -28742   -28753   -28588   -28406   -28339   -28425   -28540 
  -28558   -28495   -28399   -28243   -28015   -27727   -27388   -27049 
  -26788   -26660   -26689   -26846   -27007   -27056   -27066   -27238 
  -27600   -27938   -28060   -27954   -27697   -27414   -27221   -27132 
  -27141   -27305   -27642   -28072   -28418   -28438   -27986   -27144 
  -26194   -25549   -25566   -26267   -27297   -28197   -28613   -28408 
  -27765   -27016   -26328   -25768   -25521   -25772   -26482   -27439 
  -28389   -29046   -29159   -28670   -27778   -26863   -26289   -26205 
  -26501   -26950   -27378   -27749   -28050   -28114   -27725   -26941 
  -26142   -25781   -26143   -27175   -28415   -29236   -29289   -28664 
  -27696   -26726   -26006   -25694   -25830   -26332   -27075   -27909 
  -28625   -28986   -28850   -28265   -27467   -26768   -26429   -26539 
  -26984   -27545   -28000   -28182   -28071   -27783   -27470   -27269 
  -27217   -27217   -27229   -27390   -27810   -28354   -28750   -28804 
  -28461   -27820   -27062   -26295   -25594   -25110   -25039   -25477 
  -26304   -27257   -28091   -28675   -28975   -29002   -28718   -28080 
  -27221   -26480   -26170   -26363   -26873   -27395   -27668   -27588 
  -27264   -26903   -26621   -26429   -26350   -26450   -26753   -27178 
  -27596   -27896   -27994   -27884   -27647   -27350   -26998   -26597 
  -26202   -25900   -25813   -26071   -26731   -27668   -28563   -29057 
  -28936   -28245   -27323   -26614   -26347   -26446   -26751   -27192 
  -27725   -28234   -28543   -28481   -27945   -26964   -25798   -24884 
  -24549   -24836   -25580   -26530   -27436   -28086   -28334   -28182 
  -27784   -27329   -26961   -26770   -26818   -27096   -27495   -27905 
  -28282   -28555   -28605   -28376   -27950   -27491   -27149   -27063 
  -27340   -27926   -28577   -29007   -29082   -28834   -28301   -27489 
  -26501   -25582   -25012   -24945   -25343   -26017   -26725   -27247 
  -27419   -27195   -26705   -26186   -25841   -25769   -25965   -26337 
  -26731   -26993   -27037   -26902   -26730   -26689   -26824   -27018 
  -27154   -27194   -27152   -27134   -27266   -27509   -27651   -27529 
  -27153   -26701   -26394   -26275   -26204   -26125   -26171   -26491 
  -27070   -27739   -28293   -28558   -28471   -28120   -27604   -27008 
  -26493   -26217   -26186   -26363   -26783   -27449   -28208   -28753 
  -28762   -28156   -27167   -26152   -25423   -25145   -25294   -25762 
  -26452   -27253   -28029   -28648   -29002   -28982   -28458   -27464 
  -26414   -25879   -26146   -27084   -28286   -29265   -29620   -29198 
  -28180   -26957   -25925   -25344   -25263   -25564   -26131   -26889 
  -27688   -28322   -28650   -28609   -28182   -27436   -26602   -26024 
  -25940   -26362   -27128   -28014   -28841   -29456   -29690   -29452 
  -28758   -27701   -26572   -25866   -25934   -26701   -27805   -28875 
  -29641   -29991   -29943   -29473   -28534   -27290   -26205   -25800 
  -26306   -27505   -28807   -29468   -29017   -27615   -25960   -24792 
  -24487   -25009   -26074   -27297   -28310   -28895   -28992   -28642 
  -27965   -27142   -26390   -25975   -26146   -26922   -28010   -28966 
  -29432   -29299   -28712   -27884   -26977   -26196   -25783   -25827 
  -26206   -26731   -27262   -27711   -27998   -28063   -27865   -27349 
  -26529   -25634   -25054   -25100   -25796   -26847   -27770   -28143 
  -27856   -27107   -26178   -25332   -24846   -24922   -25527   -26426 
  -27365   -28088   -28304   -27900   -27112   -26334   -25857   -25805 
  -26165   -26755   -27280   -27527   -27475   -27282   -27228   -27487 
  -27968   -28437   -28720   -28797   -28760   -28672   -28463   -28076 
  -27627   -27285   -27078   -27001   -27129   -27429   -27682   -27689 
  -27415   -26983   -26639   -26555   -26592   -26502   -26277   -26090 
  -26039   -26142   -26395   -26760   -27183   -27563   -27746   -27596 
  -27062   -26323   -25799   -25782   -26221   -26947   -27845   -28750 
  -29390   -29539   -29139   -28296   -27393   -26914   -26942   -27166 
  -27282   -27095   -26520   -25726   -25097   -24996   -25578   -26738 
  -28145   -29342   -29899   -29587   -28551   -27262   -26235   -25853 
  -26209   -26997   -27790   -28315   -28350   -27730   -26723   -25988 
  -25935   -26402   -27051   -27655   -28005   -28018   -27912   -27818 
  -27526   -26966   -26417   -26105   -26178   -26879   -28148   -29331 
  -29774   -29375   -28401   -27341   -26792   -26945   -27375   -27580 
  -27462   -27171   -26887   -26800   -26939   -27114   -27210   -27236 
  -27140   -26921   -26675   -26357   -25952   -25680   -25615   -25610 
  -25692   -25996   -26471   -26898   -27084   -26951   -26538   -26050 
  -25826   -26113   -26937   -27972   -28595   -28502   -27941   -27201 
  -26457   -25889   -25519   -25239   -25036   -24993   -25225   -25800 
  -26649   -27515   -27963   -27711   -26984   -26308   -25964   -25871 
  -25899   -25978   -26020   -26104   -26504   -27215   -27843   -28128 
  -28135   -27934   -27478   -26863   -26433   -26419   -26688   -27018 
  -27261   -27278   -27139   -27150   -27453   -27800   -27787   -27317 
  -26728   -26397   -26439   -26728   -26915   -26722   -26298   -25954 
  -25864   -26186   -26894   -27602   -28002   -28129   -28157   -28130 
  -27867   -27308   -26712   -26267   -26050   -26301   -26980   -27485 
  -27326   -26640   -25916   -25584   -25862   -26692   -27668   -28314 
  -28458   -28142   -27410   -26444   -25566   -25092   -25307   -26364 
  -27959   -29345   -29877   -29407   -28132   -26421   -24830   -24100 
  -24710   -26332   -28050   -29070   -29063   -28082   -26517   -25101 
  -24451   -24592   -25219   -26019   -26601   -26767   -26720   -26662 
  -26633   -26603   -26451   -26145   -25744   -25357   -25279   -25684 
  -26370   -27002   -27275   -27071   -26528   -25859   -25364   -25264 
  -25334   -25342   -25522   -26085   -26784   -27292   -27425   -26953 
  -25888   -24651   -23616   -23133   -23573   -24786   -26203   -27247 
  -27394   -26536   -25014   -23329   -22274   -22334   -23125   -24244 
  -25461   -26149   -26009   -25593   -25327   -25199   -25219   -25212 
  -24931   -24565   -24472   -24785   -25407   -25989   -26122   -25631 
  -24734   -23863   -23281   -23091   -23410   -24224   -25265   -25993 
  -25982   -25557   -25289   -25114   -24863   -24797   -25105   -25748 
  -26590   -27294   -27528   -27233   -26542   -25601   -24689   -24370 
  -24939   -26055   -27312   -28363   -28432   -26917   -24412   -22267 
  -21371   -21669   -22653   -23990   -25370   -26393   -26943   -27063 
  -26680   -25904   -25102   -24565   -24403   -24600   -25008   -25437 
  -25753   -25705   -24988   -23771   -22667   -22055   -21961   -22329 
  -23065   -24100   -25285   -26282   -26756   -26463   -25330   -23783 
  -22675   -22589   -23482   -25034   -26908   -28663   -29812   -30150 
  -29746   -28624   -27077   -25965   -26030   -27331   -29446   -31639 
  -32909   -32643   -31285   -29737   -28478   -27747   -27787   -28444 
  -29251   -30026   -30780   -31328   -31572   -31718   -31991   -32493 
  -33214   -33981   -34543   -34810   -34884   -34900   -34995   -35248 
  -35593   -35931   -36166   -36272   -36424   -36765   -37168   -37440 
  -37550   -37636   -37797   -37926   -37879   -37693   -37475   -37253 
  -37068   -36968   -36827   -36570   -36435   -36657   -37115   -37470 
  -37410   -36806   -35899   -35116   -34703   -34678   -34883   -35033 
  -34967   -34744   -34531   -34515   -34794   -35298   -35918   -36603 
  -37237   -37604   -37556   -37088   -36274   -35332   -34660   -34504 
  -34693   -34817   -34483   -33552   -32317   -31274   -30565   -29970 
  -29473   -29256   -29240   -29171   -28908   -28325   -27435   -26667 
  -26462   -26825   -27580   -28614   -29602   -29980   -29452   -28232 
  -26661   -25037   -23876   -23676   -24391   -25556   -26729   -27666 
  -28286   -28478   -28088   -27075   -25580   -24020   -22979   -22773 
  -23260   -24134   -25101   -25718   -25713   -25433   -25380   -25752 
  -26539   -27558   -28468   -28971   -28937   -28315   -27094   -25426 
  -23651   -22145   -21222   -21149   -21924   -23129   -24470   -25889 
  -26854   -26742   -25614   -23829   -21711   -19611   -17796   -16524 
  -15998   -16102   -16491   -16718   -16386   -15544   -14550   -13567 
  -12703   -12176   -11952   -11652   -10892    -9651    -8276    -7058 
   -6125    -5684    -5944    -6964    -8727   -10997   -13174   -14724 
  -15552   -15801   -15672   -15393   -15137   -15123   -15685   -16993 
  -18930   -21308   -23878   -26195   -27808   -28560   -28630   -28321 
  -27964   -27959   -28377   -28855   -29181   -29145   -28345   -26944 
  -25765   -25565   -26731   -29132   -32070   -34764   -36808   -37981 
  -38005   -36849   -34775   -32010   -28902   -26166   -24464   -23974 
  -24548   -25853   -27368   -28632   -29369   -29512   -29353   -29200 
  -28969   -28584   -28303   -28214   -28093   -27979   -27954   -27632 
  -26751   -25602   -24465   -23393   -22514   -21965   -21720   -21673 
  -21819   -22138   -22443   -22642   -22914   -23388   -24035   -24816 
  -25666   -26512   -27272   -27738   -27797   -27598   -27372   -27330 
  -27670   -28498   -29726   -30921   -31547   -31509   -31035   -30340 
  -29737   -29455   -29504   -29909   -30582   -31215   -31531   -31295 
  -30418   -29185   -28052   -27255   -26818   -26815   -27329   -28221 
  -29232   -30119   -30574   -30549   -30541   -30949   -31572   -32123 
  -32572   -32894   -33040   -33101   -33159   -33128   -32841   -32205 
  -31296   -30459   -30180   -30701   -31843   -33168   -34331   -35269 
  -35977   -36412   -36608   -36555   -36193   -35678   -35401   -35733 
  -36670   -37698   -38103   -37380   -35418   -32765   -30480   -29231 
  -29011   -29691   -31076   -32651   -33751   -33988   -33418   -32270 
  -30723   -28930   -27104   -25595   -24635   -24143   -24007   -24248 
  -24869   -25909   -27523   -29603   -31524   -32519   -32137   -30477 
  -28159   -25961   -24496   -24045   -24443   -25195   -25863   -26311 
  -26628   -26993   -27563   -28283   -28975   -29748   -31031   -33001 
  -35305   -37330   -38375   -37946   -36329   -34301   -32325   -30690 
  -29690   -29193   -28897   -28758   -28661   -28394   -27995   -27547 
  -26930   -26149   -25481   -25158   -25287   -25802   -26495   -27379 
  -28454   -29375   -29749   -29330   -28197   -26731   -25311   -24389 
  -24326   -24981   -26019   -27215   -28351   -29340   -30148   -30606 
  -30683   -30549   -30426   -30617   -31180   -31726   -31926   -31709 
  -31110   -30431   -29997   -29812   -29914   -30390   -31018   -31478 
  -31555   -31175   -30465   -29628   -28849   -28238   -27882   -27989 
  -28720   -29903   -31063   -31747   -31884   -31704   -31338   -30787 
  -30152   -29620   -29398   -29750   -30842   -32559   -34558   -36334 
  -37323   -37188   -36017   -34314   -32842   -32185   -32299   -32607 
  -32615   -32331   -32009   -31834   -31905   -32158   -32347   -32318 
  -32072   -31657   -31274   -31231   -31565   -31934   -31923   -31301 
  -30150   -28777   -27430   -26367   -25913   -26203   -27230   -29041 
  -31555   -34383   -36908   -38532   -38946   -38266   -37047   -36025 
  -35690   -36074   -36906   -37868   -38603   -38648   -37773   -36262 
  -34611   -33177   -32196   -31846   -32021   -32111   -31397   -29683 
  -27397   -25249   -23882   -23644   -24453   -25813   -27127   -28058 
  -28550   -28679   -28619   -28536   -28330   -27789   -27010   -26242 
  -25513   -24752   -24090   -23789   -23959   -24560   -25503   -26595 
  -27575   -28234   -28448   -28260   -27960   -27901   -28154   -28615 
  -29310   -30159   -30821   -31191   -31397   -31352   -31116   -31026 
  -31218   -31692   -32298   -32585   -32395   -31884   -30976   -29776 
  -28814   -28428   -28738   -29765   -31074   -32128   -32649   -32272 
  -30853   -28826   -26797   -25391   -24943   -25071   -25288   -25373 
  -25087   -24473   -23991   -23921   -24247   -24965   -26017   -27022 
  -27493   -27333   -26791   -26113   -25566   -25439   -25704   -26060 
  -26295   -26250   -25739   -24728   -23378   -22086   -21397   -21547 
  -22401   -23804   -25544   -27175   -28153   -28058   -26831   -24877 
  -22868   -21397   -20673   -20554   -20903   -21529   -22029   -22327 
  -22749   -23426   -24400   -25726   -27011   -27582   -27057   -25668 
  -24284   -23707   -24040   -25047   -26449   -27713   -28402   -28585 
  -28465   -28085   -27572   -27083   -26654   -26459   -26806   -27816 
  -29417   -31290   -32820   -33427   -32830   -31139   -28818   -26382 
  -24413   -23723   -24805   -27396   -30648   -33362   -34533   -33938 
  -32058   -29725   -27803   -26830   -26983   -28236   -30295   -32572 
  -34395   -35207   -34744   -33125   -30738   -28211   -26367   -25819 
  -26539   -27865   -28905   -29119   -28628   -27908   -27315   -26971 
  -26839   -26694   -26315   -25762   -25321   -25224   -25473   -25807 
  -25921   -25801   -25785   -26279   -27481   -29287   -31249   -32648 
  -32859   -31731   -29595   -27013   -24516   -22543   -21501   -21653 
  -22988   -25206   -27719   -29756   -30535   -29658   -27559   -25251 
  -23662   -23297   -24084   -25574   -27357   -29025   -30031   -29910 
  -28521   -26346   -24469   -23799   -24598   -26600   -29053   -31058 
  -32112   -32111   -31218   -29806   -28257   -26958   -26241   -26155 
  -26665   -27807   -29342   -30697   -31284   -30738   -29185   -27270 
  -25752   -25143   -25513   -26448   -27429   -28154   -28470   -28307 
  -27750   -27107   -26668   -26444   -26498   -27008   -27766   -28461 
  -29028   -29172   -28506   -27175   -25660   -24452   -23974   -24327 
  -25365   -26758   -27880   -28310   -28104   -27378   -26439   -25824 
  -25659   -25802   -26209   -26568   -26498   -26088   -25560   -25014 
  -24656   -24612   -24849   -25242   -25373   -24897   -24029   -23188 
  -22716   -22894   -23692   -24724   -25543   -25791   -25259   -24051 
  -22644   -21641   -21420   -22016   -23239   -24790   -26280   -27315 
  -27592   -26976   -25650   -24179   -23224   -23129   -23856   -25153 
  -26599   -27675   -27937   -27189   -25661   -24031   -23148   -23610 
  -25353   -27607   -29400   -30047   -29396   -27929   -26474   -25712 
