Origin Time       2019/09/29 16:47:00
Lat.              32.562
Long.             130.648
Depth. (km)       11
Mag.              3.8
Station Code      KMM022
Station Lat.      32.1945
Station Long.     130.0265
Station Height(m) 4
Record Time       2019/09/29 16:48:05
Sampling Freq(Hz) 100Hz
Duration Time(s)  60
Dir.              N-S
Scale Factor      7845(gal)/8223790
Max. Acc. (gal)   1.761
Last Correction   2019/09/29 16:48:05
Memo.             
[...]
       4       -8       13       23       16        4       -5        2 
      18       11        2        5        4        5       10        8 
       0        4       13        5        2       16       17        1 
       4       13        1       -5       11       20        5        4 
       8        4       10       18       10        1        1        5 
       9       13       10        2        1       10       18       10 
       0        8       13        1        5       18        5       -4 
      14       22        4       -5        8       13        9       11 
      10        2        0        5       18       21        4       -1 
      11        8       -5        5       22       14        4        0 
      -1        5       11       11       10        8        4       -1 
      -1       13       23       10        2        5        0        1 
      13       13        9        5       -2       -1        8        5 
       2        9       10        9        9        5        5        8 
       9       14       18        9        1       -1       -2        5 
      17       10        0        5       10        4        1        9 
      16       17        9        0        8       13        0        5 
      20       -1        0       28        4      -22       21       43 
      -2      -16       14       21        5        4       13        5 
       1       14        5       -9       13       28        5       -9 
       5       18       11        0        4       11       10        9 
       9        1        2       13        8       -1        5       14 
       5       -1        5       13        5        4       14       21 
       9       -5        4       27       16        1       11        5 
      -9       11       22        0       -5       16       18        5 
       5       11        4       -5        9       25       10        2 
       8        1        1       14       18       10        0        1 
      11       10        4        9        8        5       13       16 
       4       -5        4       13        9        8       16       10 
       0        5       10        0        2       16       10        1 
       8       13        4        1       16       21        0       -5 
      14       10        0       13       13       -1        2       13 
       9        2        9       11        4        8       11        0 
       9       23        5       -8        5       11        5        8 
      14       10        0       -1        9       11        8       10 
       5       -1        5       13       17       11       -2        0 
      18       17        0       -1        5        9       10       18 
      14        2        2       10        8        4        8       18 
      17       -1       -9       10       22        9        4        5 
       5       10        5       -1        9       16       13        8 
       0        5       22        5      -10       13       27        4 
      -4        8       10        9        9        9       10        5 
       4        8        5        8       14        8       -4       11 
      21        1        0       22       10       -5       13       22 
       0       -2       13       11        2        8       11        9 
      11        8       -1        2       16       14       -4       -1 
      21       20        9        8        0       -4       10       21 
      10        2        4        4        5       17       11       -2 
      -2       10       17       17       16        8        2        5 
       5        8        5        0        8       14        4        0 
       8       16        8       -1       13       20        4        5 
      13        2        5       21       11       -1       -1        2 
      11       16        9        5       14       16       -1      -10 
      10       29       17       -1       -5        5       14       14 
      10        0        1       20       17       -5       -5        5 
      11       22       13       -8        2       20        5       -2 
      18       20       -1       -1       10       13       14        5 
      -4        9       21       11        2        5       10       17 
      10       -5       -1       20       22        2       -8        2 
      14       17       10       -4        1       23       22       -2 
     -11        5       28       21       -2       -1       16       14 
       5        2        9       18       10       -4        0        8 
      13       18        5       -1       11       13        9        8 
      -1        5       22       17        5        5        9       13 
      21       17        5       10       28       31       23       22 
      28       25       18       28       25       -4       -4       23 
      23        8        5       -4      -21      -17       -5      -23 
     -52      -47      -20       -5       -5        5       31       43 
      31       11      -14      -44      -47      -49      -74      -70 
     -32      -23      -17       35       75       74       87      114 
     121      153      209      193      125       99       65      -18 
     -95     -166     -229     -222     -174     -167     -170     -112 
     -29       16       62      151      211      211      225      256 
     245      128      -68     -147      -63      -72     -222     -275 
    -199     -155     -101       32      103       37      -17       23 
     137      275      330      205        4      -27       83      106 
      52       -9     -117     -168      -94       13       51       -4 
     -44      -25      -13       -4      -52     -143      -98       23 
      72       83       22      -86      -45      105      139       40 
     -17       29       68       62       44       29       74       60 
    -129     -224     -124     -141     -230     -110       82       91 
      28       60      131      178      175      108      125      220 
     131       11      124      197       62      -55     -114     -178 
    -174     -136     -176     -245     -218      -85       64      155 
     133       23      -17       32       32        8       72      103 
      -2      -64       25       58      -18      -32      -22      -62 
     -67      -54      -17       94      126       40       47      108 
      86      106      129       23      -55      -56     -102     -114 
     -83      -67        5       78      109      180      176       93 
      67       18      -25       29      -17     -137      -56       43 
     -41      -94      -44      -72     -166     -184     -122      -54 
     -14        5       83      210      245      163       94       65 
      49       60       52      -16      -83     -103      -87      -62 
    -102     -162      -97      -10        2       78      197      229 
     197      166      144       94       -4      -78      -47       18 
     -22     -118      -76       22       -5      -67      -87     -129 
    -122      -49       -8       25       65       47        1      -37 
     -41       31      109       85        2       -2       56       51 
     -23      -31       99      230      218      144      118       89 
      -9     -126     -140      -98     -180     -255     -122        5 
     -35      -97      -39       43        0      -81       -2      147 
     176      143      156      182      166       83      -36      -67 
      -5        4      -32      -60     -102     -126      -98      -39 
      -5        4       36       41       32       90      129       72 
     -20      -76      -54       18       44       32       39        9 
     -64      -90      -49      -31      -79     -116      -31      102 
     129       91       65       18      -28       -1       44       64 
      83       91      129      212      170        2      -82      -95 
    -162     -202     -144      -98     -103      -72      -13       32 
      58        4      -51      -23      -10        8       97      129 
      81       78      121      126      109      139      184      162 
      90       37       18        8      -58     -175     -195     -120 
    -148     -222     -155      -52      -23      -11       13       67 
     143      166      114       70       87       56      -27      -23 
      -8      -47      -63      -87     -101      -47      -20      -20 
      16       79      155      172      135      110       55       -9 
     -21      -58     -120     -140     -157     -163     -120      -87 
     -74      -32      -14       -5       79      175      207      224 
     220      193      170       99       11       -4       -4      -44 
     -49      -18      -23      -40      -62     -109      -90       -8 
      25       13      -27      -37       51       75      -37      -90 
     -75     -114     -135      -54       63      120      103       93 
     128      124       51        4      -16      -41      -32        1 
       5      -13      -44      -35       16       31       28       27 
     -25      -49       11       40       16       43      106      140 
     114       65       70       72      -10      -86      -60      -23 
     -32      -35      -47     -106     -137     -124     -112      -78 
     -22      -14      -11       62      135      151      175      178 
     122       95       82      -14      -76      -18       -2      -62 
     -58      -32      -83     -131     -108      -85     -105      -72 
      36      116      135      160      202      193      102       41 
      37      -32     -114      -70      -11      -56      -97      -55 
      27       40      -49      -64       63      121       39        4 
      64       60      -27      -56       -1       49       59       56 
      62       17      -65      -63       -4        4        0        1 
     -23      -18       25       36       32       16      -55     -108 
     -82      -56      -35        1       16       31       54       32 
      -2       32      116      157      176      197      168       98 
       5     -106     -143     -105     -128     -195     -220     -168 
     -52        5      -21        5       76      109      124      166 
     222      202      109       83      114       49     -102     -211 
    -224     -176     -109      -54      -35        4       74      106 
     112      136      137       98       52       37       44       16 
     -47      -86      -85      -93     -105      -82      -58      -32 
      36      106      140      163      144       74       -1      -13 
      51       63      -40     -120     -120     -108     -101     -105 
    -102      -20       75       78       81      149      172      129 
     112      122      112       85       56      -28     -156     -205 
    -162     -118     -112     -106      -55       25       75      112 
     153      156       97       29        1      -23      -85     -136 
    -144     -152     -157     -121      -74      -28       52      116 
     140      195      265      259      180      125      126      103 
      54       44       31      -44     -129     -180     -218     -249 
    -253     -199      -83       17       47       75      118      112 
     106      143      147      128      128       93       40       23 
     -20     -117     -176     -167     -144     -120      -67        5 
      78      110       90       64       59       74       87       58 
      23       35       35       -4      -22       -2       -5      -45 
     -47      -13        5       14       43       60       44       27 
      -1      -56      -64      -47      -74      -55       21       43 
      37       67       93      112      124       78       44       79 
      79        8      -47      -54      -52      -91     -143     -129 
     -90     -122     -162      -82       64      162      187      182 
     174      168      143       87       36       -8      -87     -164 
    -162     -103      -62      -67      -93      -75        1       39 
     -14      -37       47      112       86       86      155      222 
     184       28      -44       16      -31     -172     -184     -112 
     -70      -35        8       62      116      143      151      151 
     102        1      -90     -135     -120      -76      -76      -93 
     -52       11       55       82      105      101       49       23 
      58       86       85       64       28       13      -23     -112 
    -135      -89     -109     -139      -72       -1       -5      -25 
      10       91      126      120      148      184      178      144 
      81       21      -25     -105     -182     -186     -144     -122 
    -114      -70       -5       37       72       72       32       58 
     131      143      114      151      257      322      244      109 
      39      -13     -147     -322     -409     -387     -376     -382 
    -321     -230     -141      -28       55      114      229      330 
     325      309      351      305      124      -28      -47       35 
      83       -5      -87      -35       21       20       22        5 
     -75     -202     -338     -405     -346     -272     -272     -270 
    -263     -276     -182       32      259      498      749      972 
    1146     1223     1175     1036      838      581      259      -54 
    -276     -476     -656     -751     -873    -1104    -1287    -1304 
   -1210    -1053     -785     -438     -135       36       68       18 
     -43      -82      -94      -25      252      751     1274     1642 
    1826     1854     1701     1317      761      157     -442     -997 
   -1370    -1478    -1418    -1305    -1125     -909     -772     -685 
    -506     -210      147      546      969     1344     1637     1798 
    1703     1393     1013      503     -175     -760    -1112    -1371 
   -1580    -1653    -1561    -1318     -926     -394      216      727 
     950      926      841      706      498      303      129      -41 
    -121      -98      -90     -125     -178     -305     -454     -445 
    -236       67      409      728      877      772      519      257 
       4     -243     -453     -599     -630     -566     -476     -336 
    -129       71      243      365      375      338      376      402 
     355      333      344      330      266      129      -43     -207 
    -425     -704     -959    -1097    -1032     -795     -558     -379 
    -103      321      758     1075     1232     1262     1242     1125 
     822      413       11     -378     -746    -1060    -1232    -1151 
    -942     -850     -792     -568     -271        8      355      702 
     915     1081     1240     1262     1138      924      614      240 
    -148     -561     -953    -1208    -1267    -1152     -899     -546 
    -178      144      400      561      662      722      677      564 
     436      225      -27     -210     -376     -545     -641     -668 
    -596     -403     -229     -129       16      232      407      479 
     514      540      484      357      252      207      183      108 
      -4      -65      -70      -95     -202     -344     -386     -265 
     -78       74      168      236      294      325      283      136 
     -70     -249     -382     -467     -490     -438     -344     -301 
    -279     -139       58      162      221      309      373      380 
     355      311      292      330      376      355      187     -182 
    -631     -936    -1042    -1008     -842     -523      -83      388 
     773     1023     1143     1107      945      743      530      266 
     -56     -383     -606     -679     -679     -627     -538     -479 
    -400     -217       21      225      355      433      491      529 
     540      484      329      117      -75     -253     -442     -556 
    -538     -498     -502     -491     -429     -287      -63      162 
     351      469      454      415      471      525      463      334 
     224      128       21      -32      -32      -70     -149     -228 
    -279     -279     -286     -330     -330     -294     -280     -244 
    -117       89      289      403      415      333      198       89 
      10      -58      -75      -65     -112     -160     -125      -70 
     -31       47      120      110       56      -14     -124     -201 
    -162      -58       23      116      261      394      434      410 
     336      178       17      -27       18       13      -32      -22 
     -17      -72     -135     -198     -225     -182     -156     -190 
    -233     -274     -275     -263     -307     -309     -180      -14 
     133      307      495      606      565      361       68     -148 
    -203     -170     -102      -17       -5      -58      -62      -31 
     -18      -18      -58      -85        8      135      163      139 
     152      171      144      122      133      151      193      233 
     184       58      -78     -214     -334     -378     -344     -302 
    -288     -282     -248     -147       10      178      330      422 
     446      442      459      457      365      198      -27     -315 
    -553     -662     -681     -592     -390     -189      -62       31 
     144      274      386      432      369      252      183      184 
     218      243      230      176      108       47      -39     -156 
    -246     -305     -357     -398     -406     -379     -333     -249 
    -117       -5       32       47       71       81       94      148 
     230      318      396      469      510      445      291      168 
      63      -98     -246     -319     -322     -257     -202     -207 
    -191     -131     -102      -98      -43       32       22      -32 
     -28       45      137      194      201      203      222      221 
     182      129       94       60       20      -21      -81     -135 
    -151     -151     -144     -112      -49       29       72       75 
     102      162      194      155       82        2      -87     -144 
    -176     -246     -314     -334     -314     -266     -209     -149 
     -75       37      190      309      357      382      376      299 
     149       -5      -81      -75      -45       17      121      214 
     252      217      117      -14     -131     -224     -272     -259 
    -244     -224     -153      -89      -65      -22       35       56 
      64       94      148      198      211      206      210      178 
      70      -65     -170     -245     -315     -365     -330     -209 
     -82       21      135      230      266      275      302      329 
     325      292      212       98      -11     -126     -243     -298 
    -263     -186     -147     -144      -87       40       94       13 
     -68      -59      -29      -23       18      112      195      225 
     202      153      108       86       93       89       54       -1 
     -55      -98     -135     -159     -183     -224     -230     -195 
    -164     -112        0       91       99       86       86       83 
     102      137      133       78       21       14       52       93 
     135      170      156       89       20      -40     -118     -167 
    -155     -148     -167     -160     -117      -76      -41       -9 
       9       31       72      102      129      198      257      251 
     220      197      148       75       -4      -74     -128     -168 
    -183     -155     -117      -94      -75      -39       21       81 
