Origin Time       2019/09/29 16:47:00
Lat.              32.562
Long.             130.648
Depth. (km)       11
Mag.              3.8
Station Code      KMM022
Station Lat.      32.1945
Station Long.     130.0265
Station Height(m) 4
Record Time       2019/09/29 16:48:05
Sampling Freq(Hz) 100Hz
Duration Time(s)  60
Dir.              E-W
Scale Factor      7845(gal)/8223790
Max. Acc. (gal)   1.612
Last Correction   2019/09/29 16:48:05
Memo.             
[...]
    5483     5481     5476     5486     5494     5491     5494     5491 
    5472     5468     5495     5517     5498     5468     5463     5478 
    5498     5513     5498     5475     5472     5481     5485     5481 
    5493     5510     5503     5471     5452     5476     5513     5508 
    5485     5479     5472     5468     5479     5481     5505     5537 
    5499     5433     5443     5495     5522     5516     5495     5468 
    5454     5475     5505     5499     5485     5481     5479     5486 
    5499     5495     5474     5468     5494     5510     5491     5476 
    5487     5479     5467     5486     5503     5503     5497     5476 
    5458     5476     5505     5491     5471     5490     5510     5499 
    5462     5445     5489     5526     5506     5474     5472     5486 
    5486     5490     5490     5476     5490     5509     5483     5454 
    5478     5525     5519     5470     5452     5481     5509     5499 
    5463     5475     5518     5505     5455     5458     5506     5519 
    5485     5458     5474     5493     5490     5491     5493     5474 
    5472     5495     5501     5489     5483     5481     5481     5483 
    5483     5493     5502     5493     5474     5462     5471     5497 
    5513     5497     5475     5472     5483     5489     5491     5499 
    5490     5468     5478     5514     5510     5467     5458     5487 
    5501     5494     5495     5493     5476     5471     5481     5481 
    5497     5508     5481     5466     5479     5490     5501     5502 
    5487     5476     5474     5481     5501     5501     5479     5470 
    5486     5501     5495     5483     5481     5483     5479     5481 
    5490     5497     5495     5479     5470     5486     5502     5491 
    5472     5481     5508     5498     5460     5462     5503     5517 
    5491     5470     5463     5478     5513     5518     5478     5458 
    5481     5499     5493     5479     5475     5491     5505     5485 
    5464     5483     5506     5495     5485     5494     5486     5462 
    5474     5510     5514     5476     5463     5486     5487     5476 
    5499     5509     5479     5470     5487     5498     5501     5489 
    5472     5475     5486     5499     5510     5494     5468     5466 
    5487     5503     5494     5479     5489     5493     5476     5468 
    5476     5502     5517     5489     5459     5471     5498     5502 
    5487     5472     5485     5499     5485     5476     5489     5498 
    5494     5476     5470     5490     5503     5490     5474     5485 
    5497     5493     5487     5486     5489     5489     5483     5483 
    5498     5498     5470     5468     5501     5502     5481     5481 
    5501     5493     5452     5462     5518     5519     5472     5464 
    5486     5491     5494     5497     5485     5483     5494     5481 
    5467     5486     5502     5485     5468     5483     5509     5498 
    5468     5471     5493     5501     5498     5487     5475     5474 
    5486     5490     5493     5503     5481     5448     5475     5516 
    5503     5474     5479     5493     5481     5486     5505     5487 
    5470     5481     5494     5497     5489     5489     5485     5463 
    5478     5513     5495     5468     5483     5502     5489     5475 
    5487     5498     5489     5481     5487     5487     5481     5495 
    5503     5485     5476     5483     5481     5489     5508     5506 
    5478     5452     5468     5506     5525     5508     5468     5451 
    5481     5514     5503     5479     5470     5479     5501     5502 
    5481     5478     5493     5493     5474     5476     5501     5499 
    5468     5466     5499     5516     5498     5471     5459     5486 
    5513     5501     5476     5471     5487     5499     5490     5476 
    5476     5498     5513     5493     5459     5463     5505     5516 
    5476     5463     5493     5513     5491     5462     5476     5508 
    5501     5478     5472     5481     5497     5499     5478     5472 
    5491     5498     5490     5485     5481     5479     5489     5501 
    5497     5478     5472     5483     5490     5490     5493     5491 
    5483     5476     5472     5487     5512     5506     5483     5481 
    5481     5486     5509     5508     5489     5491     5506     5512 
    5510     5509     5505     5486     5489     5536     5543     5487 
    5456     5483     5514     5516     5494     5452     5425     5441 
    5466     5462     5448     5456     5463     5456     5460     5471 
    5471     5460     5443     5429     5417     5425     5451     5456 
    5454     5467     5470     5468     5494     5510     5503     5529 
    5580     5621     5668     5679     5629     5620     5661     5630 
    5539     5512     5509     5413     5297     5235     5174     5164 
    5239     5258     5233     5328     5503     5626     5679     5711 
    5741     5709     5645     5686     5786     5765     5617     5490 
    5451     5397     5310     5268     5228     5163     5202     5316 
    5350     5401     5589     5703     5641     5637     5711     5684 
    5621     5606     5529     5364     5298     5406     5451     5377 
    5417     5508     5510     5556     5623     5626     5622     5590 
    5516     5464     5468     5490     5448     5386     5341     5238 
    5216     5381     5476     5418     5374     5429     5535     5543 
    5471     5525     5699     5773     5653     5529     5580     5637 
    5537     5433     5427     5455     5471     5454     5435     5451 
    5472     5510     5557     5560     5524     5479     5431     5375 
    5312     5275     5278     5285     5320     5397     5463     5526 
    5617     5699     5732     5694     5633     5661     5756     5726 
    5536     5409     5391     5285     5169     5248     5354     5324 
    5290     5327     5395     5521     5638     5634     5606     5691 
    5827     5857     5741     5618     5552     5466     5362     5286 
    5217     5213     5271     5286     5300     5358     5413     5493 
    5562     5539     5556     5656     5663     5610     5684     5779 
    5686     5525     5509     5516     5443     5421     5422     5367 
    5360     5443     5497     5464     5441     5463     5439     5394 
    5433     5502     5526     5544     5552     5458     5337     5374 
    5443     5421     5447     5485     5431     5437     5566     5621 
    5532     5506     5621     5682     5622     5576     5594     5614 
    5555     5425     5310     5239     5202     5193     5193     5259 
    5404     5524     5599     5678     5705     5670     5643     5648 
    5644     5625     5625     5617     5567     5557     5590     5529 
    5362     5287     5360     5377     5286     5285     5401     5459 
    5368     5252     5292     5417     5462     5475     5521     5579 
    5609     5579     5571     5607     5594     5590     5675     5751 
    5719     5614     5530     5503     5474     5406     5398     5491 
    5535     5468     5375     5297     5294     5317     5256     5215 
    5292     5428     5513     5494     5487     5557     5614     5629 
    5613     5584     5616     5655     5618     5579     5594     5582 
    5497     5409     5390     5433     5493     5524     5514     5487 
    5472     5506     5535     5436     5292     5292     5374     5375 
    5319     5313     5393     5471     5460     5410     5448     5611 
    5734     5682     5601     5623     5640     5541     5398     5367 
    5441     5506     5556     5578     5575     5609     5599     5493 
    5401     5405     5454     5439     5347     5321     5381     5422 
    5440     5448     5448     5505     5595     5611     5590     5603 
    5601     5583     5593     5606     5590     5529     5448     5390 
    5386     5432     5440     5416     5440     5427     5339     5296 
    5333     5404     5413     5382     5428     5521     5599     5648 
    5618     5578     5585     5552     5485     5455     5458     5458 
    5416     5395     5487     5610     5649     5605     5563     5567 
    5562     5548     5539     5485     5436     5470     5499     5422 
    5316     5300     5341     5377     5428     5481     5494     5512 
    5571     5603     5590     5584     5557     5499     5472     5455 
    5416     5394     5393     5427     5481     5460     5405     5441 
    5539     5555     5510     5539     5602     5585     5544     5562 
    5589     5547     5487     5518     5575     5552     5494     5422 
    5354     5329     5328     5325     5289     5240     5327     5489 
    5518     5460     5466     5547     5653     5683     5609     5603 
    5707     5736     5644     5571     5575     5570     5498     5414 
    5352     5316     5321     5321     5324     5391     5451     5443 
    5445     5467     5459     5445     5451     5460     5448     5443 
    5498     5562     5562     5525     5524     5568     5579     5543 
    5551     5590     5584     5570     5590     5589     5548     5529 
    5486     5393     5374     5439     5425     5290     5224     5347 
    5454     5413     5427     5564     5651     5623     5564     5530 
    5530     5541     5543     5545     5566     5580     5548     5483 
    5420     5377     5371     5382     5394     5413     5406     5402 
    5466     5530     5529     5516     5502     5463     5472     5532 
    5532     5499     5544     5590     5521     5458     5498     5545 
    5572     5606     5595     5502     5417     5428     5454     5413 
    5381     5391     5386     5382     5427     5476     5508     5563 
    5595     5555     5544     5620     5643     5556     5503     5529 
    5510     5418     5344     5313     5332     5404     5439     5451 
    5513     5552     5516     5468     5479     5526     5544     5535 
    5514     5471     5441     5439     5410     5401     5462     5509 
    5491     5485     5525     5557     5540     5530     5555     5566 
    5556     5549     5522     5472     5467     5512     5518     5487 
    5489     5497     5443     5368     5387     5472     5478     5448 
    5505     5560     5535     5491     5459     5409     5381     5414 
    5459     5478     5478     5459     5468     5545     5598     5549 
    5487     5491     5503     5502     5524     5533     5502     5481 
    5481     5463     5440     5468     5528     5522     5468     5454 
    5467     5476     5490     5512     5557     5616     5641     5606 
    5536     5475     5420     5356     5305     5292     5324     5371 
    5395     5394     5409     5470     5547     5614     5652     5647 
    5645     5683     5688     5609     5506     5437     5379     5350 
    5410     5514     5535     5452     5370     5375     5410     5390 
    5368     5424     5522     5589     5590     5559     5525     5494 
    5472     5439     5412     5443     5491     5506     5494     5481 
    5495     5528     5545     5562     5589     5607     5597     5552 
    5508     5486     5470     5416     5341     5339     5395     5389 
    5321     5306     5359     5410     5458     5517     5547     5572 
    5620     5633     5634     5637     5609     5571     5533     5481 
    5436     5440     5494     5525     5464     5389     5397     5448 
    5455     5418     5393     5428     5476     5447     5398     5471 
    5601     5630     5576     5552     5602     5655     5617     5513 
    5460     5502     5541     5490     5448     5497     5529     5440 
    5305     5290     5405     5448     5355     5296     5350     5424 
    5422     5405     5508     5637     5623     5552     5580     5678 
    5703     5626     5572     5590     5606     5555     5495     5483 
    5445     5347     5283     5286     5314     5367     5413     5420 
    5443     5512     5567     5544     5510     5524     5514     5463 
    5439     5460     5498     5521     5533     5544     5540     5552 
    5601     5622     5572     5509     5516     5539     5475     5398 
    5443     5536     5514     5422     5395     5414     5394     5350 
    5351     5417     5487     5525     5545     5570     5606     5611 
    5572     5533     5501     5471     5443     5408     5398     5397 
    5377     5401     5427     5393     5367     5374     5387     5448 
    5547     5605     5634     5701     5768     5756     5703     5676 
    5626     5539     5456     5364     5308     5320     5313     5258 
    5239     5297     5389     5463     5539     5638     5715     5734 
    5713     5705     5737     5734     5649     5522     5397     5314 
    5259     5184     5112     5059     5027     5080     5217     5379 
    5535     5684     5819     5911     5977     6056     6073     5937 
    5726     5560     5445     5360     5308     5275     5251     5239 
    5201     5107     5005     4907     4780     4676     4680     4846 
    5136     5379     5518     5671     5852     5980     6064     6191 
    6394     6594     6724     6797     6791     6663     6421     6108 
    5775     5448     5097     4720     4418     4280     4248     4191 
    4135     4212     4363     4475     4642     4963     5362     5702 
    5962     6210     6426     6507     6435     6259     6010     5746 
    5598     5628     5771     5944     6075     6110     6053     5861 
    5524     5120     4716     4403     4270     4311     4477     4695 
    4897     5081     5266     5454     5625     5778     5942     6120 
    6285     6431     6534     6562     6555     6544     6459     6241 
    5915     5545     5154     4750     4348     3989     3797     3904 
    4283     4776     5265     5702     5977     5989     5859     5760 
    5718     5741     5830     5921     5981     5954     5759     5389 
    4927     4603     4627     4897     5179     5439     5715     5968 
    6142     6234     6284     6307     6284     6186     5991     5709 
    5397     5055     4718     4552     4649     4908     5140     5251 
    5309     5362     5398     5478     5611     5721     5780     5763 
    5593     5327     5100     4962     4959     5130     5441     5782 
    5984     6015     5958     5840     5633     5439     5435     5599 
    5784     5945     6023     5935     5736     5536     5383     5271 
    5200     5166     5130     5119     5155     5166     5174     5254 
    5339     5356     5313     5273     5323     5421     5489     5559 
    5691     5891     6091     6183     6176     6160     6068     5811 
    5508     5265     5063     4897     4811     4828     4876     4881 
    4916     5042     5208     5400     5632     5840     5949     5968 
    5937     5841     5679     5508     5355     5212     5134     5198 
    5363     5516     5634     5764     5883     5950     5962     5856 
    5617     5406     5360     5394     5425     5510     5618     5626 
    5599     5661     5718     5641     5445     5235     5069     4922 
    4812     4822     4976     5221     5443     5578     5630     5610 
    5552     5513     5493     5467     5445     5471     5556     5660 
    5760     5853     5933     6011     6070     6100     6110     6070 
    5926     5694     5433     5134     4830     4644     4577     4567 
    4662     4891     5125     5247     5306     5402     5506     5602 
    5742     5906     5991     5949     5818     5694     5656     5718 
    5787     5732     5560     5393     5277     5194     5124     5089 
    5159     5346     5562     5738     5841     5836     5759     5698 
    5694     5656     5512     5358     5259     5206     5221     5251 
    5273     5367     5499     5574     5602     5652     5715     5756 
    5795     5818     5736     5552     5364     5233     5152     5127 
    5151     5209     5339     5529     5649     5652     5590     5481 
    5358     5325     5385     5418     5410     5432     5493     5564 
    5632     5663     5626     5551     5519     5522     5495     5499 
    5598     5674     5640     5603     5640     5664     5609     5493 
    5336     5200     5147     5151     5163     5189     5273     5418 
    5547     5617     5655     5660     5636     5613     5614     5610 
    5548     5476     5485     5498     5447     5425     5481     5580 
    5709     5792     5783     5733     5661     5539     5387     5273 
    5231     5235     5235     5225     5233     5268     5278     5229 
    5179     5188     5278     5428     5583     5719     5842     5892 
    5823     5705     5623     5587     5598     5680     5776     5784 
    5724     5672     5637     5572     5454     5331     5266     5239 
    5219     5206     5169     5131     5182     5321     5471     5575 
    5632     5683     5714     5679     5599     5485     5352     5273 
    5258     5260     5278     5341     5466     5611     5726     5803 
    5834     5791     5667     5499     5356     5278     5235     5232 
    5290     5395     5508     5564     5556     5548     5545     5524 
    5528     5576     5637     5689     5703     5648     5552     5501 
    5517     5526     5487     5463     5491     5476     5377     5282 
    5244     5250     5301     5370     5416     5451     5487     5467 
    5374     5329     5398     5498     5571     5613     5643     5683 
    5721     5730     5719     5710     5686     5609     5514     5468 
    5452     5443     5443     5448     5452     5443     5386     5304 
    5260     5250     5208     5116     5057     5093     5166     5243 
    5375     5563     5726     5821     5873     5902     5906     5902 
    5925     5996     6072     6042     5887     5692     5519     5368 
    5221     5084     4988     4945     4928     4947     5004     5063 
    5115     5184     5282     5370     5432     5525     5649     5727 
    5733     5729     5767     5823     5856     5838     5780     5715 
    5661     5609     5547     5466     5371     5290     5243     5246 
    5296     5360     5371     5312     5258     5265     5319     5386 
    5452     5547     5671     5748     5763     5780     5818     5818 
    5709     5532     5456     5499     5516     5471     5447     5468 
    5489     5471     5429     5393     5381     5366     5317     5270 
    5278     5335     5398     5431     5431     5431     5456     5493 
    5493     5443     5418     5486     5610     5692     5684     5623 
    5583     5568     5529     5456     5400     5391     5405     5405 
    5400     5387     5368     5398     5483     5557     5613     5659 
    5664     5647     5655     5652     5599     5540     5535     5557 
    5552     5552     5556     5516     5448     5385     5305     5248 
    5235     5204     5174     5217     5332     5451     5526     5598 
    5675     5714     5722     5705     5655     5579     5509     5448 
    5383     5352     5406     5495     5560     5570     5519     5471 
    5452     5437     5432     5431     5413     5410     5433     5456 
    5463     5445     5406     5371     5362     5385     5432     5485 
    5544     5632     5714     5737     5727     5727     5726     5699 
    5648     5597     5556     5506     5420     5309     5202     5131 
    5115     5143     5208     5290     5368     5456     5559     5653 
    5714     5719     5697     5692     5675     5599     5513     5464 
    5414     5348     5324     5331     5329     5366     5447     5497 
    5503     5524     5571     5603     5601     5576     5522     5471 
