Origin Time       2019/09/29 16:47:00
Lat.              32.562
Long.             130.648
Depth. (km)       11
Mag.              3.8
Station Code      KMM022
Station Lat.      32.1945
Station Long.     130.0265
Station Height(m) 4
Record Time       2019/09/29 16:48:05
Sampling Freq(Hz) 100Hz
Duration Time(s)  60
Dir.              U-D
Scale Factor      7845(gal)/8223790
Max. Acc. (gal)   1.084
Last Correction   2019/09/29 16:48:05
Memo.             
[...]
  -19294   -19294   -19295   -19296   -19294   -19287   -19287   -19290 
  -19291   -19300   -19305   -19284   -19267   -19283   -19309   -19313 
  -19299   -19283   -19275   -19288   -19298   -19295   -19295   -19300 
  -19299   -19288   -19275   -19280   -19305   -19311   -19292   -19278 
  -19279   -19287   -19298   -19299   -19298   -19305   -19299   -19265 
  -19259   -19302   -19333   -19313   -19282   -19272   -19278   -19290 
  -19306   -19307   -19292   -19283   -19284   -19286   -19294   -19302 
  -19298   -19282   -19279   -19300   -19311   -19296   -19286   -19286 
  -19290   -19294   -19300   -19302   -19294   -19282   -19276   -19280 
  -19298   -19310   -19295   -19279   -19288   -19299   -19288   -19273 
  -19287   -19315   -19314   -19284   -19272   -19290   -19302   -19298 
  -19291   -19290   -19294   -19300   -19294   -19276   -19280   -19309 
  -19318   -19292   -19267   -19273   -19306   -19318   -19292   -19271 
  -19292   -19313   -19290   -19265   -19287   -19322   -19310   -19275 
  -19275   -19295   -19302   -19299   -19295   -19286   -19280   -19294 
  -19302   -19295   -19286   -19286   -19291   -19295   -19294   -19292 
  -19298   -19298   -19282   -19276   -19288   -19306   -19309   -19295 
  -19283   -19280   -19282   -19292   -19302   -19300   -19294   -19280 
  -19278   -19299   -19313   -19292   -19271   -19278   -19302   -19313 
  -19296   -19276   -19278   -19291   -19296   -19291   -19296   -19306 
  -19298   -19278   -19276   -19292   -19300   -19299   -19290   -19283 
  -19286   -19292   -19298   -19302   -19296   -19284   -19278   -19292 
  -19307   -19299   -19286   -19283   -19287   -19292   -19299   -19299 
  -19292   -19284   -19283   -19287   -19298   -19302   -19290   -19278 
  -19290   -19302   -19291   -19282   -19298   -19311   -19305   -19284 
  -19273   -19282   -19302   -19313   -19295   -19271   -19278   -19306 
  -19313   -19291   -19275   -19283   -19300   -19300   -19279   -19276 
  -19302   -19311   -19291   -19279   -19287   -19292   -19291   -19300 
  -19309   -19291   -19272   -19282   -19296   -19299   -19298   -19299 
  -19294   -19288   -19286   -19288   -19296   -19296   -19286   -19283 
  -19292   -19302   -19305   -19295   -19280   -19276   -19287   -19302 
  -19306   -19291   -19282   -19291   -19294   -19287   -19291   -19302 
  -19307   -19295   -19273   -19273   -19299   -19315   -19299   -19272 
  -19275   -19305   -19314   -19291   -19278   -19287   -19296   -19292 
  -19280   -19286   -19306   -19305   -19286   -19280   -19295   -19302 
  -19295   -19286   -19284   -19294   -19298   -19291   -19291   -19298 
  -19294   -19276   -19280   -19309   -19307   -19283   -19282   -19292 
  -19288   -19280   -19299   -19317   -19296   -19271   -19276   -19295 
  -19305   -19302   -19286   -19276   -19290   -19296   -19283   -19286 
  -19302   -19299   -19283   -19282   -19294   -19302   -19296   -19280 
  -19284   -19305   -19306   -19288   -19278   -19283   -19295   -19298 
  -19294   -19296   -19295   -19286   -19280   -19294   -19310   -19299 
  -19279   -19284   -19296   -19294   -19295   -19295   -19280   -19282 
  -19299   -19306   -19300   -19292   -19286   -19279   -19279   -19300 
  -19310   -19290   -19280   -19292   -19299   -19295   -19291   -19292 
  -19298   -19292   -19279   -19284   -19302   -19302   -19291   -19288 
  -19287   -19287   -19292   -19296   -19300   -19305   -19295   -19273 
  -19269   -19296   -19315   -19300   -19278   -19267   -19282   -19314 
  -19319   -19292   -19273   -19283   -19296   -19302   -19292   -19282 
  -19287   -19298   -19295   -19286   -19295   -19306   -19294   -19272 
  -19282   -19307   -19307   -19282   -19267   -19286   -19314   -19309 
  -19284   -19273   -19280   -19302   -19306   -19286   -19283   -19298 
  -19305   -19292   -19275   -19272   -19302   -19327   -19299   -19259 
  -19273   -19311   -19315   -19284   -19264   -19288   -19314   -19300 
  -19278   -19279   -19300   -19314   -19294   -19272   -19284   -19302 
  -19296   -19284   -19284   -19292   -19296   -19296   -19296   -19290 
  -19283   -19290   -19296   -19299   -19300   -19294   -19284   -19286 
  -19294   -19300   -19305   -19305   -19298   -19290   -19298   -19315 
  -19325   -19327   -19321   -19313   -19310   -19315   -19322   -19315 
  -19300   -19300   -19307   -19315   -19327   -19315   -19275   -19253 
  -19263   -19261   -19219   -19175   -19186   -19242   -19288   -19288 
  -19280   -19306   -19321   -19267   -19176   -19122   -19116   -19137 
  -19152   -19130   -19132   -19218   -19325   -19371   -19364   -19360 
  -19390   -19445   -19523   -19572   -19549   -19539   -19554   -19489 
  -19423   -19419   -19321   -19182   -19195   -19269   -19224   -19120 
  -19090   -19136   -19209   -19257   -19182   -19063   -19175   -19438 
  -19507   -19379   -19213   -19026   -18948   -19106   -19372   -19487 
  -19295   -19064   -19225   -19609   -19715   -19560   -19448   -19318 
  -19126   -19138   -19309   -19306   -19228   -19330   -19395   -19210 
  -19103   -19292   -19423   -19353   -19314   -19244   -19117   -19193 
  -19368   -19330   -19193   -19294   -19538   -19562   -19414   -19298 
  -19168   -19164   -19368   -19404   -19190   -19078   -19222   -19472 
  -19534   -19299   -19057   -19149   -19471   -19479   -19071   -18886 
  -19136   -19383   -19408   -19244   -19091   -19141   -19228   -19251 
  -19286   -19279   -19213   -19238   -19421   -19548   -19440   -19317 
  -19373   -19467   -19480   -19414   -19315   -19287   -19272   -19193 
  -19170   -19230   -19259   -19300   -19372   -19333   -19187   -19145 
  -19291   -19408   -19342   -19198   -19099   -19097   -19182   -19268 
  -19333   -19408   -19408   -19311   -19321   -19488   -19502   -19287 
  -19206   -19236   -19126   -19106   -19280   -19341   -19298   -19336 
  -19368   -19375   -19422   -19380   -19276   -19269   -19279   -19265 
  -19302   -19288   -19215   -19210   -19283   -19384   -19365   -19217 
  -19215   -19338   -19336   -19245   -19102   -18999   -19168   -19371 
  -19356   -19429   -19589   -19512   -19408   -19500   -19454   -19155 
  -19010   -19120   -19155   -19132   -19283   -19457   -19457   -19394 
  -19363   -19321   -19257   -19228   -19229   -19178   -19102   -19120 
  -19213   -19291   -19350   -19392   -19350   -19310   -19340   -19278 
  -19259   -19468   -19530   -19263   -19094   -19203   -19283   -19269 
  -19392   -19534   -19427   -19225   -19201   -19323   -19365   -19233 
  -19141   -19218   -19286   -19264   -19249   -19256   -19291   -19350 
  -19350   -19278   -19193   -19147   -19180   -19265   -19272   -19197 
  -19252   -19442   -19458   -19306   -19333   -19515   -19499   -19280 
  -19209   -19309   -19292   -19192   -19224   -19330   -19354   -19267 
  -19245   -19368   -19336   -19098   -19075   -19282   -19330   -19226 
  -19284   -19488   -19480   -19230   -19153   -19342   -19437   -19288 
  -19140   -19167   -19313   -19427   -19384   -19279   -19267   -19325 
  -19391   -19359   -19203   -19153   -19242   -19282   -19226   -19167 
  -19229   -19340   -19319   -19242   -19248   -19319   -19381   -19357 
  -19305   -19334   -19345   -19261   -19213   -19240   -19255   -19283 
  -19357   -19407   -19396   -19371   -19386   -19407   -19329   -19209 
  -19259   -19353   -19195   -19024   -19201   -19477   -19498   -19314 
  -19141   -19136   -19242   -19257   -19168   -19176   -19336   -19434 
  -19391   -19329   -19278   -19269   -19322   -19309   -19199   -19125 
  -19229   -19446   -19479   -19317   -19265   -19352   -19383   -19325 
  -19284   -19282   -19225   -19168   -19232   -19310   -19300   -19279 
  -19275   -19291   -19350   -19368   -19322   -19350   -19410   -19334 
  -19244   -19255   -19257   -19209   -19168   -19178   -19251   -19357 
  -19413   -19361   -19363   -19471   -19465   -19338   -19203   -19083 
  -19057   -19102   -19141   -19193   -19284   -19425   -19481   -19342 
  -19221   -19257   -19372   -19450   -19360   -19233   -19292   -19390 
  -19349   -19263   -19178   -19099   -19113   -19206   -19232   -19193 
  -19252   -19384   -19448   -19456   -19477   -19477   -19386   -19245 
  -19179   -19206   -19288   -19392   -19399   -19294   -19232   -19222 
  -19174   -19180   -19296   -19353   -19330   -19340   -19345   -19322 
  -19276   -19214   -19228   -19246   -19165   -19172   -19356   -19461 
  -19340   -19230   -19330   -19445   -19384   -19256   -19205   -19230 
  -19302   -19417   -19477   -19400   -19315   -19329   -19334   -19236 
  -19083   -19021   -19091   -19145   -19172   -19279   -19349   -19307 
  -19291   -19314   -19318   -19340   -19354   -19345   -19371   -19386 
  -19340   -19327   -19365   -19390   -19433   -19465   -19377   -19263 
  -19251   -19248   -19160   -19099   -19125   -19143   -19164   -19240 
  -19261   -19206   -19201   -19290   -19388   -19384   -19336   -19399 
  -19507   -19471   -19356   -19356   -19411   -19342   -19206   -19156 
  -19127   -19076   -19159   -19345   -19388   -19323   -19357   -19392 
  -19309   -19233   -19275   -19345   -19295   -19209   -19269   -19321 
  -19214   -19184   -19357   -19457   -19329   -19195   -19255   -19345 
  -19276   -19186   -19253   -19363   -19349   -19295   -19323   -19363 
  -19381   -19442   -19453   -19332   -19156   -19057   -19140   -19276 
  -19267   -19224   -19298   -19361   -19359   -19380   -19367   -19255 
  -19187   -19273   -19359   -19323   -19261   -19199   -19161   -19284 
  -19480   -19473   -19259   -19157   -19294   -19413   -19323   -19192 
  -19193   -19259   -19313   -19317   -19233   -19195   -19321   -19403 
  -19313   -19261   -19329   -19345   -19261   -19221   -19279   -19300 
  -19284   -19319   -19311   -19246   -19238   -19278   -19338   -19403 
  -19395   -19344   -19342   -19345   -19276   -19203   -19215   -19229 
  -19191   -19193   -19218   -19195   -19213   -19306   -19367   -19372 
  -19380   -19386   -19354   -19305   -19287   -19310   -19352   -19360 
  -19298   -19205   -19160   -19236   -19360   -19371   -19302   -19294 
  -19333   -19338   -19315   -19325   -19294   -19197   -19236   -19394 
  -19411   -19300   -19230   -19222   -19240   -19257   -19229   -19192 
  -19230   -19265   -19224   -19221   -19309   -19375   -19404   -19458 
  -19437   -19292   -19246   -19350   -19344   -19172   -19093   -19191 
  -19292   -19307   -19329   -19360   -19332   -19296   -19313   -19330 
  -19315   -19302   -19325   -19336   -19287   -19242   -19253   -19268 
  -19248   -19222   -19224   -19233   -19255   -19287   -19310   -19307 
  -19276   -19275   -19341   -19396   -19383   -19353   -19361   -19395 
  -19400   -19322   -19225   -19218   -19268   -19298   -19290   -19240 
  -19202   -19225   -19222   -19182   -19222   -19302   -19321   -19332 
  -19360   -19387   -19431   -19433   -19323   -19199   -19184   -19232 
  -19225   -19217   -19287   -19357   -19338   -19246   -19186   -19222 
  -19273   -19287   -19295   -19336   -19399   -19419   -19361   -19291 
  -19288   -19334   -19330   -19269   -19233   -19201   -19170   -19219 
  -19284   -19263   -19224   -19271   -19338   -19345   -19336   -19306 
  -19268   -19300   -19323   -19300   -19332   -19379   -19337   -19246 
  -19214   -19298   -19408   -19367   -19221   -19206   -19325   -19398 
  -19337   -19246   -19276   -19354   -19283   -19147   -19165   -19279 
  -19300   -19238   -19211   -19273   -19371   -19433   -19431   -19380 
  -19344   -19319   -19273   -19265   -19325   -19356   -19283   -19147 
  -19101   -19198   -19257   -19180   -19155   -19259   -19307   -19236 
  -19256   -19408   -19487   -19431   -19354   -19327   -19348   -19306 
  -19214   -19261   -19387   -19392   -19344   -19368   -19377   -19305 
  -19279   -19321   -19249   -19097   -19091   -19213   -19263   -19244 
  -19273   -19318   -19337   -19387   -19423   -19344   -19210   -19122 
  -19107   -19170   -19269   -19332   -19322   -19325   -19438   -19550 
  -19499   -19342   -19280   -19368   -19399   -19201   -18999   -19083 
  -19271   -19278   -19198   -19225   -19327   -19408   -19423   -19379 
  -19311   -19263   -19269   -19283   -19259   -19244   -19229   -19238 
  -19311   -19375   -19391   -19403   -19417   -19410   -19342   -19242 
  -19161   -19097   -19118   -19234   -19257   -19203   -19298   -19489 
  -19511   -19348   -19252   -19307   -19352   -19288   -19197   -19191 
  -19307   -19379   -19313   -19271   -19305   -19307   -19282   -19218 
  -19080   -18993   -19056   -19176   -19264   -19323   -19341   -19323 
  -19386   -19534   -19604   -19537   -19404   -19322   -19349   -19322 
  -19174   -19076   -19064   -19079   -19145   -19206   -19188   -19184 
  -19302   -19433   -19445   -19410   -19448   -19512   -19469   -19337 
  -19283   -19336   -19386   -19368   -19302   -19268   -19315   -19359 
  -19332   -19286   -19255   -19280   -19338   -19360   -19404   -19450 
  -19360   -19211   -19118   -19020   -18916   -18909   -18987   -19036 
  -19091   -19263   -19506   -19677   -19704   -19626   -19522   -19502 
  -19585   -19579   -19368   -19147   -19067   -19026   -18879   -18719 
  -18719   -18823   -18928   -19079   -19299   -19535   -19739   -19859 
  -19832   -19650   -19425   -19272   -19170   -19045   -18918   -18918 
  -19125   -19437   -19684   -19791   -19834   -19866   -19731   -19417 
  -19191   -19132   -19079   -19052   -19174   -19299   -19215   -19064 
  -19029   -18958   -18755   -18627   -18725   -18935   -19068   -19147 
  -19318   -19566   -19804   -20051   -20301   -20387   -20232   -19971 
  -19669   -19229   -18717   -18335   -18156   -18216   -18576   -19087 
  -19479   -19674   -19724   -19616   -19417   -19269   -19161   -19061 
  -19070   -19192   -19357   -19552   -19711   -19731   -19558   -19192 
  -18814   -18678   -18767   -18955   -19201   -19417   -19558   -19701 
  -19838   -19890   -19880   -19826   -19677   -19371   -18982   -18762 
  -18825   -18964   -19029   -19126   -19290   -19327   -19187   -19006 
  -18850   -18794   -18906   -19090   -19319   -19673   -19996   -20081 
  -20029   -19982   -19880   -19681   -19402   -19048   -18693   -18426 
  -18315   -18389   -18581   -18810   -19157   -19623   -19958   -20062 
  -20083   -20020   -19796   -19504   -19276   -19150   -19122   -19134 
  -19102   -19055   -19107   -19172   -19097   -19022   -19064   -19071 
  -18991   -18925   -18974   -19182   -19450   -19688   -19876   -19954 
  -19928   -19827   -19586   -19263   -19016   -18850   -18759   -18831 
  -19030   -19217   -19359   -19518   -19650   -19635   -19503   -19376 
  -19238   -19049   -18900   -18862   -18890   -18925   -19029   -19255 
  -19473   -19570   -19609   -19620   -19545   -19404   -19287   -19219 
  -19150   -19053   -19002   -19079   -19252   -19400   -19473   -19541 
  -19649   -19710   -19629   -19456   -19294   -19106   -18877   -18783 
  -18928   -19170   -19373   -19534   -19662   -19735   -19727   -19624 
  -19457   -19286   -19132   -18998   -18928   -18922   -18948   -19017 
  -19106   -19195   -19307   -19398   -19427   -19415   -19337   -19190 
  -19068   -19060   -19141   -19264   -19475   -19734   -19863   -19797 
  -19660   -19526   -19319   -19095   -18970   -18840   -18647   -18543 
  -18627   -18835   -19099   -19430   -19789   -20020   -20043   -19909 
  -19672   -19408   -19214   -19101   -19035   -19051   -19218   -19444 
  -19560   -19564   -19522   -19440   -19313   -19172   -19067   -19025 
  -19028   -19049   -19110   -19205   -19278   -19322   -19411   -19546 
  -19596   -19538   -19425   -19245   -19064   -18958   -18895   -18917 
  -19060   -19225   -19340   -19438   -19503   -19450   -19345   -19319 
  -19284   -19134   -19016   -19068   -19210   -19348   -19472   -19533 
  -19533   -19546   -19525   -19381   -19226   -19170   -19161   -19152 
  -19182   -19236   -19284   -19368   -19456   -19464   -19429   -19426 
  -19427   -19390   -19332   -19257   -19144   -19037   -19059   -19210 
  -19323   -19342   -19402   -19506   -19519   -19434   -19295   -19152 
  -19121   -19152   -19129   -19089   -19089   -19149   -19259   -19319 
  -19302   -19337   -19430   -19465   -19444   -19422   -19387   -19322 
  -19265   -19214   -19143   -19114   -19186   -19302   -19403   -19465 
  -19476   -19495   -19531   -19514   -19441   -19325   -19193   -19127 
  -19117   -19087   -19084   -19152   -19195   -19174   -19155   -19141 
  -19107   -19125   -19195   -19236   -19259   -19310   -19338   -19349 
  -19448   -19599   -19649   -19602   -19529   -19403   -19280   -19252 
  -19232   -19126   -19024   -19049   -19170   -19276   -19354   -19442 
  -19530   -19557   -19485   -19381   -19311   -19267   -19229   -19198 
  -19152   -19070   -19005   -19037   -19105   -19155   -19218   -19265 
  -19257   -19251   -19298   -19392   -19494   -19565   -19597   -19588 
  -19518   -19354   -19147   -19039   -19084   -19193   -19284   -19345 
  -19406   -19448   -19421   -19349   -19276   -19201   -19144   -19138 
  -19170   -19245   -19344   -19396   -19372   -19329   -19329   -19376 
  -19384   -19302   -19249   -19284   -19310   -19314   -19341   -19341 
  -19332   -19353   -19348   -19299   -19238   -19150   -19035   -18970 
  -19010   -19106   -19221   -19364   -19476   -19506   -19507   -19499 
  -19458   -19417   -19406   -19371   -19275   -19205   -19218   -19264 
  -19313   -19333   -19321   -19348   -19406   -19387   -19283   -19183 
  -19117   -19051   -19001   -19009   -19039   -19049   -19084   -19187 
  -19321   -19396   -19427   -19483   -19498   -19422   -19340   -19310 
  -19329   -19372   -19396   -19414   -19461   -19515   -19496   -19402 
  -19322   -19291   -19278   -19259   -19219   -19159   -19124   -19122 
  -19152   -19197   -19222   -19251   -19294   -19275   -19174   -19099 
  -19141   -19253   -19376   -19481   -19543   -19558   -19543   -19499 
  -19430   -19309   -19137   -19009   -18985   -19037   -19141   -19298 
  -19469   -19562   -19542   -19469   -19403   -19333   -19213   -19078 
  -19044   -19126   -19202   -19197   -19186   -19251   -19345   -19354 
  -19292   -19294   -19368   -19426   -19446   -19444   -19434   -19458 
  -19489   -19458   -19372   -19295   -19240   -19183   -19127   -19090 
  -19075   -19080   -19095   -19111   -19149   -19215   -19288   -19361 
  -19421   -19450   -19473   -19498   -19462   -19345   -19228   -19187 
  -19209   -19217   -19191   -19193   -19286   -19426   -19527   -19533 
  -19423   -19261   -19155   -19105   -19060   -19056   -19117   -19176 
  -19221   -19299   -19381   -19408   -19419   -19449   -19434   -19360 
  -19294   -19292   -19336   -19361   -19323   -19264   -19249   -19259 
  -19238   -19201   -19203   -19257   -19315   -19342   -19349   -19338 
  -19337   -19373   -19388   -19321   -19215   -19168   -19186   -19195 
  -19193   -19228   -19302   -19394   -19434   -19404   -19388   -19413 
  -19400   -19333   -19264   -19224   -19203   -19182   -19174   -19198 
  -19218   -19217   -19221   -19248   -19280   -19298   -19306   -19321 
  -19345   -19373   -19403   -19429   -19461   -19484   -19450   -19365 
  -19287   -19259   -19251   -19214   -19168   -19153   -19170   -19193 
  -19222   -19256   -19246   -19184   -19133   -19122   -19138   -19176 
  -19217   -19278   -19381   -19468   -19484   -19484   -19508   -19512 
  -19481   -19442   -19371   -19269   -19210   -19198   -19191   -19211 
  -19271   -19299   -19275   -19248   -19241   -19229   -19219   -19249 
