Origin Time       2015/03/24 13:53:00
Lat.              36.265
Long.             140.078
Depth. (km)       68
Mag.              4.6
Station Code      TCG008
Station Lat.      36.5600
Station Long.     139.7675
Station Height(m) 153
Record Time       2015/03/24 13:53:45
Sampling Freq(Hz) 100Hz
Duration Time(s)  60
Dir.              U-D
Scale Factor      7845(gal)/8223790
Max. Acc. (gal)   9.754
Last Correction   2015/03/24 13:53:45
Memo.             
[...]
   10926    10920    10926    10928    10920    10912    10925    10945 
   10936    10935    10941    10912    10894    10905    10897    10910 
   10952    10966    10932    10909    10925    10926    10925    10947 
   10953    10926    10893    10883    10903    10924    10936    10945 
   10945    10940    10936    10933    10920    10905    10899    10899 
   10914    10941    10953    10955    10955    10929    10905    10909 
   10897    10891    10928    10948    10937    10930    10921    10916 
   10926    10928    10916    10914    10920    10930    10941    10932 
   10926    10930    10913    10912    10943    10936    10901    10905 
   10925    10930    10935    10928    10933    10948    10926    10905 
   10914    10929    10947    10936    10897    10897    10929    10948 
   10940    10902    10891    10918    10925    10932    10947    10948 
   10947    10918    10887    10917    10960    10943    10901    10902 
   10921    10917    10922    10932    10935    10945    10925    10894 
   10909    10932    10932    10937    10933    10913    10906    10916 
   10928    10925    10922    10930    10930    10937    10951    10929 
   10899    10897    10913    10930    10933    10922    10926    10928 
   10921    10932    10925    10901    10917    10953    10948    10917 
   10903    10913    10925    10922    10921    10928    10928    10929 
   10936    10930    10917    10905    10909    10941    10957    10924 
   10897    10905    10918    10918    10932    10949    10929    10910 
   10929    10932    10922    10940    10951    10926    10908    10908 
   10910    10906    10912    10926    10924    10924    10953    10960 
   10928    10906    10910    10905    10910    10941    10953    10939 
   10921    10906    10913    10928    10924    10933    10945    10926 
   10913    10901    10883    10918    10968    10962    10925    10912 
   10924    10926    10909    10894    10902    10930    10951    10953 
   10939    10905    10890    10920    10949    10947    10935    10920 
   10895    10883    10894    10921    10959    10967    10939    10921 
   10913    10906    10916    10924    10932    10939    10928    10918 
   10920    10932    10944    10930    10910    10909    10912    10913 
   10922    10929    10924    10926    10945    10960    10949    10920 
   10906    10906    10893    10886    10918    10941    10940    10941 
   10935    10933    10952    10943    10902    10885    10897    10928 
   10957    10951    10917    10901    10897    10908    10939    10959 
   10951    10929    10910    10905    10918    10916    10909    10925 
   10937    10935    10929    10920    10924    10943    10947    10933 
   10912    10895    10901    10913    10925    10944    10953    10944 
   10930    10917    10916    10920    10909    10920    10947    10929 
   10906    10916    10910    10903    10935    10959    10951    10932 
   10909    10899    10903    10910    10930    10940    10937    10939 
   10922    10916    10937    10935    10917    10924    10935    10926 
   10903    10887    10890    10921    10957    10979    10963    10922 
   10899    10894    10901    10926    10941    10937    10936    10921 
   10908    10916    10928    10943    10944    10918    10908    10917 
   10916    10921    10940    10948    10933    10912    10906    10916 
   10926    10924    10920    10932    10939    10929    10928    10926 
   10916    10912    10922    10930    10924    10917    10922    10925 
   10928    10933    10922    10910    10912    10925    10941    10947 
   10944    10926    10895    10886    10903    10916    10933    10955 
   10952    10940    10928    10908    10903    10924    10940    10943 
   10944    10932    10910    10903    10916    10929    10940    10939 
   10929    10916    10908    10918    10928    10928    10932    10926 
   10925    10939    10933    10906    10897    10909    10924    10937 
   10948    10955    10937    10908    10905    10920    10936    10951 
   10940    10935    10947    10920    10881    10890    10913    10924 
   10939    10945    10937    10929    10921    10918    10920    10925 
   10940    10943    10920    10906    10902    10906    10933    10956 
   10949    10944    10937    10918    10899    10886    10895    10929 
   10959    10957    10937    10930    10922    10897    10895    10921 
   10935    10936    10935    10925    10920    10914    10908    10917 
   10943    10962    10959    10936    10914    10908    10906    10906 
   10916    10940    10949    10935    10916    10906    10897    10909 
   10936    10947    10941    10939    10933    10924    10917    10913 
   10914    10920    10926    10943    10940    10913    10910    10924 
   10926    10926    10932    10948    10952    10924    10902    10897 
   10895    10924    10956    10951    10930    10912    10903    10914 
   10932    10955    10955    10926    10916    10910    10894    10914 
   10945    10933    10912    10913    10925    10940    10935    10918 
   10921    10924    10912    10901    10885    10849    10817    10797 
   10821    10893    10974    11094    11273    11487    11711    11847 
   11782    11408    10566     9431     8822     9366    10567    11396 
   11550    11449    11294    11117    11256    11577    11211    10126 
    9467     9755    10338    10947    12075    13212    12835    11048 
    9913    10365    10989    10714    10559    11163    11329    10484 
    9718     9819    10341    10781    11233    11453    10933    10138 
   10203    11419    12591    12581    11799    11169    11152    11511 
   11394    10651     9879     9255     8769     8951    10369    12036 
   12457    12074    11913    11766    11169    10444    10366    10867 
   11056    10677    10403    10740    11097    10875    10492    10570 
   11365    11861    10949    10129    11009    12213    11828    10484 
   10179    10917    11165    10670    10143     9985     9918     9768 
   10282    11368    11992    12228    12415    12375    12217    11983 
   11264    10008     9248     9676    10419    10438     9837     9799 
   11111    12479    12270    11159    10701    10936    11053    10903 
   10963    11353    11481    10859     9896     9533     9918    10164 
    9979    10162    11078    12147    12810    12931    12569    12093 
   11695    10902    10033     9879     9863     9697     9913     9958 
    9558     9726    10571    11099    11115    11186    11630    12487 
   13265    13149    12305    11458    10689    10195    10316    10449 
    9903     9275     9417     9868     9941    10146    10970    11983 
   12463    12141    11770    11817    11693    11349    11326    11510 
   11229    10378     9778     9756     9684     9418     9648    10667 
   11769    12262    12286    12036    11568    11264    11090    10423 
    9653     9979    10967    11013    10273    10442    11418    10999 
    9324     9293    11052    12069    11950    11904    12052    11997 
   11843    11776    11554    10872     9940     9406     9585    10127 
   10758    11145    10764    10212    10669    11583    11503    10650 
   10346    10899    11669    12083    11983    11778    11799    11523 
   10666     9929     9509     9019     8924     9603    10513    11213 
   11589    11809    12137    12259    11719    10945    10903    11600 
   12025    11732    10885     9765     9227     9652    10253    10542 
   10737    10948    11130    11292    11452    11745    12110    12051 
   11620    11379    11061    10135     9217     9371    10351    10937 
   10787    10488    10467    10721    10932    11211    12002    12623 
   12179    11267    10719    10519    10636    11006    10862    10002 
    9477     9675    10324    11553    12537    11961    10511    10050 
   10890    11820    12042    11696    11168    10747    10412    10154 
   10319    10817    11074    10936    10654    10409    10329    10500 
   10782    11214    12004    12467    11593    10149     9879    10617 
   10951    10833    10982    11493    11983    11762    10806    10166 
   10218    10416    10714    11183    11252    10702    10273    10516 
   11098    11362    10999    10453    10405    10743    10885    10889 
   11198    11655    11840    11836    11777    11514    11095    10702 
   10300     9845     9596     9913    10651    11223    11253    10941 
   10849    11109    11318    11342    11362    11346    11051    10593 
   10493    11010    11762    11794    10689     9443     9169    10064 
   11449    12079    11653    11227    11443    11824    11766    11268 
   10644    10031     9425     9049     9319    10099    10828    11422 
   12031    12501    12465    11784    11181    11229    11263    10682 
    9877     9632    10334    11273    11379    10795    10558    10895 
   11101    10805    10362    10326    10989    12064    12808    12617 
   11622    10561    10015    10018    10057     9813     9783    10212 
   10755    11342    11777    11770    11581    11468    11464    11531 
   11284    10646    10228    10168    10006     9883    10304    11016 
   11256    10903    10764    11330    11846    11595    11070    11003 
   11269    11088    10443    10353    10970    11265    10903    10559 
   10613    10727    10733    11022    11597    11821    11446    10909 
   10608    10551    10490    10227    10072    10446    11060    11375 
   11445    11510    11408    10976    10523    10474    10731    10841 
   10801    10956    11246    11280    10939    10617    10801    11294 
   11526    11410    11087    10604    10228    10170    10254    10438 
   10933    11449    11399    11009    11018    11246    10833     9926 
    9715    10666    11881    12305    11858    11237    10872    10813 
   11129    11430    11095    10490    10552    11117    11084    10458 
   10416    11202    11842    11574    10729    10219    10180    10183 
   10177    10369    10844    11283    11344    11373    11780    12144 
   11762    10800    10081    10010    10397    10774    10849    10906 
   11098    11052    10660    10281    10189    10395    10737    10999 
   11149    11299    11484    11782    12025    11743    11129    10836 
   10719    10385    10206    10372    10535    10801    11411    11974 
   11946    11325    10700    10570    10660    10461    10054     9703 
    9460     9566    10187    11002    11635    12086    12445    12502 
   12127    11615    11229    11003    10910    10771    10453    10185 
   10112    10111    10341    10897    11245    11187    11173    11418 
   11901    12168    11511    10408     9961    10358    10959    11060 
   10677    10281    10079    10126    10369    10783    11430    12005 
   12118    11728    11242    11055    10800    10241     9940    10121 
   10523    10926    11113    11113    11173    11286    11300    11133 
   10740    10422    10525    10697    10575    10542    10874    11200 
   11026    10430    10278    10980    11585    11275    10632    10566 
   11080    11711    12166    12155    11603    10939    10528    10272 
   10096    10108    10219    10222    10173    10370    10890    11462 
   11974    12465    12526    11635    10415    10183    10897    11206 
   10719    10390    10629    10864    10768    10566    10659    11267 
   11834    11561    10800    10534    10735    10746    10596    10735 
   11037    10991    10704    10640    10782    10941    11091    11346 
   11754    11804    11295    11018    11195    11033    10390     9936 
    9833     9792     9917    10296    10562    10601    10831    11349 
   11774    11965    12122    12270    12039    11180    10350    10444 
   10955    10746    10099    10038    10528    11005    11356    11345 
   10740    10098    10022    10512    11268    11867    12013    11688 
   11283    11219    11168    10663    10121    10266    10808    10686 
    9999     9971    10836    11662    11786    11344    10868    10775 
   11206    11866    12019    11427    10693    10372    10450    10534 
   10451    10393    10277    10037    10135    10732    11325    11566 
   11514    11288    11094    11249    11817    12414    12285    10993 
    9535     9296     9933    10335    10376    10332    10329    10577 
   11048    11384    11574    11784    11809    11746    11974    12159 
   11901    11493    10863     9721     8863     9076     9817    10455 
   10943    11173    11122    11068    11163    11260    11331    11611 
   12025    12054    11448    10666    10376    10643    10847    10575 
   10199    10046     9832     9734    10316    11156    11595    11766 
   11827    11734    11669    11838    11962    11538    10741    10258 
   10423    10891    10996    10681    10659    11267    11867    11836 
   11574    11715    11838    11362    10675    10291    10138     9828 
    9159     8824     9690    11229    12206    12428    12375    12266 
   12349    12652    12465    11249     9259     7130     5555     4877 
    4772     5081     6389     8684    11037    13332    15855    17863 
   18578    18149    16966    15368    13601    11376     8494     5987 
    4986     5211     5848     6656     7885     9656    11454    12768 
   13759    14455    14370    13743    13629    14220    14543    13911 
   12667    11330     9771     8198     7681     8182     8418     8347 
    8943     9863     9988     9501     9225     8862     7908     7479 
    8931    11211    12198    12104    12947    15165    16968    17170 
   17086    18120    18824    17297    14146    10362     6148     2597 
     884      700     1247     2587     5039     8349    11935    14601 
   15785    17066    18997    19593    18301    16575    14787    12546 
   10219     7879     5216     3034     2211     2450     3406     4834 
    6540     9255    13070    16195    17595    18123    18214    17224 
   15176    13302    12579    12603    12532    12336    11572     8600 
    3878     1093     2211     5413     8870    11894    13616    14062 
   14400    15026    15241    14899    14970    15747    15588    13072 
    9721     7863     6995     5701     4916     6108     8397     9535 
    8888     8255     9086    10384    10809    10747    11032    11820 
   13240    15020    15718    14450    12401    11171    11110    11680 
   11932    11307    10659    10832    11200    11025    10121     8552 
    7395     8012     9579    10072     9560     9954    12085    14166 
   13884    12062    11560    12671    12919    11465    10114     9697 
    9680    10134    10786    10858    10428    10034     9887     9740 
    9397     9532    10722    11959    11934    11176    11124    12245 
   13749    13986    12147     9888     9582    11300    12885    12733 
   11286    10021    10184    11654    12280    10201     7005     6010 
    7652     9586    10683    11434    11485    10552    10185    11410 
   12703    12564    11680    11439    12148    12822    12553    11940 
   11794    11611    11168    11181    11311    10574     9319     8324 
    7820     8109     8968     9501     9944    11263    12841    13565 
   13791    13763    13061    12164    11832    11843    11437    10316 
    8995     7946     7372     7728     8731     9049     8556     9086 
   11639    14594    16079    15932    14598    12645    11082    10473 
   10245     9464     8494     8679     9626     9568     8787     9347 
   11389    12946    13259    13154    12916    12198    11261    11247 
   12623    13813    13435    12228    11049     9801     8723     8052 
    7144     5915     5628     6829     8583    10195    11550    12426 
   12775    12633    12035    11491    11626    12247    12590    12517 
   12384    12133    11720    11364    11079    10940    10870    10369 
    9616     9363     9563     9784     9907     9826     9798    10247 
   10845    11002    10922    11502    13100    15021    16166    15485 
   13027    10507     9205     8891     9126     9448     9220     8658 
    8698     9367     9933    10354    10890    11219    11161    11233 
   11842    12742    13316    12982    11982    11406    11736    12258 
   12231    11785    11203    10316     9142     8105     7765     8581 
   10257    11786    12437    12268    11923    11812    11691    11333 
   10986    10758    10354     9857     9702     9590     9154     9094 
    9644     9790     9220     8901     9688    11318    12713    13464 
   14035    14210    13248    11551    10349    10142    10519    10886 
   10889    10631    10632    10999    10960    10168     9629     9913 
    9892     8993     8586     9680    11288    12188    12703    13525 
   14095    13749    13150    13024    12896    12040    10732     9942 
    9929     9981     9819     9779     9818     9826     9799     9302 
    8351     7950     8461     9161     9937    11267    12721    13405 
   13301    13012    12869    12822    12742    12413    11583    10531 
    9794     9335     9078     9306     9863    10119     9864     9458 
    9317     9798    10878    11969    12888    13869    14523    14419 
   13767    12726    11485    10532     9833     9103     8669     8718 
    8791     8599     8332     8251     8600     9598    11011    12106 
   12301    11886    11925    12650    12881    12188    11535    11246 
   10903    10546    10266    10103    10329    10788    11130    11508 
   12079    12734    13308    13435    12788    11616    10488     9667 
    9054     8665     8731     9261     9971    10459    10565    10717 
   11298    12001    12340    12228    12016    12046    12212    12188 
   11696    10729     9849     9539     9502     9308     8995     8841 
    9070     9728    10677    11692    12363    12259    11495    10728 
   10519    10974    11650    11827    11395    11132    11495    11729 
   11141    10308     9967     9995    10238    10854    11624    12100 
   12206    11994    11464    10851    10308     9679     9090     8938 
    9258     9899    10655    11125    11403    11983    12618    12555 
   11693    10686    10166    10226    10537    10740    10839    11028 
   11117    10916    10694    10702    10929    11218    11307    11244 
   11372    11576    11479    11261    11317    11566    11626    11400 
   11279    11418    11353    10848    10386    10446    10790    10870 
   10755    10862    10984    10806    10616    10482    10172    10116 
   10758    11534    11811    11610    11080    10477    10243    10357 
   10523    10816    11192    11280    11032    10790    10824    11075 
   11223    11009    10579    10405    10724    11356    12010    12380 
   12127    11227    10226     9510     8991     8808     9184     9686 
    9844     9882    10195    10933    12024    12961    13178    12806 
   12370    12091    11781    11200    10514    10161    10277    10636 
   11017    11280    11300    11079    10891    10916    10922    10701 
   10372    10098     9977    10115    10432    10704    10844    10805 
   10512    10274    10527    11213    11943    12297    12209    12028 
   11832    11429    10887    10467    10166     9737     9290     9316 
   10003    10978    11561    11422    10970    10720    10781    10993 
   11217    11508    11900    12143    11925    11373    10854    10355 
   10060    10582    11584    11870    11149    10295    10018    10154 
   10249    10215    10243    10381    10427    10295    10152    10220 
   10712    11520    12093    12208    12267    12557    12787    12598 
