Origin Time       2015/03/24 13:53:00
Lat.              36.265
Long.             140.078
Depth. (km)       68
Mag.              4.6
Station Code      TCG008
Station Lat.      36.5600
Station Long.     139.7675
Station Height(m) 153
Record Time       2015/03/24 13:53:45
Sampling Freq(Hz) 100Hz
Duration Time(s)  60
Dir.              N-S
Scale Factor      7845(gal)/8223790
Max. Acc. (gal)   16.543
Last Correction   2015/03/24 13:53:45
Memo.             
[...]
    1196     1175     1142     1158     1194     1174     1147     1185 
    1215     1197     1173     1182     1197     1181     1179     1171 
    1133     1143     1190     1204     1165     1144     1185     1209 
    1194     1197     1192     1163     1166     1171     1147     1151 
    1175     1182     1194     1209     1196     1174     1183     1202 
    1204     1182     1148     1155     1171     1147     1138     1161 
    1161     1154     1188     1233     1244     1210     1162     1138 
    1161     1209     1208     1178     1173     1159     1147     1151 
    1151     1201     1236     1170     1138     1169     1179     1198 
    1209     1178     1166     1169     1142     1155     1188     1185 
    1221     1210     1133     1174     1225     1183     1171     1171 
    1166     1190     1151     1092     1136     1205     1215     1196 
    1185     1212     1229     1170     1121     1156     1185     1192 
    1210     1185     1171     1190     1162     1163     1193     1181 
    1177     1155     1127     1155     1205     1197     1158     1183 
    1209     1179     1174     1167     1150     1175     1189     1182 
    1209     1219     1196     1163     1120     1146     1220     1213 
    1159     1158     1194     1185     1146     1154     1185     1194 
    1173     1151     1167     1198     1225     1200     1135     1151 
    1194     1169     1161     1192     1197     1205     1197     1165 
    1173     1196     1192     1156     1136     1166     1173     1155 
    1169     1178     1181     1212     1219     1198     1183     1162 
    1150     1171     1173     1127     1144     1206     1196     1197 
    1239     1223     1194     1193     1159     1117     1138     1197 
    1223     1190     1148     1133     1133     1166     1202     1189 
    1159     1183     1213     1182     1165     1198     1192     1158 
    1156     1147     1167     1210     1208     1208     1192     1152 
    1179     1205     1166     1161     1179     1169     1171     1167 
    1156     1175     1193     1178     1171     1178     1185     1202 
    1182     1148     1161     1178     1200     1196     1148     1147 
    1190     1208     1190     1167     1177     1197     1185     1174 
    1175     1167     1161     1169     1183     1189     1175     1165 
    1185     1219     1194     1138     1136     1166     1174     1173 
    1183     1194     1181     1185     1227     1220     1170     1146 
    1150     1165     1167     1178     1192     1154     1144     1193 
    1190     1182     1215     1200     1161     1165     1182     1183 
    1167     1136     1143     1179     1192     1206     1216     1178 
    1150     1156     1170     1206     1208     1166     1171     1178 
    1161     1194     1213     1167     1150     1166     1181     1182 
    1166     1175     1185     1162     1161     1173     1175     1206 
    1220     1193     1183     1190     1182     1165     1139     1133 
    1182     1216     1182     1155     1170     1189     1193     1181 
    1166     1155     1156     1185     1177     1144     1190     1240 
    1194     1150     1166     1192     1197     1194     1192     1174 
    1167     1185     1163     1120     1144     1201     1198     1175 
    1178     1177     1183     1178     1155     1185     1227     1205 
    1169     1138     1128     1175     1193     1162     1173     1190 
    1185     1201     1204     1178     1175     1179     1165     1170 
    1170     1159     1192     1212     1193     1185     1159     1147 
    1182     1161     1142     1193     1196     1178     1198     1171 
    1144     1185     1188     1152     1167     1197     1190     1171 
    1177     1193     1188     1181     1179     1152     1158     1196 
    1178     1161     1185     1179     1185     1215     1177     1147 
    1158     1156     1159     1166     1175     1200     1202     1196 
    1201     1179     1165     1185     1182     1174     1185     1185 
    1185     1177     1155     1159     1167     1156     1167     1173 
    1152     1161     1170     1173     1200     1224     1236     1227 
    1183     1142     1125     1144     1190     1208     1179     1158 
    1165     1171     1163     1175     1200     1206     1198     1183 
    1170     1166     1165     1167     1171     1170     1175     1185 
    1182     1179     1190     1182     1163     1165     1163     1166 
    1190     1194     1177     1182     1194     1197     1217     1196 
    1142     1151     1171     1151     1154     1177     1190     1208 
    1209     1185     1179     1175     1162     1162     1181     1197 
    1182     1166     1182     1179     1156     1158     1169     1185 
    1198     1179     1171     1181     1185     1200     1185     1156 
    1165     1165     1142     1158     1182     1182     1194     1208 
    1194     1181     1179     1185     1197     1194     1179     1163 
    1155     1173     1177     1159     1151     1162     1181     1190 
    1182     1171     1179     1201     1210     1198     1171     1155 
    1167     1170     1165     1181     1188     1190     1188     1158 
    1162     1182     1170     1185     1212     1192     1159     1151 
    1177     1196     1185     1174     1154     1139     1159     1170 
    1185     1236     1256     1252     1289     1336     1340     1260 
    1084      869      727      739      881     1081     1386     1750 
    1852     1574     1308     1252     1055      595      367      569 
     756     1085     2019     2802     2546     1845     1483     1096 
     240     -388     -103      486      665      907     1768     2404 
    1859      990      811      886      841      837      989     1282 
    1243     1063     1759     2790     2606     1485      947     1007 
     708      464      927     1306      870      368      761     1293 
    1158     1139     1375     1146      476      -59       87      672 
    1417     2652     3593     3140     1979     1270      884      388 
     301      815     1109      745      291      905     2096     1926 
    1147     1062      464     -333      143     1088     1653     2027 
    1888     1489     1440     1337     1305     1780     1911     1350 
     726      193       82      681     1545     2281     2371     1676 
     909      445      436      677      532      546     1266     1651 
    1378     1475     1939     1912     1537     1258      645       76 
     376      815     1360     2386     2394     1554     1339      804 
      51      550     1233     1074      961     1397     1850     1858 
    1907     1895     1028      102       -1       36       91      826 
    1741     1908     1841     2169     2204     1664     1198     1127 
    1117      777      696     1260     1457     1148     1154     1011 
     537      699      866      207       98      801     1113     1591 
    2629     2938     2280     1445      789      498      438      599 
    1209     1554     1248     1224     1480     1317     1175     1069 
     525      224      486      932     1703     2284     2114     2043 
    1982     1000      261      815     1298     1116     1194     1490 
    1377      831      461      639      677      603     1200     1566 
    1003      720      924      822      837     1502     2262     2155 
    1345     1273     2030     2300     2060     1779     1143      573 
     566      448      163      450     1024     1131     1100     1385 
    1294      745      652      882      932     1009     1240     1532 
    1661     1737     2061     1935     1132      733      761      691 
     788      981     1248     1692     1660     1193      980     1023 
    1329     1598     1237      974     1217     1178     1339     2029 
    1941      996      286      -49       23      687     1270     1466 
    1657     1409      710      762     1417     1591     1574     1524 
    1017      657     1046     1729     2076     1903     1417      896 
     473      409      724      897     1105     1775     2079     1718 
    1459      938       91      344     1286     1318     1065     1270 
    1327     1455     1903     1973     1660     1202      498      199 
     688     1235     1456     1549     1522     1243      608      195 
     706     1281     1020      773     1185     1718     1979     1958 
    1846     1601      777       72      483     1069      996     1100 
    1507     1344     1013     1431     1865     1545     1229     1174 
     945     1023     1551     1688     1495     1507     1255      577 
     249      475      712      473      205      783     1548     1753 
    2107     2366     1787     1267     1395     1530     1382     1298 
    1605     1825     1229      309       25      217      212      163 
     440      874     1364     1933     2349     2261     1644     1105 
    1189     1502     1409     1193     1127      706      423     1135 
    1846     1787     1549     1378     1269     1139      922      912 
     874      531      306      263      403     1081     1682     1466 
    1135     1171     1097     1148     1667     1908     1658     1682 
    2046     2111     1640     1039      607      344      607     1282 
    1497     1271     1133      974      849      911      889      769 
     827      938      943     1048     1348     1509     1171      770 
     900     1053      938     1223     1593     1294     1143     1740 
    2018     1609     1294     1147      947      958     1237     1487 
    1556     1437     1193     1031     1024      996     1000     1225 
    1410     1267     1053     1004     1051     1297     1757     2056 
    2061     1965     1690     1093      411       29      -11       40 
     310      866     1071      796      649      695      872     1364 
    1733     1509     1183     1233     1252     1031     1127     1464 
    1360     1197     1682     2161     1998     1833     1892     1599 
    1109      901      919     1012     1235     1655     1885     1638 
    1344     1043      579      391      252     -268     -451       25 
     434      789     1478     1792     1506     1491     1723     1750 
    1687     1436     1073     1080     1360     1675     2039     2029 
    1580     1336     1113      614      537      733      442      394 
    1107     1628     1746     1985     2042     1692     1286     1051 
    1015      982      980     1273     1543     1413     1123      855 
     615      529      540      695      997     1028      841      766 
     842     1320     2039     2322     2115     1559      722      257 
     349      472      877     1644     1765     1313     1190     1089 
    1011     1579     2033     1773     1606     1601     1026      388 
     675     1221     1109     1030     1397     1532     1347     1271 
    1266     1071      760      706      907     1034     1140     1317 
    1389     1444     1506     1379     1193     1075      934      787 
     862     1316     1642     1287      897     1051     1007      579 
     503      560      427      818     1844     2606     2678     2403 
    1980     1205      403      364      886     1281     1668     2074 
    2053     1714     1250      535      -43     -183     -109      212 
     521      477      685     1107     1181     1545     2124     1891 
    1230      864      722      947     1539     2016     2254     2365 
    2220     1690     1044      772      761      662      589      757 
    1190     1463     1248      993      888      832     1046     1379 
    1655     1823     1471     1023     1188     1242      992     1277 
    1452      929      820     1244     1177      927     1173     1340 
     989      706      727      720      828     1175     1300     1239 
    1505     1796     1601     1371     1457     1463     1362     1256 
    1012      969     1247     1507     1630     1513     1336     1112 
     473       89      518      918     1015     1294     1429     1053 
     803     1093     1374     1310     1116      936     1005     1397 
    1755     1856     1572     1088     1062     1308     1109      847 
    1077     1333     1354     1588     1934     1946     1679     1188 
     544       49       40      745     1602     1869     1845     1642 
     899      248      284      525      728      943      931      949 
    1098      866      789     1378     1649     1490     1787     2150 
    2023     1956     2053     1695     1067      950     1255     1236 
     787      532      646      784     1058     1325     1081      710 
     641      739     1124     1533     1375     1185     1467     1513 
    1408     1979     2477     1942     1185      773      289       74 
     334      407      453      980     1447     1599     1682     1250 
     579      684     1142     1297     1498     1737     1767     1626 
    1605     1993     2134     1667     1435     1360     1128     1475 
    1859     1431     1243     1506     1167      670      596      256 
    -529    -1053    -1111    -1313    -1775    -1823    -1505    -1294 
    -923     -337      -10      202      700     1463     2781     4984 
    7481     9258     9717     9035     7919     6498     4393     2012 
    -125    -2242    -3969    -4549    -4340    -3997    -3383    -2524 
   -2045    -1677     -256     1831     2867     3146     4341     5734 
    5560     4611     4180     3489     2227     1285      329    -1426 
   -3335    -4482    -5093    -5572    -5948    -6585    -7221    -6836 
   -5119    -1710     3788     9609    13369    15711    18103    18519 
   15759    13383    11799     7541     3032     1640     -315    -4695 
   -7942    -9973   -13070   -14958   -13733   -11904    -9856    -6075 
   -1930     1513     4448     6319     7681     9073     9282     8715 
    9483    10663     9823     8336     7879     5880     1513    -2029 
   -4464    -7462    -9629    -9201    -6710    -4083    -2338     -502 
     923      178    -1379    -1854    -1903    -1857     -945     1317 
    4681     7933     9930    10112     8035     3767    -1506    -4891 
   -3537     1240     6003    10571    13967    11861     5344       55 
   -3595    -7373    -9202    -7300    -4438    -3549    -2687     -564 
    -197    -1101      436     2520     1559      -94      546     2562 
    5413     9107    11280    10079     6579     2677     -633    -3160 
   -4256    -3188    -1718    -1806    -1987    -1587    -2331    -3179 
   -2089     -648     -432      313     2747     4911     5817     7589 
   10187    10079     7543     5992     4148      126    -2945    -3015 
   -1810     -479      911     1603     1053      -67    -1256    -3045 
   -5196    -6030    -4729    -2488     -616      882     2215     3068 
    3288     3440     4062     4289     3977     4602     5205     3839 
    2411     2646     2336     1313     2556     4549     3307      594 
    -349    -1178    -3109    -3699    -2369    -1296     -553      976 
    1896     1402     1070      625     -645     -837      666     2641 
    5001     7017     7657     7751     7267     5177     2659      967 
    -737    -2289    -2350    -1941    -2589    -2949    -2130    -1634 
   -2042    -2759    -3335    -3461    -3372    -2450        0     2160 
    3172     4288     4325     2278      996     1572     1798     2084 
    3784     4852     4282     3973     4185     4041     3796     3397 
    2849     2434     1636      851      872      808      719     1413 
    1136     -731    -1971    -2523    -3071    -2639    -1938    -1680 
    -338     1863     3542     5633     8203     8931     7280     4758 
    1744    -1690    -3696    -3454    -2938    -2957    -2710    -2612 
   -2764    -2023     -263     1345     2192     2743     3450     4153 
    4583     4939     5610     6492     7246     7504     6945     5545 
    2963     -764    -4078    -5907    -7023    -7809    -7881    -7561 
   -6644    -4645    -2633    -1310     -210      283      205      831 
    2124     3898     6932     9452     9364     8215     7187     5618 
    4232     4195     5347     6424     6304     5644     5219     4488 
    3631     3011     1863        1    -1941    -3558    -4401    -4523 
   -4525    -4315    -3942    -3627    -2616    -1135      -20     1360 
    2646     2745     2619     3122     3465     2982     1887      707 
    -266     -769     -391      532     1491     2384     2335      923 
    -789    -2304    -3385    -3132    -1625       78     1561     2999 
    4340     5273     5968     6710     7002     6586     5836     4828 
    3746     2732     1547      743      797      492     -946    -2565 
   -3898    -5211    -5989    -5779    -5112    -4477    -3793    -2828 
   -1441      199     1641     2826     4430     6308     7080     7056 
    7719     8078     6944     5543     4248     2168       36    -1120 
   -1661    -1738    -1233     -643     -225     -121     -607    -1457 
   -2211    -2338    -1638     -479     1478     4212     5844     5873 
    5788     5412     3935     2211     1128      442     -112     -120 
     121      -18      430     1803     2735     2961     2617     1459 
     369     -114     -102      913     2295     2651     2297     1809 
    1051      538      391      -37     -572    -1217    -2284    -2745 
   -2205    -1773    -1381     -614     -425     -915     -855      -81 
     932     2280     3316     3357     3117     2951     2886     3686 
    5324     6862     7705     7597     6498     4912     3585     2332 
     514    -1142    -1745    -2025    -2554    -2775    -2772    -3137 
   -3712    -4032    -3824    -3276    -2839    -2292    -1317     -187 
    1096     2829     4823     6119     6030     5355     4965     4638 
    4407     4522     4672     4487     3632     2297     1412     1163 
     980      858      808      337     -451     -859     -564      102 
     422      449      749      778      419      735     1467     1859 
    2246     2359     1632      796      511      253       64      658 
    1267      997      715      734      338      -82      -29      -51 
     -32      693     1498     1669     1625     1453     1081      683 
      94     -369     -383     -540     -776     -363      243      594 
    1336     2277     2677     2876     3254     3450     3346     3399 
    3651     3566     3343     3527     3572     3238     3188     2840 
    1593      565     -175    -1445    -2084    -1372     -680     -302 
     403      919     1107     1464     1503      731     -565    -1939 
   -2679    -2158     -743      708     2089     3429     3584     2026 
     422     -166     -450     -206     1327     3068     3646     3666 
    3917     3684     2791     2376     2471     2031     1212      557 
    -152     -491      -16      756     1710     2833     3357     2721 
    1263     -178    -1053    -1332    -1017      -59     1183     2037 
    2428     2947     3665     3867     3253     2393     1456      176 
    -801     -774      -89      692     1162     1142      893      313 
    -772    -1556    -1528    -1244     -907     -307      315      789 
    1412     2056     2238     2332     2766     2848     2428     2457 
    2833     2739     2509     2612     2493     1733      938      633 
     135     -884    -1275     -711     -375     -202      977     2601 
    3302     3240     2992     2533     2066     1993     2470     3198 
