Origin Time       2015/03/24 13:53:00
Lat.              36.265
Long.             140.078
Depth. (km)       68
Mag.              4.6
Station Code      TCG008
Station Lat.      36.5600
Station Long.     139.7675
Station Height(m) 153
Record Time       2015/03/24 13:53:45
Sampling Freq(Hz) 100Hz
Duration Time(s)  60
Dir.              E-W
Scale Factor      7845(gal)/8223790
Max. Acc. (gal)   21.365
Last Correction   2015/03/24 13:53:45
Memo.             
[...]
    2305     2307     2303     2319     2328     2335     2370     2369 
    2338     2338     2324     2299     2288     2278     2300     2336 
    2343     2338     2328     2312     2295     2288     2303     2324 
    2342     2363     2370     2353     2332     2317     2311     2319 
    2327     2335     2327     2304     2307     2319     2316     2317 
    2331     2334     2319     2316     2319     2313     2303     2312 
    2349     2350     2317     2307     2307     2301     2301     2316 
    2343     2346     2332     2324     2313     2312     2335     2343 
    2326     2323     2313     2307     2340     2357     2343     2324 
    2311     2319     2319     2315     2326     2307     2274     2282 
    2307     2311     2311     2338     2361     2347     2343     2343 
    2347     2349     2332     2315     2282     2265     2295     2324 
    2353     2366     2328     2315     2332     2308     2296     2313 
    2324     2338     2346     2323     2301     2312     2327     2324 
    2332     2336     2322     2326     2335     2324     2316     2319 
    2312     2304     2328     2342     2315     2300     2305     2308 
    2312     2342     2365     2346     2319     2322     2327     2326 
    2328     2330     2323     2305     2297     2307     2319     2327 
    2330     2328     2315     2299     2303     2322     2328     2324 
    2331     2335     2334     2336     2347     2354     2344     2313 
    2282     2282     2297     2324     2357     2359     2357     2353 
    2316     2286     2295     2311     2319     2317     2311     2308 
    2296     2303     2334     2346     2338     2326     2316     2323 
    2346     2349     2331     2338     2351     2331     2303     2293 
    2293     2289     2308     2344     2357     2340     2309     2278 
    2274     2315     2363     2384     2377     2349     2300     2266 
    2280     2319     2338     2331     2319     2319     2332     2336 
    2326     2305     2305     2328     2340     2338     2327     2313 
    2305     2295     2304     2338     2354     2347     2346     2334 
    2315     2299     2281     2299     2334     2327     2322     2338 
    2351     2361     2347     2324     2309     2293     2304     2316 
    2289     2288     2323     2328     2327     2344     2347     2331 
    2309     2290     2304     2324     2336     2346     2327     2311 
    2323     2319     2323     2343     2346     2354     2343     2292 
    2278     2300     2300     2309     2323     2334     2351     2335 
    2309     2303     2295     2311     2328     2319     2331     2340 
    2332     2343     2344     2328     2323     2311     2305     2300 
    2284     2312     2355     2349     2338     2344     2347     2332 
    2299     2290     2316     2317     2312     2328     2330     2317 
    2307     2292     2293     2323     2346     2347     2338     2319 
    2303     2312     2353     2370     2351     2326     2292     2281 
    2297     2309     2335     2362     2351     2328     2303     2295 
    2324     2343     2331     2322     2323     2331     2334     2319 
    2308     2293     2273     2288     2334     2347     2351     2374 
    2350     2300     2304     2328     2334     2335     2331     2330 
    2326     2312     2304     2290     2296     2340     2358     2342 
    2330     2304     2295     2305     2309     2330     2344     2324 
    2313     2319     2312     2307     2326     2354     2355     2330 
    2319     2319     2300     2289     2319     2351     2354     2332 
    2312     2313     2328     2334     2326     2315     2309     2307 
    2308     2315     2315     2312     2326     2338     2326     2316 
    2327     2334     2313     2290     2303     2335     2358     2370 
    2359     2336     2312     2286     2284     2324     2342     2316 
    2301     2312     2323     2319     2312     2319     2331     2335 
    2343     2347     2336     2311     2297     2303     2304     2304 
    2313     2328     2342     2343     2331     2319     2317     2319 
    2305     2308     2336     2338     2326     2330     2342     2362 
    2362     2328     2296     2267     2251     2289     2344     2366 
    2366     2351     2319     2300     2299     2295     2293     2317 
    2342     2331     2322     2338     2338     2328     2331     2327 
    2323     2330     2328     2335     2338     2334     2338     2319 
    2284     2290     2296     2286     2315     2344     2338     2338 
    2342     2319     2305     2317     2323     2304     2305     2344 
    2362     2350     2349     2334     2295     2288     2296     2290 
    2311     2346     2349     2340     2344     2336     2308     2296 
    2316     2322     2312     2332     2350     2334     2317     2304 
    2295     2308     2328     2336     2332     2317     2311     2312 
    2323     2343     2343     2338     2331     2295     2282     2307 
    2322     2340     2370     2374     2354     2319     2274     2196 
    2115     2172     2369     2473     2362     2185     2157     2304 
    2475     2621     2687     2475     2037     1755     1784     1935 
    2166     2636     3024     2870     2584     2643     2706     2454 
    2000     1691     1709     1842     2003     2367     2947     3284 
    3006     2446     1910     1615     1830     2079     2165     2469 
    2542     2161     2066     2407     2621     2508     2262     2069 
    2255     2772     3025     3025     2810     2056     1298     1293 
    1868     2401     2953     3507     3079     1949     1279     1058 
    1580     2813     3353     2956     2519     2189     1921     2015 
    2457     2930     3092     2386     1270     1551     2826     3076 
    2797     2641     2050     1683     1760     1898     2556     3196 
    2811     1981     1625     1665     1728     1938     2484     3013 
    3235     3015     2120     1273     1725     2952     3210     2482 
    2142     2243     2114     1849     1615     1817     2532     2748 
    2538     2821     3165     2860     2205     1803     1771     2015 
    2322     2331     2404     2837     3165     3060     2354     1507 
    1301     1306     1015     1202     2393     3684     4102     3855 
    3346     2432     1412      890      770     1169     2215     2844 
    2829     3184     3569     3222     2736     2401     1672     1189 
    1729     2187     2176     2623     2983     2533     1919     1679 
    1823     2176     2369     2404     2683     2891     2475     2077 
    2289     2548     2571     2694     2714     2578     2477     1884 
    1252     1526     1845     1826     2201     2667     3034     3307 
    2971     2548     2643     2475     1807     1593     2023     2358 
    2420     2300     2043     2378     3090     2789     1995     1902 
    1859     1580     1737     2214     2798     3410     3321     2512 
    2069     2224     2128     1441      993     1478     2277     2567 
    2693     3314     3948     3869     3130     1960     1111     1113 
    1113     1174     2296     3476     3364     2790     2659     2354 
    1777     1593     1620     1964     2805     3164     2749     2389 
    2512     2871     2924     2529     2060     1570     1073     1244 
    2180     2957     3348     3499     2964     1958     1420     1439 
    1532     1771     2500     3295     3238     2640     2365     2064 
    1684     1792     1985     2089     2563     2965     2759     2681 
    3034     2961     2573     2292     1780     1551     1846     1741 
    1528     1980     2427     2467     2762     3119     2724     2064 
    2038     2263     2392     2899     3300     2824     2319     2166 
    1618     1281     1718     2031     2012     2057     2098     2249 
    2473     2474     2506     2824     2971     2525     1883     1799 
    2281     2606     2474     2359     2536     2624     2508     2416 
    2332     2378     2497     2259     2007     2307     2613     2454 
    2357     2546     2546     2181     1645     1360     1815     2705 
    3346     3429     2770     1755     1267     1362     1571     2119 
    3083     3491     2922     2351     2251     2058     1787     1840 
    1900     1933     2338     2511     2245     2567     3083     2878 
    2619     2407     1846     1709     2188     2512     2563     2587 
    2620     2574     2163     1696     1884     2262     2277     2312 
    2403     2584     2843     2669     2509     2836     2786     2097 
    1482     1170     1385     1980     2023     2012     2921     3511 
    3003     2509     2235     2119     2629     2965     2525     2146 
    2007     1736     1750     2205     2447     2292     2338     2594 
    2440     2299     2658     2624     2096     2180     2667     2677 
    2354     2146     2239     2338     1871     1377     1726     2187 
    2031     2089     2754     3365     3582     3304     2524     1661 
    1177     1364     2144     2917     3317     3411     3069     2326 
    1790     1881     2143     2081     2011     2163     2226     2185 
    2334     2498     2362     2046     1671     1485     1788     2060 
    2050     2300     2701     2929     2956     2540     2088     2265 
    2525     2373     2346     2434     2119     1742     1807     2143 
    2424     2688     3129     3462     3450     3150     2425     1677 
    1466     1553     1954     2718     3046     2822     2776     2705 
    2278     2083     2172     1952     1626     1800     2170     2286 
    2344     2277     2182     2398     2435     2084     1887     1884 
    1709     1483     1637     1998     2374     3034     3639     3589 
    3056     2457     1850     1489     1668     1949     2163     2533 
    2597     2488     2716     2762     2528     2461     2452     2660 
    3119     3100     2671     2496     2319     2027     2049     2184 
    2220     2385     2466     1966     1237     1032     1178     1395 
    1871     2332     2727     3223     3267     2767     2494     2515 
    2107     1359     1372     2205     2756     2906     2890     2454 
    2124     2169     1973     1868     2297     2704     2918     2992 
    2828     2844     2918     2527     2139     2073     2095     2366 
    2675     2552     2428     2578     2396     2041     2209     2454 
    2317     2043     1694     1387     1267     1405     1714     1714 
    1790     2434     2776     2555     2558     2792     2829     2744 
    2778     2820     2848     2979     2766     2185     1930     1826 
    1729     2239     2941     3042     2922     2907     2636     2228 
    2121     2270     2408     2220     1718     1460     1556     1655 
    1823     2205     2619     2860     2818     2505     2192     2065 
    2029     1953     1825     1779     1863     2026     2417     2909 
    3029     2762     2332     1858     1622     1854     2512     3129 
    3196     3204     3476     3287     2821     2702     2369     1787 
    1580     1499     1522     2010     2385     2172     2049     2440 
    2688     2602     2714     2717     2389     2354     2205     1644 
    1690     2098     1982     1861     2143     2452     2509     2403 
    2448     2525     2434     2463     2613     2740     2988     2999 
    2550     2319     2350     1991     1610     1823     2276     2581 
    2559     2155     1972     2157     2104     1996     2128     2064 
    1938     1945     1917     2350     3033     3100     2890     2594 
    2150     2064     2033     1806     1894     2026     1956     2153 
    2567     3018     3451     3289     2592     2143     1826     1475 
    1668     2204     2535     2732     2485     1804     1752     2463 
    3021     3053     2725     2512     2570     2332     2064     2346 
    2569     2482     2533     2584     2458     2110     1462      985 
    1270     2092     2598     2471     2250     2265     2208     2037 
    2250     2720     2830     2951     3208     2808     2353     2801 
    3045     2336     1728     1584     1379     1225     1556     2424 
    3257     3294     2802     2521     2245     1718     1478     1783 
    2262     2679     3071     3372     3217     2434     1625     1356 
    1480     1888     2496     2833     2749     2724     2871     2720 
    2405     2353     2165     1773     1784     2000     2022     2031 
    2015     1972     2181     2556     2702     2606     2465     2241 
    2037     2058     2160     2281     2579     2862     2781     2313 
    1791     1588     1521     1367     1394     1713     2285     2755 
    2762     2929     3487     3723     3763     4135     4546     4695 
    4700     4534     4327     4468     4943     5667     6547     7182 
    7362     6756     4849     2025     -657    -2629    -3925    -4546 
   -4431    -3773    -2732    -1308      409     2309     4402     6536 
    8133     8464     7122     4283      642    -3188    -6863    -9539 
  -10158    -9413    -9012    -8428    -6470    -4023    -1459     1842 
    5134     7526     8918     9666    10881    12316    12622    13343 
   15971    17706    16862    14860    11438     6635     1956    -2582 
   -5491    -5455    -6177    -9198   -10902   -11082   -11654   -10100 
   -4872      252     3076     4861     5223     4178     4258     6108 
    8313     9903    10617    11237    11257     9277     6879     5157 
    2918      877    -1148    -4962    -8568    -9779   -10200   -10216 
   -8622    -6226    -3692     -311     3557     7187    10771    14037 
   16278    18161    21088    23872    24571    24719    23903    17702 
    7506     -888    -7310   -13100   -16251   -17202   -18143   -18389 
  -17443   -16482   -15534   -13339    -9336    -4881    -1111     3065 
    7538    10712    13527    16646    18697    19994    20235    16978 
   11160     6388     2830     -816    -2482    -1451    -1695    -4205 
   -6335    -8834   -11308    -9572    -4657     -383     4334     9786 
   12942    13332    12359    10751     9560     8270     5421     3140 
    3925     5368     4351     1898     -484    -3771    -7264    -8727 
   -8552    -7578    -6103    -5296    -4336    -1242     3380     7796 
   10219     9038     6222     5142     5119     5217     7198    10323 
   11082     8295     4082      893     -386       89     1719     3951 
    6219     6939     5328     3018      564    -2737    -4923    -4649 
   -4341    -4542    -2579     1205     3395     3578     4360     5792 
    5663     4159     2853     1503       55      -91      939     1954 
    2685     2324      936      990     2922     4322     4824     5633 
    6374     6966     8336     9545     8627     5975     3306      637 
   -2284    -4020    -3915    -3307    -3034    -2891    -3311    -4526 
   -5621    -6142    -5940    -4256    -1143     2548     5998     8390 
   10087    11919    12841    11585     8716     4985     1371     -272 
      97     1771     5350     8360     6914     3523     2674     3103 
    2863     3096     3339     1942       70     -352      787     2933 
    4878     5105     3485      870    -1494    -2316    -1136     1603 
    3921     3329      379    -2577    -4857    -6216    -6072    -4784 
   -3028    -1152      861     3368     6205     8772    10382    10413 
    9322     8137     7102     6004     5011     4835     5417     5440 
    4760     4463     4457     4382     4884     5625     5027     3002 
     707    -1478    -2792    -2319    -1525    -1864    -2560    -3553 
   -5005    -5733    -5748    -5053    -2740     -240     1386     3835 
    7141     9463    10486    10336     8795     6794     4857     2828 
    2102     3530     5325     6088     6299     5746     3776     1509 
    -174    -1658    -2584    -2442    -1439       81     1622     2481 
    2467     2098     1402      438      211      692     1163     2111 
    3456     4035     4002     3932     2953     1463     1425     2199 
    2263     2471     2967     2524     1680     1567     1711     1594 
    1736     2095     1663      579      359     1193     2038     2965 
    4151     4824     4841     4868     5458     6359     6473     5150 
    2876      621     -980    -1494     -656      665     1532     1987 
    1514       85     -564      143      946     1448     2058     2651 
    3240     3925     4513     5414     6312     5490     3373     2172 
    2243     3052     4326     5414     6095     5991     4228     1721 
     246     -352     -784     -846     -880    -1069     -626      143 
     635     1826     3557     3839     2874     2538     2403     1545 
    1166     1791     2342     2502     2427     2258     2505     2668 
    2121     1921     2196     1667     1219     2092     2860     3026 
    3861     4788     5192     5795     5944     5116     4298     3507 
    2277     1264     1023     1035      940     1069     1055      471 
     126      155     -243     -325      758     1740     1807     1930 
    2531     3289     4072     4514     4423     4045     3349     2583 
    2448     2555     2130     1634     1425      977      355      399 
    1244     2199     3103     3728     3284     2319     1810     1344 
    1206     2124     2964     3261     3963     4283     3693     3538 
    3804     3936     4351     4645     4429     3785     2423     1200 
    1070     1236     1209     1142      660     -102     -769    -1252 
   -1120     -677     -749    -1129    -1533    -1514     -157     1948 
    3813     5805     7375     7338     6372     5595     5273     5517 
    5884     5908     5678     4918     3692     2774     2304     1833 
     870     -820    -2529    -3333    -3260    -2349     -355     1740 
    2693     2994     3658     4814     6178     7263     7553     6948 
    5821     4591     3447     2754     2628     2470     1852      885 
     -40     -658    -1298    -2143    -2691    -2559    -2242    -2199 
   -1696     -166     1530     2619     3696     5104     5809     5655 
    5918     6677     6739     5902     5035     4423     3578     2712 
    2552     2656     2045      862     -398    -1520    -1683     -649 
     361     1000     1780     2239     2230     2467     2938     3049 
    2971     3362     3844     3784     3771     3979     3577     2731 
    2042     1296      807     1013     1098     1060     1918     3051 
    3569     3997     4178     3554     2896     2655     2281     2010 
    2223     2497     2889     3569     3870     3726     3511     2662 
    1364      810      488     -510    -1123     -492      595     1363 
    1595     1520     1719     2085     2215     2500     2999     3300 
    3681     4149     4159     4137     4484     4324     3546     3144 
    3096     2984     3067     3373     3523     3218     2281      845 
    -391     -939    -1190    -1321     -890      -10      819     1594 
    2554     3632     4271     4050     3360     2641     1958     1517 
    1514     2026     3041     3947     4091     3878     3852     3662 
    3171     2928     3032     3114     3090     2995     2714     2200 
    1472      479     -346     -263      338      442      178       81 
      20      228     1183     2475     3696     4796     5244     5097 
    4920     4402     3889     4252     4657     4576     4777     4816 
    4028     3042     2184     1236      348     -152     -174      147 
     760     1539     2045     2069     1877     1686     1566     1590 
