Origin Time       2015/04/12 14:25:00
Lat.              36.867
Long.             141.060
Depth. (km)       51
Mag.              3.9
Station Code      TCGH09
Station Lat.      36.8625
Station Long.     139.8364
Station Height(m) 461
Record Time       2015/04/12 14:25:50
Sampling Freq(Hz) 100Hz
Duration Time(s)  120
Dir.              2
Scale Factor      2940(gal)/6170270
Max. Acc. (gal)   0.174
Last Correction   2015/04/12 14:25:35
Memo.             
 -157607  -157606  -157601  -157599  -157599  -157605  -157615  -157618 
 -157608  -157600  -157607  -157615  -157606  -157600  -157598  -157592 
 -157595  -157606  -157614  -157610  -157590  -157586  -157617  -157641 
 -157629  -157605  -157592  -157594  -157607  -157615  -157609  -157602 
 -157600  -157603  -157610  -157614  -157608  -157589  -157573  -157580 
 -157603  -157630  -157638  -157619  -157610  -157613  -157611  -157619 
 -157625  -157607  -157574  -157557  -157582  -157616  -157609  -157583 
 -157567  -157581  -157627  -157652  -157639  -157623  -157610  -157609 
 -157627  -157628  -157607  -157600  -157597  -157583  -157581  -157589 
 -157585  -157582  -157596  -157614  -157623  -157615  -157605  -157602 
 -157609  -157622  -157623  -157608  -157594  -157590  -157601  -157609 
 -157608  -157621  -157625  -157591  -157578  -157620  -157652  -157633 
 -157595  -157576  -157577  -157585  -157599  -157626  -157635  -157593 
 -157564  -157594  -157623  -157620  -157609  -157608  -157614  -157610 
 -157615  -157631  -157614  -157577  -157580  -157603  -157609  -157617 
 -157626  -157610  -157593  -157607  -157622  -157612  -157595  -157586 
 -157591  -157598  -157587  -157578  -157588  -157614  -157640  -157636 
 -157609  -157601  -157626  -157642  -157629  -157609  -157598  -157594 
 -157578  -157554  -157560  -157596  -157624  -157630  -157619  -157607 
 -157609  -157621  -157630  -157628  -157611  -157586  -157579  -157590 
 -157593  -157589  -157587  -157590  -157606  -157609  -157593  -157616 
 -157658  -157642  -157599  -157599  -157603  -157585  -157600  -157642 
 -157645  -157592  -157545  -157555  -157585  -157599  -157624  -157658 
 -157648  -157604  -157577  -157591  -157626  -157634  -157606  -157571 
 -157572  -157612  -157613  -157573  -157579  -157620  -157628  -157608 
 -157601  -157607  -157612  -157612  -157609  -157620  -157634  -157615 
 -157590  -157605  -157613  -157581  -157557  -157580  -157633  -157665 
 -157655  -157627  -157597  -157576  -157565  -157565  -157588  -157622 
 -157637  -157636  -157630  -157610  -157579  -157563  -157575  -157596 
 -157618  -157650  -157668  -157638  -157586  -157551  -157544  -157577 
 -157635  -157656  -157631  -157599  -157595  -157608  -157597  -157598 
 -157643  -157665  -157631  -157580  -157554  -157574  -157618  -157643 
 -157633  -157583  -157554  -157582  -157594  -157570  -157564  -157590 
 -157643  -157674  -157644  -157613  -157627  -157638  -157634  -157637 
 -157602  -157547  -157549  -157580  -157599  -157619  -157625  -157611 
 -157587  -157572  -157603  -157646  -157623  -157589  -157616  -157643 
 -157622  -157594  -157588  -157596  -157608  -157619  -157607  -157569 
 -157553  -157588  -157633  -157642  -157613  -157582  -157577  -157590 
 -157615  -157656  -157676  -157640  -157583  -157567  -157589  -157603 
 -157602  -157604  -157604  -157602  -157615  -157635  -157639  -157610 
 -157592  -157614  -157603  -157565  -157574  -157597  -157599  -157592 
 -157574  -157574  -157599  -157604  -157609  -157632  -157634  -157619 
 -157609  -157608  -157620  -157641  -157660  -157657  -157616  -157577 
 -157572  -157575  -157581  -157592  -157578  -157559  -157583  -157629 
 -157642  -157621  -157603  -157601  -157610  -157617  -157607  -157595 
 -157598  -157601  -157606  -157597  -157571  -157580  -157619  -157623 
 -157612  -157622  -157618  -157603  -157630  -157654  -157637  -157614 
 -157595  -157579  -157582  -157594  -157595  -157586  -157575  -157569 
 -157586  -157620  -157633  -157617  -157592  -157579  -157586  -157617 
 -157660  -157673  -157638  -157602  -157601  -157605  -157583  -157570 
 -157582  -157592  -157605  -157614  -157605  -157603  -157624  -157631 
 -157604  -157588  -157601  -157604  -157605  -157622  -157619  -157599 
 -157593  -157592  -157577  -157565  -157583  -157617  -157643  -157656 
 -157645  -157616  -157601  -157599  -157599  -157595  -157581  -157579 
 -157602  -157621  -157616  -157593  -157585  -157615  -157633  -157615 
 -157611  -157635  -157652  -157643  -157616  -157587  -157579  -157596 
 -157607  -157588  -157564  -157564  -157587  -157610  -157606  -157594 
 -157602  -157622  -157647  -157660  -157632  -157597  -157600  -157609 
 -157597  -157584  -157586  -157598  -157600  -157605  -157639  -157652 
 -157601  -157559  -157572  -157590  -157605  -157622  -157614  -157601 
 -157600  -157602  -157607  -157608  -157607  -157610  -157608  -157604 
 -157611  -157625  -157630  -157617  -157604  -157600  -157589  -157582 
 -157592  -157611  -157632  -157640  -157618  -157572  -157554  -157578 
 -157598  -157602  -157601  -157604  -157620  -157635  -157640  -157635 
 -157618  -157606  -157616  -157635  -157636  -157609  -157580  -157574 
 -157586  -157591  -157579  -157560  -157566  -157597  -157615  -157604 
 -157602  -157632  -157662  -157656  -157628  -157603  -157576  -157550 
 -157551  -157575  -157596  -157625  -157654  -157654  -157640  -157622 
 -157595  -157585  -157601  -157617  -157608  -157600  -157617  -157627 
 -157617  -157613  -157619  -157623  -157585  -157531  -157542  -157595 
 -157625  -157628  -157613  -157598  -157586  -157580  -157588  -157595 
 -157606  -157633  -157660  -157662  -157623  -157591  -157609  -157633 
 -157625  -157601  -157591  -157596  -157600  -157599  -157603  -157609 
 -157591  -157567  -157570  -157592  -157626  -157657  -157658  -157634 
 -157600  -157585  -157605  -157621  -157608  -157577  -157552  -157556 
 -157578  -157587  -157582  -157593  -157623  -157632  -157643  -157688 
 -157714  -157688  -157636  -157585  -157566  -157593  -157617  -157596 
 -157554  -157549  -157582  -157601  -157599  -157600  -157592  -157582 
 -157584  -157590  -157593  -157583  -157567  -157591  -157630  -157632 
 -157627  -157642  -157648  -157641  -157621  -157594  -157585  -157585 
 -157606  -157643  -157631  -157595  -157610  -157638  -157632  -157621 
 -157602  -157562  -157543  -157558  -157592  -157611  -157590  -157580 
 -157602  -157610  -157598  -157587  -157599  -157626  -157644  -157656 
 -157655  -157638  -157634  -157623  -157584  -157577  -157621  -157634 
 -157594  -157569  -157581  -157580  -157561  -157568  -157605  -157646 
 -157658  -157636  -157620  -157612  -157577  -157541  -157555  -157584 
 -157570  -157568  -157602  -157606  -157610  -157641  -157647  -157637 
 -157622  -157601  -157619  -157656  -157642  -157596  -157586  -157604 
 -157595  -157572  -157571  -157580  -157593  -157626  -157641  -157609 
 -157599  -157647  -157655  -157591  -157541  -157536  -157554  -157590 
 -157622  -157622  -157613  -157617  -157639  -157663  -157635  -157574 
 -157567  -157605  -157631  -157629  -157605  -157592  -157603  -157609 
 -157609  -157604  -157599  -157610  -157634  -157648  -157619  -157564 
 -157562  -157606  -157619  -157598  -157594  -157617  -157626  -157599 
 -157573  -157561  -157554  -157560  -157586  -157621  -157640  -157632 
 -157632  -157627  -157581  -157559  -157612  -157647  -157599  -157570 
 -157618  -157631  -157579  -157577  -157655  -157704  -157664  -157601 
 -157585  -157605  -157605  -157593  -157619  -157644  -157610  -157568 
 -157564  -157565  -157558  -157584  -157630  -157626  -157582  -157553 
 -157563  -157607  -157637  -157626  -157618  -157628  -157650  -157670 
 -157657  -157622  -157611  -157624  -157613  -157583  -157580  -157606 
 -157613  -157573  -157550  -157584  -157622  -157629  -157613  -157583 
 -157565  -157563  -157574  -157604  -157622  -157615  -157618  -157613 
 -157603  -157616  -157609  -157559  -157535  -157575  -157631  -157652 
 -157657  -157661  -157651  -157640  -157632  -157622  -157638  -157647 
 -157604  -157549  -157531  -157557  -157601  -157604  -157567  -157580 
 -157644  -157651  -157611  -157609  -157627  -157629  -157621  -157589 
 -157557  -157573  -157604  -157596  -157575  -157588  -157622  -157637 
 -157621  -157605  -157601  -157593  -157607  -157664  -157682  -157624 
 -157570  -157558  -157574  -157614  -157643  -157630  -157609  -157610 
 -157619  -157611  -157564  -157501  -157515  -157589  -157604  -157582 
 -157606  -157645  -157644  -157624  -157632  -157643  -157635  -157627 
 -157610  -157594  -157613  -157646  -157644  -157603  -157575  -157585 
 -157592  -157586  -157608  -157655  -157656  -157594  -157554  -157577 
 -157614  -157630  -157614  -157586  -157602  -157634  -157619  -157605 
 -157604  -157569  -157549  -157578  -157589  -157580  -157606  -157641 
 -157641  -157625  -157616  -157608  -157597  -157592  -157596  -157610 
 -157638  -157637  -157606  -157606  -157606  -157573  -157570  -157596 
 -157617  -157638  -157628  -157603  -157611  -157608  -157576  -157580 
 -157611  -157605  -157591  -157618  -157642  -157621  -157591  -157588 
 -157594  -157594  -157614  -157634  -157620  -157621  -157660  -157669 
 -157626  -157589  -157596  -157609  -157593  -157573  -157579  -157592 
 -157593  -157595  -157600  -157603  -157610  -157588  -157540  -157553 
 -157621  -157650  -157624  -157612  -157650  -157678  -157644  -157589 
 -157572  -157597  -157617  -157614  -157630  -157643  -157614  -157579 
 -157575  -157605  -157630  -157623  -157609  -157584  -157556  -157565 
 -157581  -157569  -157571  -157622  -157675  -157656  -157599  -157593 
 -157624  -157635  -157630  -157639  -157646  -157607  -157568  -157600 
 -157669  -157674  -157570  -157491  -157548  -157636  -157651  -157622 
 -157583  -157576  -157615  -157637  -157604  -157572  -157579  -157590 
 -157599  -157623  -157621  -157572  -157550  -157580  -157612  -157640 
 -157658  -157637  -157612  -157622  -157639  -157639  -157636  -157633 
 -157602  -157575  -157596  -157606  -157568  -157540  -157566  -157633 
 -157672  -157668  -157666  -157632  -157582  -157588  -157577  -157524 
 -157555  -157614  -157599  -157586  -157588  -157581  -157622  -157664 
 -157636  -157597  -157617  -157679  -157691  -157628  -157593  -157612 
 -157619  -157620  -157618  -157579  -157538  -157533  -157546  -157581 
 -157609  -157605  -157591  -157581  -157593  -157627  -157657  -157653 
 -157603  -157579  -157625  -157642  -157584  -157549  -157588  -157630 
 -157623  -157613  -157617  -157618  -157630  -157629  -157598  -157579 
 -157579  -157572  -157562  -157556  -157565  -157594  -157606  -157613 
 -157650  -157652  -157604  -157597  -157612  -157602  -157623  -157648 
 -157620  -157596  -157593  -157584  -157591  -157627  -157648  -157628 
 -157602  -157585  -157565  -157566  -157598  -157645  -157670  -157634 
 -157576  -157571  -157601  -157590  -157556  -157581  -157615  -157598 
 -157609  -157627  -157588  -157574  -157595  -157591  -157594  -157630 
 -157636  -157594  -157599  -157664  -157686  -157647  -157622  -157649 
 -157676  -157641  -157587  -157565  -157552  -157554  -157585  -157613 
 -157634  -157638  -157612  -157592  -157598  -157625  -157655  -157639 
 -157601  -157611  -157643  -157623  -157559  -157537  -157603  -157665 
 -157642  -157602  -157610  -157618  -157592  -157589  -157636  -157663 
 -157640  -157640  -157649  -157609  -157593  -157640  -157666  -157644 
 -157622  -157609  -157582  -157542  -157533  -157577  -157616  -157607 
 -157561  -157486  -157422  -157444  -157549  -157634  -157655  -157635 
 -157615  -157634  -157635  -157570  -157522  -157526  -157530  -157546 
 -157570  -157553  -157555  -157668  -157781  -157753  -157681  -157690 
 -157722  -157680  -157602  -157572  -157589  -157611  -157620  -157594 
 -157570  -157579  -157567  -157541  -157578  -157648  -157656  -157602 
 -157576  -157585  -157592  -157629  -157689  -157690  -157615  -157563 
 -157603  -157632  -157571  -157552  -157636  -157675  -157634  -157585 
 -157493  -157397  -157429  -157512  -157523  -157551  -157608  -157619 
 -157642  -157676  -157672  -157689  -157726  -157748  -157797  -157815 
 -157727  -157592  -157478  -157443  -157496  -157550  -157567  -157593 
 -157625  -157608  -157581  -157617  -157673  -157690  -157656  -157568 
 -157494  -157465  -157435  -157455  -157538  -157581  -157592  -157620 
 -157630  -157628  -157629  -157613  -157604  -157623  -157653  -157708 
 -157784  -157818  -157811  -157791  -157743  -157694  -157635  -157519 
 -157418  -157406  -157441  -157480  -157506  -157506  -157522  -157573 
 -157599  -157608  -157643  -157682  -157724  -157732  -157675  -157624 
 -157589  -157562  -157602  -157669  -157718  -157749  -157711  -157610 
 -157512  -157468  -157534  -157655  -157664  -157544  -157432  -157420 
 -157515  -157614  -157629  -157627  -157661  -157686  -157700  -157692 
 -157634  -157575  -157551  -157560  -157581  -157587  -157609  -157623 
 -157557  -157501  -157547  -157603  -157596  -157570  -157585  -157664 
 -157736  -157712  -157644  -157640  -157675  -157659  -157585  -157517 
 -157501  -157519  -157554  -157603  -157657  -157688  -157648  -157595 
 -157614  -157664  -157702  -157764  -157782  -157657  -157529  -157558 
 -157616  -157572  -157478  -157417  -157479  -157647  -157761  -157718 
 -157557  -157398  -157357  -157450  -157607  -157728  -157725  -157626 
 -157552  -157537  -157551  -157610  -157668  -157653  -157655  -157716 
 -157725  -157663  -157565  -157470  -157466  -157519  -157578  -157719 
 -157876  -157873  -157758  -157677  -157621  -157504  -157339  -157241 
 -157305  -157463  -157594  -157700  -157782  -157797  -157782  -157767 
 -157730  -157691  -157641  -157550  -157468  -157450  -157463  -157479 
 -157517  -157603  -157735  -157822  -157762  -157627  -157557  -157567 
 -157571  -157523  -157510  -157599  -157689  -157697  -157657  -157614 
 -157586  -157577  -157567  -157550  -157575  -157632  -157641  -157606 
 -157581  -157594  -157623  -157614  -157565  -157554  -157649  -157782 
 -157802  -157676  -157486  -157323  -157293  -157406  -157513  -157521 
 -157512  -157570  -157676  -157766  -157805  -157810  -157776  -157700 
 -157626  -157574  -157506  -157459  -157510  -157584  -157594  -157601 
 -157636  -157646  -157623  -157603  -157644  -157760  -157843  -157812 
 -157713  -157604  -157547  -157575  -157590  -157565  -157559  -157591 
 -157678  -157724  -157608  -157437  -157362  -157387  -157449  -157519 
 -157587  -157621  -157604  -157606  -157672  -157698  -157628  -157572 
 -157556  -157517  -157522  -157632  -157759  -157797  -157728  -157604 
 -157515  -157513  -157555  -157571  -157588  -157681  -157810  -157861 
 -157806  -157701  -157606  -157567  -157557  -157526  -157509  -157537 
 -157576  -157603  -157604  -157581  -157520  -157433  -157464  -157631 
 -157740  -157739  -157705  -157645  -157604  -157643  -157705  -157694 
 -157611  -157564  -157572  -157537  -157471  -157457  -157507  -157568 
 -157590  -157563  -157498  -157456  -157502  -157630  -157749  -157724 
 -157597  -157562  -157619  -157651  -157667  -157730  -157825  -157871 
 -157822  -157705  -157589  -157555  -157579  -157570  -157538  -157506 
 -157453  -157445  -157513  -157588  -157602  -157521  -157436  -157504 
 -157668  -157732  -157677  -157626  -157633  -157677  -157708  -157715 
 -157716  -157645  -157478  -157387  -157467  -157550  -157514  -157438 
 -157443  -157541  -157626  -157610  -157524  -157504  -157620  -157746 
 -157742  -157657  -157658  -157764  -157781  -157675  -157647  -157704 
 -157681  -157569  -157501  -157548  -157631  -157669  -157672  -157661 
 -157652  -157625  -157529  -157446  -157497  -157604  -157617  -157542 
 -157490  -157536  -157655  -157730  -157688  -157635  -157683  -157735 
 -157688  -157638  -157660  -157648  -157557  -157504  -157525  -157561 
 -157625  -157735  -157829  -157832  -157717  -157580  -157516  -157477 
 -157451  -157462  -157463  -157489  -157559  -157611  -157624  -157597 
 -157570  -157578  -157554  -157515  -157549  -157593  -157589  -157597 
 -157606  -157614  -157705  -157818  -157796  -157657  -157577  -157618 
 -157609  -157478  -157398  -157454  -157583  -157704  -157732  -157690 
 -157675  -157658  -157581  -157507  -157471  -157457  -157483  -157518 
 -157507  -157503  -157557  -157647  -157741  -157795  -157757  -157643 
 -157598  -157682  -157742  -157704  -157660  -157622  -157586  -157626 
 -157689  -157658  -157569  -157482  -157413  -157408  -157460  -157472 
 -157451  -157514  -157628  -157697  -157736  -157728  -157629  -157526 
 -157514  -157582  -157665  -157710  -157737  -157761  -157694  -157558 
 -157525  -157582  -157593  -157588  -157623  -157666  -157667  -157596 
 -157522  -157549  -157643  -157675  -157617  -157568  -157585  -157635 
 -157664  -157677  -157742  -157785  -157696  -157613  -157639  -157670 
 -157640  -157574  -157547  -157557  -157499  -157412  -157436  -157531 
 -157575  -157562  -157574  -157598  -157575  -157573  -157623  -157639 
 -157609  -157581  -157570  -157570  -157598  -157670  -157718  -157668 
 -157604  -157613  -157629  -157592  -157571  -157592  -157578  -157500 
 -157426  -157456  -157574  -157656  -157683  -157721  -157723  -157635 
 -157563  -157571  -157586  -157580  -157565  -157558  -157594  -157609 
 -157580  -157612  -157669  -157632  -157546  -157514  -157533  -157551 
 -157576  -157607  -157599  -157616  -157683  -157692  -157680  -157757 
 -157816  -157725  -157609  -157655  -157792  -157811  -157686  -157566 
 -157536  -157549  -157557  -157562  -157566  -157577  -157601  -157615 
 -157625  -157612  -157558  -157537  -157575  -157597  -157596  -157605 
 -157635  -157669  -157651  -157585  -157555  -157591  -157645  -157669 
 -157655  -157629  -157594  -157533  -157499  -157537  -157567  -157554 
 -157570  -157608  -157617  -157605  -157596  -157605  -157617  -157605 
 -157589  -157574  -157545  -157523  -157531  -157579  -157668  -157740 
 -157704  -157596  -157546  -157547  -157516  -157503  -157575  -157660 
 -157682  -157682  -157695  -157687  -157660  -157667  -157694  -157682 
 -157668  -157673  -157613  -157540  -157551  -157567  -157510  -157439 
 -157429  -157493  -157560  -157590  -157626  -157616  -157495  -157435 
 -157552  -157671  -157673  -157647  -157649  -157643  -157616  -157605 
 -157635  -157670  -157668  -157641  -157611  -157610  -157691  -157765 
 -157701  -157590  -157575  -157616  -157624  -157607  -157631  -157736 
 -157834  -157762  -157577  -157487  -157507  -157530  -157546  -157566 
 -157589  -157623  -157629  -157596  -157567  -157542  -157516  -157531 
 -157592  -157636  -157615  -157563  -157560  -157593  -157567  -157517 
 -157576  -157698  -157733  -157686  -157647  -157603  -157537  -157521 
 -157584  -157646  -157669  -157662  -157593  -157501  -157481  -157535 
 -157605  -157638  -157615  -157558  -157516  -157529  -157568  -157580 
 -157608  -157695  -157764  -157748  -157689  -157624  -157582  -157588 
 -157610  -157636  -157652  -157589  -157478  -157429  -157478  -157577 
 -157619  -157620  -157661  -157672  -157625  -157575  -157531  -157574 
 -157729  -157805  -157733  -157645  -157610  -157595  -157599  -157602 
 -157565  -157550  -157609  -157662  -157652  -157591  -157504  -157460 
 -157514  -157609  -157640  -157623  -157644  -157671  -157641  -157619 
 -157637  -157636  -157610  -157559  -157493  -157489  -157558  -157615 
 -157619  -157611  -157652  -157665  -157587  -157561  -157644  -157693 
 -157662  -157602  -157576  -157636  -157703  -157676  -157612  -157606 
 -157662  -157719  -157701  -157601  -157499  -157474  -157531  -157618 
 -157656  -157627  -157601  -157593  -157575  -157570  -157566  -157572 
 -157633  -157671  -157646  -157613  -157550  -157493  -157522  -157588 
