Origin Time       2015/04/12 14:25:00
Lat.              36.867
Long.             141.060
Depth. (km)       51
Mag.              3.9
Station Code      TCGH09
Station Lat.      36.8625
Station Long.     139.8364
Station Height(m) 564
Record Time       2015/04/12 14:25:50
Sampling Freq(Hz) 100Hz
Duration Time(s)  120
Dir.              4
Scale Factor      3920(gal)/6170801
Max. Acc. (gal)   0.828
Last Correction   2015/04/12 14:25:35
Memo.             
   -6826    -6787    -6777    -6774    -6783    -6830    -6861    -6846 
   -6821    -6808    -6811    -6822    -6816    -6796    -6784    -6801 
   -6848    -6887    -6877    -6816    -6744    -6732    -6784    -6816 
   -6811    -6803    -6806    -6832    -6860    -6850    -6822    -6810 
   -6820    -6832    -6815    -6792    -6793    -6782    -6774    -6802 
   -6822    -6807    -6805    -6857    -6915    -6897    -6815    -6747 
   -6725    -6769    -6871    -6923    -6864    -6754    -6687    -6704 
   -6758    -6826    -6903    -6919    -6862    -6825    -6823    -6814 
   -6792    -6779    -6806    -6841    -6822    -6816    -6837    -6779 
   -6703    -6734    -6802    -6816    -6816    -6842    -6868    -6859 
   -6864    -6939    -6975    -6859    -6713    -6676    -6715    -6737 
   -6750    -6824    -6874    -6816    -6796    -6868    -6893    -6842 
   -6804    -6827    -6876    -6854    -6748    -6686    -6728    -6774 
   -6794    -6868    -6934    -6895    -6834    -6807    -6761    -6741 
   -6789    -6833    -6860    -6890    -6886    -6834    -6730    -6618 
   -6626    -6770    -6907    -6962    -6950    -6881    -6808    -6793 
   -6826    -6855    -6851    -6826    -6770    -6694    -6672    -6728 
   -6805    -6875    -6919    -6903    -6862    -6824    -6756    -6721 
   -6751    -6773    -6797    -6862    -6932    -6948    -6879    -6785 
   -6757    -6764    -6745    -6745    -6810    -6915    -6950    -6873 
   -6792    -6725    -6659    -6670    -6724    -6774    -6867    -6955 
   -6995    -6981    -6864    -6734    -6724    -6765    -6782    -6823 
   -6874    -6847    -6728    -6650    -6715    -6809    -6835    -6895 
   -6980    -6922    -6772    -6720    -6789    -6853    -6834    -6827 
   -6877    -6842    -6744    -6741    -6772    -6734    -6718    -6792 
   -6846    -6832    -6870    -6969    -6977    -6869    -6771    -6728 
   -6726    -6775    -6821    -6818    -6791    -6756    -6721    -6708 
   -6753    -6867    -6953    -6961    -6976    -6964    -6824    -6663 
   -6621    -6694    -6829    -6924    -6900    -6827    -6793    -6781 
   -6740    -6706    -6751    -6847    -6913    -6898    -6826    -6773 
   -6778    -6832    -6931    -6975    -6865    -6715    -6628    -6582 
   -6643    -6805    -6910    -6940    -6976    -6978    -6897    -6792 
   -6739    -6754    -6755    -6709    -6737    -6869    -6930    -6845 
   -6756    -6756    -6773    -6799    -6909    -6990    -6905    -6787 
   -6754    -6706    -6630    -6662    -6804    -6897    -6918    -6978 
   -7014    -6900    -6721    -6619    -6587    -6612    -6756    -6957 
   -7084    -7100    -7019    -6860    -6630    -6435    -6481    -6716 
   -6898    -6999    -7083    -7060    -6874    -6703    -6677    -6693 
   -6713    -6803    -6885    -6850    -6719    -6664    -6810    -6990 
   -6992    -6897    -6831    -6740    -6657    -6708    -6843    -6944 
   -7011    -6989    -6782    -6544    -6515    -6642    -6774    -6932 
   -7095    -7075    -6861    -6677    -6656    -6736    -6814    -6851 
   -6843    -6814    -6852    -6963    -6961    -6769    -6607    -6649 
   -6784    -6849    -6858    -6886    -6886    -6802    -6729    -6744 
   -6774    -6768    -6803    -6919    -7001    -6930    -6773    -6673 
   -6666    -6739    -6864    -6931    -6882    -6797    -6726    -6684 
   -6753    -6932    -7038    -6982    -6866    -6734    -6608    -6608 
   -6758    -6935    -7016    -6940    -6796    -6697    -6635    -6627 
   -6694    -6790    -6934    -7076    -7048    -6876    -6724    -6648 
   -6685    -6820    -6918    -6903    -6873    -6892    -6852    -6729 
   -6670    -6727    -6752    -6682    -6689    -6834    -6938    -6965 
   -7003    -6980    -6822    -6676    -6672    -6762    -6854    -6921 
   -6932    -6827    -6658    -6586    -6657    -6806    -6988    -7122 
   -7060    -6802    -6585    -6547    -6585    -6655    -6806    -6956 
   -7003    -6996    -6961    -6888    -6837    -6807    -6759    -6694 
   -6676    -6774    -6872    -6861    -6838    -6858    -6845    -6818 
   -6831    -6792    -6664    -6625    -6776    -6906    -6860    -6805 
   -6869    -6955    -6967    -6896    -6786    -6681    -6608    -6659 
   -6819    -6897    -6871    -6885    -6920    -6884    -6806    -6741 
   -6712    -6731    -6818    -6933    -6936    -6828    -6781    -6832 
   -6832    -6737    -6681    -6711    -6781    -6866    -6925    -6922 
   -6866    -6796    -6732    -6733    -6834    -6935    -6936    -6864 
   -6778    -6707    -6685    -6688    -6699    -6781    -6888    -6929 
   -6920    -6880    -6805    -6736    -6710    -6739    -6844    -6977 
   -7029    -6961    -6799    -6620    -6531    -6603    -6837    -7076 
   -7110    -6939    -6751    -6680    -6671    -6667    -6733    -6847 
   -6868    -6809    -6828    -6924    -6944    -6873    -6819    -6802 
   -6809    -6848    -6858    -6781    -6713    -6731    -6716    -6641 
   -6674    -6815    -6915    -6954    -6976    -6978    -6933    -6819 
   -6694    -6653    -6706    -6776    -6828    -6905    -6948    -6826 
   -6656    -6645    -6767    -6891    -6970    -7021    -7023    -6907 
   -6732    -6654    -6647    -6642    -6699    -6802    -6863    -6857 
   -6816    -6825    -6875    -6864    -6823    -6825    -6829    -6793 
   -6735    -6722    -6810    -6924    -6931    -6838    -6762    -6768 
   -6833    -6920    -7013    -7022    -6839    -6570    -6464    -6591 
   -6804    -6935    -6959    -6946    -6902    -6807    -6708    -6654 
   -6690    -6794    -6844    -6821    -6791    -6758    -6783    -6902 
   -6987    -6976    -6929    -6851    -6744    -6699    -6758    -6822 
   -6771    -6685    -6727    -6841    -6883    -6906    -7014    -7081 
   -6925    -6681    -6580    -6569    -6540    -6585    -6796    -7078 
   -7215    -7099    -6846    -6661    -6626    -6682    -6762    -6819 
   -6828    -6811    -6803    -6811    -6846    -6913    -6978    -6962 
   -6821    -6649    -6586    -6658    -6786    -6894    -6963    -6941 
   -6822    -6754    -6766    -6725    -6689    -6767    -6871    -6912 
   -6899    -6874    -6886    -6917    -6935    -6911    -6783    -6607 
   -6524    -6543    -6668    -6902    -7080    -7074    -6973    -6871 
   -6749    -6634    -6603    -6684    -6808    -6857    -6844    -6845 
   -6834    -6841    -6952    -7082    -7048    -6804    -6553    -6544 
   -6731    -6871    -6880    -6859    -6856    -6759    -6579    -6561 
   -6739    -6933    -7096    -7160    -7023    -6794    -6646    -6635 
   -6718    -6786    -6779    -6750    -6746    -6770    -6808    -6834 
   -6894    -7001    -7031    -6902    -6713    -6652    -6765    -6908 
   -6942    -6844    -6689    -6584    -6587    -6682    -6822    -6945 
   -6965    -6880    -6803    -6789    -6803    -6858    -6950    -7004 
   -6993    -6891    -6702    -6581    -6647    -6773    -6810    -6798 
   -6834    -6915    -6967    -6899    -6755    -6728    -6826    -6862 
   -6811    -6728    -6602    -6534    -6646    -6807    -6891    -6994 
   -7117    -7064    -6842    -6704    -6709    -6746    -6821    -6891 
   -6853    -6769    -6728    -6732    -6769    -6816    -6869    -6978 
   -7075    -6977    -6756    -6622    -6553    -6542    -6710    -6942 
   -7034    -6997    -6898    -6749    -6609    -6640    -6889    -7072 
   -6986    -6732    -6509    -6531    -6735    -6901    -7055    -7102 
   -6941    -6788    -6703    -6670    -6804    -6984    -7017    -6885 
   -6710    -6666    -6694    -6734    -6880    -6973    -6876    -6703 
   -6584    -6643    -6755    -6784    -6887    -7001    -6984    -6922 
   -6846    -6784    -6778    -6793    -6771    -6702    -6691    -6752 
   -6751    -6715    -6781    -6911    -6993    -7055    -7098    -7002 
   -6759    -6517    -6461    -6640    -6869    -6996    -6999    -6881 
   -6743    -6680    -6691    -6744    -6817    -6897    -6922    -6883 
   -6893    -6939    -6867    -6721    -6685    -6719    -6679    -6641 
   -6747    -6934    -7021    -6982    -6982    -7039    -6965    -6731 
   -6535    -6521    -6627    -6736    -6814    -6829    -6837    -6923 
   -7001    -7005    -6927    -6725    -6517    -6506    -6688    -6915 
   -7033    -7001    -6944    -6900    -6749    -6557    -6572    -6816 
   -6983    -6888    -6762    -6802    -6866    -6870    -6917    -6967 
   -6873    -6687    -6604    -6676    -6746    -6735    -6775    -6937 
   -7071    -7055    -6972    -6918    -6847    -6754    -6704    -6653 
   -6546    -6465    -6551    -6811    -7084    -7184    -7058    -6845 
   -6680    -6579    -6589    -6772    -7036    -7160    -7042    -6836 
   -6700    -6603    -6558    -6678    -6888    -6973    -6906    -6834 
   -6784    -6709    -6741    -6950    -7063    -6930    -6755    -6646 
   -6549    -6539    -6686    -6903    -7098    -7186    -7063    -6806 
   -6624    -6584    -6590    -6608    -6730    -6916    -6994    -6973 
   -6981    -7003    -6936    -6810    -6763    -6803    -6746    -6542 
   -6456    -6633    -6868    -7004    -7056    -7039    -7011    -6969 
   -6823    -6620    -6497    -6511    -6665    -6890    -7038    -7006 
   -6878    -6782    -6708    -6712    -6842    -6909    -6850    -6819 
   -6800    -6744    -6745    -6800    -6813    -6795    -6831    -6915 
   -6925    -6833    -6734    -6722    -6828    -6901    -6775    -6620 
   -6665    -6825    -6932    -6964    -6976    -7006    -6968    -6797 
   -6661    -6648    -6636    -6620    -6714    -6903    -7018    -6956 
   -6859    -6887    -6946    -6889    -6765    -6676    -6628    -6641 
   -6748    -6890    -6987    -7009    -6949    -6822    -6695    -6600 
   -6496    -6466    -6660    -6981    -7174    -7155    -7011    -6863 
   -6777    -6728    -6701    -6707    -6734    -6755    -6759    -6802 
   -6888    -6941    -6972    -6942    -6780    -6652    -6669    -6684 
   -6681    -6760    -6893    -7021    -7086    -7005    -6786    -6533 
   -6412    -6537    -6798    -7022    -7108    -7032    -6921    -6860 
   -6776    -6718    -6795    -6920    -6958    -6893    -6743    -6563 
   -6489    -6652    -6951    -7058    -6898    -6753    -6733    -6723 
   -6760    -6914    -7043    -7026    -6936    -6826    -6644    -6486 
   -6551    -6786    -6961    -6958    -6821    -6754    -6856    -6958 
   -7001    -7050    -6989    -6742    -6485    -6431    -6561    -6669 
   -6710    -6862    -7090    -7142    -7011    -6867    -6748    -6675 
   -6733    -6820    -6759    -6627    -6607    -6702    -6817    -6912 
   -6978    -6979    -6931    -6873    -6788    -6730    -6749    -6821 
   -6911    -6922    -6823    -6743    -6736    -6749    -6774    -6883 
   -7057    -7097    -6899    -6629    -6486    -6543    -6720    -6868 
   -6971    -7036    -6995    -6887    -6795    -6750    -6792    -6828 
   -6726    -6627    -6698    -6802    -6725    -6571    -6606    -6744 
   -6736    -6749    -6965    -7088    -6950    -6819    -6774    -6676 
   -6623    -6800    -7081    -7194    -7104    -7017    -7020    -6992 
   -6887    -6756    -6623    -6551    -6576    -6659    -6768    -6870 
   -6958    -7069    -7134    -6999    -6688    -6418    -6292    -6301 
   -6527    -6908    -7151    -7214    -7271    -7232    -6955    -6619 
   -6429    -6358    -6351    -6444    -6634    -6810    -6897    -6977 
   -7095    -7146    -7131    -7129    -7001    -6687    -6438    -6418 
   -6576    -6853    -7124    -7187    -7023    -6839    -6779    -6815 
   -6894    -6982    -6983    -6803    -6515    -6349    -6470    -6793 
   -7034    -7042    -6978    -6941    -6844    -6767    -6794    -6782 
   -6703    -6695    -6738    -6714    -6640    -6599    -6651    -6800 
   -6938    -7038    -7151    -7121    -6866    -6652    -6618    -6667 
   -6870    -7230    -7364    -7021    -6417    -5889    -5733    -6140 
   -6888    -7420    -7459    -7195    -6901    -6755    -6795    -6868 
   -6882    -6817    -6649    -6542    -6625    -6788    -7030    -7363 
   -7554    -7497    -7228    -6731    -6196    -5921    -5973    -6324 
   -6914    -7501    -7776    -7578    -7020    -6417    -6030    -5947 
   -6197    -6692    -7107    -7158    -6947    -6804    -6875    -7029 
   -7098    -7008    -6716    -6341    -6195    -6347    -6601    -6954 
   -7414    -7655    -7442    -7038    -6792    -6705    -6666    -6669 
   -6680    -6589    -6483    -6610    -6913    -7070    -7077    -7131 
   -7082    -6736    -6359    -6268    -6427    -6670    -6933    -7152 
   -7122    -6791    -6445    -6319    -6404    -6646    -6976    -7239 
   -7287    -7093    -6754    -6487    -6566    -7071    -7649    -7824 
   -7463    -6733    -6026    -5804    -6185    -6843    -7329    -7399 
   -7140    -6810    -6520    -6240    -6081    -6212    -6619    -7095 
   -7429    -7562    -7431    -7079    -6780    -6621    -6523    -6518 
   -6611    -6701    -6717    -6686    -6606    -6468    -6477    -6782 
   -7164    -7310    -7111    -6749    -6535    -6609    -6845    -7052 
   -7101    -6902    -6607    -6530    -6692    -6944    -7223    -7422 
   -7367    -7059    -6803    -6802    -6785    -6525    -6297    -6405 
   -6729    -6949    -6953    -6864    -6729    -6567    -6540    -6700 
   -6854    -6853    -6748    -6693    -6737    -6737    -6701    -6851 
   -7113    -7182    -7011    -6786    -6649    -6544    -6415    -6391 
   -6507    -6642    -6837    -7117    -7321    -7518    -7904    -8118 
   -7602    -6576    -5861    -5807    -6027    -6196    -6491    -6996 
   -7391    -7450    -7226    -6824    -6387    -6101    -6072    -6224 
   -6378    -6544    -6855    -7250    -7514    -7540    -7367    -7121 
   -6972    -6915    -6713    -6388    -6341    -6686    -7027    -7123 
   -7085    -6975    -6767    -6527    -6442    -6706    -7190    -7424 
   -7156    -6702    -6431    -6251    -5997    -5849    -6126    -6810 
   -7437    -7686    -7744    -7772    -7574    -7044    -6452    -6167 
   -6287    -6517    -6466    -6217    -6278    -6816    -7392    -7575 
   -7317    -6807    -6439    -6549    -6917    -7029    -6827    -6633 
   -6566    -6607    -6749    -6815    -6728    -6726    -6943    -7200 
   -7256    -7073    -6826    -6644    -6538    -6607    -6822    -6865 
   -6640    -6471    -6635    -7025    -7306    -7297    -7087    -6826 
   -6645    -6615    -6637    -6566    -6481    -6573    -6850    -7195 
   -7416    -7254    -6751    -6387    -6402    -6514    -6522    -6499 
   -6521    -6681    -7012    -7290    -7283    -7122    -7060    -7058 
   -6967    -6766    -6481    -6243    -6302    -6736    -7308    -7636 
   -7509    -7110    -6799    -6671    -6521    -6292    -6156    -6107 
   -6159    -6590    -7303    -7757    -7680    -7187    -6553    -6159 
   -6203    -6487    -6704    -6816    -6956    -7111    -7168    -7109 
   -7004    -6885    -6682    -6510    -6744    -7276    -7482    -7196 
   -6778    -6464    -6321    -6395    -6632    -6814    -6704    -6469 
   -6613    -7117    -7394    -7270    -7083    -6962    -6711    -6349 
   -6227    -6387    -6505    -6631    -7032    -7489    -7576    -7239 
   -6720    -6281    -6096    -6254    -6645    -6980    -7063    -6906 
   -6680    -6587    -6573    -6568    -6748    -7107    -7463    -7720 
   -7702    -7361    -6942    -6631    -6529    -6634    -6734    -6671 
   -6519    -6462    -6511    -6463    -6452    -6770    -7138    -7185 
   -7035    -6855    -6652    -6510    -6520    -6661    -6800    -6815 
   -6806    -6891    -6960    -6928    -6804    -6590    -6376    -6365 
   -6796    -7464    -7657    -7192    -6666    -6516    -6718    -7081 
   -7381    -7434    -7165    -6682    -6261    -6102    -6201    -6493 
   -6867    -7105    -7094    -6990    -6932    -6839    -6681    -6684 
   -6930    -7099    -6953    -6605    -6273    -6176    -6353    -6620 
   -6935    -7280    -7488    -7516    -7372    -7012    -6614    -6444 
   -6517    -6564    -6369    -6167    -6322    -6807    -7377    -7749 
   -7709    -7292    -6664    -6093    -5896    -6145    -6668    -7180 
   -7448    -7445    -7217    -6845    -6546    -6482    -6637    -6913 
   -7072    -6903    -6568    -6336    -6295    -6557    -7077    -7437 
   -7362    -6941    -6337    -5895    -6016    -6563    -7107    -7453 
   -7431    -6999    -6640    -6733    -7017    -7194    -7293    -7259 
   -6965    -6547    -6186    -5995    -6174    -6692    -7149    -7239 
   -6977    -6676    -6630    -6755    -6911    -7090    -7174    -7093 
   -6948    -6815    -6737    -6709    -6657    -6603    -6644    -6852 
   -7141    -7215    -7017    -6851    -6799    -6742    -6717    -6716 
   -6659    -6632    -6721    -6766    -6626    -6472    -6505    -6651 
   -6792    -6895    -6917    -6924    -7009    -7040    -6905    -6726 
   -6633    -6654    -6746    -6863    -6991    -7027    -6903    -6832 
   -6979    -7119    -7016    -6783    -6631    -6586    -6559    -6611 
   -6838    -7059    -7050    -6891    -6737    -6647    -6669    -6792 
   -6948    -7081    -7124    -6995    -6644    -6260    -6177    -6438 
   -6829    -7143    -7244    -7122    -6846    -6580    -6566    -6755 
   -6851    -6811    -6752    -6656    -6629    -6876    -7226    -7259 
   -6941    -6679    -6676    -6718    -6681    -6674    -6702    -6705 
   -6741    -6918    -7240    -7508    -7519    -7294    -6935    -6571 
   -6359    -6228    -6081    -6114    -6491    -7055    -7457    -7446 
   -7157    -6902    -6719    -6491    -6315    -6330    -6479    -6699 
   -6997    -7239    -7260    -7160    -7090    -6960    -6778    -6741 
   -6808    -6730    -6514    -6454    -6655    -6932    -7154    -7270 
   -7176    -6854    -6433    -6102    -6092    -6491    -6984    -7139 
   -6902    -6612    -6618    -6871    -7039    -7043    -7010    -6882 
   -6629    -6510    -6696    -6936    -6979    -6977    -7094    -7147 
   -6949    -6610    -6442    -6646    -6998    -7147    -7091    -6994 
   -6855    -6667    -6592    -6711    -6823    -6756    -6630    -6620 
   -6720    -6853    -6988    -7130    -7225    -7118    -6789    -6499 
   -6429    -6484    -6636    -6957    -7258    -7241    -6914    -6529 
   -6292    -6282    -6498    -6797    -6912    -6822    -6787    -6863 
   -6916    -6978    -7109    -7209    -7147    -6875    -6463    -6123 
   -6144    -6620    -7236    -7582    -7524    -7149    -6671    -6370 
   -6420    -6673    -6799    -6762    -6783    -6905    -6985    -6923 
   -6748    -6632    -6734    -6941    -6988    -6858    -6754    -6731 
   -6674    -6625    -6722    -6861    -6879    -6838    -6853    -6902 
   -6894    -6803    -6730    -6772    -6881    -6937    -6865    -6675 
   -6558    -6675    -6807    -6719    -6607    -6737    -6967    -6994 
   -6857    -6795    -6822    -6850    -6935    -7024    -6936    -6778 
   -6819    -6957    -6885    -6677    -6635    -6731    -6796    -6887 
   -7004    -7015    -6954    -6893    -6846    -6872    -6900    -6797 
   -6681    -6726    -6867    -6913    -6774    -6578    -6523    -6647 
   -6823    -6855    -6669    -6537    -6737    -7083    -7255    -7148 
   -6818    -6493    -6378    -6478    -6684    -6878    -7061    -7172 
   -6969    -6530    -6302    -6453    -6827    -7266    -7512    -7262 
   -6680    -6306    -6365    -6605    -6791    -6984    -7233    -7322 
   -7076    -6679    -6446    -6482    -6677    -6924    -7171    -7277 
