Origin Time       2015/04/12 14:25:00
Lat.              36.867
Long.             141.060
Depth. (km)       51
Mag.              3.9
Station Code      TCGH09
Station Lat.      36.8625
Station Long.     139.8364
Station Height(m) 461
Record Time       2015/04/12 14:25:50
Sampling Freq(Hz) 100Hz
Duration Time(s)  120
Dir.              3
Scale Factor      2940(gal)/6170270
Max. Acc. (gal)   0.156
Last Correction   2015/04/12 14:25:35
Memo.             
  -94276   -94278   -94283   -94296   -94306   -94301   -94305   -94321 
  -94324   -94310   -94292   -94283   -94281   -94274   -94268   -94266 
  -94259   -94262   -94275   -94274   -94285   -94320   -94342   -94335 
  -94312   -94293   -94293   -94301   -94313   -94329   -94325   -94300 
  -94278   -94266   -94261   -94266   -94276   -94271   -94254   -94256 
  -94281   -94304   -94309   -94306   -94314   -94327   -94334   -94345 
  -94341   -94302   -94272   -94274   -94273   -94260   -94246   -94244 
  -94270   -94300   -94308   -94315   -94320   -94303   -94295   -94298 
  -94276   -94243   -94242   -94265   -94289   -94312   -94335   -94339 
  -94327   -94324   -94318   -94294   -94273   -94267   -94261   -94248 
  -94235   -94252   -94300   -94338   -94350   -94340   -94316   -94300 
  -94308   -94307   -94280   -94273   -94288   -94284   -94267   -94257 
  -94243   -94230   -94250   -94310   -94368   -94382   -94367   -94359 
  -94351   -94308   -94259   -94245   -94244   -94235   -94227   -94228 
  -94252   -94285   -94298   -94301   -94306   -94312   -94330   -94347 
  -94340   -94324   -94313   -94303   -94278   -94242   -94230   -94258 
  -94278   -94260   -94253   -94282   -94294   -94286   -94304   -94342 
  -94366   -94364   -94353   -94334   -94293   -94254   -94242   -94235 
  -94214   -94207   -94250   -94316   -94344   -94325   -94314   -94333 
  -94348   -94348   -94329   -94280   -94225   -94209   -94237   -94264 
  -94284   -94315   -94339   -94335   -94317   -94287   -94265   -94281 
  -94303   -94326   -94370   -94376   -94314   -94251   -94228   -94220 
  -94224   -94273   -94335   -94337   -94283   -94246   -94261   -94286 
  -94303   -94326   -94317   -94269   -94253   -94286   -94321   -94344 
  -94350   -94320   -94279   -94282   -94292   -94265   -94263   -94286 
  -94259   -94228   -94256   -94306   -94341   -94350   -94332   -94309 
  -94273   -94245   -94281   -94341   -94344   -94294   -94239   -94219 
  -94266   -94342   -94370   -94341   -94305   -94302   -94314   -94297 
  -94263   -94238   -94227   -94240   -94269   -94289   -94305   -94329 
  -94341   -94328   -94322   -94314   -94275   -94246   -94250   -94249 
  -94257   -94291   -94318   -94335   -94353   -94350   -94316   -94294 
  -94275   -94216   -94175   -94206   -94274   -94343   -94370   -94334 
  -94296   -94294   -94309   -94328   -94329   -94293   -94260   -94253 
  -94261   -94281   -94290   -94286   -94302   -94318   -94299   -94271 
  -94260   -94278   -94319   -94336   -94327   -94315   -94278   -94238 
  -94259   -94324   -94361   -94345   -94303   -94249   -94192   -94196 
  -94273   -94335   -94348   -94333   -94300   -94272   -94274   -94297 
  -94313   -94303   -94268   -94243   -94272   -94321   -94331   -94309 
  -94278   -94246   -94239   -94277   -94319   -94336   -94354   -94363 
  -94328   -94283   -94270   -94260   -94234   -94231   -94265   -94309 
  -94353   -94367   -94319   -94264   -94255   -94271   -94294   -94317 
  -94314   -94291   -94277   -94268   -94257   -94269   -94299   -94292 
  -94252   -94241   -94273   -94330   -94390   -94396   -94344   -94289 
  -94251   -94240   -94262   -94293   -94317   -94308   -94262   -94241 
  -94263   -94272   -94268   -94281   -94291   -94294   -94332   -94377 
  -94371   -94333   -94290   -94258   -94252   -94257   -94277   -94299 
  -94261   -94214   -94232   -94249   -94253   -94297   -94344   -94376 
  -94390   -94351   -94320   -94332   -94322   -94293   -94265   -94236 
  -94222   -94218   -94229   -94268   -94297   -94300   -94321   -94347 
  -94339   -94315   -94305   -94311   -94322   -94316   -94300   -94289 
  -94269   -94254   -94273   -94284   -94266   -94276   -94306   -94306 
  -94297   -94300   -94300   -94303   -94333   -94354   -94315   -94261 
  -94243   -94234   -94236   -94251   -94251   -94267   -94304   -94331 
  -94358   -94346   -94289   -94283   -94327   -94325   -94280   -94252 
  -94234   -94221   -94248   -94304   -94322   -94295   -94290   -94317 
  -94328   -94312   -94303   -94314   -94321   -94306   -94284   -94265 
  -94244   -94240   -94278   -94325   -94333   -94331   -94332   -94304 
  -94285   -94298   -94288   -94262   -94262   -94271   -94272   -94288 
  -94324   -94346   -94334   -94318   -94308   -94274   -94243   -94252 
  -94286   -94313   -94306   -94281   -94271   -94264   -94280   -94334 
  -94354   -94335   -94340   -94343   -94304   -94247   -94199   -94182 
  -94211   -94250   -94267   -94273   -94284   -94288   -94287   -94302 
  -94319   -94326   -94351   -94374   -94357   -94332   -94324   -94306 
  -94263   -94228   -94226   -94227   -94246   -94302   -94332   -94321 
  -94326   -94331   -94315   -94325   -94352   -94361   -94345   -94302 
  -94253   -94211   -94183   -94199   -94234   -94236   -94246   -94318 
  -94387   -94382   -94360   -94369   -94354   -94316   -94318   -94325 
  -94283   -94228   -94199   -94197   -94214   -94250   -94286   -94313 
  -94334   -94323   -94292   -94295   -94313   -94303   -94288   -94277 
  -94252   -94241   -94271   -94312   -94342   -94374   -94384   -94344 
  -94286   -94238   -94208   -94224   -94292   -94354   -94353   -94310 
  -94288   -94288   -94271   -94267   -94299   -94312   -94296   -94280 
  -94272   -94288   -94305   -94288   -94277   -94308   -94317   -94272 
  -94250   -94274   -94276   -94265   -94279   -94281   -94263   -94275 
  -94293   -94287   -94290   -94312   -94329   -94340   -94338   -94300 
  -94255   -94271   -94324   -94339   -94318   -94317   -94324   -94300 
  -94296   -94334   -94334   -94279   -94240   -94223   -94203   -94204 
  -94251   -94313   -94362   -94387   -94362   -94299   -94267   -94287 
  -94308   -94308   -94297   -94260   -94206   -94191   -94238   -94322 
  -94391   -94395   -94342   -94288   -94266   -94257   -94257   -94289 
  -94314   -94287   -94247   -94225   -94234   -94289   -94342   -94347 
  -94325   -94291   -94264   -94272   -94284   -94262   -94257   -94301 
  -94343   -94352   -94334   -94300   -94275   -94285   -94321   -94347 
  -94338   -94301   -94270   -94271   -94291   -94309   -94314   -94283 
  -94240   -94234   -94234   -94209   -94225   -94312   -94404   -94425 
  -94360   -94288   -94274   -94294   -94325   -94346   -94306   -94211 
  -94155   -94194   -94269   -94309   -94319   -94330   -94359   -94380 
  -94356   -94327   -94318   -94279   -94221   -94201   -94201   -94214 
  -94285   -94365   -94376   -94347   -94325   -94318   -94321   -94304 
  -94257   -94228   -94243   -94279   -94297   -94283   -94266   -94261 
  -94270   -94295   -94310   -94305   -94312   -94324   -94317   -94301 
  -94276   -94249   -94246   -94247   -94248   -94287   -94316   -94305 
  -94317   -94327   -94317   -94342   -94354   -94316   -94290   -94285 
  -94272   -94268   -94292   -94322   -94316   -94253   -94181   -94186 
  -94274   -94346   -94374   -94404   -94400   -94333   -94260   -94207 
  -94174   -94212   -94311   -94351   -94286   -94220   -94237   -94287 
  -94326   -94355   -94352   -94327   -94331   -94328   -94286   -94274 
  -94307   -94325   -94291   -94219   -94181   -94222   -94289   -94311 
  -94284   -94263   -94293   -94347   -94374   -94361   -94319   -94280 
  -94291   -94336   -94333   -94254   -94197   -94225   -94280   -94302 
  -94299   -94283   -94279   -94333   -94411   -94407   -94317   -94251 
  -94266   -94286   -94252   -94213   -94208   -94210   -94234   -94301 
  -94343   -94317   -94282   -94298   -94326   -94315   -94311   -94355 
  -94366   -94304   -94253   -94247   -94252   -94273   -94301   -94305 
  -94310   -94324   -94292   -94238   -94241   -94292   -94334   -94346 
  -94319   -94271   -94232   -94225   -94262   -94322   -94343   -94310 
  -94275   -94256   -94268   -94321   -94352   -94320   -94274   -94271 
  -94303   -94319   -94306   -94300   -94298   -94265   -94253   -94285 
  -94277   -94251   -94301   -94367   -94359   -94304   -94270   -94287 
  -94312   -94311   -94316   -94329   -94321   -94292   -94260   -94251 
  -94266   -94286   -94301   -94304   -94287   -94239   -94189   -94193 
  -94237   -94276   -94290   -94277   -94277   -94325   -94375   -94384 
  -94358   -94316   -94276   -94235   -94218   -94255   -94277   -94250 
  -94276   -94356   -94370   -94311   -94274   -94292   -94314   -94303 
  -94280   -94281   -94307   -94318   -94311   -94317   -94340   -94362 
  -94370   -94356   -94326   -94295   -94255   -94219   -94221   -94230 
  -94213   -94212   -94253   -94309   -94360   -94396   -94398   -94354 
  -94281   -94235   -94251   -94279   -94257   -94235   -94281   -94321 
  -94286   -94253   -94257   -94255   -94284   -94347   -94349   -94317 
  -94338   -94363   -94331   -94269   -94215   -94198   -94220   -94266 
  -94326   -94342   -94299   -94283   -94312   -94314   -94281   -94269 
  -94291   -94304   -94304   -94318   -94311   -94277   -94288   -94323 
  -94314   -94295   -94297   -94296   -94284   -94259   -94242   -94256 
  -94271   -94293   -94329   -94321   -94293   -94309   -94326   -94309 
  -94285   -94254   -94215   -94212   -94257   -94295   -94304   -94322 
  -94344   -94341   -94317   -94285   -94266   -94275   -94304   -94322 
  -94303   -94263   -94236   -94238   -94269   -94324   -94377   -94378 
  -94320   -94286   -94298   -94282   -94244   -94233   -94266   -94329 
  -94336   -94290   -94302   -94347   -94332   -94268   -94217   -94225 
  -94260   -94274   -94286   -94321   -94349   -94334   -94310   -94324 
  -94333   -94308   -94289   -94282   -94268   -94245   -94220   -94230 
  -94291   -94340   -94322   -94277   -94285   -94328   -94321   -94279 
  -94266   -94268   -94254   -94255   -94294   -94320   -94292   -94253 
  -94253   -94277   -94285   -94279   -94287   -94323   -94358   -94350 
  -94320   -94274   -94224   -94241   -94298   -94311   -94284   -94243 
  -94239   -94289   -94314   -94298   -94299   -94329   -94364   -94369 
  -94344   -94336   -94328   -94305   -94301   -94290   -94255   -94245 
  -94264   -94284   -94307   -94357   -94413   -94385   -94283   -94224 
  -94233   -94259   -94268   -94259   -94257   -94251   -94237   -94266 
  -94318   -94334   -94362   -94421   -94416   -94336   -94246   -94186 
  -94190   -94236   -94256   -94256   -94255   -94248   -94256   -94297 
  -94371   -94409   -94360   -94292   -94247   -94191   -94165   -94188 
  -94218   -94287   -94399   -94435   -94367   -94312   -94312   -94316 
  -94310   -94290   -94263   -94245   -94244   -94258   -94266   -94272 
  -94305   -94350   -94390   -94389   -94318   -94269   -94274   -94273 
  -94287   -94289   -94224   -94200   -94245   -94270   -94304   -94357 
  -94366   -94357   -94334   -94263   -94216   -94245   -94278   -94285 
  -94309   -94310   -94259   -94241   -94282   -94328   -94342   -94299 
  -94250   -94252   -94256   -94283   -94369   -94377   -94285   -94257 
  -94313   -94340   -94306   -94261   -94255   -94285   -94290   -94275 
  -94294   -94327   -94355   -94380   -94350   -94273   -94227   -94232 
  -94256   -94280   -94286   -94280   -94312   -94364   -94359   -94332 
  -94307   -94234   -94197   -94241   -94231   -94184   -94208   -94239 
  -94228   -94249   -94307   -94353   -94382   -94385   -94366   -94342 
  -94328   -94336   -94320   -94254   -94215   -94232   -94240   -94235 
  -94285   -94376   -94405   -94356   -94281   -94190   -94161   -94249 
  -94353   -94401   -94398   -94360   -94338   -94311   -94253   -94244 
  -94267   -94228   -94209   -94294   -94414   -94516   -94525   -94389 
  -94218   -94115   -94085   -94138   -94262   -94379   -94432   -94408 
  -94316   -94241   -94249   -94291   -94342   -94362   -94276   -94191 
  -94202   -94176   -94123   -94178   -94247   -94256   -94271   -94272 
  -94265   -94314   -94359   -94323   -94274   -94290   -94327   -94333 
  -94321   -94308   -94303   -94268   -94194   -94186   -94266   -94345 
  -94402   -94439   -94400   -94318   -94321   -94406   -94454   -94418 
  -94316   -94210   -94189   -94228   -94240   -94236   -94251   -94253 
  -94217   -94213   -94286   -94348   -94330   -94281   -94281   -94349 
  -94399   -94384   -94366   -94317   -94202   -94144   -94192   -94236 
  -94225   -94226   -94292   -94352   -94356   -94383   -94429   -94396 
  -94310   -94248   -94231   -94231   -94212   -94213   -94267   -94292 
  -94261   -94282   -94334   -94291   -94235   -94281   -94330   -94296 
  -94274   -94315   -94336   -94359   -94434   -94434   -94319   -94258 
  -94278   -94285   -94270   -94231   -94181   -94166   -94175   -94220 
  -94347   -94473   -94481   -94397   -94299   -94222   -94168   -94150 
  -94176   -94181   -94172   -94268   -94409   -94408   -94303   -94260 
  -94292   -94332   -94384   -94394   -94260   -94121   -94166   -94287 
  -94355   -94403   -94428   -94382   -94304   -94271   -94284   -94284 
  -94274   -94307   -94364   -94388   -94369   -94322   -94262   -94174 
  -94079   -94077   -94172   -94254   -94325   -94427   -94438   -94326 
  -94283   -94325   -94315   -94300   -94329   -94353   -94378   -94377 
  -94302   -94191   -94065   -93966   -94008   -94179   -94329   -94377 
  -94370   -94355   -94335   -94339   -94374   -94397   -94413   -94429 
  -94384   -94309   -94315   -94372   -94380   -94338   -94281   -94237 
  -94246   -94303   -94343   -94337   -94370   -94461   -94478   -94391 
  -94293   -94224   -94170   -94127   -94147   -94230   -94233   -94110 
  -94035   -94102   -94220   -94312   -94378   -94434   -94470   -94442 
  -94371   -94334   -94319   -94277   -94220   -94179   -94176   -94210 
  -94260   -94318   -94371   -94410   -94397   -94326   -94292   -94304 
  -94285   -94286   -94336   -94329   -94237   -94144   -94115   -94166 
  -94250   -94304   -94322   -94355   -94373   -94315   -94231   -94158 
  -94089   -94125   -94300   -94461   -94485   -94390   -94303   -94275 
  -94271   -94332   -94445   -94501   -94453   -94321   -94190   -94141 
  -94155   -94227   -94358   -94468   -94488   -94454   -94397   -94284 
  -94174   -94155   -94126   -94046   -94107   -94327   -94495   -94518 
  -94455   -94363   -94267   -94196   -94181   -94176   -94131   -94133 
  -94243   -94346   -94378   -94413   -94424   -94350   -94250   -94165 
  -94134   -94207   -94301   -94310   -94264   -94264   -94317   -94341 
  -94329   -94326   -94339   -94327   -94250   -94172   -94181   -94217 
  -94229   -94275   -94348   -94376   -94349   -94309   -94295   -94319 
  -94366   -94396   -94361   -94312   -94306   -94284   -94237   -94237 
  -94284   -94338   -94351   -94317   -94320   -94368   -94389   -94396 
  -94413   -94394   -94304   -94178   -94123   -94175   -94247   -94285 
  -94277   -94257   -94304   -94372   -94370   -94337   -94319   -94313 
  -94321   -94297   -94217   -94133   -94099   -94153   -94296   -94434 
  -94444   -94327   -94192   -94155   -94237   -94330   -94342   -94296 
  -94236   -94222   -94285   -94354   -94353   -94303   -94269   -94259 
  -94250   -94253   -94283   -94335   -94364   -94350   -94349   -94369 
  -94356   -94327   -94297   -94225   -94139   -94120   -94177   -94262 
  -94319   -94355   -94402   -94420   -94393   -94358   -94292   -94201 
  -94172   -94204   -94220   -94232   -94265   -94289   -94294   -94295 
  -94290   -94316   -94388   -94385   -94256   -94183   -94261   -94375 
  -94443   -94433   -94367   -94353   -94403   -94417   -94371   -94320 
  -94288   -94263   -94242   -94227   -94214   -94212   -94247   -94305 
  -94345   -94360   -94379   -94402   -94379   -94297   -94210   -94137 
  -94092   -94134   -94222   -94256   -94206   -94116   -94081   -94135 
  -94222   -94286   -94298   -94296   -94324   -94335   -94346   -94417 
  -94485   -94471   -94386   -94269   -94186   -94187   -94248   -94327 
  -94382   -94371   -94342   -94355   -94359   -94359   -94405   -94426 
  -94391   -94364   -94327   -94237   -94141   -94128   -94223   -94313 
  -94311   -94275   -94251   -94245   -94276   -94339   -94410   -94425 
  -94332   -94196   -94100   -94105   -94215   -94300   -94289   -94287 
  -94340   -94393   -94421   -94416   -94348   -94251   -94208   -94209 
  -94185   -94168   -94227   -94344   -94424   -94389   -94312   -94274 
  -94245   -94239   -94274   -94284   -94295   -94362   -94404   -94381 
  -94347   -94321   -94282   -94234   -94211   -94209   -94217   -94275 
  -94349   -94323   -94251   -94264   -94357   -94460   -94479   -94370 
  -94216   -94113   -94087   -94100   -94100   -94155   -94295   -94373 
  -94342   -94311   -94319   -94329   -94321   -94311   -94313   -94312 
  -94308   -94321   -94344   -94346   -94312   -94277   -94265   -94279 
  -94331   -94368   -94343   -94330   -94368   -94395   -94384   -94347 
  -94291   -94263   -94281   -94292   -94285   -94295   -94344   -94391 
  -94384   -94345   -94322   -94280   -94201   -94184   -94271   -94311 
  -94211   -94096   -94083   -94122   -94155   -94223   -94297   -94282 
  -94234   -94244   -94272   -94291   -94321   -94353   -94378   -94385 
  -94380   -94385   -94366   -94338   -94370   -94420   -94400   -94350 
  -94342   -94325   -94245   -94169   -94184   -94262   -94294   -94269 
  -94254   -94255   -94288   -94357   -94378   -94342   -94306   -94286 
  -94284   -94275   -94234   -94218   -94239   -94238   -94250   -94307 
  -94310   -94243   -94240   -94323   -94357   -94309   -94279   -94304 
  -94319   -94297   -94302   -94323   -94280   -94250   -94311   -94380 
  -94420   -94426   -94397   -94351   -94268   -94212   -94258   -94310 
  -94295   -94251   -94224   -94221   -94203   -94187   -94213   -94228 
  -94229   -94271   -94290   -94257   -94254   -94270   -94264   -94276 
  -94304   -94295   -94246   -94211   -94219   -94243   -94268   -94315 
  -94359   -94346   -94303   -94321   -94397   -94441   -94410   -94350 
  -94334   -94340   -94298   -94260   -94289   -94341   -94382   -94370 
  -94261   -94162   -94177   -94251   -94299   -94307   -94304   -94319 
  -94341   -94332   -94315   -94329   -94342   -94324   -94300   -94277 
  -94257   -94281   -94334   -94350   -94313   -94268   -94254   -94267 
  -94295   -94313   -94276   -94220   -94227   -94291   -94328   -94289 
  -94249   -94269   -94264   -94213   -94222   -94270   -94275   -94258 
  -94242   -94217   -94212   -94241   -94278   -94303   -94318   -94349 
  -94375   -94319   -94226   -94230   -94317   -94354   -94326   -94284 
  -94236   -94239   -94313   -94353   -94335   -94322   -94342   -94365 
  -94330   -94277   -94311   -94399   -94427   -94350   -94246   -94233 
  -94269   -94261   -94257   -94289   -94313   -94306   -94284   -94275 
  -94287   -94288   -94257   -94248   -94319   -94407   -94428   -94419 
  -94397   -94319   -94233   -94249   -94318   -94289   -94200   -94189 
  -94212   -94198   -94220   -94275   -94273   -94263   -94294   -94285 
  -94245   -94265   -94298   -94261   -94222   -94264   -94321   -94320 
  -94300   -94310   -94340   -94352   -94329   -94298   -94284   -94298 
  -94336   -94349   -94309   -94262   -94236   -94246   -94313   -94378 
  -94374   -94328   -94292   -94273   -94281   -94321   -94340   -94317 
  -94305   -94310   -94279   -94226   -94229   -94281   -94277   -94251 
  -94285   -94273   -94193   -94195   -94261   -94282   -94289   -94335 
  -94371   -94364   -94354   -94361   -94363   -94347   -94307   -94256 
  -94223   -94223   -94264   -94311   -94321   -94337   -94377   -94344 
  -94256   -94261   -94329   -94316   -94248   -94222   -94224   -94234 
