Origin Time       2015/04/12 14:25:00
Lat.              36.867
Long.             141.060
Depth. (km)       51
Mag.              3.9
Station Code      TCGH09
Station Lat.      36.8625
Station Long.     139.8364
Station Height(m) 564
Record Time       2015/04/12 14:25:50
Sampling Freq(Hz) 100Hz
Duration Time(s)  120
Dir.              5
Scale Factor      3920(gal)/6170801
Max. Acc. (gal)   0.973
Last Correction   2015/04/12 14:25:35
Memo.             
   -9187    -9174    -9205    -9233    -9206    -9172    -9182    -9194 
   -9195    -9211    -9222    -9207    -9196    -9214    -9212    -9143 
   -9104    -9168    -9237    -9232    -9204    -9191    -9191    -9223 
   -9267    -9259    -9194    -9140    -9120    -9118    -9149    -9221 
   -9272    -9240    -9178    -9176    -9204    -9208    -9228    -9281 
   -9266    -9148    -9070    -9102    -9159    -9206    -9248    -9240 
   -9191    -9179    -9230    -9286    -9271    -9201    -9137    -9091 
   -9086    -9158    -9246    -9263    -9217    -9180    -9181    -9190 
   -9190    -9208    -9249    -9255    -9208    -9165    -9169    -9202 
   -9221    -9207    -9162    -9095    -9069    -9142    -9260    -9324 
   -9298    -9219    -9143    -9103    -9128    -9199    -9252    -9280 
   -9325    -9326    -9223    -9101    -9045    -9086    -9185    -9222 
   -9179    -9155    -9179    -9202    -9199    -9218    -9269    -9267 
   -9197    -9160    -9178    -9193    -9218    -9266    -9282    -9205 
   -9091    -9060    -9099    -9127    -9183    -9270    -9274    -9213 
   -9203    -9241    -9258    -9242    -9218    -9174    -9090    -9054 
   -9141    -9259    -9293    -9244    -9206    -9213    -9165    -9060 
   -9092    -9273    -9361    -9297    -9229    -9181    -9104    -9059 
   -9137    -9287    -9328    -9225    -9137    -9126    -9124    -9141 
   -9212    -9269    -9215    -9130    -9166    -9251    -9242    -9207 
   -9226    -9243    -9199    -9156    -9187    -9202    -9144    -9147 
   -9227    -9259    -9230    -9176    -9105    -9074    -9107    -9171 
   -9258    -9351    -9381    -9333    -9250    -9128    -8980    -8951 
   -9121    -9281    -9268    -9240    -9311    -9315    -9160    -9024 
   -9063    -9192    -9290    -9369    -9386    -9225    -8996    -8944 
   -9091    -9278    -9379    -9337    -9199    -9080    -9008    -8995 
   -9123    -9357    -9498    -9424    -9234    -9089    -9036    -9054 
   -9115    -9181    -9223    -9231    -9243    -9266    -9263    -9243 
   -9207    -9147    -9129    -9170    -9172    -9138    -9171    -9241 
   -9264    -9254    -9234    -9172    -9082    -9083    -9235    -9399 
   -9419    -9308    -9138    -8957    -8851    -8896    -9095    -9371 
   -9545    -9506    -9323    -9125    -9044    -9102    -9167    -9172 
   -9152    -9141    -9163    -9188    -9210    -9268    -9350    -9421 
   -9314    -9017    -8896    -8961    -9048    -9366    -9640    -9436 
   -9174    -9123    -9013    -8913    -8999    -9156    -9281    -9347 
   -9347    -9306    -9227    -9167    -9188    -9196    -9130    -9060 
   -9020    -9042    -9220    -9510    -9635    -9396    -9022    -8838 
   -8877    -9084    -9383    -9544    -9414    -9125    -8919    -8910 
   -9042    -9253    -9493    -9575    -9342    -8985    -8844    -8984 
   -9212    -9350    -9332    -9206    -9103    -9143    -9297    -9404 
   -9383    -9241    -9005    -8811    -8831    -9077    -9382    -9555 
   -9549    -9407    -9186    -9023    -8997    -8988    -8971    -9095 
   -9295    -9385    -9363    -9327    -9292    -9217    -9141    -9100 
   -9032    -8987    -9069    -9200    -9281    -9352    -9418    -9375 
   -9187    -8965    -8900    -9104    -9384    -9467    -9369    -9219 
   -9065    -8993    -9062    -9204    -9344    -9403    -9277    -8995 
   -8803    -8881    -9136    -9388    -9494    -9422    -9280    -9158 
   -9154    -9293    -9371    -9273    -9133    -9026    -8923    -8898 
   -9022    -9229    -9389    -9426    -9372    -9263    -9127    -9064 
   -9104    -9187    -9284    -9343    -9316    -9242    -9157    -9077 
   -9043    -9060    -9103    -9150    -9165    -9185    -9255    -9323 
   -9358    -9372    -9332    -9226    -9103    -9044    -9061    -9072 
   -9094    -9215    -9346    -9347    -9264    -9158    -9056    -9035 
   -9084    -9136    -9217    -9360    -9475    -9435    -9250    -9043 
   -8952    -9025    -9174    -9262    -9275    -9269    -9215    -9127 
   -9083    -9099    -9178    -9289    -9400    -9473    -9359    -9041 
   -8806    -8850    -9040    -9207    -9360    -9502    -9506    -9328 
   -9136    -9056    -9040    -9102    -9254    -9300    -9147    -9011 
   -9023    -9096    -9201    -9345    -9437    -9395    -9273    -9185 
   -9165    -9157    -9121    -9107    -9105    -9038    -9019    -9155 
   -9300    -9374    -9423    -9364    -9195    -9082    -9024    -9012 
   -9133    -9287    -9315    -9245    -9183    -9147    -9117    -9119 
   -9172    -9267    -9353    -9362    -9263    -9123    -9054    -9065 
   -9119    -9205    -9279    -9261    -9164    -9089    -9105    -9211 
   -9336    -9405    -9382    -9270    -9126    -9011    -9009    -9135 
   -9239    -9231    -9191    -9180    -9178    -9165    -9155    -9193 
   -9241    -9233    -9238    -9241    -9151    -9111    -9202    -9229 
   -9176    -9233    -9338    -9277    -9120    -9069    -9074    -9069 
   -9177    -9334    -9335    -9234    -9178    -9158    -9185    -9256 
   -9269    -9214    -9145    -9056    -9017    -9108    -9254    -9322 
   -9266    -9162    -9133    -9188    -9259    -9357    -9468    -9436 
   -9213    -8949    -8791    -8831    -9068    -9361    -9535    -9509 
   -9339    -9141    -9009    -8992    -9047    -9117    -9197    -9257 
   -9273    -9277    -9298    -9275    -9119    -8916    -8901    -9111 
   -9339    -9483    -9584    -9569    -9329    -8990    -8812    -8865 
   -9052    -9266    -9412    -9411    -9271    -9097    -9004    -9047 
   -9182    -9294    -9332    -9307    -9232    -9145    -9085    -9052 
   -9038    -9100    -9275    -9433    -9431    -9315    -9185    -9070 
   -8999    -9040    -9205    -9357    -9303    -9130    -9086    -9126 
   -9127    -9187    -9349    -9437    -9315    -9070    -8913    -8959 
   -9165    -9378    -9430    -9301    -9129    -9029    -9064    -9205 
   -9315    -9330    -9262    -9126    -9047    -9112    -9249    -9375 
   -9423    -9355    -9181    -8955    -8877    -9034    -9191    -9205 
   -9186    -9190    -9255    -9400    -9476    -9401    -9238    -9041 
   -8867    -8836    -9024    -9306    -9455    -9436    -9358    -9269 
   -9171    -9077    -9048    -9127    -9160    -9059    -9037    -9194 
   -9359    -9379    -9262    -9164    -9157    -9168    -9234    -9368 
   -9369    -9150    -8927    -8925    -9102    -9249    -9307    -9367 
   -9393    -9299    -9154    -9023    -8893    -8868    -9049    -9319 
   -9513    -9556    -9450    -9281    -9128    -8997    -8911    -8930 
   -9093    -9315    -9403    -9317    -9218    -9274    -9446    -9452 
   -9182    -8921    -8872    -8931    -9013    -9142    -9341    -9541 
   -9559    -9353    -9093    -8964    -9030    -9176    -9279    -9308 
   -9205    -9025    -8961    -9051    -9230    -9414    -9428    -9262 
   -9123    -9089    -9133    -9259    -9374    -9334    -9152    -8987 
   -8933    -9041    -9298    -9466    -9372    -9174    -9007    -8889 
   -8977    -9278    -9475    -9473    -9462    -9374    -9056    -8792 
   -8880    -9167    -9369    -9373    -9227    -9064    -8994    -9081 
   -9299    -9515    -9591    -9441    -9125    -8837    -8738    -8877 
   -9151    -9410    -9534    -9452    -9268    -9166    -9155    -9168 
   -9163    -9106    -9067    -9134    -9223    -9204    -9144    -9235 
   -9395    -9370    -9182    -9015    -8992    -9135    -9264    -9222 
   -9072    -9024    -9243    -9501    -9475    -9270    -9113    -9095 
   -9166    -9209    -9200    -9082    -8962    -9078    -9196    -9093 
   -9058    -9221    -9414    -9488    -9432    -9298    -9049    -8901 
   -9072    -9248    -9269    -9284    -9270    -9227    -9221    -9247 
   -9208    -9065    -8999    -9079    -9201    -9328    -9428    -9447 
   -9347    -9144    -8946    -8861    -8957    -9163    -9358    -9486 
   -9443    -9219    -9015    -8997    -9151    -9320    -9346    -9206 
   -9021    -8947    -8980    -9097    -9324    -9469    -9360    -9149 
   -9070    -9185    -9362    -9439    -9357    -9148    -8903    -8764 
   -8896    -9272    -9606    -9699    -9548    -9194    -8808    -8646 
   -8812    -9170    -9468    -9506    -9288    -9054    -9048    -9221 
   -9392    -9463    -9362    -9146    -8992    -8935    -8999    -9250 
   -9494    -9488    -9305    -9132    -8987    -8848    -8842    -9074 
   -9398    -9598    -9610    -9454    -9214    -9020    -8929    -8934 
   -9019    -9150    -9259    -9307    -9326    -9319    -9248    -9162 
   -9152    -9172    -9109    -9022    -9008    -9041    -9144    -9332 
   -9439    -9326    -9119    -9079    -9240    -9386    -9391    -9302 
   -9180    -9069    -9019    -9061    -9159    -9229    -9240    -9215 
   -9177    -9156    -9156    -9147    -9164    -9256    -9362    -9377 
   -9292    -9231    -9234    -9120    -8885    -8842    -9065    -9286 
   -9406    -9476    -9433    -9256    -9108    -9114    -9189    -9237 
   -9276    -9232    -9049    -8912    -8958    -9124    -9292    -9364 
   -9349    -9290    -9141    -8997    -9035    -9175    -9287    -9371 
   -9390    -9311    -9154    -8995    -8979    -9115    -9261    -9336 
   -9341    -9303    -9259    -9208    -9148    -9080    -9013    -9036 
   -9183    -9321    -9325    -9229    -9148    -9140    -9162    -9156 
   -9164    -9229    -9248    -9199    -9227    -9328    -9316    -9177 
   -9137    -9261    -9338    -9247    -9102    -9026    -9033    -9085 
   -9142    -9203    -9257    -9271    -9292    -9311    -9207    -9002 
   -8888    -9015    -9299    -9489    -9505    -9438    -9300    -9105 
   -8959    -8918    -9031    -9271    -9379    -9251    -9152    -9141 
   -9047    -8990    -9163    -9373    -9375    -9295    -9298    -9270 
   -9139    -9042    -9082    -9211    -9344    -9405    -9322    -9135 
   -9007    -9003    -9053    -9136    -9249    -9303    -9288    -9259 
   -9169    -9065    -9116    -9271    -9335    -9298    -9227    -9146 
   -9117    -9165    -9231    -9226    -9128    -9071    -9134    -9203 
   -9189    -9160    -9224    -9361    -9422    -9341    -9183    -9005 
   -8878    -8947    -9208    -9402    -9336    -9172    -9145    -9208 
   -9260    -9313    -9306    -9182    -9054    -9009    -9003    -9033 
   -9146    -9344    -9505    -9462    -9269    -9108    -9018    -9023 
   -9145    -9267    -9268    -9168    -9094    -9138    -9236    -9303 
   -9330    -9299    -9235    -9191    -9170    -9155    -9106    -9031 
   -9048    -9192    -9321    -9322    -9218    -9107    -9098    -9244 
   -9409    -9403    -9253    -9106    -9007    -8920    -8896    -9028 
   -9286    -9529    -9559    -9301    -9028    -9006    -9139    -9257 
   -9329    -9327    -9209    -9000    -8823    -8859    -9166    -9552 
   -9718    -9585    -9349    -9155    -9013    -8963    -9013    -9087 
   -9156    -9237    -9295    -9263    -9228    -9371    -9574    -9524 
   -9232    -8976    -8899    -8960    -9088    -9229    -9318    -9264 
   -9069    -8931    -9031    -9255    -9387    -9395    -9283    -9023 
   -8836    -9007    -9395    -9638    -9678    -9556    -9205    -8756 
   -8526    -8668    -9024    -9346    -9586    -9716    -9607    -9338 
   -9107    -8954    -8891    -8958    -9099    -9225    -9258    -9131 
   -8931    -8869    -9070    -9479    -9791    -9679    -9206    -8689 
   -8354    -8377    -8840    -9488    -9897    -9890    -9588    -9146 
   -8770    -8759    -9129    -9557    -9732    -9570    -9272    -9074 
   -9029    -9101    -9177    -9156    -9105    -9094    -9142    -9257 
   -9349    -9373    -9348    -9238    -9187    -9339    -9486    -9430 
   -9220    -8982    -8884    -9010    -9169    -9109    -8914    -8846 
   -8953    -9208    -9572    -9750    -9529    -9102    -8669    -8375 
   -8489    -9075    -9792   -10108    -9740    -8981    -8452    -8539 
   -9071    -9564    -9691    -9463    -9151    -8936    -8882    -9136 
   -9592    -9842    -9686    -9269    -8865    -8690    -8825    -9178 
   -9505    -9647    -9591    -9408    -9245    -9134    -8965    -8766 
   -8615    -8524    -8654    -9081    -9450    -9469    -9362    -9419 
   -9610    -9754    -9697    -9441    -9148    -8924    -8844    -8976 
   -9256    -9532    -9600    -9327    -8920    -8739    -8866    -9148 
   -9451    -9603    -9405    -8962    -8651    -8642    -8896    -9412 
   -9939    -9930    -9292    -8586    -8242    -8269    -8689    -9427 
  -10030   -10108    -9766    -9316    -8922    -8763    -8948    -9232 
   -9380    -9392    -9258    -9072    -9056    -9227    -9402    -9451 
   -9293    -9001    -8838    -8929    -9203    -9482    -9577    -9492 
   -9326    -9225    -9215    -9082    -8869    -8750    -8691    -8711 
   -8840    -9127    -9555    -9838    -9782    -9476    -9117    -8867 
   -8872    -9231    -9642    -9686    -9365    -8973    -8781    -8844 
   -9054    -9300    -9519    -9668    -9569    -9137    -8691    -8605 
   -8891    -9315    -9658    -9743    -9495    -9092    -8792    -8617 
   -8558    -8753    -9185    -9667    -9942    -9744    -9249    -9020 
   -9121    -9127    -9025    -9052    -9093    -9112    -9301    -9462 
   -9278    -8964    -8859    -8930    -9100    -9367    -9531    -9373 
   -9014    -8779    -8842    -9187    -9656    -9950    -9908    -9641 
   -9291    -8897    -8504    -8273    -8378    -8781    -9244    -9546 
   -9651    -9676    -9672    -9569    -9373    -9250    -9433    -9896 
  -10110    -9646    -8785    -8051    -7663    -7752    -8490    -9570 
  -10236   -10199    -9815    -9370    -8912    -8636    -8727    -8954 
   -9015    -8980    -9045    -9266    -9599    -9863    -9742    -9175 
   -8607    -8478    -8773    -9199    -9504    -9590    -9423    -9090 
   -8913    -9088    -9419    -9645    -9671    -9537    -9378    -9256 
   -9129    -8949    -8751    -8690    -8815    -9007    -9238    -9522 
   -9675    -9554    -9325    -9172    -9149    -9317    -9543    -9519 
   -9168    -8709    -8472    -8636    -8999    -9244    -9268    -9134 
   -9010    -9022    -9159    -9432    -9773    -9939    -9745    -9239 
   -8734    -8553    -8650    -8836    -9120    -9525    -9824    -9729 
   -9345    -9074    -9058    -9086    -9004    -8915    -9007    -9310 
   -9645    -9785    -9634    -9211    -8668    -8397    -8655    -9185 
   -9560    -9634    -9468    -9174    -8885    -8739    -8871    -9326 
   -9842    -9927    -9448    -8887    -8729    -8877    -9018    -9142 
   -9220    -9033    -8796    -9018    -9623   -10108   -10188    -9780 
   -9058    -8515    -8446    -8681    -8967    -9170    -9225    -9171 
   -9151    -9301    -9603    -9844    -9754    -9302    -8837    -8710 
   -8881    -9124    -9197    -8943    -8586    -8548    -8940    -9505 
   -9850    -9811    -9549    -9222    -8955    -8910    -9037    -9148 
   -9209    -9241    -9245    -9369    -9702   -10008    -9970    -9527 
   -8876    -8310    -8088    -8381    -9166   -10012   -10232    -9632 
   -8785    -8313    -8316    -8682    -9313    -9857    -9939    -9628 
   -9240    -8954    -8810    -8866    -9088    -9187    -8978    -8700 
   -8707    -9105    -9645    -9911    -9706    -9248    -8908    -8795 
   -8815    -8987    -9334    -9616    -9597    -9381    -9244    -9339 
   -9617    -9840    -9767    -9359    -8819    -8433    -8355    -8554 
   -8927    -9381    -9711    -9713    -9511    -9309    -9070    -8830 
   -8880    -9322    -9807    -9846    -9310    -8597    -8248    -8474 
   -9076    -9676    -9956    -9779    -9282    -8746    -8411    -8546 
   -9192    -9848    -9961    -9545    -9032    -8786    -8953    -9464 
   -9957    -9982    -9487    -8887    -8506    -8330    -8376    -8754 
   -9290    -9615    -9654    -9579    -9430    -9174    -8915    -8777 
   -8781    -8966    -9320    -9598    -9580    -9317    -8981    -8812 
   -9024    -9443    -9606    -9363    -9006    -8767    -8654    -8739 
   -9173    -9785   -10121    -9977    -9466    -8852    -8521    -8655 
   -9039    -9346    -9406    -9209    -8907    -8823    -9096    -9499 
   -9866   -10108    -9919    -9229    -8482    -8136    -8352    -8959 
   -9537    -9785    -9705    -9435    -9187    -9204    -9461    -9566 
   -9289    -8804    -8344    -8162    -8446    -9009    -9547    -9883 
   -9858    -9486    -9054    -8850    -8922    -9139    -9357    -9423 
   -9262    -9080    -9136    -9335    -9394    -9353    -9444    -9501 
   -9268    -8973    -8868    -8839    -8840    -9033    -9438    -9859 
  -10025    -9765    -9234    -8808    -8735    -8986    -9327    -9545 
   -9557    -9306    -8938    -8806    -8976    -9184    -9285    -9268 
   -9080    -8817    -8743    -8949    -9257    -9468    -9485    -9314 
   -9074    -8927    -8944    -9038    -9121    -9220    -9232    -9009 
   -8760    -8742    -8920    -9263    -9688    -9841    -9567    -9236 
   -9167    -9188    -9095    -9029    -9084    -9107    -9092    -9243 
   -9539    -9650    -9469    -9294    -9248    -9167    -9125    -9248 
   -9294    -9139    -9067    -9143    -9108    -9015    -9141    -9405 
   -9478    -9278    -9027    -8923    -8949    -9008    -9085    -9157 
   -9155    -9110    -9157    -9394    -9750    -9929    -9707    -9233 
   -8857    -8847    -9188    -9535    -9583    -9385    -9106    -8803 
   -8621    -8696    -8932    -9216    -9564    -9786    -9581    -9114 
   -8910    -9114    -9378    -9384    -9094    -8687    -8445    -8553 
   -8967    -9502    -9875    -9809    -9347    -8799    -8489    -8684 
   -9275    -9717    -9687    -9332    -8927    -8746    -8913    -9342 
   -9814    -9935    -9570    -9110    -8840    -8783    -9009    -9405 
   -9613    -9484    -9233    -9106    -9097    -9115    -9129    -9039 
   -8839    -8758    -8895    -9080    -9205    -9327    -9451    -9541 
   -9617    -9596    -9336    -8914    -8603    -8634    -9040    -9557 
   -9744    -9435    -8961    -8749    -8894    -9169    -9356    -9439 
   -9417    -9211    -8902    -8814    -9155    -9701    -9955    -9638 
   -8952    -8395    -8379    -8937    -9657    -9998    -9798    -9414 
   -9244    -9218    -9117    -9120    -9313    -9247    -8801    -8543 
   -8749    -9152    -9607   -10025   -10069    -9622    -9076    -8692 
   -8361    -8233    -8610    -9196    -9403    -9247    -9251    -9595 
   -9912    -9880    -9531    -9032    -8580    -8364    -8452    -8808 
   -9274    -9575    -9611    -9480    -9207    -8932    -8993    -9378 
   -9651    -9549    -9172    -8821    -8740    -8926    -9265    -9608 
   -9741    -9548    -9126    -8793    -8835    -9175    -9554    -9728 
   -9500    -8971    -8528    -8450    -8725    -9218    -9737    -9912 
   -9594    -9187    -8960    -8746    -8654    -8948    -9385    -9552 
   -9449    -9304    -9203    -9129    -9154    -9315    -9416    -9319 
   -9218    -9212    -9072    -8810    -8774    -9022    -9298    -9496 
   -9591    -9494    -9277    -9161    -9198    -9226    -9175    -9141 
   -9123    -9066    -9018    -8991    -9017    -9165    -9324    -9348 
   -9284    -9242    -9237    -9236    -9223    -9193    -9180    -9233 
   -9269    -9195    -9127    -9168    -9215    -9187    -9186    -9307 
   -9409    -9289    -9029    -8837    -8804    -9029    -9476    -9681 
   -9316    -8817    -8745    -9024    -9336    -9603    -9803    -9790 
   -9471    -8947    -8446    -8279    -8626    -9280    -9828   -10012 
