Origin Time       2015/04/12 14:25:00
Lat.              36.867
Long.             141.060
Depth. (km)       51
Mag.              3.9
Station Code      TCGH09
Station Lat.      36.8625
Station Long.     139.8364
Station Height(m) 564
Record Time       2015/04/12 14:25:50
Sampling Freq(Hz) 100Hz
Duration Time(s)  120
Dir.              6
Scale Factor      3920(gal)/6170801
Max. Acc. (gal)   0.498
Last Correction   2015/04/12 14:25:35
Memo.             
[...]
  -18965   -18865   -18852   -18946   -18980   -18949   -19004   -19073 
  -19014   -18930   -18918   -18944   -19026   -19093   -19036   -18952 
  -18949   -18973   -18994   -19028   -19004   -18945   -18983   -19046 
  -18994   -18897   -18880   -18892   -18854   -18850   -18935   -19016 
  -19037   -18999   -18914   -18888   -18956   -18996   -19018   -19093 
  -19116   -19059   -19044   -19046   -18967   -18875   -18875   -18936 
  -18963   -18925   -18899   -18937   -18932   -18862   -18903   -19040 
  -19070   -19034   -19090   -19152   -19051   -18847   -18759   -18811 
  -18851   -18930   -19141   -19238   -19050   -18864   -18909   -19014 
  -19004   -18995   -19029   -18939   -18799   -18853   -19008   -18983 
  -18863   -18949   -19122   -19074   -18915   -18908   -18989   -19011 
  -19033   -19127   -19213   -19109   -18825   -18658   -18731   -18840 
  -18898   -19047   -19222   -19129   -18867   -18814   -18916   -18893 
  -18908   -19119   -19162   -18944   -18899   -18998   -18914   -18856 
  -19031   -19164   -19128   -19080   -18967   -18740   -18713   -18941 
  -19067   -19031   -19033   -19013   -18903   -18854   -18921   -19036 
  -19112   -19076   -19012   -18975   -18885   -18832   -18898   -18929 
  -18929   -19043   -19097   -18984   -19017   -19199   -19107   -18782 
  -18694   -18863   -18989   -19075   -19138   -18994   -18763   -18790 
  -18988   -19041   -19016   -19034   -18937   -18776   -18835   -19058 
  -19149   -19119   -19127   -19117   -19035   -18936   -18851   -18837 
  -18851   -18746   -18694   -18918   -19164   -19229   -19228   -19098 
  -18820   -18701   -18886   -19085   -19067   -19044   -19121   -19030 
  -18840   -18852   -18932   -18916   -18957   -19057   -19021   -18844 
  -18748   -18900   -19136   -19206   -19149   -19045   -18858   -18715 
  -18830   -19107   -19210   -19043   -18873   -18830   -18775   -18807 
  -19046   -19200   -19098   -18968   -18950   -18913   -18843   -18886 
  -19020   -19110   -19101   -19040   -19022   -18962   -18753   -18641 
  -18816   -19037   -19140   -19195   -19151   -19007   -18976   -19035 
  -18914   -18737   -18824   -18996   -19012   -19039   -19134   -19075 
  -18892   -18797   -18775   -18833   -19040   -19209   -19161   -18991 
  -18878   -18895   -18955   -18922   -18856   -18932   -19046   -18966 
  -18848   -18908   -19045   -19116   -19135   -19153   -19131   -19018 
  -18852   -18778   -18876   -18996   -19019   -18970   -18887   -18806 
  -18759   -18772   -18877   -19060   -19178   -19154   -19091   -19058 
  -19024   -18971   -18982   -19027   -19010   -19009   -19014   -18914 
  -18771   -18755   -18848   -18885   -18894   -18976   -19069   -19116 
  -19124   -19065   -18979   -18969   -18962   -18889   -18893   -19022 
  -19111   -19065   -18989   -18938   -18841   -18775   -18870   -18998 
  -19029   -19034   -19046   -19073   -19088   -19008   -18920   -18896 
  -18854   -18867   -18993   -19022   -18922   -18930   -19008   -18956 
  -18881   -18931   -19004   -19071   -19180   -19166   -18967   -18829 
  -18842   -18870   -18918   -18992   -19008   -18989   -18983   -18985 
  -18948   -18856   -18812   -18927   -19064   -19042   -18988   -19014 
  -19022   -18959   -18952   -19047   -19018   -18865   -18887   -19066 
  -19096   -18964   -18933   -19026   -19036   -18954   -18931   -18932 
  -18856   -18841   -19005   -19103   -18979   -18927   -19049   -19017 
  -18830   -18860   -19002   -18953   -18866   -18941   -19057   -19102 
  -19157   -19213   -19172   -18989   -18779   -18732   -18804   -18908 
  -19020   -19064   -18970   -18853   -18832   -18788   -18805   -19020 
  -19231   -19289   -19287   -19187   -18864   -18621   -18662   -18799 
  -18955   -19046   -19014   -18928   -18917   -18918   -18817   -18841 
  -19045   -19217   -19272   -19242   -19193   -19125   -19029   -18879 
  -18733   -18670   -18714   -18854   -18972   -19035   -19021   -18926 
  -18920   -19049   -19133   -19103   -19103   -19135   -19057   -18921 
  -18884   -18882   -18773   -18718   -18827   -18867   -18854   -19052 
  -19266   -19160   -18998   -19066   -19073   -18927   -18979   -19144 
  -19061   -18875   -18823   -18786   -18772   -18885   -18966   -18963 
  -19030   -19060   -18933   -18870   -18976   -19042   -19008   -19005 
  -19002   -18945   -18935   -19004   -19092   -19141   -19109   -19016 
  -18870   -18715   -18701   -18854   -19066   -19221   -19185   -19019 
  -18915   -18841   -18774   -18851   -19043   -19147   -19133   -19077 
  -18920   -18733   -18737   -18884   -19008   -19084   -19055   -18947 
  -18955   -19030   -18967   -18857   -18839   -18850   -18895   -19051 
  -19181   -19146   -19086   -19092   -19058   -18961   -18913   -18942 
  -18926   -18869   -18895   -18970   -19037   -19094   -19036   -18876 
  -18893   -19045   -18955   -18756   -18867   -19074   -18958   -18755 
  -18883   -19156   -19189   -19086   -19061   -18979   -18804   -18775 
  -18940   -19116   -19152   -19004   -18769   -18651   -18788   -19099 
  -19319   -19269   -19055   -18906   -18881   -18865   -18854   -18996 
  -19183   -19088   -18758   -18597   -18724   -18903   -19023   -19141 
  -19201   -19087   -18919   -18909   -18959   -18935   -18986   -19146 
  -19185   -19041   -18896   -18856   -18880   -18946   -19042   -19068 
  -18983   -18935   -19002   -19054   -18990   -18871   -18802   -18794 
  -18838   -18929   -18943   -18873   -18975   -19234   -19313   -19116 
  -18838   -18755   -18919   -19075   -19149   -19201   -19070   -18781 
  -18666   -18805   -18939   -18907   -18862   -19028   -19289   -19276 
  -18958   -18717   -18724   -18819   -18957   -19117   -19108   -18979 
  -19050   -19229   -19145   -18951   -18921   -18895   -18814   -18810 
  -18874   -18999   -19130   -19096   -18904   -18718   -18653   -18761 
  -18982   -19166   -19186   -19084   -19061   -19098   -18976   -18826 
  -18900   -18996   -18910   -18888   -19031   -19059   -18941   -18942 
  -19074   -19117   -19063   -19027   -18979   -18964   -19060   -19056 
  -18847   -18730   -18830   -18924   -18897   -18822   -18793   -18897 
  -19078   -19116   -19066   -19189   -19289   -19039   -18739   -18748 
  -18869   -19013   -19278   -19348   -18966   -18574   -18561   -18686 
  -18800   -19112   -19478   -19477   -19196   -18944   -18663   -18462 
  -18643   -18995   -19166   -19194   -19145   -18984   -18825   -18789 
  -18856   -19053   -19271   -19181   -18920   -18857   -18909   -18982 
  -19110   -19109   -18862   -18627   -18730   -19058   -19223   -19129 
  -18883   -18683   -18834   -19203   -19302   -19068   -18801   -18800 
  -19081   -19204   -18960   -18735   -18767   -18879   -18961   -19029 
  -18982   -18818   -18845   -19131   -19231   -19047   -18997   -19089 
  -19008   -18866   -18933   -19057   -18981   -18910   -19043   -19092 
  -18972   -18889   -18766   -18637   -18756   -19028   -19184   -19127 
  -18962   -18868   -18904   -19035   -19129   -19118   -19077   -18968 
  -18847   -18842   -18881   -18948   -19031   -19034   -19008   -19025 
  -18998   -18891   -18876   -18996   -19065   -19017   -18993   -18998 
  -18896   -18815   -18957   -19168   -19173   -18983   -18804   -18792 
  -18917   -19015   -19130   -19265   -19154   -18841   -18637   -18616 
  -18770   -19072   -19250   -19156   -18984   -18826   -18657   -18601 
  -18745   -19007   -19254   -19311   -19153   -19030   -19046   -19031 
  -18970   -18995   -19041   -18931   -18740   -18713   -18864   -19010 
  -19127   -19237   -19147   -18835   -18702   -18909   -19080   -19034 
  -19004   -19031   -18958   -18913   -19046   -19118   -19002   -18991 
  -19101   -19035   -18881   -18869   -18877   -18826   -18862   -18939 
  -18938   -18944   -18956   -18887   -18870   -19007   -19142   -19141 
  -19056   -19008   -19040   -19015   -18856   -18786   -18924   -18999 
  -18911   -18886   -18912   -18870   -18943   -19171   -19231   -19093 
  -19018   -18998   -18890   -18773   -18787   -18901   -19006   -19086 
  -19159   -19125   -18974   -18890   -18836   -18682   -18705   -19043 
  -19256   -19130   -19016   -19026   -18891   -18713   -18847   -19153 
  -19265   -19177   -19038   -18889   -18747   -18661   -18733   -18968 
  -19168   -19239   -19227   -19045   -18780   -18761   -18945   -18997 
  -18898   -18882   -18992   -19033   -18918   -18819   -18853   -18977 
  -19126   -19217   -19180   -19022   -18856   -18833   -18935   -18999 
  -18957   -18878   -18901   -19074   -19212   -19148   -18979   -18847 
  -18773   -18802   -18948   -19026   -18910   -18806   -18926   -19131 
  -19151   -19003   -18935   -19018   -19092   -19040   -18876   -18735 
  -18740   -18877   -19092   -19259   -19222   -19056   -18964   -18961 
  -18927   -18882   -18904   -18935   -18922   -18922   -18934   -18871 
  -18800   -18894   -19081   -19140   -19107   -19109   -19000   -18763 
  -18743   -18976   -19105   -19106   -19147   -19048   -18769   -18687 
  -18865   -18944   -18868   -18881   -19029   -19187   -19281   -19233 
  -19006   -18729   -18602   -18751   -19058   -19220   -19150   -19021 
  -18943   -18879   -18786   -18785   -19005   -19277   -19321   -19129 
  -18888   -18787   -18884   -19046   -19126   -19072   -18880   -18700 
  -18718   -18871   -19008   -19153   -19238   -19058   -18784   -18819 
  -19047   -19058   -18887   -18856   -18990   -19076   -19058   -19011 
  -18938   -18907   -19039   -19186   -19092   -18821   -18655   -18704 
  -18860   -18999   -19064   -19058   -18999   -18923   -18947   -19097 
  -19134   -18960   -18838   -18917   -19029   -18972   -18803   -18746 
  -18908   -19222   -19461   -19341   -18914   -18582   -18615   -18871 
  -19053   -19092   -19094   -19081   -19015   -18897   -18755   -18652 
  -18758   -19125   -19415   -19330   -19037   -18864   -18872   -18896 
  -18890   -18948   -19023   -19008   -18903   -18852   -18967   -19042 
  -18921   -18831   -18843   -18826   -18925   -19173   -19205   -19006 
  -18953   -19017   -18951   -18917   -19077   -19165   -19008   -18858 
  -18872   -18849   -18791   -18986   -19255   -19128   -18835   -18894 
  -19044   -18854   -18650   -18825   -19131   -19218   -19076   -18887 
  -18891   -19052   -19148   -19223   -19267   -19064   -18754   -18641 
  -18658   -18726   -18921   -19078   -19073   -19051   -19032   -18999 
  -18940   -18745   -18707   -19092   -19300   -18997   -18840   -18975 
  -18883   -18765   -19032   -19301   -19221   -19040   -18915   -18827 
  -18890   -19056   -19048   -18854   -18788   -18907   -18955   -18840 
  -18777   -18952   -19159   -19141   -19072   -19113   -19103   -19022 
  -19012   -19000   -18873   -18794   -18899   -18967   -18898   -18983 
  -19186   -19157   -19040   -19122   -19221   -19139   -18915   -18620 
  -18462   -18599   -18856   -19109   -19319   -19257   -18965   -18815 
  -18799   -18729   -18835   -19178   -19325   -19136   -18921   -18813 
  -18681   -18540   -18696   -19196   -19460   -19199   -18884   -18744 
  -18626   -18649   -18889   -19115   -19196   -19232   -19240   -19045 
  -18761   -18815   -19209   -19428   -19231   -18973   -18904   -18819 
  -18731   -18909   -19116   -19036   -18935   -18990   -18973   -18843 
  -18766   -18766   -18844   -18967   -18998   -19029   -19133   -19124 
  -19040   -19063   -19072   -18946   -18857   -18866   -18867   -18933 
  -19054   -19038   -18963   -18968   -18935   -18836   -18870   -19077 
  -19201   -19138   -19051   -18929   -18659   -18450   -18626   -19025 
  -19244   -19274   -19257   -19066   -18694   -18674   -19141   -19335 
  -19118   -19177   -19341   -18940   -18436   -18546   -18850   -18887 
  -19015   -19330   -19331   -18976   -18780   -18814   -18803   -18810 
  -18958   -19083   -19075   -19017   -18902   -18724   -18665   -18879 
  -19270   -19484   -19379   -19186   -18977   -18653   -18370   -18455 
  -18795   -18990   -19101   -19309   -19376   -19008   -18575   -18738 
  -19195   -19317   -19290   -19231   -18853   -18424   -18514   -18996 
  -19312   -19405   -19417   -19133   -18669   -18486   -18566   -18667 
  -18861   -19217   -19353   -19080   -18874   -18931   -18968   -18952 
  -19024   -19161   -19247   -19156   -18886   -18660   -18558   -18524 
  -18710   -19086   -19248   -19080   -18986   -19162   -19269   -19077 
  -18816   -18728   -18762   -18872   -19030   -19022   -18852   -18846 
  -19014   -19062   -19018   -19089   -19191   -19266   -19379   -19337 
  -19040   -18866   -18967   -18997   -18919   -19030   -19199   -19074 
  -18736   -18495   -18426   -18499   -18790   -19155   -19112   -18771 
  -18910   -19415   -19384   -18937   -18885   -19047   -18808   -18547 
  -18818   -19164   -19063   -18849   -18924   -19118   -19130   -18969 
  -18849   -18890   -19041   -19238   -19378   -19256   -18922   -18757 
  -18845   -18897   -18899   -19044   -19136   -18951   -18787   -18882 
  -18963   -18853   -18723   -18683   -18696   -18767   -18881   -18971 
  -19085   -19253   -19337   -19282   -19161   -18961   -18701   -18577 
  -18749   -19089   -19243   -19073   -18857   -18921   -19229   -19419 
  -19279   -19080   -19123   -19233   -19046   -18617   -18371   -18477 
  -18631   -18750   -19075   -19371   -19266   -19065   -19074   -18971 
  -18703   -18718   -19010   -19232   -19346   -19364   -19203   -18955 
  -18739   -18599   -18623   -18767   -18810   -18722   -18724   -18894 
  -19048   -19057   -19039   -19167   -19362   -19377   -19185   -18935 
  -18786   -18814   -18863   -18862   -18922   -18950   -18900   -19003 
  -19216   -19212   -18999   -18779   -18489   -18186   -18240   -18691 
  -19197   -19567   -19722   -19632   -19468   -19314   -19026   -18702 
  -18660   -18861   -18992   -18999   -19046   -19089   -19003   -18883 
  -18799   -18714   -18681   -18754   -18899   -19016   -19046   -19104 
  -19304   -19513   -19508   -19226   -18804   -18465   -18364   -18605 
  -19034   -19184   -19027   -18951   -18961   -18915   -18888   -18895 
  -18856   -18810   -18875   -19022   -19089   -19076   -19139   -19253 
  -19179   -18861   -18653   -18811   -18952   -18805   -18807   -19121 
  -19247   -19070   -19005   -19079   -18960   -18736   -18778   -19008 
  -18975   -18722   -18765   -19074   -19197   -19261   -19545   -19602 
  -19109   -18643   -18596   -18596   -18513   -18604   -18846   -19089 
  -19251   -19224   -19058   -18887   -18763   -18746   -18858   -19037 
  -19216   -19233   -18989   -18733   -18712   -18821   -18925   -19078 
  -19286   -19372   -19215   -18940   -18712   -18662   -18922   -19379 
  -19652   -19492   -19069   -18805   -18804   -18818   -18794   -18801 
  -18760   -18685   -18789   -19080   -19183   -18944   -18796   -18937 
  -18956   -18797   -18863   -19045   -18955   -18729   -18704   -18798 
  -18809   -18914   -19230   -19364   -19120   -18927   -18950   -18844 
  -18716   -18950   -19255   -19243   -19170   -19154   -18968   -18791 
  -18895   -19085   -19156   -19161   -19093   -18890   -18694   -18701 
  -18864   -19041   -19214   -19279   -19036   -18704   -18720   -18934 
  -18971   -18998   -19185   -19174   -18841   -18624   -18760   -19010 
  -19165   -19265   -19286   -19112   -18881   -18776   -18682   -18612 
  -18795   -19100   -19177   -19040   -18894   -18721   -18629   -18952 
  -19406   -19350   -18981   -18870   -18944   -18979   -19021   -19013 
  -18882   -18810   -18907   -19050   -19098   -18995   -18878   -18942 
  -19043   -19021   -19032   -19066   -18977   -18959   -19066   -19023 
  -18964   -19091   -19012   -18621   -18563   -18972   -19172   -18991 
  -18863   -18848   -18786   -18803   -18960   -19075   -19046   -18980 
  -19007   -19032   -18927   -18875   -19029   -19248   -19322   -19134 
  -18828   -18704   -18783   -18903   -19049   -19175   -19128   -18929 
  -18775   -18758   -18788   -18817   -18977   -19269   -19398   -19261 
  -19149   -19165   -19111   -19025   -19030   -19006   -18947   -18963 
  -18927   -18780   -18760   -18887   -18895   -18773   -18737   -18794 
  -18807   -18834   -18966   -19032   -18937   -18913   -19037   -18981 
  -18712   -18699   -19022   -19245   -19241   -19229   -19200   -19030 
  -18912   -19003   -19004   -18782   -18691   -18877   -19074   -19142 
  -19232   -19339   -19188   -18852   -18808   -19008   -18945   -18766 
  -18907   -19105   -18988   -18840   -18959   -19048   -18891   -18795 
  -18875   -18887   -18890   -19013   -19013   -18874   -18946   -19184 
  -19233   -18997   -18700   -18697   -18975   -19050   -18832   -18774 
  -18949   -19080   -19217   -19422   -19378   -19028   -18835   -18950 
  -18985   -18795   -18663   -18758   -18996   -19209   -19238   -19122 
  -19036   -18965   -18853   -18768   -18732   -18805   -19022   -19135 
  -19033   -18916   -18824   -18699   -18689   -18909   -19193   -19260 
  -19078   -18844   -18674   -18620   -18770   -19075   -19289   -19244 
  -19065   -18927   -18787   -18695   -18891   -19217   -19291   -19205 
  -19148   -19004   -18861   -18967   -19144   -19122   -19048   -19056 
  -19021   -18885   -18672   -18544   -18808   -19316   -19496   -19184 
  -18691   -18404   -18505   -18758   -18917   -19074   -19239   -19219 
  -19039   -18940   -19041   -19226   -19288   -19212   -19202   -19185 
  -18897   -18574   -18617   -18839   -18921   -18974   -19051   -18936 
  -18693   -18661   -18857   -18988   -19019   -19139   -19241   -19080 
  -18843   -18828   -18798   -18606   -18727   -19102   -19070   -18882 
  -19116   -19308   -19073   -18907   -19015   -19107   -19128   -19109 
  -18948   -18723   -18674   -18809   -18986   -19165   -19244   -19102 
  -18909   -18858   -18805   -18712   -18856   -19182   -19286   -19140 
  -19017   -19010   -19077   -19105   -18997   -18881   -18898   -18897 
  -18773   -18755   -18940   -19111   -19156   -19103   -18978   -18895 
  -18871   -18806   -18794   -18906   -19014   -19112   -19255   -19338 
  -19262   -19001   -18696   -18702   -18996   -19063   -18891   -18946 
  -19040   -18767   -18531   -18638   -18666   -18641   -18987   -19317 
  -19128   -18845   -18929   -19120   -19174   -19225   -19265   -19161 
  -19037   -19017   -18991   -18908   -18845   -18856   -18966   -19139 
  -19196   -19000   -18748   -18696   -18758   -18858   -19123   -19348 
  -19173   -18836   -18763   -18799   -18756   -18884   -19147   -19179 
  -19096   -19152   -19093   -18786   -18647   -18822   -18923   -18917 
  -19077   -19122   -18815   -18703   -19008   -19164   -19053   -19118 
  -19307   -19226   -18976   -18902   -18916   -18812   -18776   -18939 
  -18989   -18817   -18784   -19006   -19238   -19318   -19162   -18788 
  -18473   -18541   -18898   -19164   -19228   -19163   -19011   -18958 
  -19117   -19217   -19054   -18870   -18854   -18909   -18985   -19054 
  -19031   -18975   -18981   -18960   -18838   -18782   -18904   -18972 
  -18828   -18756   -18940   -19108   -19120   -19133   -19140   -19041 
  -18842   -18610   -18573   -18844   -19066   -18992   -18958   -19152 
  -19189   -18948   -18847   -18964   -19006   -18998   -19117   -19275 
  -19283   -19112   -18931   -18890   -18867   -18787   -18825   -18964 
  -18974   -18883   -18907   -19021   -19040   -18983   -18953   -18886 
  -18754   -18716   -18841   -18975   -19013   -19016   -19032   -18982 
  -18887   -18957   -19188   -19266   -19128   -19025   -18987   -18874 
  -18821   -19004   -19216   -19245   -19192   -19085   -18876   -18767 
