Origin Time       2015/04/12 14:25:00
Lat.              36.867
Long.             141.060
Depth. (km)       51
Mag.              3.9
Station Code      TCGH09
Station Lat.      36.8625
Station Long.     139.8364
Station Height(m) 461
Record Time       2015/04/12 14:25:50
Sampling Freq(Hz) 100Hz
Duration Time(s)  120
Dir.              1
Scale Factor      2940(gal)/6170270
Max. Acc. (gal)   0.182
Last Correction   2015/04/12 14:25:35
Memo.             
   36872    36870    36863    36866    36878    36876    36859    36850 
   36845    36831    36832    36850    36854    36847    36847    36852 
   36857    36866    36881    36885    36866    36855    36865    36876 
   36870    36844    36818    36814    36824    36838    36856    36864 
   36864    36868    36874    36876    36876    36872    36859    36852 
   36864    36872    36856    36832    36824    36834    36843    36846 
   36850    36852    36857    36877    36891    36873    36851    36846 
   36840    36843    36859    36866    36870    36870    36858    36860 
   36871    36862    36849    36835    36814    36827    36870    36883 
   36857    36837    36842    36861    36872    36862    36841    36837 
   36861    36882    36884    36879    36868    36852    36850    36850 
   36840    36839    36841    36817    36808    36847    36887    36888 
   36865    36853    36860    36877    36889    36882    36863    36838 
   36823    36826    36831    36845    36853    36841    36851    36888 
   36902    36895    36879    36855    36844    36851    36858    36859 
   36840    36811    36808    36827    36832    36831    36847    36870 
   36892    36902    36887    36875    36872    36862    36865    36880 
   36879    36863    36844    36830    36816    36801    36807    36834 
   36848    36837    36851    36897    36905    36874    36866    36891 
   36906    36887    36861    36854    36841    36815    36813    36821 
   36811    36813    36845    36871    36879    36882    36880    36878 
   36882    36867    36838    36847    36880    36867    36819    36825 
   36870    36876    36855    36850    36854    36841    36820    36832 
   36865    36869    36850    36853    36889    36895    36867    36860 
   36868    36877    36877    36863    36852    36829    36805    36809 
   36822    36838    36860    36861    36864    36897    36897    36845 
   36827    36852    36871    36880    36877    36868    36867    36854 
   36821    36809    36829    36852    36879    36898    36879    36845 
   36831    36826    36820    36829    36846    36869    36908    36915 
   36889    36883    36867    36836    36840    36836    36804    36812 
   36855    36886    36892    36869    36853    36859    36830    36795 
   36846    36930    36946    36905    36842    36783    36765    36794 
   36842    36882    36886    36876    36897    36896    36851    36840 
   36846    36820    36812    36840    36869    36891    36908    36920 
   36909    36858    36817    36809    36794    36783    36811    36857 
   36878    36872    36881    36906    36888    36865    36873    36852 
   36830    36851    36860    36862    36881    36865    36826    36806 
   36790    36799    36864    36905    36890    36877    36858    36835 
   36841    36853    36863    36880    36895    36893    36863    36842 
   36848    36837    36817    36832    36857    36857    36856    36862 
   36865    36866    36854    36850    36874    36879    36856    36848 
   36844    36831    36828    36831    36848    36867    36866    36878 
   36890    36867    36843    36838    36840    36841    36850    36884 
   36902    36856    36811    36816    36824    36829    36849    36872 
   36891    36912    36919    36895    36858    36841    36853    36862 
   36831    36798    36814    36825    36820    36857    36885    36864 
   36858    36874    36877    36874    36857    36844    36866    36883 
   36874    36863    36838    36832    36855    36846    36829    36829 
   36826    36848    36875    36854    36837    36860    36885    36905 
   36916    36900    36862    36810    36785    36814    36849    36851 
   36832    36833    36870    36893    36888    36883    36875    36872 
   36875    36851    36821    36828    36844    36838    36841    36864 
   36877    36865    36860    36880    36885    36849    36821    36828 
   36840    36852    36864    36863    36860    36868    36864    36835 
   36816    36834    36861    36872    36890    36905    36884    36859 
   36857    36858    36850    36830    36805    36796    36816    36851 
   36871    36878    36902    36919    36896    36878    36880    36857 
   36820    36813    36818    36813    36818    36840    36848    36853 
   36864    36858    36859    36876    36876    36880    36901    36908 
   36899    36875    36836    36811    36813    36826    36831    36837 
   36865    36879    36849    36827    36840    36839    36831    36861 
   36893    36896    36899    36899    36879    36861    36857    36849 
   36836    36826    36816    36817    36822    36814    36840    36898 
   36903    36863    36850    36880    36907    36898    36884    36868 
   36831    36806    36805    36833    36878    36875    36828    36805 
   36821    36846    36845    36852    36901    36929    36912    36879 
   36852    36856    36866    36862    36858    36828    36798    36819 
   36831    36816    36826    36846    36855    36871    36891    36904 
   36921    36923    36897    36871    36849    36816    36786    36779 
   36808    36853    36873    36874    36876    36863    36852    36865 
   36864    36844    36846    36855    36847    36867    36902    36891 
   36862    36865    36873    36865    36860    36855    36856    36866 
   36858    36831    36811    36805    36816    36838    36851    36852 
   36859    36888    36893    36852    36834    36851    36848    36838 
   36852    36862    36862    36878    36895    36889    36880    36882 
   36878    36861    36837    36811    36823    36857    36855    36838 
   36840    36860    36878    36854    36836    36878    36901    36859 
   36810    36805    36854    36907    36900    36867    36867    36886 
   36881    36843    36798    36789    36836    36886    36870    36821 
   36826    36872    36891    36894    36898    36884    36855    36812 
   36797    36827    36836    36829    36853    36885    36917    36941 
   36923    36883    36838    36786    36759    36774    36821    36865 
   36867    36883    36933    36912    36839    36830    36856    36864 
   36863    36849    36837    36829    36840    36887    36909    36877 
   36845    36853    36882    36875    36837    36834    36850    36852 
   36854    36842    36847    36880    36877    36852    36837    36812 
   36805    36832    36850    36864    36892    36894    36866    36861 
   36881    36877    36867    36877    36864    36834    36824    36812 
   36814    36849    36866    36871    36885    36878    36867    36848 
   36817    36836    36886    36884    36858    36861    36860    36869 
   36894    36883    36858    36861    36856    36840    36823    36795 
   36790    36826    36870    36890    36867    36851    36888    36900 
   36874    36882    36888    36856    36831    36838    36872    36900 
   36870    36805    36773    36776    36805    36857    36895    36893 
   36863    36848    36865    36889    36917    36932    36899    36834 
   36790    36802    36854    36880    36857    36853    36885    36880 
   36829    36795    36811    36849    36871    36861    36821    36787 
   36813    36891    36948    36921    36867    36871    36896    36896 
   36883    36856    36840    36847    36844    36838    36841    36840 
   36829    36801    36795    36850    36900    36888    36875    36895 
   36894    36863    36828    36794    36797    36848    36906    36919 
   36860    36789    36784    36826    36864    36882    36890    36899 
   36893    36867    36850    36865    36874    36850    36838    36862 
   36875    36862    36838    36800    36779    36819    36879    36872 
   36822    36824    36873    36899    36898    36880    36863    36893 
   36926    36890    36830    36815    36857    36906    36900    36874 
   36865    36832    36791    36787    36796    36800    36832    36876 
   36882    36873    36876    36853    36824    36839    36866    36878 
   36874    36851    36851    36875    36891    36909    36908    36855 
   36798    36798    36839    36849    36817    36804    36826    36858 
   36878    36883    36894    36871    36825    36845    36874    36854 
   36865    36897    36886    36857    36849    36852    36821    36786 
   36821    36878    36882    36887    36908    36869    36815    36819 
   36837    36844    36871    36902    36913    36903    36883    36882 
   36895    36864    36796    36786    36822    36822    36794    36794 
   36826    36865    36907    36928    36899    36862    36862    36869 
   36851    36820    36819    36855    36876    36868    36863    36867 
   36876    36876    36843    36800    36793    36813    36836    36866 
   36896    36896    36881    36886    36885    36851    36825    36832 
   36852    36874    36875    36843    36829    36835    36820    36804 
   36818    36838    36843    36879    36956    36964    36881    36836 
   36861    36890    36877    36824    36797    36809    36819    36834 
   36875    36927    36932    36864    36818    36842    36852    36845 
   36849    36830    36828    36875    36873    36808    36788    36807 
   36827    36868    36905    36909    36889    36855    36855    36894 
   36894    36860    36859    36871    36859    36840    36831    36820 
   36819    36837    36846    36855    36857    36830    36827    36865 
   36907    36934    36917    36882    36857    36827    36806    36814 
   36842    36862    36862    36878    36892    36869    36824    36792 
   36820    36886    36916    36893    36837    36809    36854    36907 
   36890    36845    36850    36874    36847    36792    36770    36796 
   36839    36871    36883    36868    36848    36866    36897    36879 
   36839    36831    36858    36886    36899    36883    36836    36838 
   36905    36941    36900    36831    36807    36826    36837    36831 
   36819    36834    36870    36881    36887    36897    36892    36878 
   36848    36825    36840    36854    36853    36858    36855    36857 
   36870    36845    36805    36815    36842    36841    36828    36854 
   36921    36942    36908    36862    36826    36865    36917    36863 
   36774    36749    36808    36898    36903    36825    36776    36780 
   36814    36852    36862    36878    36905    36899    36896    36902 
   36876    36854    36846    36837    36860    36881    36867    36848 
   36826    36825    36861    36888    36868    36820    36799    36828 
   36846    36821    36819    36886    36934    36897    36854    36857 
   36879    36886    36867    36855    36853    36863    36897    36899 
   36879    36904    36925    36902    36861    36804    36766    36780 
   36794    36785    36790    36839    36911    36935    36890    36847 
   36849    36868    36873    36867    36853    36831    36807    36796 
   36812    36841    36853    36855    36887    36909    36885    36894 
   36924    36903    36877    36877    36868    36853    36851    36879 
   36912    36900    36862    36828    36790    36787    36827    36805 
   36753    36782    36813    36811    36839    36824    36790    36852 
   36926    36916    36890    36903    36909    36888    36873    36875 
   36897    36910    36886    36867    36835    36775    36784    36842 
   36850    36851    36869    36841    36819    36859    36879    36885 
   36927    36934    36893    36847    36796    36761    36777    36840 
   36878    36846    36802    36814    36867    36893    36859    36848 
   36904    36907    36837    36820    36866    36893    36890    36893 
   36917    36921    36836    36728    36700    36746    36824    36884 
   36914    36914    36860    36820    36854    36896    36922    36952 
   36951    36885    36805    36794    36844    36888    36898    36843 
   36742    36687    36668    36672    36800    36985    37066    37042 
   36994    36973    36960    36932    36925    36956    36959    36896 
   36841    36787    36696    36695    36802    36868    36842    36772 
   36737    36733    36697    36668    36754    36930    37014    36964 
   36933    36937    36920    36901    36866    36845    36874    36879 
   36849    36844    36867    36896    36891    36855    36839    36813 
   36762    36774    36853    36904    36900    36902    36912    36901 
   36895    36859    36739    36667    36728    36803    36868    36947 
   36933    36864    36888    36945    36964    36972    36935    36877 
   36820    36718    36671    36751    36848    36888    36867    36816 
   36811    36847    36892    36960    37009    36975    36886    36839 
   36843    36835    36839    36885    36887    36802    36713    36697 
   36756    36830    36853    36889    36963    36946    36874    36852 
   36815    36784    36822    36857    36876    36890    36877    36892 
   36945    36969    36918    36829    36793    36775    36716    36696 
   36742    36793    36853    36916    36924    36904    36905    36953 
   37069    37133    37030    36901    36895    36938    36914    36839 
   36779    36743    36681    36579    36558    36644    36728    36796 
   36838    36815    36774    36764    36832    36942    36964    36949 
   37002    37047    37004    36935    36929    36947    36888    36853 
   36953    37057    37019    36877    36720    36567    36473    36549 
   36742    36856    36864    36908    36978    36975    36949    36934 
   36903    36886    36916    36974    37002    36979    36922    36821 
   36705    36635    36624    36647    36690    36784    36918    37025 
   37054    36974    36837    36745    36745    36798    36833    36896 
   37026    37128    37146    37082    36965    36834    36684    36587 
   36609    36681    36741    36790    36837    36853    36835    36869 
   36962    37008    36984    36933    36898    36885    36862    36800 
   36665    36528    36583    36799    36987    37110    37197    37235 
   37129    36880    36722    36701    36643    36578    36611    36729 
   36878    36979    36989    36922    36832    36783    36789    36850 
   36935    36975    36945    36893    36860    36811    36720    36664 
   36691    36773    36905    37047    37098    37008    36825    36699 
   36740    36845    36896    36930    36936    36862    36814    36866 
   36917    36907    36877    36921    37068    37081    36842    36610 
   36528    36582    36762    36926    36970    36928    36845    36786 
   36799    36867    36945    36955    36885    36834    36832    36792 
   36727    36793    36975    37056    36976    36877    36812    36763 
   36779    36838    36855    36870    36929    36948    36902    36857 
   36802    36699    36610    36612    36691    36780    36841    36912 
   37030    37110    37085    37022    36978    36931    36846    36758 
   36767    36862    36925    36935    36906    36821    36760    36765 
   36768    36781    36843    36898    36887    36842    36824    36813 
   36770    36719    36705    36763    36870    36944    36928    36855 
   36824    36895    36982    36949    36844    36841    36924    36930 
   36888    36893    36897    36880    36889    36904    36898    36862 
   36778    36730    36800    36895    36902    36834    36762    36738 
   36782    36852    36875    36873    36944    37067    37104    36987 
   36803    36688    36662    36637    36628    36730    36900    36997 
   36990    36925    36817    36745    36750    36796    36916    37065 
   37121    37054    36881    36720    36724    36850    36947    36917 
   36806    36739    36743    36763    36776    36776    36784    36817 
   36849    36872    36907    36962    37025    37049    37009    36935 
   36858    36812    36801    36771    36717    36721    36782    36816 
   36851    36937    36987    36896    36762    36770    36877    36919 
   36889    36850    36827    36848    36875    36851    36810    36813 
   36871    36914    36864    36792    36795    36833    36850    36839 
   36800    36770    36775    36787    36839    36925    36935    36910 
   36916    36894    36877    36908    36954    37010    37021    36943 
   36823    36715    36687    36758    36867    36932    36899    36819 
   36792    36833    36871    36845    36783    36767    36804    36844 
   36827    36761    36753    36823    36907    36969    36959    36938 
   36993    37011    36934    36857    36821    36857    36971    37050 
   37021    36885    36701    36627    36710    36794    36798    36791 
   36811    36857    36893    36919    36965    36938    36845    36812 
   36808    36805    36828    36823    36779    36739    36712    36706 
   36741    36811    36866    36875    36888    36944    36971    36925 
   36878    36903    36968    36964    36894    36887    36948    36957 
   36889    36832    36815    36798    36810    36850    36853    36851 
   36875    36875    36852    36823    36777    36754    36763    36783 
   36843    36905    36907    36886    36882    36912    36965    36949 
   36846    36761    36727    36727    36771    36847    36918    36941 
   36931    36929    36891    36801    36762    36803    36852    36886 
   36914    36932    36929    36898    36873    36873    36900    36954 
   36972    36903    36793    36723    36709    36730    36789    36841 
   36827    36768    36728    36771    36871    36929    36934    36953 
   37004    37015    36911    36765    36733    36799    36838    36849 
   36830    36770    36779    36881    36958    36979    36985    36959 
   36880    36799    36767    36773    36782    36791    36831    36862 
   36835    36835    36883    36894    36887    36888    36867    36847 
   36842    36797    36695    36607    36625    36725    36827    36955 
   37065    37070    37018    36929    36840    36885    37008    37042 
   36963    36831    36737    36743    36799    36849    36856    36805 
   36781    36846    36899    36888    36889    36887    36829    36763 
   36737    36773    36862    36928    36954    36952    36903    36889 
   36956    36985    36935    36872    36829    36806    36786    36775 
   36811    36878    36905    36876    36825    36764    36740    36776 
   36782    36734    36730    36806    36880    36875    36836    36858 
   36905    36895    36846    36802    36810    36892    36981    37021 
   37014    36956    36844    36723    36719    36838    36879    36791 
   36753    36803    36837    36872    36943    36967    36892    36835 
   36911    37001    36950    36858    36881    36967    36963    36865 
   36787    36787    36844    36873    36828    36811    36828    36759 
   36700    36778    36894    36922    36857    36782    36749    36766 
   36826    36875    36890    36892    36902    36955    36998    36960 
   36904    36877    36861    36857    36857    36841    36829    36839 
   36842    36842    36880    36924    36903    36846    36822    36835 
   36825    36774    36749    36811    36902    36955    36969    36935 
   36881    36871    36893    36864    36767    36715    36779    36879 
   36911    36902    36897    36863    36797    36739    36714    36737 
   36798    36862    36892    36870    36833    36842    36885    36888 
   36847    36837    36861    36855    36846    36893    36908    36829 
   36783    36819    36860    36911    36970    36992    36945    36821 
   36768    36891    37014    36999    36902    36807    36786    36825 
   36840    36815    36786    36795    36847    36884    36880    36869 
   36859    36862    36883    36867    36816    36783    36759    36748 
   36773    36825    36874    36894    36878    36842    36831    36860 
