Origin Time       2005/10/21 00:36:00
Lat.              36.057
Long.             137.572
Depth. (km)       8
Mag.              2.6
Station Code      GIF007
Station Lat.      36.0378
Station Long.     137.4861
Station Height(m) 995
Record Time       2005/10/21 00:36:57
Sampling Freq(Hz) 100Hz
Duration Time(s)  60
Dir.              E-W
Scale Factor      3920(gal)/6182761
Max. Acc. (gal)   11.708
Last Correction   2005/10/21 00:36:42
Memo.             
[...]
   42866    42855    42869    42876    42858    42859    42876    42864 
   42850    42868    42879    42861    42856    42872    42870    42857 
   42864    42873    42867    42865    42866    42863    42863    42863 
   42861    42868    42873    42864    42857    42862    42864    42866 
   42875    42871    42856    42861    42875    42864    42854    42872 
   42877    42859    42857    42867    42864    42864    42873    42866 
   42857    42867    42870    42855    42861    42877    42865    42855 
   42870    42872    42856    42863    42879    42870    42856    42862 
   42867    42863    42865    42869    42868    42865    42859    42861 
   42870    42868    42862    42871    42873    42856    42855    42874 
   42871    42850    42860    42882    42865    42849    42872    42878 
   42853    42853    42873    42876    42866    42857    42858    42871 
   42871    42855    42862    42879    42866    42852    42868    42876 
   42861    42860    42870    42862    42857    42874    42874    42852 
   42859    42885    42871    42849    42864    42875    42861    42860 
   42873    42871    42863    42859    42860    42867    42871    42865 
   42865    42871    42864    42859    42871    42871    42862    42867 
   42866    42851    42857    42884    42875    42854    42869    42879 
   42858    42855    42872    42868    42857    42872    42873    42849 
   42854    42879    42873    42852    42859    42878    42876    42858 
   42854    42869    42875    42860    42851    42870    42883    42864 
   42854    42868    42863    42849    42866    42885    42870    42856 
   42866    42866    42855    42864    42875    42868    42860    42864 
   42865    42865    42870    42865    42864    42871    42861    42850 
   42869    42883    42862    42855    42873    42868    42850    42861 
   42879    42868    42857    42866    42869    42864    42867    42866 
   42863    42868    42870    42861    42853    42861    42876    42873 
   42858    42860    42870    42868    42859    42860    42875    42878 
   42856    42853    42873    42869    42855    42868    42877    42860 
   42851    42867    42878    42865    42857    42866    42868    42866 
   42868    42865    42867    42868    42856    42858    42876    42870 
   42855    42868    42877    42862    42857    42871    42870    42856 
   42863    42881    42868    42849    42864    42881    42865    42853 
   42867    42875    42861    42855    42872    42879    42860    42850 
   42871    42879    42854    42855    42886    42877    42841    42850 
   42886    42876    42840    42855    42888    42869    42840    42861 
   42893    42876    42848    42865    42884    42861    42840    42866 
   42892    42866    42845    42874    42883    42850    42846    42881 
   42882    42856    42861    42877    42867    42855    42862    42870 
   42874    42871    42857    42859    42875    42867    42850    42865 
   42883    42867    42854    42870    42874    42856    42853    42868 
   42877    42870    42858    42864    42873    42860    42850    42867 
   42879    42861    42853    42872    42875    42853    42856    42880 
   42874    42855    42866    42872    42857    42860    42871    42865 
   42866    42878    42868    42855    42864    42869    42860    42862 
   42874    42870    42861    42865    42865    42862    42869    42871 
   42863    42868    42873    42860    42856    42872    42870    42856 
   42865    42878    42866    42856    42863    42866    42867    42869 
   42864    42864    42872    42867    42859    42867    42869    42859 
   42865    42879    42867    42853    42870    42877    42854    42850 
   42875    42877    42859    42861    42867    42864    42866    42867 
   42864    42871    42871    42857    42857    42870    42867    42860 
   42867    42874    42865    42859    42865    42867    42864    42865 
   42864    42865    42871    42861    42853    42870    42878    42857 
   42856    42877    42870    42856    42870    42873    42858    42864 
   42874    42861    42856    42871    42869    42855    42865    42875 
   42863    42859    42874    42873    42860    42861    42868    42869 
   42863    42855    42864    42878    42868    42848    42863    42886 
   42866    42845    42868    42883    42858    42849    42872    42874 
   42855    42859    42872    42871    42866    42859    42859    42874 
   42872    42850    42858    42883    42868    42845    42868    42884 
   42853    42848    42882    42878    42847    42857    42883    42867 
   42846    42865    42884    42867    42850    42863    42881    42871 
   42852    42861    42874    42863    42858    42872    42869    42853 
   42865    42885    42863    42844    42873    42882    42850    42852 
   42881    42868    42851    42874    42881    42853    42853    42875 
   42870    42857    42868    42879    42870    42861    42860    42862 
   42861    42858    42865    42881    42879    42854    42849    42874 
   42873    42846    42860    42891    42872    42847    42864    42877 
   42862    42857    42872    42872    42860    42858    42866    42871 
   42869    42860    42860    42875    42875    42855    42858    42877 
   42868    42854    42866    42874    42867    42865    42862    42859 
   42863    42863    42860    42876    42886    42856    42842    42879 
   42883    42841    42855    42898    42874    42835    42860    42889 
   42866    42845    42868    42890    42865    42836    42861    42894 
   42873    42840    42859    42895    42874    42832    42858    42894 
   42861    42835    42874    42895    42862    42848    42868    42875 
   42859    42848    42869    42888    42869    42851    42865    42878 
   42859    42847    42873    42885    42863    42857    42872    42869 
   42859    42864    42864    42861    42866    42867    42860    42866 
   42876    42867    42853    42861    42869    42860    42863    42879 
   42873    42856    42864    42874    42861    42858    42872    42869 
   42858    42860    42867    42870    42867    42862    42863    42872 
   42867    42853    42863    42882    42868    42851    42868    42877 
   42855    42854    42878    42875    42857    42864    42874    42863 
   42857    42865    42868    42867    42867    42866    42869    42869 
   42859    42859    42869    42869    42865    42867    42867    42867 
   42873    42865    42853    42867    42875    42854    42851    42882 
   42881    42847    42855    42884    42866    42844    42868    42883 
   42860    42859    42877    42860    42847    42870    42880    42861 
   42861    42874    42869    42859    42859    42862    42867    42872 
   42862    42855    42871    42879    42860    42855    42876    42874 
   42857    42864    42869    42861    42868    42872    42860    42861 
   42872    42863    42853    42866    42881    42872    42856    42862 
   42868    42861    42860    42866    42873    42872    42859    42859 
   42873    42869    42856    42864    42873    42866    42866    42869 
   42861    42862    42867    42861    42860    42871    42871    42864 
   42871    42873    42856    42852    42873    42874    42853    42862 
   42882    42864    42845    42866    42883    42865    42853    42865 
   42873    42868    42857    42854    42871    42879    42859    42850 
   42872    42879    42856    42851    42877    42881    42851    42848 
   42878    42884    42861    42849    42868    42879    42859    42848 
   42866    42880    42869    42858    42867    42870    42856    42858 
   42871    42864    42864    42880    42866    42845    42867    42884 
   42857    42850    42880    42876    42848    42859    42880    42868 
   42856    42866    42870    42861    42864    42870    42866    42866 
   42868    42858    42857    42871    42870    42860    42867    42871 
   42858    42859    42873    42868    42860    42867    42871    42864 
   42860    42865    42870    42867    42862    42863    42870    42867 
   42858    42867    42880    42867    42853    42864    42873    42863 
   42862    42873    42867    42858    42868    42873    42861    42860 
   42869    42869    42863    42861    42865    42869    42865    42858 
   42864    42874    42866    42854    42865    42878    42863    42854 
   42873    42875    42857    42862    42873    42860    42856    42872 
   42874    42863    42864    42868    42864    42866    42868    42862 
   42861    42868    42865    42862    42869    42868    42864    42866 
   42865    42858    42867    42875    42858    42857    42875    42864 
   42845    42871    42889    42858    42852    42877    42864    42846 
   42869    42883    42862    42856    42874    42868    42846    42853 
   42881    42882    42862    42860    42870    42863    42853    42861 
   42875    42873    42866    42868    42868    42860    42859    42866 
   42867    42864    42871    42874    42859    42850    42865    42872 
   42857    42860    42879    42875    42856    42860    42867    42862 
   42866    42872    42864    42865    42869    42860    42853    42864 
   42870    42867    42872    42868    42861    42863    42863    42863 
   42869    42870    42866    42865    42866    42858    42856    42876 
   42878    42851    42856    42884    42871    42848    42866    42878 
   42855    42856    42879    42870    42854    42868    42873    42857 
   42858    42870    42866    42861    42868    42870    42862    42861 
   42867    42869    42868    42865    42866    42865    42857    42859 
   42872    42871    42859    42862    42873    42864    42851    42867 
   42880    42862    42862    42883    42865    42840    42866    42892 
   42862    42845    42879    42884    42844    42841    42881    42892 
   42861    42846    42871    42882    42852    42838    42875    42896 
   42861    42842    42872    42884    42851    42847    42877    42880 
   42863    42860    42865    42864    42862    42863    42861    42868 
   42882    42869    42847    42860    42881    42871    42855    42864 
   42876    42861    42847    42860    42883    42878    42853    42860 
   42880    42862    42841    42862    42884    42872    42860    42870 
   42871    42853    42851    42872    42877    42867    42862    42861 
   42865    42869    42859    42854    42868    42877    42866    42860 
   42867    42867    42860    42858    42860    42865    42874    42867 
   42852    42867    42885    42859    42844    42875    42877    42850 
   42858    42877    42869    42859    42865    42867    42863    42863 
   42863    42860    42867    42875    42864    42859    42873    42867 
   42848    42864    42881    42863    42854    42874    42877    42858 
   42855    42868    42870    42861    42862    42871    42870    42858 
   42855    42870    42873    42851    42855    42885    42875    42842 
   42859    42887    42862    42843    42874    42887    42855    42847 
   42874    42871    42851    42865    42878    42863    42861    42875 
   42865    42854    42865    42871    42862    42861    42866    42865 
   42863    42870    42871    42861    42859    42864    42865    42863 
   42862    42870    42874    42862    42858    42871    42868    42855 
   42867    42877    42859    42857    42876    42869    42849    42861 
   42879    42865    42853    42872    42878    42858    42857    42872 
   42874    42863    42852    42863    42881    42866    42843    42867 
   42892    42861    42838    42876    42888    42841    42835    42889 
   42896    42846    42844    42885    42873    42836    42856    42890 
   42876    42853    42862    42878    42867    42846    42859    42882 
   42869    42853    42870    42878    42855    42848    42874    42882 
   42857    42853    42877    42876    42853    42854    42871    42870 
   42861    42865    42869    42869    42867    42862    42863    42871 
   42862    42836    42818    42810    42876    43034    42944    42289 
   41665    42125    43409    44305    44458    43512    41972    42663 
   44661    43597    41663    42380    42082    40458    42149    44230 
   42789    42056    43248    42183    40931    43743    46217    44237 
   42059    42523    43793    44169    43584    43345    42831    41581 
   41804    42432    41467    41051    41772    42084    42305    43039 
   43922    44005    43950    44740    44231    42897    43297    43219 
   42307    42873    42881    41975    42637    43175    42371    42119 
   41697    41015    42232    43179    42617    43937    45066    43282 
   42949    44031    42864    41623    41883    42405    43368    44325 
   43920    42424    41562    41966    42803    43403    43774    43680 
   42888    42875    43328    42132    40945    41445    41770    41432 
   42568    44882    45404    44072    43371    43746    43180    42104 
   43041    43667    42255    42439    43367    41833    40911    41831 
   41839    42338    43600    43129    42758    43550    43258    43053 
   44525    45246    44787    45302    44654    40753    38209    39300 
   39757    39047    40616    43590    44956    45113    44996    44815 
   45537    46731    47512    46261    42213    40459    42618    40627 
   33968    34668    42095    42330    39114    43345    47162    46246 
   46602    44831    43454    48837    50858    46118    42705    39141 
   35640    36687    38548    40892    45822    44951    39325    40892 
   45818    45901    43122    39439    37445    39635    43541    46399 
   47081    45687    44519    46789    51408    52415    47788    41552 
   37413    35759    35606    34844    33038    34244    35480    33180 
   38269    51536    58950    61063    61331    53714    44157    41627 
   41197    39121    35423    30071    29364    35373    40941    43543 
   45013    44262    42782    44540    47359    48580    50241    49641 
   44569    41982    42634    39813    37931    41712    42925    40895 
   42470    42688    38681    37445    39448    41804    45228    48090 
   48380    46899    44789    43361    42593    40943    39289    39577 
   41400    43475    44665    44581    44552    45114    44794    43599 
   43558    43785    41062    37309    37057    38844    40523    43278 
   44807    44422    46131    47854    46112    44785    45152    43690 
   41576    41214    41137    40439    40375    41908    43376    42877 
   42464    43476    43246    41166    40019    40902    42139    42797 
   43783    45029    45918    46765    47081    46514    45971    44839 
   41403    37559    36995    38239    38236    38698    40766    42724 
   44241    45473    46471    47120    46555    45735    45643    44546 
   42232    41171    41433    40777    39604    39806    40880    41696 
   42385    43208    44382    45561    45570    44181    42318    41404 
   42587    43959    43104    42160    42760    42628    41802    42251 
   43081    43078    42879    42766    42534    42748    43580    44208 
   44294    43912    43073    42405    42209    41494    40493    40883 
   41803    42067    43203    44559    44403    44358    44745    44329 
   44098    43891    42694    41800    41557    40869    40633    41621 
   42214    42182    43083    44058    43943    43905    43707    42529 
   41985    42593    42854    42716    42863    42956    43289    44164 
   44166    43464    43682    43801    42976    42277    41435    40407 
   40615    41679    41892    41591    42531    44370    44938    44454 
   44693    44935    44265    43620    43077    42263    41539    41084 
   41130    41585    41885    42058    42502    43149    43541    43687 
   43888    43809    43252    42873    43050    43251    43206    43238 
   43148    42705    42341    42160    41916    41690    41965    42696 
   42640    42170    43184    44430    43947    43464    44211    44432 
   43602    42889    42272    41704    41696    41699    41397    41211 
   41432    42489    43736    44281    44730    45071    44597    43750 
   43106    42559    42038    41855    41884    41517    41268    42006 
   42642    42392    42912    44210    44310    43777    43609    43118 
   42823    43040    42652    42332    42961    43208    42939    43168 
   43009    42130    42021    42500    42133    41734    42597    43277 
   42903    43121    43810    43786    43782    43768    43249    43081 
   42901    42132    41922    42235    42066    41966    42394    42687 
   42721    42901    43007    43017    43535    44081    43918    43510 
   43164    43184    43470    42987    42189    41906    41645    41720 
   42336    42587    42528    42649    42982    43546    43775    43440 
   43208    43121    42972    42890    42863    43048    43109    42701 
   42531    42517    42399    42708    42698    42282    42726    43383 
   43409    43283    43178    43223    42946    42198    42444    43264 
   42890    42398    42904    42989    42417    42488    42994    43201 
   43192    43088    43131    43323    43177    42677    42308    42273 
   42270    42280    42665    43112    43104    42881    42828    42985 
   43166    43223    43393    43762    43741    43204    42898    42738 
   42176    41867    42071    42095    42173    42534    42702    42767 
   42754    42745    43365    43922    43570    43390    43797    43742 
   43252    43105    43058    42626    42292    42161    41675    41522 
   42237    42615    42294    42367    42955    43340    43503    43713 
   43884    43917    43696    43184    42757    42643    42605    42595 
   42601    42304    42041    42294    42489    42519    42794    42855 
   42855    43252    43345    43221    43411    43306    43244    43734 
   43359    42148    42081    42732    42606    42259    42421    42765 
   42834    42600    42641    42954    42864    42804    43326    43709 
   43580    43282    43002    42913    42814    42371    42171    42624 
   42795    42416    42543    43162    43233    42790    42748    43108 
   43152    42938    42714    42599    42866    42956    42700    42866 
   43062    42783    42705    43028    43240    43170    43063    43022 
   42945    42957    42917    42570    42316    42394    42643    42966 
   42983    42623    42559    42755    42642    42756    43266    43137 
   42772    43326    43846    43269    42794    43173    43231    42678 
   42386    42404    42550    42591    42144    42000    42607    42861 
   42709    43001    43281    43157    43292    43687    43797    43570 
   43078    42678    42680    42615    42390    42485    42665    42593 
   42451    42279    42250    42565    42812    42959    43284    43307 
   43192    43621    43815    43334    43075    43013    42699    42459 
   42320    42181    42305    42492    42513    42695    42953    43053 
   43222    43349    43261    43078    42806    42729    42924    42872 
   42689    42810    42873    42684    42799    43211    43115    42668 
   42781    43022    42764    42700    42934    42902    42791    42771 
   42827    42982    42908    42724    42757    42722    42734    42984 
   42969    42742    42779    42929    42973    43032    43085    43020 
   43033    43105    42896    42729    42878    42779    42506    42623 
   42728    42542    42586    42759    42676    42781    43281    43578 
   43401    43111    42917    42758    42719    42808    42837    42850 
   42883    42783    42689    42755    42793    42710    42642    42673 
   42701    42802    43058    43050    42923    43177    43163    42745 
   42841    43147    43074    42984    42925    42823    42839    42659 
