Origin Time       2005/10/21 00:36:00
Lat.              36.057
Long.             137.572
Depth. (km)       8
Mag.              2.6
Station Code      GIF007
Station Lat.      36.0378
Station Long.     137.4861
Station Height(m) 995
Record Time       2005/10/21 00:36:57
Sampling Freq(Hz) 100Hz
Duration Time(s)  60
Dir.              N-S
Scale Factor      3920(gal)/6182761
Max. Acc. (gal)   19.270
Last Correction   2005/10/21 00:36:42
Memo.             
[...]
  -44152   -44146   -44144   -44149   -44151   -44151   -44153   -44150 
  -44147   -44153   -44151   -44145   -44150   -44152   -44142   -44140 
  -44152   -44156   -44148   -44152   -44160   -44148   -44142   -44150 
  -44148   -44144   -44150   -44152   -44148   -44149   -44151   -44150 
  -44151   -44155   -44151   -44143   -44146   -44149   -44148   -44153 
  -44151   -44145   -44153   -44157   -44145   -44145   -44155   -44152 
  -44145   -44148   -44150   -44145   -44147   -44152   -44147   -44146 
  -44155   -44154   -44143   -44147   -44153   -44144   -44146   -44154 
  -44144   -44138   -44153   -44159   -44149   -44148   -44153   -44150 
  -44143   -44144   -44146   -44145   -44149   -44150   -44150   -44154 
  -44153   -44149   -44151   -44148   -44145   -44151   -44152   -44140 
  -44139   -44156   -44160   -44147   -44149   -44159   -44152   -44139 
  -44145   -44152   -44147   -44142   -44145   -44154   -44158   -44153 
  -44148   -44151   -44151   -44145   -44143   -44144   -44144   -44146 
  -44150   -44154   -44155   -44157   -44156   -44142   -44131   -44147 
  -44159   -44146   -44144   -44156   -44154   -44148   -44156   -44156 
  -44145   -44142   -44146   -44148   -44149   -44150   -44154   -44154 
  -44147   -44146   -44149   -44148   -44150   -44153   -44150   -44143 
  -44145   -44156   -44156   -44145   -44147   -44157   -44156   -44147 
  -44145   -44146   -44143   -44145   -44153   -44153   -44150   -44158 
  -44161   -44143   -44128   -44141   -44157   -44152   -44145   -44154 
  -44159   -44148   -44141   -44140   -44146   -44154   -44152   -44148 
  -44151   -44150   -44148   -44152   -44152   -44147   -44149   -44154 
  -44151   -44145   -44147   -44151   -44146   -44147   -44155   -44153 
  -44149   -44150   -44148   -44149   -44152   -44149   -44147   -44151 
  -44150   -44146   -44151   -44156   -44151   -44144   -44149   -44151 
  -44143   -44146   -44158   -44156   -44148   -44146   -44146   -44150 
  -44157   -44153   -44137   -44134   -44148   -44156   -44150   -44152 
  -44158   -44152   -44148   -44148   -44143   -44148   -44152   -44142 
  -44145   -44155   -44150   -44148   -44155   -44151   -44139   -44142 
  -44158   -44156   -44142   -44146   -44153   -44150   -44152   -44153 
  -44148   -44149   -44149   -44144   -44149   -44153   -44145   -44143 
  -44152   -44154   -44149   -44150   -44155   -44149   -44142   -44153 
  -44153   -44134   -44138   -44159   -44156   -44145   -44152   -44155 
  -44146   -44146   -44149   -44148   -44147   -44144   -44146   -44158 
  -44153   -44141   -44155   -44164   -44143   -44130   -44147   -44158 
  -44141   -44136   -44161   -44168   -44147   -44143   -44153   -44149 
  -44140   -44145   -44156   -44157   -44146   -44143   -44153   -44154 
  -44141   -44143   -44160   -44154   -44135   -44144   -44156   -44146 
  -44144   -44158   -44160   -44151   -44146   -44143   -44140   -44146 
  -44149   -44148   -44156   -44162   -44151   -44142   -44148   -44152 
  -44143   -44143   -44158   -44158   -44143   -44145   -44154   -44152 
  -44146   -44148   -44155   -44153   -44146   -44144   -44147   -44149 
  -44148   -44152   -44162   -44157   -44142   -44143   -44150   -44146 
  -44147   -44155   -44155   -44151   -44149   -44144   -44140   -44146 
  -44154   -44152   -44148   -44153   -44151   -44140   -44141   -44151 
  -44149   -44148   -44157   -44155   -44147   -44149   -44148   -44144 
  -44150   -44155   -44149   -44148   -44152   -44144   -44139   -44149 
  -44154   -44149   -44151   -44157   -44153   -44150   -44151   -44148 
  -44147   -44150   -44150   -44147   -44150   -44151   -44146   -44151 
  -44158   -44149   -44147   -44157   -44151   -44138   -44147   -44155 
  -44147   -44146   -44155   -44152   -44147   -44147   -44144   -44147 
  -44156   -44153   -44145   -44150   -44155   -44149   -44143   -44147 
  -44152   -44151   -44151   -44151   -44146   -44144   -44148   -44151 
  -44153   -44152   -44144   -44144   -44156   -44154   -44142   -44146 
  -44154   -44150   -44149   -44152   -44147   -44147   -44154   -44153 
  -44146   -44147   -44152   -44148   -44145   -44154   -44156   -44146 
  -44147   -44157   -44152   -44142   -44145   -44154   -44152   -44143 
  -44146   -44158   -44158   -44148   -44146   -44155   -44155   -44143 
  -44142   -44156   -44154   -44141   -44146   -44155   -44148   -44144 
  -44150   -44153   -44151   -44147   -44147   -44153   -44156   -44145 
  -44138   -44150   -44156   -44147   -44144   -44156   -44155   -44142 
  -44147   -44157   -44145   -44139   -44158   -44161   -44145   -44144 
  -44157   -44155   -44141   -44141   -44152   -44151   -44144   -44146 
  -44151   -44152   -44153   -44151   -44144   -44141   -44147   -44155 
  -44151   -44139   -44147   -44167   -44157   -44140   -44149   -44150 
  -44138   -44145   -44157   -44153   -44148   -44157   -44161   -44143 
  -44132   -44143   -44150   -44147   -44153   -44160   -44153   -44147 
  -44145   -44145   -44150   -44148   -44141   -44152   -44163   -44148 
  -44138   -44153   -44159   -44146   -44144   -44150   -44145   -44140 
  -44147   -44152   -44151   -44149   -44154   -44155   -44149   -44144 
  -44140   -44141   -44154   -44155   -44147   -44154   -44159   -44146 
  -44140   -44145   -44148   -44149   -44151   -44153   -44154   -44149 
  -44139   -44145   -44161   -44155   -44138   -44149   -44167   -44146 
  -44129   -44153   -44164   -44146   -44144   -44156   -44151   -44135 
  -44137   -44156   -44161   -44145   -44147   -44167   -44157   -44132 
  -44128   -44149   -44164   -44149   -44142   -44163   -44163   -44139 
  -44137   -44149   -44147   -44143   -44150   -44162   -44164   -44148 
  -44140   -44150   -44146   -44138   -44149   -44160   -44158   -44152 
  -44148   -44149   -44150   -44147   -44145   -44149   -44153   -44152 
  -44149   -44152   -44154   -44148   -44143   -44144   -44149   -44156 
  -44152   -44145   -44151   -44150   -44141   -44148   -44155   -44147 
  -44147   -44158   -44156   -44143   -44143   -44153   -44148   -44143 
  -44151   -44152   -44147   -44149   -44151   -44152   -44155   -44151 
  -44143   -44149   -44153   -44142   -44143   -44158   -44153   -44141 
  -44150   -44154   -44144   -44147   -44154   -44150   -44148   -44152 
  -44153   -44149   -44147   -44147   -44149   -44151   -44151   -44147 
  -44148   -44154   -44154   -44145   -44139   -44147   -44156   -44154 
  -44149   -44152   -44153   -44143   -44137   -44146   -44155   -44147 
  -44144   -44160   -44164   -44146   -44139   -44146   -44143   -44143 
  -44156   -44157   -44148   -44153   -44157   -44144   -44137   -44145 
  -44154   -44153   -44149   -44149   -44151   -44151   -44152   -44147 
  -44143   -44153   -44154   -44140   -44147   -44159   -44148   -44143 
  -44150   -44149   -44148   -44152   -44150   -44149   -44153   -44151 
  -44142   -44137   -44147   -44158   -44151   -44148   -44159   -44156 
  -44146   -44146   -44147   -44145   -44145   -44146   -44152   -44158 
  -44152   -44145   -44148   -44151   -44151   -44150   -44147   -44149 
  -44151   -44148   -44150   -44151   -44147   -44146   -44151   -44155 
  -44155   -44146   -44143   -44150   -44147   -44143   -44156   -44163 
  -44148   -44140   -44152   -44150   -44135   -44139   -44154   -44156 
  -44150   -44146   -44152   -44160   -44155   -44140   -44138   -44150 
  -44154   -44141   -44145   -44166   -44158   -44137   -44148   -44161 
  -44147   -44139   -44151   -44161   -44155   -44144   -44139   -44144 
  -44151   -44151   -44150   -44154   -44156   -44148   -44146   -44145 
  -44140   -44148   -44154   -44145   -44150   -44165   -44157   -44139 
  -44145   -44157   -44147   -44138   -44150   -44157   -44148   -44146 
  -44150   -44148   -44148   -44150   -44148   -44147   -44152   -44151 
  -44144   -44149   -44154   -44146   -44145   -44154   -44151   -44143 
  -44149   -44151   -44144   -44146   -44153   -44152   -44150   -44150 
  -44148   -44146   -44149   -44150   -44148   -44148   -44148   -44146 
  -44150   -44155   -44151   -44147   -44151   -44151   -44144   -44146 
  -44151   -44149   -44148   -44154   -44150   -44143   -44147   -44153 
  -44151   -44146   -44148   -44155   -44154   -44147   -44149   -44151 
  -44149   -44147   -44146   -44150   -44151   -44146   -44147   -44154 
  -44149   -44145   -44154   -44153   -44141   -44143   -44151   -44148 
  -44146   -44150   -44151   -44152   -44153   -44149   -44143   -44146 
  -44153   -44150   -44146   -44150   -44154   -44149   -44147   -44148 
  -44145   -44149   -44153   -44148   -44151   -44156   -44142   -44140 
  -44157   -44154   -44145   -44157   -44160   -44145   -44142   -44146 
  -44143   -44144   -44156   -44166   -44153   -44137   -44146   -44152 
  -44139   -44142   -44158   -44160   -44156   -44152   -44144   -44140 
  -44142   -44147   -44154   -44157   -44155   -44151   -44146   -44145 
  -44146   -44150   -44154   -44153   -44152   -44155   -44146   -44135 
  -44146   -44158   -44153   -44150   -44154   -44148   -44143   -44150 
  -44150   -44145   -44156   -44163   -44151   -44141   -44141   -44142 
  -44145   -44152   -44155   -44154   -44154   -44153   -44149   -44143 
  -44145   -44150   -44150   -44148   -44147   -44149   -44154   -44147 
  -44140   -44152   -44160   -44147   -44142   -44151   -44149   -44142 
  -44148   -44151   -44145   -44149   -44158   -44152   -44144   -44148 
  -44152   -44148   -44150   -44154   -44148   -44144   -44147   -44149 
  -44147   -44151   -44155   -44154   -44148   -44148   -44151   -44147 
  -44145   -44149   -44154   -44156   -44148   -44142   -44149   -44149 
  -44147   -44160   -44160   -44139   -44140   -44159   -44153   -44138 
  -44151   -44169   -44154   -44132   -44141   -44157   -44151   -44144 
  -44155   -44167   -44157   -44139   -44139   -44150   -44149   -44137 
  -44144   -44166   -44165   -44143   -44143   -44154   -44153   -44149 
  -44148   -44147   -44150   -44150   -44145   -44144   -44156   -44163 
  -44147   -44137   -44151   -44156   -44141   -44142   -44160   -44161 
  -44143   -44139   -44151   -44151   -44142   -44146   -44160   -44162 
  -44150   -44139   -44141   -44148   -44147   -44148   -44161   -44163 
  -44148   -44145   -44149   -44143   -44140   -44147   -44154   -44159 
  -44157   -44147   -44145   -44152   -44154   -44143   -44138   -44151 
  -44157   -44149   -44147   -44152   -44155   -44153   -44145   -44142 
  -44154   -44152   -44135   -44144   -44162   -44153   -44144   -44150 
  -44151   -44147   -44145   -44149   -44154   -44151   -44150   -44152 
  -44145   -44145   -44151   -44144   -44149   -44161   -44149   -44143 
  -44154   -44149   -44136   -44143   -44160   -44159   -44150   -44152 
  -44152   -44143   -44143   -44151   -44152   -44150   -44152   -44154 
  -44155   -44147   -44138   -44147   -44158   -44146   -44145   -44161 
  -44159   -44142   -44143   -44152   -44146   -44139   -44153   -44162 
  -44149   -44147   -44154   -44144   -44139   -44153   -44155   -44145 
  -44151   -44158   -44151   -44146   -44150   -44146   -44139   -44147 
  -44157   -44151   -44149   -44154   -44150   -44145   -44146   -44147 
  -44152   -44154   -44148   -44151   -44156   -44148   -44142   -44145 
  -44145   -44144   -44155   -44160   -44150   -44145   -44153   -44154 
  -44145   -44148   -44159   -44152   -44140   -44144   -44150   -44147 
  -44145   -44151   -44160   -44158   -44143   -44139   -44152   -44151 
  -44139   -44150   -44170   -44158   -44131   -44135   -44158   -44150 
  -44136   -44156   -44171   -44152   -44139   -44148   -44148   -44141 
  -44147   -44158   -44158   -44152   -44151   -44151   -44141   -44136 
  -44146   -44155   -44156   -44153   -44150   -44155   -44151   -44136 
  -44140   -44158   -44156   -44145   -44149   -44151   -44143   -44146 
  -44151   -44147   -44150   -44157   -44151   -44150   -44154   -44146 
  -44148   -44185   -44252   -44319   -44255   -43926   -43584   -43829 
  -44767   -45312   -44414   -42972   -42567   -43470   -44879   -45425 
  -44912   -44014   -42909   -43002   -44689   -46520   -46898   -43656 
  -39966   -41367   -45652   -47890   -46236   -43104   -42427   -42823 
  -43011   -44759   -45651   -43163   -40547   -42085   -46412   -47588 
  -46039   -45925   -44657   -42385   -43053   -44598   -44811   -43521 
  -42406   -44090   -44927   -43541   -43722   -43842   -42758   -42804 
  -43859   -45219   -45908   -45951   -46592   -46129   -43870   -42323 
  -42068   -42457   -43212   -43391   -43239   -43949   -45278   -46359 
  -46150   -44344   -43363   -44141   -44854   -45210   -44474   -42412 
  -41764   -43080   -44125   -44349   -44352   -43515   -42776   -44249 
  -46069   -46071   -45333   -44590   -44085   -44462   -45269   -45075 
  -43540   -41807   -41131   -42098   -43678   -44302   -44163   -44604 
  -46366   -48004   -47117   -44370   -41969   -40649   -41632   -44524 
  -45705   -44419   -42855   -42423   -44499   -47065   -46199   -43611 
  -42352   -43217   -47504   -53047   -54372   -49778   -42522   -35644 
  -30231   -28777   -31936   -35569   -38091   -41795   -47601   -54776 
  -60507   -62738   -62868   -58810   -48260   -38801   -36368   -37208 
  -38577   -37422   -33552   -33950   -37214   -39957   -41934   -36372 
  -30357   -38251   -50898   -57495   -62836   -65831   -62184   -57042 
  -51855   -43814   -38106   -36784   -34339   -30850   -29080   -29198 
  -32629   -39374   -44561   -42680   -35870   -35328   -46647   -62158 
  -72158   -70367   -59300   -51295   -51042   -52344   -48129   -34214 
  -17619   -13756   -23916   -32950   -34439   -34865   -38136   -45554 
  -55761   -62269   -62307   -60317   -61446   -63109   -58089   -47848 
  -38456   -31012   -26569   -25942   -26307   -27994   -34072   -42124 
  -48019   -50241   -47648   -44997   -49718   -57076   -58118   -54833 
  -51060   -46528   -44236   -45487   -44887   -40423   -35376   -31048 
  -29857   -34773   -41758   -45803   -47128   -46378   -44820   -45636 
  -49261   -51678   -49656   -46385   -45909   -46634   -47291   -47986 
  -46178   -41484   -37072   -35140   -36169   -39408   -42873   -44717 
  -45082   -45160   -45686   -47165   -48423   -47688   -46249   -46152 
  -46263   -44682   -42324   -41108   -41262   -41936   -42766   -44051 
  -44844   -44334   -44367   -45388   -45494   -45017   -44754   -43325 
  -41300   -41355   -43219   -45230   -46637   -46236   -44551   -43728 
  -44099   -44226   -43402   -43369   -44823   -45842   -46004   -45326 
  -43687   -42688   -42533   -42431   -42758   -43460   -44254   -44596 
  -44093   -44085   -45276   -45905   -44835   -43575   -43535   -43542 
  -42709   -42784   -44399   -45713   -46146   -46602   -46601   -45178 
  -43635   -43285   -42784   -41478   -41376   -43182   -44505   -44013 
  -43238   -43551   -44503   -44884   -44791   -44741   -44162   -44036 
  -45481   -46544   -46109   -45696   -45380   -43779   -42073   -41954 
  -42079   -42020   -42520   -42690   -43099   -44307   -45124   -45996 
  -46697   -46109   -45456   -45260   -44831   -44443   -44018   -43603 
  -43393   -42833   -42485   -43039   -43549   -43797   -44064   -43883 
  -43706   -44043   -44769   -45590   -45365   -44365   -43943   -43760 
  -43949   -44821   -44920   -44104   -43780   -43999   -44119   -44224 
  -44538   -44314   -43266   -43094   -44258   -44931   -44367   -43484 
  -43367   -43957   -44261   -44038   -43551   -43303   -43757   -44452 
  -45149   -45625   -45278   -45154   -45937   -45806   -44322   -43339 
  -43341   -43211   -42496   -41958   -41895   -41990   -43059   -44801 
  -44999   -44256   -44835   -46000   -46339   -46340   -46322   -45581 
  -44333   -43759   -43555   -43005   -42852   -42768   -41814   -41512 
  -43145   -44824   -44887   -44604   -44741   -44533   -44625   -45308 
  -45282   -44528   -43952   -43722   -43837   -44436   -45133   -45055 
  -44258   -43837   -44033   -44213   -44118   -43620   -42670   -41916 
  -42249   -43373   -44156   -44597   -45112   -45404   -45664   -45981 
  -45696   -44948   -44330   -43888   -43702   -43851   -44000   -43616 
  -42778   -42480   -43061   -43694   -43990   -44295   -44569   -44553 
  -44448   -44275   -44189   -44728   -45142   -44607   -44114   -44165 
  -44274   -44608   -44856   -44309   -43677   -43742   -43980   -43938 
  -43463   -42688   -42720   -43752   -44707   -45344   -45330   -44396 
  -43685   -43699   -44006   -44492   -44811   -44789   -44584   -44300 
  -44136   -44049   -44127   -44158   -43604   -43275   -43499   -43497 
  -43943   -44941   -45049   -44313   -43904   -44065   -44193   -44099 
  -44090   -43943   -43770   -44240   -44817   -44767   -44469   -44277 
  -44297   -44394   -44328   -44226   -43925   -43485   -43387   -43446 
  -43379   -43376   -43642   -44117   -44511   -44647   -44792   -45243 
  -45489   -45144   -44701   -44239   -43781   -43793   -44003   -43812 
  -43223   -42740   -42913   -43578   -44089   -44275   -44417   -44540 
  -44646   -44978   -45126   -44813   -44565   -44232   -43841   -44078 
  -44404   -44210   -43983   -43919   -43763   -43419   -43214   -43369 
  -43490   -43670   -44305   -44805   -44700   -44690   -45142   -45357 
  -44861   -44052   -43698   -44031   -44431   -44455   -44078   -43303 
  -42746   -42952   -43458   -43935   -44323   -44383   -44423   -44638 
  -44899   -45366   -45476   -44838   -44254   -43873   -43504   -43446 
  -43294   -42822   -42730   -43485   -44736   -45284   -44749   -44349 
  -44578   -44736   -44625   -44570   -44315   -43747   -43703   -44131 
  -44129   -43923   -43857   -43826   -43948   -43903   -43666   -43877 
  -44379   -44518   -44254   -44245   -44683   -44781   -44535   -44393 
  -44043   -43827   -44216   -44494   -44211   -43894   -43967   -44081 
  -43837   -43611   -43674   -43643   -43503   -43673   -44145   -44609 
  -44843   -44772   -44700   -44758   -44620   -44403   -44402   -44403 
  -44045   -43519   -43534   -43909   -43854   -43617   -43693   -43929 
  -43977   -43881   -44111   -44413   -44413   -44612   -44907   -44849 
  -44611   -44223   -44089   -44416   -44184   -43522   -43603   -43973 
  -43890   -43817   -43987   -44043   -43949   -43942   -44120   -44317 
  -44345   -44407   -44563   -44454   -44135   -43938   -44012   -44373 
  -44629   -44464   -44123   -43863   -43783   -44021   -44357   -44184 
  -43690   -43734   -44117   -44170   -44113   -44078   -43863   -43777 
  -44137   -44712   -44981   -44728   -44365   -44208   -44247   -44437 
  -44398   -43896   -43388   -43356   -43720   -43975   -43997   -44144 
  -44282   -44060   -43887   -44250   -44810   -44957   -44565   -44120 
  -44090   -44274   -44430   -44431   -44035   -43560   -43488   -43837 
  -44285   -44268   -43796   -43575   -43916   -44397   -44462   -44189 
  -44077   -44181   -44360   -44628   -44809   -44717   -44396   -44046 
  -43879   -43774   -43724   -43883   -43858   -43602   -43672   -43939 
  -44125   -44406   -44624   -44627   -44558   -44351   -44220   -44478 
  -44618   -44289   -43893   -43627   -43621   -43909   -44029   -43952 
  -44114   -44329   -44281   -44271   -44340   -44087   -43756   -43824 
  -43947   -43883   -44180   -44803   -45015   -44803   -44516   -44145 
  -43940   -44034   -43877   -43478   -43531   -43900   -44105   -44254 
  -44373   -44275   -43967   -43777   -43900   -44072   -44432   -45052 
  -45111   -44534   -44223   -44204   -44087   -44135   -44073   -43371 
