Origin Time       2005/10/21 00:36:00
Lat.              36.057
Long.             137.572
Depth. (km)       8
Mag.              2.6
Station Code      GIF007
Station Lat.      36.0378
Station Long.     137.4861
Station Height(m) 995
Record Time       2005/10/21 00:36:57
Sampling Freq(Hz) 100Hz
Duration Time(s)  60
Dir.              U-D
Scale Factor      3920(gal)/6182761
Max. Acc. (gal)   6.123
Last Correction   2005/10/21 00:36:42
Memo.             
[...]
  -11807   -11797   -11785   -11799   -11814   -11798   -11785   -11796 
  -11807   -11802   -11791   -11794   -11807   -11804   -11790   -11795 
  -11806   -11796   -11789   -11804   -11808   -11793   -11790   -11799 
  -11803   -11801   -11795   -11796   -11809   -11804   -11784   -11793 
  -11812   -11799   -11784   -11801   -11814   -11791   -11783   -11809 
  -11809   -11787   -11794   -11808   -11796   -11789   -11800   -11804 
  -11799   -11800   -11801   -11795   -11797   -11801   -11798   -11799 
  -11801   -11795   -11797   -11798   -11793   -11805   -11813   -11793 
  -11784   -11804   -11807   -11792   -11796   -11805   -11798   -11794 
  -11802   -11800   -11796   -11805   -11802   -11787   -11794   -11808 
  -11794   -11789   -11812   -11807   -11779   -11793   -11819   -11799 
  -11780   -11803   -11814   -11793   -11786   -11802   -11806   -11795 
  -11792   -11800   -11802   -11796   -11798   -11807   -11802   -11787 
  -11795   -11812   -11799   -11781   -11802   -11822   -11789   -11775 
  -11812   -11820   -11785   -11781   -11807   -11813   -11793   -11785 
  -11803   -11817   -11797   -11780   -11803   -11816   -11794   -11788 
  -11806   -11803   -11792   -11800   -11802   -11794   -11799   -11808 
  -11800   -11787   -11796   -11814   -11797   -11777   -11803   -11817 
  -11793   -11790   -11808   -11806   -11792   -11792   -11804   -11805 
  -11789   -11791   -11809   -11806   -11795   -11800   -11801   -11793 
  -11798   -11806   -11795   -11791   -11812   -11809   -11781   -11788 
  -11815   -11805   -11789   -11800   -11801   -11789   -11797   -11813 
  -11799   -11783   -11799   -11813   -11800   -11785   -11795   -11819 
  -11809   -11773   -11782   -11820   -11815   -11789   -11792   -11806 
  -11800   -11787   -11793   -11806   -11805   -11798   -11797   -11794 
  -11794   -11799   -11804   -11802   -11793   -11791   -11801   -11803 
  -11798   -11801   -11805   -11799   -11789   -11791   -11807   -11809 
  -11792   -11790   -11804   -11799   -11787   -11799   -11813   -11797 
  -11781   -11795   -11809   -11797   -11790   -11804   -11808   -11793 
  -11789   -11802   -11804   -11795   -11800   -11802   -11787   -11794 
  -11818   -11803   -11779   -11803   -11817   -11792   -11786   -11803 
  -11804   -11796   -11792   -11798   -11808   -11803   -11789   -11798 
  -11812   -11799   -11781   -11800   -11816   -11787   -11780   -11814 
  -11812   -11790   -11794   -11799   -11799   -11800   -11794   -11798 
  -11808   -11799   -11788   -11800   -11810   -11795   -11787   -11808 
  -11809   -11779   -11790   -11824   -11799   -11771   -11808   -11825 
  -11782   -11778   -11821   -11811   -11779   -11794   -11811   -11799 
  -11788   -11794   -11809   -11808   -11782   -11785   -11821   -11814 
  -11773   -11786   -11833   -11810   -11754   -11792   -11848   -11799 
  -11759   -11811   -11833   -11779   -11767   -11816   -11822   -11782 
  -11782   -11815   -11817   -11788   -11778   -11807   -11819   -11786 
  -11782   -11819   -11815   -11777   -11786   -11818   -11808   -11784 
  -11792   -11810   -11807   -11791   -11785   -11801   -11813   -11798 
  -11786   -11801   -11814   -11793   -11776   -11802   -11822   -11794 
  -11780   -11810   -11818   -11785   -11779   -11812   -11814   -11786 
  -11791   -11814   -11806   -11786   -11791   -11810   -11807   -11791 
  -11794   -11806   -11800   -11791   -11795   -11799   -11800   -11801 
  -11797   -11796   -11800   -11799   -11796   -11792   -11797   -11809 
  -11801   -11788   -11802   -11807   -11790   -11794   -11806   -11799 
  -11794   -11799   -11799   -11801   -11802   -11794   -11794   -11806 
  -11804   -11787   -11794   -11813   -11799   -11782   -11800   -11814 
  -11798   -11788   -11799   -11804   -11798   -11795   -11798   -11803 
  -11803   -11795   -11797   -11809   -11799   -11782   -11803   -11816 
  -11786   -11782   -11813   -11806   -11781   -11795   -11811   -11800 
  -11797   -11799   -11794   -11799   -11803   -11794   -11793   -11806 
  -11806   -11791   -11795   -11807   -11801   -11791   -11800   -11806 
  -11797   -11793   -11798   -11801   -11800   -11794   -11793   -11805 
  -11806   -11788   -11790   -11808   -11802   -11792   -11801   -11801 
  -11796   -11802   -11800   -11794   -11798   -11804   -11797   -11790 
  -11802   -11808   -11791   -11787   -11806   -11808   -11792   -11789 
  -11805   -11812   -11793   -11781   -11805   -11818   -11789   -11777 
  -11808   -11821   -11789   -11778   -11812   -11816   -11782   -11784 
  -11815   -11812   -11787   -11790   -11808   -11810   -11793   -11782 
  -11802   -11820   -11794   -11777   -11810   -11824   -11788   -11775 
  -11810   -11816   -11782   -11785   -11819   -11808   -11776   -11797 
  -11825   -11796   -11772   -11806   -11824   -11791   -11777   -11807 
  -11818   -11790   -11785   -11808   -11803   -11789   -11801   -11806 
  -11792   -11791   -11810   -11809   -11781   -11787   -11820   -11801 
  -11771   -11802   -11824   -11791   -11780   -11810   -11806   -11781 
  -11794   -11817   -11805   -11786   -11794   -11809   -11800   -11783 
  -11792   -11812   -11807   -11789   -11795   -11811   -11802   -11781 
  -11793   -11821   -11801   -11770   -11802   -11827   -11789   -11776 
  -11810   -11812   -11783   -11785   -11812   -11808   -11784   -11791 
  -11810   -11804   -11797   -11796   -11795   -11807   -11802   -11776 
  -11792   -11823   -11805   -11782   -11799   -11808   -11792   -11785 
  -11797   -11810   -11809   -11788   -11783   -11811   -11815   -11776 
  -11782   -11834   -11815   -11754   -11788   -11841   -11797   -11761 
  -11807   -11831   -11788   -11764   -11805   -11837   -11792   -11758 
  -11808   -11840   -11792   -11762   -11808   -11842   -11787   -11744 
  -11809   -11848   -11787   -11766   -11817   -11825   -11783   -11771 
  -11808   -11827   -11794   -11773   -11810   -11824   -11781   -11777 
  -11816   -11814   -11781   -11785   -11811   -11811   -11794   -11794 
  -11801   -11802   -11796   -11786   -11792   -11812   -11808   -11788 
  -11793   -11807   -11800   -11789   -11793   -11806   -11804   -11790 
  -11794   -11808   -11801   -11787   -11798   -11811   -11793   -11783 
  -11806   -11811   -11790   -11791   -11806   -11803   -11791   -11794 
  -11803   -11805   -11796   -11787   -11799   -11816   -11796   -11777 
  -11806   -11816   -11782   -11787   -11819   -11804   -11782   -11800 
  -11811   -11794   -11789   -11804   -11805   -11795   -11794   -11798 
  -11802   -11801   -11797   -11792   -11793   -11804   -11805   -11791 
  -11792   -11813   -11805   -11776   -11791   -11823   -11804   -11779 
  -11800   -11820   -11795   -11776   -11804   -11819   -11791   -11786 
  -11810   -11806   -11786   -11796   -11806   -11792   -11793   -11810 
  -11804   -11791   -11797   -11805   -11800   -11792   -11792   -11801 
  -11806   -11800   -11791   -11792   -11809   -11808   -11784   -11789 
  -11814   -11802   -11786   -11804   -11807   -11793   -11799   -11799 
  -11788   -11798   -11813   -11802   -11785   -11797   -11815   -11795 
  -11778   -11805   -11818   -11792   -11788   -11804   -11804   -11798 
  -11797   -11795   -11799   -11802   -11796   -11798   -11807   -11806 
  -11798   -11792   -11799   -11806   -11793   -11794   -11812   -11804 
  -11786   -11797   -11813   -11800   -11786   -11799   -11811   -11796 
  -11782   -11798   -11818   -11799   -11775   -11799   -11822   -11795 
  -11775   -11797   -11819   -11806   -11777   -11786   -11819   -11809 
  -11781   -11788   -11813   -11813   -11784   -11776   -11815   -11824 
  -11778   -11778   -11826   -11819   -11771   -11778   -11821   -11812 
  -11780   -11794   -11812   -11803   -11793   -11793   -11798   -11801 
  -11801   -11801   -11795   -11792   -11805   -11805   -11785   -11788 
  -11815   -11811   -11778   -11784   -11820   -11810   -11778   -11791 
  -11814   -11801   -11786   -11800   -11808   -11801   -11798   -11795 
  -11791   -11800   -11805   -11796   -11799   -11810   -11796   -11785 
  -11805   -11810   -11790   -11792   -11811   -11801   -11786   -11801 
  -11814   -11799   -11790   -11800   -11805   -11794   -11793   -11804 
  -11805   -11796   -11794   -11801   -11803   -11794   -11790   -11803 
  -11809   -11794   -11791   -11805   -11804   -11793   -11798   -11806 
  -11796   -11789   -11800   -11808   -11796   -11788   -11802   -11807 
  -11790   -11791   -11807   -11802   -11788   -11794   -11805   -11803 
  -11793   -11795   -11808   -11804   -11789   -11796   -11810   -11801 
  -11788   -11797   -11806   -11799   -11793   -11797   -11802   -11798 
  -11796   -11802   -11800   -11798   -11802   -11798   -11788   -11798 
  -11808   -11797   -11792   -11803   -11806   -11792   -11787   -11803 
  -11816   -11797   -11785   -11813   -11810   -11772   -11791   -11823 
  -11797   -11786   -11814   -11811   -11782   -11787   -11814   -11808 
  -11782   -11796   -11824   -11800   -11771   -11797   -11815   -11793 
  -11787   -11807   -11810   -11795   -11793   -11799   -11796   -11797 
  -11804   -11801   -11797   -11801   -11798   -11796   -11799   -11796 
  -11801   -11809   -11797   -11790   -11804   -11800   -11785   -11799 
  -11811   -11797   -11796   -11805   -11797   -11794   -11804   -11802 
  -11791   -11798   -11807   -11795   -11789   -11800   -11802   -11796 
  -11800   -11807   -11800   -11788   -11797   -11809   -11798   -11787 
  -11800   -11814   -11801   -11781   -11797   -11820   -11795   -11774 
  -11804   -11816   -11790   -11794   -11812   -11797   -11785   -11803 
  -11808   -11792   -11797   -11811   -11798   -11785   -11801   -11809 
  -11793   -11792   -11807   -11803   -11786   -11793   -11811   -11800 
  -11789   -11806   -11808   -11788   -11789   -11804   -11805   -11794 
  -11796   -11814   -11805   -11777   -11792   -11820   -11798   -11778 
  -11813   -11823   -11776   -11772   -11822   -11821   -11774   -11779 
  -11824   -11820   -11771   -11773   -11827   -11825   -11774   -11777 
  -11823   -11821   -11778   -11776   -11818   -11821   -11782   -11782 
  -11816   -11816   -11790   -11782   -11801   -11812   -11799   -11793 
  -11797   -11799   -11804   -11797   -11785   -11804   -11821   -11793 
  -11772   -11802   -11826   -11793   -11774   -11813   -11828   -11780 
  -11765   -11810   -11823   -11790   -11784   -11805   -11813   -11797 
  -11781   -11794   -11815   -11803   -11782   -11799   -11816   -11798 
  -11781   -11798   -11813   -11798   -11785   -11800   -11811   -11803 
  -11793   -11790   -11798   -11812   -11802   -11784   -11799   -11815 
  -11800   -11782   -11791   -11816   -11813   -11779   -11784   -11819 
  -11804   -11779   -11802   -11814   -11801   -11794   -11791   -11799 
  -11805   -11793   -11793   -11804   -11806   -11800   -11790   -11794 
  -11810   -11797   -11780   -11801   -11818   -11793   -11781   -11809 
  -11815   -11784   -11783   -11814   -11813   -11786   -11790   -11811 
  -11804   -11784   -11790   -11815   -11809   -11779   -11794   -11824 
  -11794   -11768   -11809   -11826   -11785   -11778   -11814   -11813 
  -11780   -11789   -11819   -11799   -11778   -11805   -11812   -11784 
  -11792   -11813   -11795   -11787   -11805   -11804   -11789   -11800 
  -11808   -11792   -11793   -11809   -11795   -11781   -11806   -11813 
  -11789   -11788   -11806   -11805   -11796   -11795   -11799   -11803 
  -11797   -11795   -11805   -11803   -11790   -11795   -11806   -11800 
  -11792   -11806   -11817   -11797   -11780   -11802   -11816   -11792 
  -11784   -11808   -11815   -11790   -11777   -11808   -11824   -11784 
  -11775   -11824   -11825   -11772   -11772   -11824   -11820   -11768 
  -11777   -11834   -11821   -11757   -11775   -11837   -11812   -11764 
  -11798   -11829   -11793   -11772   -11801   -11819   -11793   -11779 
  -11810   -11819   -11787   -11785   -11812   -11809   -11785   -11787 
  -11813   -11818   -11790   -11781   -11807   -11810   -11780   -11784 
  -11821   -11814   -11783   -11794   -11810   -11796   -11792   -11794 
  -11734   -11465   -10866   -10596   -12228   -14985   -14209    -9906 
   -9725   -13686   -13624   -10745   -10060    -9692    -9094   -10755 
  -14883   -16962   -12736    -7920    -9197   -13452   -15136   -13045 
  -10750    -9531    -8571   -11617   -15641   -14227   -11364    -9507 
   -8722   -11206   -13361   -13241   -12326   -10827   -11650   -13445 
  -13025   -13029   -12528   -10359    -9573    -9638   -10312   -11335 
  -11463   -13491   -15388   -13240   -11364   -11425   -11358   -12459 
  -12687   -10127    -9115   -10647   -12170   -13437   -12910   -10772 
  -10508   -11890   -12993   -13677   -13109   -11144   -10134   -11333 
  -12712   -12514   -11193   -10138   -10603   -12080   -13002   -12893 
  -11762   -10591   -11140   -12627   -13647   -13642   -11313    -8857 
   -9788   -12164   -13078   -12823   -11741   -10401   -11198   -13450 
  -13817   -12519   -10609    -9635   -11604   -13217   -12147   -11130 
  -10651   -10755   -12569   -13564   -12072   -10589   -10516   -11198 
  -12472   -13942   -13636   -11089    -9746   -11658   -14211   -14015 
  -10336    -7509    -9722   -13418   -15263   -15696   -12330    -6797 
   -5875    -9027   -12072   -15248   -16747   -14595   -11972   -10619 
  -11206   -12695   -10522    -8259   -10871   -12206   -11840   -14794 
  -15719   -12055    -9092    -9716   -12535   -12385    -9912   -10483 
  -11539   -10087   -10689   -12730   -10718   -10671   -15279   -16560 
  -18149   -19610   -12001    -4556    -4646    -5157    -6000    -9296 
  -12419   -16744   -21456   -19285   -11052    -4701    -4200   -10580 
  -17602   -16153   -10150    -8274    -9582   -12329   -17058   -18442 
  -13191    -6838    -6269   -11357   -13946   -10350    -7103    -9713 
  -15243   -16212   -11925    -9350   -10514   -12713   -14885   -15708 
  -14037   -10604    -8073    -9662   -13235   -13452   -11686   -10529 
   -8228    -7074    -9372   -12000   -13916   -15878   -16281   -14427 
  -12337   -11325   -10821   -11165   -13128   -13859   -10384    -6545 
   -6814    -9340   -11749   -14281   -15966   -15283   -13306   -11635 
  -10903   -11524   -11437    -9365    -8430    -9923   -12367   -14589 
  -14884   -14160   -13922   -12398   -10245    -9597    -9782   -10479 
  -10919   -10201   -10170   -11637   -13442   -14587   -13985   -12258 
  -11427   -12009   -13304   -14151   -13091   -10446    -8226    -7704 
   -8891   -10348   -11575   -13569   -14919   -14808   -14752   -14088 
  -11858    -9446    -8416    -9220   -10901   -12058   -12544   -12926 
  -13265   -13003   -11578   -10221   -10618   -11623   -12038   -12165 
  -11826   -11986   -12862   -12716   -12022   -11388   -10442   -10764 
  -12381   -13091   -12406   -11123   -10291   -10759   -12072   -12715 
  -12132   -11799   -12096   -12120   -12412   -12479   -11673   -11608 
  -11734   -10816   -10972   -12405   -12339   -11027   -10757   -11610 
  -12399   -12653   -12656   -12460   -11631   -10755   -10930   -11573 
  -11443   -11401   -12467   -13142   -13076   -12974   -11693   -10187 
   -9861    -9720   -10684   -12550   -13272   -13635   -13311   -11780 
  -11307   -11962   -12137   -11591   -11018   -11134   -11124   -10837 
  -11972   -13284   -12270   -11110   -11653   -12026   -12065   -12245 
  -11971   -11822   -11765   -11505   -11688   -11830   -11277   -10804 
  -11356   -12470   -12871   -12647   -12206   -11350   -11023   -11506 
  -11698   -11746   -11803   -11556   -11821   -12425   -12274   -11915 
  -11781   -11465   -11399   -11607   -11464   -11443   -12103   -12492 
  -11978   -11639   -11829   -11766   -11614   -11931   -12430   -12242 
  -11445   -11179   -11313   -11202   -11419   -11809   -11877   -12229 
  -12615   -12430   -11965   -11531   -11823   -12398   -11812   -11135 
  -11553   -11742   -11302   -11439   -12172   -12409   -11966   -11574 
  -11618   -11926   -11983   -11740   -11694   -11611   -11250   -11278 
  -11862   -12317   -12331   -12142   -11843   -11606   -11742   -11725 
  -11355   -11624   -12167   -12014   -11941   -12004   -11501   -11244 
  -11544   -11870   -12129   -12040   -11913   -11907   -11505   -11458 
  -11925   -11845   -11815   -12244   -12175   -11909   -11862   -11568 
  -11629   -12068   -11694   -11231   -11398   -11235   -11331   -12134 
  -12357   -12270   -12433   -12132   -11714   -11730   -11633   -11377 
  -11407   -11685   -12079   -12301   -12081   -11800   -11601   -11449 
  -11630   -11802   -11603   -11373   -11530   -12237   -12647   -12010 
  -11508   -11725   -11708   -11644   -11807   -11670   -11664   -11956 
  -11922   -11765   -11830   -11891   -11808   -11794   -11985   -12010 
  -11661   -11365   -11557   -11925   -11887   -11768   -11798   -11655 
  -11765   -12108   -11956   -11637   -11675   -11790   -11834   -11913 
  -11962   -11907   -11785   -11803   -11871   -11619   -11455   -11743 
  -11904   -11762   -11731   -11772   -11814   -11996   -11994   -11758 
  -11827   -12082   -12050   -11776   -11513   -11451   -11592   -11833 
  -11970   -11761   -11434   -11518   -12123   -12625   -12359   -11571 
  -10966   -11122   -11871   -12120   -11822   -11890   -12028   -11915 
  -12124   -12349   -11902   -11197   -11049   -11577   -11949   -11755 
  -11778   -11999   -11761   -11688   -12121   -12094   -11568   -11632 
  -12271   -12266   -11422   -11063   -11601   -12002   -12057   -12173 
  -12090   -11768   -11512   -11441   -11550   -11482   -11447   -11972 
  -12391   -12404   -12354   -11779   -11119   -11296   -11631   -11662 
  -11780   -11878   -12039   -12314   -12138   -11668   -11486   -11384 
  -11330   -11749   -12218   -12132   -11967   -11988   -11791   -11507 
  -11521   -11858   -12012   -11788   -11849   -11990   -11757   -11723 
  -11774   -11658   -11741   -11661   -11487   -11890   -12325   -12155 
  -11873   -11819   -11712   -11598   -11604   -11615   -11732   -11742 
  -11571   -11825   -12248   -12152   -11820   -11545   -11324   -11426 
  -11813   -12075   -12023   -11837   -12005   -12381   -12147   -11658 
  -11569   -11386   -11305   -11690   -11751   -11671   -11986   -12100 
  -11992   -11881   -11660   -11678   -11766   -11709   -11860   -12051 
  -12121   -11981   -11484   -11372   -11748   -11718   -11671   -12069 
  -12162   -11897   -11758   -11622   -11586   -11813   -11800   -11575 
  -11707   -11929   -11960   -12013   -11972   -11784   -11687   -11699 
  -11729   -11764   -11686   -11661   -11967   -12062   -11800   -11922 
  -12106   -11737   -11347   -11318   -11534   -11941   -12160   -12022 
  -11849   -11739   -11784   -11934   -11849   -11705   -11751   -11848 
  -11925   -11861   -11701   -11642   -11598   -11704   -11918   -11806 
  -11728   -11939   -11953   -11810   -11698   -11689   -11877   -11892 
  -11704   -11678   -11811   -12083   -12209   -11869   -11456   -11422 
  -11715   -11865   -11711   -11662   -11749   -11952   -12207   -11991 
  -11629   -11606   -11681   -12000   -12151   -11690   -11532   -11704 
  -11679   -11856   -11951   -11747   -11737   -11755   -11756   -11907 
  -11889   -11749   -11666   -11665   -11966   -12181   -11837   -11521 
  -11677   -11909   -11947   -11796   -11578   -11588   -11752   -11909 
  -12173   -12159   -11723   -11525   -11586   -11514   -11549   -11832 
  -12026   -12016   -12037   -12087   -11949   -11705   -11553   -11474 
  -11464   -11690   -12074   -12182   -11942   -11761   -11742   -11660 
