Origin Time       2015/02/17 08:06:00
Lat.              39.872
Long.             143.192
Depth. (km)       13
Mag.              6.9
Station Code      HKD105
Station Lat.      42.4825
Station Long.     142.0543
Station Height(m) 6
Record Time       2015/02/17 08:08:05
Sampling Freq(Hz) 100Hz
Duration Time(s)  79
Dir.              U-D
Scale Factor      3920(gal)/6182761
Max. Acc. (gal)   1.210
Last Correction   2015/02/17 08:08:05
Memo.             
[...]
  -15649   -15695   -15750   -15751   -15660   -15566   -15531   -15527 
  -15580   -15657   -15703   -15720   -15765   -15876   -16059   -16265 
  -16422   -16559   -16669   -16723   -16782   -16892   -17009   -17116 
  -17161   -17065   -16885   -16735   -16636   -16511   -16345   -16180 
  -16046   -15953   -15889   -15834   -15776   -15741   -15695   -15604 
  -15514   -15510   -15585   -15665   -15720   -15709   -15658   -15622 
  -15617   -15607   -15590   -15571   -15520   -15462   -15394   -15353 
  -15359   -15395   -15450   -15481   -15509   -15551   -15591   -15595 
  -15588   -15568   -15517   -15505   -15575   -15731   -15920   -16061 
  -16095   -16063   -16059   -16091   -16113   -16100   -16098   -16158 
  -16236   -16245   -16216   -16214   -16237   -16255   -16216   -16159 
  -16170   -16272   -16374   -16406   -16419   -16446   -16423   -16346 
  -16312   -16340   -16381   -16362   -16243   -16070   -15945   -15878 
  -15808   -15775   -15775   -15799   -15845   -15879   -15931   -15987 
  -16024   -16084   -16175   -16257   -16341   -16432   -16525   -16599 
  -16603   -16552   -16450   -16299   -16117   -15951   -15824   -15711 
  -15619   -15520   -15412   -15306   -15184   -15034   -14877   -14773 
  -14763   -14809   -14852   -14867   -14886   -14933   -14987   -15076 
  -15210   -15384   -15581   -15743   -15849   -15894   -15899   -15873 
  -15853   -15903   -16038   -16194   -16307   -16341   -16278   -16157 
  -16016   -15918   -15908   -15980   -16088   -16178   -16242   -16276 
  -16340   -16414   -16445   -16449   -16422   -16374   -16329   -16331 
  -16357   -16398   -16486   -16629   -16777   -16834   -16802   -16700 
  -16546   -16376   -16252   -16224   -16273   -16320   -16301   -16282 
  -16310   -16346   -16383   -16443   -16507   -16537   -16519   -16451 
  -16358   -16307   -16319   -16299   -16211   -16103   -16010   -15936 
  -15872   -15853   -15892   -15984   -16084   -16159   -16213   -16228 
  -16176   -16081   -16008   -15987   -16056   -16180   -16300   -16385 
  -16443   -16470   -16455   -16494   -16589   -16674   -16709   -16693 
  -16641   -16554   -16513   -16525   -16517   -16435   -16301   -16187 
  -16080   -15939   -15775   -15636   -15533   -15435   -15329   -15244 
  -15196   -15206   -15284   -15356   -15407   -15468   -15521   -15582 
  -15667   -15743   -15830   -15948   -16039   -16089   -16144   -16216 
  -16278   -16316   -16322   -16339   -16379   -16392   -16364   -16317 
  -16281   -16239   -16179   -16105   -16018   -15926   -15851   -15796 
  -15738   -15712   -15706   -15696   -15678   -15674   -15700   -15727 
  -15767   -15792   -15795   -15791   -15781   -15771   -15756   -15781 
  -15878   -16014   -16120   -16202   -16285   -16366   -16434   -16478 
  -16508   -16543   -16583   -16590   -16580   -16582   -16607   -16634 
  -16598   -16560   -16608   -16669   -16658   -16610   -16585   -16609 
  -16645   -16627   -16576   -16554   -16556   -16546   -16533   -16509 
  -16496   -16507   -16501   -16468   -16434   -16404   -16356   -16293 
  -16224   -16180   -16130   -16056   -15983   -15870   -15740   -15619 
  -15517   -15398   -15244   -15125   -15012   -14898   -14786   -14702 
  -14695   -14725   -14774   -14839   -14900   -14948   -14976   -15006 
  -15087   -15200   -15287   -15327   -15312   -15254   -15227   -15292 
  -15370   -15406   -15457   -15533   -15602   -15667   -15727   -15764 
  -15777   -15782   -15766   -15718   -15704   -15734   -15756   -15785 
  -15853   -15969   -16086   -16146   -16125   -16071   -16023   -15972 
  -15941   -15947   -15930   -15851   -15739   -15610   -15528   -15553 
  -15700   -15913   -16083   -16196   -16256   -16273   -16279   -16297 
  -16320   -16323   -16275   -16149   -16007   -15903   -15837   -15774 
  -15678   -15596   -15588   -15640   -15700   -15748   -15792   -15841 
  -15872   -15879   -15902   -15958   -16022   -16086   -16154   -16201 
  -16278   -16398   -16499   -16570   -16653   -16767   -16865   -16953 
  -17030   -17083   -17126   -17136   -17129   -17170   -17224   -17228 
  -17217   -17195   -17148   -17054   -16926   -16800   -16686   -16632 
  -16605   -16542   -16414   -16251   -16101   -15960   -15847   -15736 
  -15646   -15596   -15557   -15513   -15443   -15397   -15419   -15464 
  -15466   -15421   -15359   -15297   -15248   -15217   -15206   -15225 
  -15274   -15343   -15413   -15488   -15614   -15767   -15910   -16046 
  -16178   -16313   -16444   -16558   -16653   -16751   -16818   -16821 
  -16813   -16827   -16853   -16858   -16857   -16840   -16777   -16710 
  -16678   -16663   -16655   -16640   -16614   -16597   -16519   -16374 
  -16227   -16096   -16039   -16069   -16124   -16147   -16121   -16030 
  -15905   -15833   -15840   -15874   -15897   -15910   -15904   -15899 
  -15883   -15853   -15842   -15847   -15838   -15793   -15728   -15678 
  -15730   -15866   -15983   -16106   -16247   -16358   -16435   -16501 
  -16563   -16623   -16649   -16627   -16583   -16535   -16477   -16361 
  -16177   -15969   -15775   -15622   -15495   -15351   -15185   -15035 
  -14913   -14809   -14737   -14735   -14752   -14770   -14818   -14850 
  -14876   -14954   -15108   -15264   -15389   -15492   -15552   -15604 
  -15644   -15682   -15734   -15752   -15711   -15651   -15616   -15605 
  -15649   -15752   -15853   -15928   -15991   -16023   -16005   -15953 
  -15910   -15911   -15930   -15929   -15898   -15838   -15755   -15673 
  -15581   -15484   -15424   -15367   -15300   -15275   -15293   -15289 
  -15263   -15243   -15224   -15230   -15275   -15326   -15344   -15346 
  -15372   -15424   -15500   -15627   -15758   -15844   -15880   -15834 
  -15768   -15736   -15776   -15895   -16006   -16088   -16134   -16145 
  -16141   -16141   -16166   -16231   -16295   -16282   -16213   -16138 
  -16072   -16017   -15960   -15882   -15794   -15713   -15624   -15538 
  -15488   -15500   -15534   -15546   -15530   -15488   -15414   -15319 
  -15231   -15166   -15153   -15158   -15155   -15157   -15156   -15151 
  -15152   -15176   -15224   -15297   -15382   -15440   -15439   -15426 
  -15435   -15458   -15507   -15585   -15669   -15714   -15723   -15723 
  -15725   -15757   -15811   -15857   -15854   -15796   -15702   -15636 
  -15647   -15712   -15809   -15923   -16019   -16039   -15998   -15982 
  -16023   -16097   -16161   -16206   -16253   -16328   -16410   -16477 
  -16538   -16588   -16630   -16693   -16754   -16790   -16844   -16873 
  -16845   -16780   -16692   -16602   -16532   -16480   -16424   -16354 
  -16267   -16185   -16121   -16112   -16181   -16254   -16298   -16319 
  -16332   -16347   -16370   -16409   -16472   -16531   -16558   -16539 
  -16462   -16386   -16334   -16306   -16278   -16238   -16213   -16179 
  -16145   -16101   -16053   -16040   -16065   -16123   -16199   -16303 
  -16442   -16588   -16687   -16722   -16728   -16746   -16784   -16833 
  -16870   -16903   -16954   -16955   -16888   -16813   -16745   -16678 
  -16613   -16540   -16460   -16409   -16364   -16319   -16307   -16319 
  -16308   -16250   -16180   -16114   -16082   -16077   -16041   -15984 
  -15964   -15967   -15976   -16000   -16011   -16002   -15980   -15965 
  -15964   -15977   -15990   -15980   -15992   -16018   -16041   -16093 
  -16169   -16236   -16269   -16289   -16304   -16294   -16255   -16224 
  -16223   -16240   -16252   -16238   -16215   -16225   -16268   -16299 
  -16311   -16312   -16304   -16293   -16307   -16343   -16374   -16379 
  -16307   -16194   -16103   -16066   -16083   -16116   -16135   -16123 
  -16081   -16012   -15914   -15797   -15716   -15679   -15659   -15673 
  -15710   -15702   -15642   -15566   -15457   -15366   -15336   -15346 
  -15375   -15389   -15401   -15408   -15402   -15381   -15381   -15435 
  -15490   -15513   -15495   -15469   -15465   -15491   -15555   -15643 
  -15733   -15803   -15850   -15885   -15930   -15999   -16116   -16242 
  -16310   -16342   -16378   -16443   -16512   -16554   -16560   -16547 
  -16542   -16533   -16508   -16515   -16584   -16649   -16698   -16741 
  -16770   -16806   -16860   -16903   -16911   -16930   -16952   -16925 
  -16879   -16854   -16836   -16822   -16808   -16772   -16728   -16680 
  -16633   -16587   -16538   -16466   -16376   -16318   -16266   -16206 
  -16169   -16164   -16162   -16141   -16116   -16105   -16138   -16182 
  -16174   -16135   -16109   -16058   -15984   -15960   -15976   -15969 
  -15932   -15879   -15817   -15775   -15766   -15766   -15728   -15668 
  -15622   -15583   -15574   -15605   -15647   -15676   -15674   -15625 
  -15557   -15525   -15500   -15473   -15467   -15494   -15520   -15526 
  -15528   -15507   -15474   -15473   -15480   -15469   -15505   -15596 
  -15706   -15818   -15912   -15981   -16016   -16051   -16057   -16038 
  -16040   -16059   -16085   -16119   -16170   -16201   -16206   -16174 
  -16100   -16028   -15980   -15967   -15948   -15882   -15779   -15685 
  -15601   -15497   -15404   -15345   -15284   -15221   -15184   -15152 
  -15135   -15153   -15179   -15169   -15155   -15167   -15163   -15156 
  -15151   -15128   -15110   -15095   -15054   -15035   -15080   -15151 
  -15233   -15322   -15375   -15384   -15410   -15441   -15464   -15536 
  -15647   -15767   -15845   -15888   -15911   -15933   -15993   -16038 
  -16059   -16115   -16197   -16229   -16214   -16207   -16226   -16261 
  -16253   -16212   -16176   -16135   -16072   -16001   -15969   -15981 
  -15980   -15909   -15790   -15684   -15618   -15598   -15604   -15602 
  -15583   -15566   -15556   -15516   -15456   -15452   -15452   -15410 
  -15361   -15312   -15263   -15215   -15173   -15120   -15076   -15038 
  -15024   -15036   -15032   -15053   -15116   -15176   -15231   -15299 
  -15355   -15372   -15356   -15349   -15361   -15387   -15426   -15437 
  -15448   -15442   -15421   -15422   -15427   -15436   -15427   -15420 
  -15424   -15427   -15421   -15429   -15470   -15511   -15565   -15641 
  -15724   -15774   -15770   -15753   -15768   -15812   -15851   -15873 
  -15860   -15828   -15781   -15716   -15653   -15604   -15572   -15551 
  -15531   -15498   -15500   -15531   -15556   -15599   -15687   -15772 
  -15815   -15888   -15982   -16065   -16162   -16265   -16330   -16360 
  -16409   -16461   -16508   -16594   -16695   -16713   -16695   -16726 
  -16741   -16722   -16727   -16769   -16810   -16840   -16862   -16911 
  -16974   -16967   -16952   -16963   -16932   -16864   -16827   -16813 
  -16806   -16847   -16893   -16889   -16880   -16895   -16880   -16848 
  -16836   -16831   -16821   -16811   -16823   -16868   -16945   -16999 
  -17009   -17011   -17040   -17109   -17178   -17211   -17221   -17231 
  -17194   -17113   -17047   -17001   -16966   -16941   -16887   -16794 
  -16720   -16664   -16631   -16620   -16610   -16604   -16600   -16599 
  -16607   -16639   -16655   -16689   -16758   -16817   -16891   -16979 
  -17072   -17139   -17176   -17190   -17200   -17228   -17243   -17245 
  -17262   -17282   -17287   -17316   -17326   -17256   -17164   -17083 
  -16974   -16857   -16796   -16754   -16718   -16705   -16682   -16613 
  -16515   -16427   -16328   -16207   -16077   -15956   -15848   -15780 
  -15743   -15691   -15629   -15554   -15472   -15375   -15319   -15291 
  -15264   -15275   -15269   -15257   -15285   -15321   -15313   -15324 
  -15378   -15383   -15385   -15435   -15516   -15605   -15669   -15710 
  -15758   -15817   -15871   -15951   -16052   -16098   -16079   -16070 
  -16072   -16083   -16134   -16173   -16186   -16213   -16269   -16311 
  -16336   -16378   -16434   -16452   -16402   -16318   -16244   -16199 
  -16138   -16056   -15992   -15949   -15900   -15864   -15863   -15846 
  -15835   -15825   -15763   -15686   -15656   -15631   -15586   -15548 
  -15487   -15415   -15351   -15317   -15301   -15285   -15269   -15234 
  -15208   -15188   -15177   -15151   -15129   -15120   -15069   -15003 
  -14915   -14786   -14652   -14550   -14472   -14438   -14459   -14508 
  -14608   -14708   -14741   -14728   -14730   -14740   -14757   -14806 
  -14836   -14828   -14829   -14862   -14906   -14994   -15124   -15239 
  -15333   -15411   -15480   -15551   -15632   -15689   -15726   -15744 
  -15736   -15729   -15747   -15771   -15755   -15714   -15683   -15669 
  -15648   -15643   -15657   -15637   -15603   -15571   -15516   -15430 
  -15399   -15412   -15391   -15352   -15298   -15265   -15238   -15191 
  -15141   -15127   -15167   -15170   -15121   -15089   -15076   -15063 
  -15052   -15014   -14970   -14966   -14981   -14985   -15017   -15095 
  -15157   -15203   -15253   -15333   -15450   -15545   -15606   -15652 
  -15710   -15775   -15842   -15929   -16041   -16144   -16203   -16246 
  -16282   -16324   -16382   -16428   -16473   -16531   -16553   -16556 
  -16579   -16596   -16640   -16667   -16653   -16622   -16558   -16485 
  -16425   -16407   -16384   -16341   -16273   -16194   -16161   -16151 
  -16171   -16204   -16193   -16138   -16078   -16014   -15962   -15936 
  -15913   -15883   -15814   -15719   -15642   -15597   -15551   -15504 
  -15494   -15505   -15508   -15531   -15589   -15646   -15705   -15754 
  -15766   -15777   -15821   -15885   -15955   -16028   -16049   -16024 
  -16007   -15997   -15969   -15951   -15943   -15917   -15896   -15865 
  -15854   -15888   -15916   -15903   -15871   -15895   -15939   -15958 
  -15972   -16016   -16072   -16128   -16228   -16330   -16427   -16569 
  -16707   -16783   -16868   -17002   -17137   -17266   -17417   -17589 
  -17703   -17741   -17761   -17812   -17871   -17870   -17828   -17773 
  -17699   -17605   -17504   -17399   -17290   -17179   -17056   -16920 
  -16773   -16626   -16462   -16304   -16188   -16128   -16099   -16071 
  -16055   -16053   -16060   -16050   -16030   -16027   -16075   -16147 
  -16201   -16268   -16320   -16364   -16397   -16409   -16416   -16419 
  -16423   -16394   -16349   -16326   -16314   -16263   -16205   -16168 
  -16107   -16072   -16053   -16005   -15955   -15905   -15827   -15748 
  -15700   -15661   -15645   -15638   -15606   -15553   -15514   -15500 
  -15514   -15545   -15568   -15620   -15685   -15711   -15701   -15703 
  -15708   -15698   -15699   -15686   -15656   -15648   -15653   -15645 
  -15638   -15632   -15634   -15605   -15549   -15522   -15483   -15417 
  -15322   -15251   -15235   -15221   -15199   -15157   -15118   -15088 
  -15062   -15029   -15012   -15078   -15161   -15201   -15240   -15300 
  -15361   -15404   -15436   -15514   -15624   -15693   -15760   -15853 
  -15964   -16059   -16119   -16182   -16254   -16312   -16377   -16447 
  -16490   -16542   -16601   -16627   -16622   -16642   -16665   -16634 
  -16618   -16633   -16655   -16665   -16644   -16597   -16544   -16489 
  -16412   -16335   -16289   -16262   -16228   -16216   -16229   -16247 
  -16262   -16244   -16219   -16200   -16171   -16092   -16029   -16050 
  -16076   -16091   -16100   -16110   -16098   -16027   -15935   -15860 
  -15803   -15768   -15775   -15797   -15817   -15830   -15829   -15819 
  -15815   -15819   -15830   -15841   -15799   -15725   -15661   -15602 
  -15566   -15557   -15547   -15523   -15496   -15469   -15463   -15452 
  -15462   -15507   -15523   -15535   -15538   -15521   -15536   -15563 
  -15569   -15581   -15589   -15549   -15479   -15433   -15435   -15454 
  -15471   -15471   -15476   -15501   -15499   -15461   -15406   -15391 
  -15414   -15432   -15453   -15517   -15630   -15730   -15794   -15844 
  -15913   -15963   -15955   -15927   -15917   -15952   -16005   -16032 
  -16054   -16083   -16095   -16087   -16076   -16095   -16135   -16168 
  -16185   -16185   -16201   -16207   -16183   -16160   -16171   -16177 
  -16121   -16061   -16012   -15968   -15938   -15894   -15837   -15803 
  -15782   -15737   -15695   -15672   -15665   -15646   -15589   -15541 
  -15536   -15541   -15544   -15550   -15552   -15567   -15557   -15542 
  -15554   -15538   -15505   -15472   -15437   -15385   -15350   -15323 
  -15306   -15332   -15341   -15338   -15342   -15361   -15378   -15377 
  -15397   -15417   -15433   -15465   -15515   -15566   -15619   -15668 
  -15693   -15740   -15826   -15893   -15959   -16069   -16159   -16235 
  -16319   -16392   -16460   -16537   -16618   -16686   -16789   -16900 
  -16966   -17002   -17030   -17056   -17092   -17140   -17168   -17190 
  -17202   -17203   -17184   -17148   -17126   -17081   -17012   -16931 
  -16845   -16762   -16669   -16568   -16495   -16485   -16467   -16384 
  -16304   -16270   -16223   -16175   -16151   -16147   -16185   -16202 
  -16176   -16134   -16082   -16019   -15955   -15939   -15955   -15951 
  -15943   -15933   -15909   -15897   -15898   -15891   -15871   -15882 
  -15908   -15897   -15901   -15901   -15884   -15844   -15790   -15780 
  -15801   -15836   -15829   -15772   -15726   -15711   -15704   -15680 
  -15654   -15641   -15635   -15629   -15635   -15662   -15706   -15724 
  -15714   -15700   -15661   -15614   -15579   -15576   -15578   -15568 
  -15545   -15507   -15485   -15475   -15488   -15482   -15463   -15466 
  -15456   -15459   -15475   -15491   -15498   -15486   -15478   -15501 
  -15544   -15601   -15691   -15767   -15788   -15798   -15815   -15816 
  -15822   -15820   -15827   -15870   -15877   -15831   -15790   -15792 
  -15820   -15847   -15855   -15875   -15925   -15944   -15928   -15911 
  -15916   -15945   -15991   -16050   -16112   -16172   -16211   -16228 
  -16220   -16232   -16289   -16328   -16327   -16330   -16367   -16381 
  -16347   -16322   -16346   -16371   -16349   -16280   -16182   -16137 
  -16125   -16064   -16010   -16009   -16010   -15995   -15974   -15978 
  -16025   -16039   -16003   -15984   -15998   -16012   -16044   -16060 
  -16070   -16148   -16216   -16251   -16287   -16327   -16359   -16377 
  -16421   -16490   -16562   -16624   -16687   -16738   -16760   -16763 
  -16749   -16742   -16746   -16728   -16658   -16600   -16567   -16510 
  -16450   -16416   -16394   -16345   -16287   -16211   -16153   -16136 
  -16125   -16104   -16053   -16003   -15953   -15898   -15834   -15770 
  -15720   -15667   -15618   -15581   -15570   -15562   -15567   -15605 
  -15626   -15628   -15656   -15679   -15670   -15660   -15654   -15658 
  -15670   -15709   -15768   -15813   -15862   -15882   -15858   -15853 
  -15891   -15930   -15955   -15951   -15905   -15869   -15844   -15802 
  -15777   -15793   -15792   -15770   -15760   -15748   -15734   -15711 
  -15704   -15703   -15694   -15711   -15720   -15681   -15658   -15685 
  -15705   -15688   -15647   -15656   -15695   -15677   -15645   -15651 
  -15693   -15710   -15679   -15645   -15634   -15624   -15598   -15572 
  -15586   -15651   -15714   -15749   -15774   -15813   -15847   -15836 
  -15785   -15756   -15789   -15824   -15847   -15856   -15840   -15815 
  -15768   -15706   -15655   -15631   -15585   -15533   -15500   -15463 
  -15461   -15496   -15533   -15592   -15676   -15752   -15826   -15881 
  -15935   -15990   -16008   -16033   -16075   -16100   -16089   -16104 
  -16114   -16090   -16075   -16046   -16029   -15986   -15914   -15870 
  -15827   -15769   -15694   -15623   -15560   -15492   -15446   -15430 
  -15417   -15389   -15356   -15324   -15279   -15251   -15261   -15246 
  -15228   -15219   -15188   -15143   -15097   -15071   -15081   -15128 
  -15158   -15145   -15124   -15085   -15023   -14997   -15002   -14995 
