Origin Time       2015/02/17 08:06:00
Lat.              39.872
Long.             143.192
Depth. (km)       13
Mag.              6.9
Station Code      HKD105
Station Lat.      42.4825
Station Long.     142.0543
Station Height(m) 6
Record Time       2015/02/17 08:08:05
Sampling Freq(Hz) 100Hz
Duration Time(s)  79
Dir.              E-W
Scale Factor      3920(gal)/6182761
Max. Acc. (gal)   2.179
Last Correction   2015/02/17 08:08:05
Memo.             
[...]
   -4938    -5043    -5121    -5179    -5264    -5364    -5408    -5356 
   -5243    -5128    -5033    -4963    -4908    -4889    -4929    -4987 
   -5020    -4998    -4956    -4926    -4901    -4885    -4861    -4828 
   -4781    -4697    -4588    -4476    -4356    -4213    -4069    -3970 
   -3947    -3969    -4035    -4188    -4423    -4704    -4975    -5193 
   -5356    -5490    -5593    -5639    -5619    -5528    -5372    -5180 
   -4984    -4796    -4651    -4552    -4451    -4371    -4359    -4393 
   -4448    -4535    -4651    -4785    -4920    -5036    -5161    -5299 
   -5378    -5389    -5372    -5322    -5248    -5165    -5061    -4977 
   -4944    -4928    -4917    -4920    -4932    -4933    -4888    -4800 
   -4707    -4626    -4573    -4574    -4656    -4816    -5020    -5215 
   -5362    -5473    -5580    -5662    -5670    -5611    -5510    -5363 
   -5184    -4989    -4823    -4737    -4701    -4658    -4613    -4582 
   -4566    -4562    -4552    -4528    -4514    -4529    -4563    -4615 
   -4689    -4766    -4824    -4832    -4778    -4720    -4692    -4677 
   -4704    -4803    -4961    -5150    -5298    -5343    -5341    -5366 
   -5398    -5409    -5391    -5343    -5288    -5216    -5085    -4915 
   -4777    -4676    -4589    -4520    -4466    -4432    -4412    -4370 
   -4330    -4334    -4355    -4386    -4443    -4497    -4555    -4608 
   -4602    -4530    -4439    -4362    -4323    -4357    -4476    -4668 
   -4895    -5123    -5343    -5572    -5798    -5974    -6080    -6132 
   -6165    -6184    -6172    -6098    -5950    -5719    -5394    -5038 
   -4705    -4402    -4162    -3990    -3899    -3902    -3962    -4035 
   -4117    -4210    -4306    -4390    -4461    -4531    -4604    -4684 
   -4787    -4948    -5160    -5372    -5551    -5655    -5651    -5564 
   -5429    -5236    -5011    -4799    -4589    -4404    -4272    -4169 
   -4099    -4059    -3989    -3906    -3860    -3838    -3826    -3845 
   -3905    -4023    -4182    -4316    -4399    -4435    -4437    -4418 
   -4355    -4240    -4095    -3942    -3806    -3703    -3632    -3601 
   -3603    -3602    -3618    -3673    -3733    -3795    -3885    -4016 
   -4203    -4429    -4636    -4816    -5007    -5198    -5364    -5487 
   -5528    -5512    -5510    -5514    -5483    -5421    -5333    -5214 
   -5088    -4989    -4923    -4892    -4889    -4893    -4943    -5060 
   -5183    -5278    -5333    -5329    -5294    -5234    -5124    -5009 
   -4935    -4880    -4854    -4851    -4812    -4714    -4559    -4384 
   -4256    -4187    -4143    -4141    -4207    -4316    -4442    -4546 
   -4602    -4610    -4581    -4538    -4507    -4492    -4473    -4447 
   -4392    -4282    -4138    -3956    -3719    -3473    -3260    -3085 
   -2961    -2921    -3010    -3240    -3566    -3947    -4349    -4718 
   -4998    -5160    -5199    -5135    -5002    -4846    -4690    -4549 
   -4468    -4483    -4581    -4705    -4820    -4913    -4959    -4969 
   -4970    -5007    -5103    -5218    -5319    -5395    -5468    -5525 
   -5517    -5424    -5251    -5032    -4831    -4673    -4544    -4457 
   -4450    -4514    -4597    -4674    -4717    -4756    -4813    -4881 
   -4994    -5166    -5370    -5542    -5646    -5715    -5773    -5791 
   -5747    -5696    -5675    -5657    -5606    -5522    -5428    -5340 
   -5250    -5158    -5093    -5047    -5025    -5017    -4982    -4940 
   -4907    -4837    -4701    -4533    -4392    -4293    -4220    -4176 
   -4145    -4111    -4087    -4091    -4145    -4256    -4405    -4539 
   -4646    -4745    -4807    -4777    -4624    -4374    -4082    -3791 
   -3533    -3339    -3215    -3172    -3246    -3451    -3745    -4084 
   -4443    -4737    -4937    -5077    -5155    -5182    -5185    -5158 
   -5100    -5044    -5002    -4981    -4994    -5033    -5091    -5142 
   -5170    -5177    -5168    -5152    -5153    -5172    -5167    -5127 
   -5047    -4922    -4782    -4659    -4548    -4448    -4363    -4291 
   -4242    -4221    -4217    -4222    -4256    -4309    -4360    -4425 
   -4503    -4577    -4619    -4573    -4450    -4316    -4175    -4024 
   -3909    -3860    -3881    -3974    -4110    -4253    -4421    -4568 
   -4639    -4649    -4615    -4550    -4464    -4374    -4294    -4241 
   -4204    -4180    -4228    -4355    -4526    -4724    -4952    -5206 
   -5487    -5756    -5969    -6155    -6321    -6437    -6456    -6343 
   -6133    -5900    -5652    -5353    -5047    -4798    -4629    -4554 
   -4570    -4654    -4766    -4853    -4891    -4898    -4918    -4950 
   -4935    -4874    -4800    -4723    -4638    -4538    -4430    -4355 
   -4327    -4308    -4317    -4375    -4454    -4549    -4666    -4798 
   -4957    -5155    -5328    -5444    -5532    -5607    -5660    -5653 
   -5590    -5510    -5437    -5388    -5382    -5404    -5434    -5487 
   -5551    -5633    -5748    -5834    -5849    -5813    -5722    -5607 
   -5497    -5356    -5182    -4971    -4727    -4506    -4341    -4239 
   -4205    -4241    -4323    -4424    -4536    -4682    -4852    -5009 
   -5150    -5263    -5315    -5292    -5188    -5025    -4849    -4662 
   -4435    -4181    -3951    -3785    -3704    -3717    -3816    -4002 
   -4243    -4479    -4681    -4838    -4950    -5005    -5004    -4945 
   -4847    -4705    -4485    -4221    -3961    -3728    -3514    -3333 
   -3240    -3283    -3424    -3590    -3805    -4070    -4345    -4621 
   -4862    -5039    -5177    -5270    -5304    -5346    -5421    -5480 
   -5491    -5433    -5312    -5178    -5027    -4851    -4724    -4693 
   -4757    -4881    -5010    -5134    -5272    -5396    -5464    -5471 
   -5441    -5393    -5308    -5202    -5113    -5073    -5078    -5080 
   -5065    -5036    -5012    -4974    -4914    -4870    -4848    -4848 
   -4861    -4868    -4896    -4994    -5144    -5306    -5453    -5595 
   -5785    -5994    -6181    -6363    -6524    -6606    -6594    -6516 
   -6378    -6211    -6007    -5758    -5519    -5334    -5213    -5116 
   -4989    -4836    -4694    -4544    -4375    -4227    -4113    -4003 
   -3911    -3865    -3878    -3965    -4116    -4300    -4488    -4678 
   -4858    -4991    -5071    -5112    -5130    -5147    -5161    -5173 
   -5232    -5332    -5423    -5479    -5484    -5419    -5272    -5074 
   -4862    -4683    -4545    -4407    -4287    -4216    -4192    -4192 
   -4245    -4374    -4560    -4765    -4926    -5027    -5089    -5128 
   -5121    -5078    -5027    -4977    -4955    -4959    -4977    -5024 
   -5089    -5128    -5133    -5117    -5082    -5015    -4891    -4725 
   -4566    -4453    -4355    -4277    -4250    -4275    -4349    -4434 
   -4504    -4588    -4722    -4902    -5112    -5338    -5559    -5766 
   -5951    -6101    -6199    -6241    -6195    -6041    -5810    -5598 
   -5467    -5394    -5376    -5406    -5471    -5556    -5606    -5562 
   -5447    -5290    -5070    -4812    -4545    -4291    -4068    -3891 
   -3786    -3789    -3904    -4071    -4279    -4525    -4753    -4951 
   -5090    -5123    -5098    -5077    -5051    -5008    -4934    -4844 
   -4757    -4683    -4625    -4585    -4565    -4552    -4575    -4648 
   -4770    -4931    -5067    -5132    -5116    -5022    -4861    -4634 
   -4371    -4163    -4034    -3971    -3980    -4028    -4089    -4139 
   -4154    -4123    -4062    -3983    -3881    -3784    -3727    -3707 
   -3682    -3654    -3693    -3824    -3996    -4174    -4331    -4438 
   -4504    -4491    -4381    -4201    -3966    -3707    -3422    -3111 
   -2841    -2660    -2560    -2560    -2685    -2907    -3166    -3390 
   -3553    -3678    -3762    -3760    -3655    -3476    -3290    -3148 
   -3053    -3031    -3117    -3286    -3485    -3675    -3814    -3899 
   -3944    -3931    -3863    -3775    -3691    -3600    -3508    -3435 
   -3426    -3505    -3606    -3681    -3736    -3774    -3787    -3761 
   -3664    -3505    -3341    -3170    -3009    -2937    -3000    -3162 
   -3385    -3654    -3965    -4331    -4710    -5035    -5271    -5427 
   -5546    -5656    -5743    -5821    -5914    -5987    -5999    -5938 
   -5830    -5729    -5695    -5737    -5853    -6077    -6373    -6656 
   -6891    -7028    -7049    -6993    -6856    -6669    -6498    -6320 
   -6132    -5984    -5895    -5857    -5868    -5872    -5822    -5733 
   -5590    -5396    -5192    -4990    -4772    -4531    -4281    -4015 
   -3757    -3526    -3338    -3228    -3224    -3316    -3437    -3583 
   -3771    -3981    -4212    -4433    -4606    -4732    -4788    -4748 
   -4682    -4645    -4640    -4677    -4741    -4817    -4927    -5024 
   -5030    -4981    -4943    -4931    -4928    -4920    -4915    -4947 
   -5008    -5045    -5052    -5022    -4923    -4763    -4572    -4396 
   -4299    -4300    -4356    -4396    -4408    -4436    -4448    -4406 
   -4341    -4285    -4273    -4327    -4407    -4487    -4597    -4693 
   -4735    -4786    -4876    -5017    -5232    -5464    -5694    -5974 
   -6253    -6462    -6600    -6642    -6612    -6573    -6508    -6416 
   -6381    -6432    -6527    -6667    -6859    -7085    -7342    -7593 
   -7797    -7980    -8131    -8197    -8187    -8145    -8065    -7934 
   -7738    -7438    -7086    -6742    -6382    -6034    -5744    -5489 
   -5292    -5189    -5157    -5194    -5264    -5305    -5327    -5357 
   -5376    -5357    -5287    -5146    -4966    -4752    -4479    -4198 
   -3943    -3733    -3590    -3511    -3510    -3616    -3766    -3888 
   -4035    -4214    -4367    -4480    -4566    -4675    -4852    -5041 
   -5159    -5198    -5188    -5158    -5113    -5032    -4935    -4823 
   -4666    -4466    -4237    -4003    -3787    -3558    -3329    -3187 
   -3180    -3291    -3485    -3747    -4094    -4527    -4969    -5330 
   -5575    -5684    -5634    -5426    -5047    -4532    -3967    -3360 
   -2724    -2174    -1813    -1661    -1685    -1849    -2146    -2571 
   -3075    -3557    -3947    -4245    -4472    -4627    -4698    -4677 
   -4600    -4473    -4239    -3920    -3588    -3269    -3005    -2812 
   -2669    -2645    -2785    -3047    -3406    -3863    -4415    -5024 
   -5594    -6046    -6416    -6712    -6872    -6904    -6851    -6740 
   -6588    -6371    -6065    -5718    -5403    -5119    -4860    -4667 
   -4557    -4522    -4527    -4499    -4431    -4305    -4097    -3847 
   -3593    -3382    -3273    -3281    -3398    -3655    -4034    -4457 
   -4879    -5264    -5578    -5800    -5915    -5909    -5814    -5663 
   -5459    -5238    -5020    -4797    -4609    -4489    -4424    -4407 
   -4427    -4432    -4438    -4512    -4632    -4738    -4793    -4784 
   -4746    -4691    -4608    -4539    -4518    -4549    -4638    -4765 
   -4926    -5139    -5368    -5555    -5696    -5787    -5827    -5833 
   -5785    -5715    -5699    -5735    -5801    -5899    -6042    -6245 
   -6483    -6686    -6797    -6829    -6808    -6699    -6510    -6292 
   -6075    -5840    -5539    -5178    -4811    -4499    -4267    -4100 
   -4005    -4048    -4248    -4527    -4806    -5047    -5235    -5336 
   -5276    -5038    -4685    -4278    -3831    -3375    -2974    -2664 
   -2451    -2321    -2271    -2337    -2532    -2789    -3018    -3219 
   -3434    -3649    -3816    -3908    -3928    -3904    -3842    -3729 
   -3595    -3472    -3368    -3311    -3339    -3461    -3671    -3951 
   -4265    -4624    -5057    -5519    -5947    -6326    -6637    -6844 
   -6924    -6863    -6664    -6340    -5902    -5392    -4876    -4378 
   -3892    -3424    -2995    -2642    -2400    -2254    -2189    -2233 
   -2375    -2558    -2715    -2818    -2865    -2848    -2752    -2600 
   -2440    -2299    -2192    -2126    -2114    -2173    -2300    -2459 
   -2592    -2728    -2884    -3002    -3055    -3069    -3077    -3090 
   -3099    -3111    -3165    -3296    -3511    -3787    -4088    -4416 
   -4779    -5134    -5445    -5740    -6054    -6397    -6729    -6986 
   -7156    -7247    -7252    -7148    -6919    -6607    -6290    -5972 
   -5630    -5338    -5159    -5059    -4987    -4916    -4874    -4928 
   -5067    -5211    -5333    -5459    -5579    -5648    -5639    -5569 
   -5490    -5420    -5361    -5359    -5455    -5645    -5866    -6091 
   -6331    -6560    -6748    -6869    -6911    -6925    -6960    -6980 
   -6952    -6901    -6845    -6821    -6823    -6823    -6852    -6903 
   -6918    -6892    -6860    -6836    -6815    -6772    -6683    -6557 
   -6392    -6180    -5951    -5714    -5463    -5195    -4917    -4662 
   -4450    -4267    -4080    -3885    -3694    -3494    -3272    -3046 
   -2827    -2622    -2435    -2249    -2077    -1966    -1905    -1877 
   -1916    -2047    -2292    -2680    -3176    -3710    -4271    -4833 
   -5305    -5624    -5813    -5920    -5973    -5973    -5906    -5808 
   -5707    -5609    -5547    -5550    -5655    -5878    -6162    -6441 
   -6727    -7028    -7294    -7477    -7534    -7467    -7308    -7057 
   -6701    -6275    -5863    -5519    -5234    -5009    -4886    -4889 
   -4958    -5017    -5043    -5062    -5082    -5065    -5001    -4926 
   -4872    -4845    -4820    -4825    -4941    -5185    -5496    -5821 
   -6153    -6502    -6857    -7164    -7388    -7554    -7680    -7727 
   -7650    -7487    -7338    -7221    -7095    -6942    -6761    -6599 
   -6474    -6338    -6207    -6092    -5939    -5704    -5370    -4935 
   -4441    -3912    -3349    -2805    -2344    -1966    -1659    -1445 
   -1336    -1339    -1454    -1636    -1855    -2124    -2424    -2706 
   -2954    -3173    -3344    -3454    -3520    -3560    -3589    -3594 
   -3546    -3492    -3495    -3544    -3621    -3725    -3851    -4002 
   -4162    -4307    -4466    -4666    -4884    -5094    -5292    -5483 
   -5691    -5897    -6040    -6132    -6165    -6085    -5886    -5588 
   -5251    -4948    -4719    -4561    -4469    -4467    -4548    -4676 
   -4803    -4901    -4991    -5080    -5151    -5200    -5254    -5297 
   -5272    -5137    -4879    -4551    -4222    -3871    -3476    -3085 
   -2771    -2574    -2479    -2489    -2638    -2928    -3289    -3674 
   -4075    -4492    -4914    -5237    -5442    -5606    -5749    -5860 
   -5917    -5909    -5885    -5893    -5918    -5966    -6093    -6318 
   -6606    -6894    -7141    -7357    -7533    -7629    -7656    -7641 
   -7592    -7502    -7308    -7020    -6716    -6437    -6195    -5970 
   -5784    -5654    -5560    -5507    -5478    -5435    -5344    -5158 
   -4873    -4511    -4100    -3673    -3279    -2959    -2728    -2602 
   -2573    -2625    -2753    -2922    -3084    -3226    -3336    -3400 
   -3425    -3425    -3408    -3383    -3352    -3281    -3173    -3092 
   -3045    -3000    -2943    -2893    -2895    -2957    -3050    -3163 
   -3325    -3541    -3786    -4033    -4269    -4488    -4672    -4785 
   -4792    -4713    -4571    -4376    -4161    -3959    -3807    -3738 
   -3707    -3670    -3691    -3798    -3961    -4135    -4247    -4315 
   -4392    -4453    -4464    -4444    -4424    -4433    -4468    -4468 
   -4453    -4478    -4531    -4558    -4569    -4626    -4739    -4859 
   -4940    -4977    -4996    -5024    -4996    -4882    -4768    -4693 
   -4617    -4542    -4485    -4459    -4503    -4588    -4667    -4783 
   -4938    -5075    -5178    -5235    -5254    -5271    -5233    -5108 
   -4968    -4875    -4841    -4845    -4874    -4901    -4919    -4889 
   -4759    -4556    -4288    -3963    -3593    -3191    -2788    -2414 
   -2107    -1908    -1859    -1965    -2204    -2542    -2951    -3404 
   -3852    -4264    -4632    -4949    -5205    -5414    -5616    -5823 
   -6026    -6189    -6292    -6329    -6278    -6153    -5981    -5785 
   -5612    -5471    -5336    -5208    -5099    -5009    -4923    -4806 
   -4632    -4459    -4335    -4261    -4243    -4302    -4469    -4725 
   -5021    -5324    -5629    -5926    -6214    -6475    -6675    -6831 
   -6942    -6953    -6827    -6602    -6319    -5992    -5618    -5191 
   -4776    -4427    -4148    -3916    -3752    -3691    -3728    -3818 
   -3889    -3963    -4097    -4261    -4379    -4438    -4484    -4527 
   -4564    -4582    -4575    -4591    -4635    -4629    -4562    -4488 
   -4434    -4405    -4353    -4256    -4159    -4087    -4006    -3910 
   -3845    -3840    -3865    -3871    -3854    -3847    -3874    -3913 
   -3936    -3970    -4056    -4176    -4263    -4314    -4354    -4412 
   -4474    -4491    -4453    -4372    -4275    -4152    -4022    -3906 
   -3815    -3739    -3656    -3576    -3490    -3420    -3392    -3412 
   -3496    -3657    -3892    -4196    -4579    -4988    -5390    -5777 
   -6100    -6356    -6533    -6590    -6537    -6400    -6185    -5924 
   -5662    -5428    -5258    -5162    -5104    -5083    -5121    -5194 
   -5275    -5348    -5429    -5547    -5671    -5752    -5801    -5831 
   -5825    -5788    -5707    -5602    -5509    -5402    -5248    -5061 
   -4853    -4652    -4472    -4287    -4134    -4054    -4046    -4098 
   -4170    -4251    -4353    -4476    -4588    -4699    -4835    -4981 
   -5113    -5178    -5180    -5159    -5081    -4898    -4637    -4380 
   -4200    -4112    -4082    -4114    -4238    -4452    -4718    -4997 
   -5264    -5509    -5726    -5855    -5869    -5838    -5800    -5708 
   -5554    -5390    -5254    -5162    -5088    -4996    -4884    -4799 
   -4737    -4674    -4633    -4648    -4709    -4771    -4809    -4826 
   -4832    -4804    -4732    -4639    -4566    -4547    -4563    -4593 
   -4618    -4644    -4681    -4700    -4686    -4667    -4664    -4666 
   -4663    -4597    -4426    -4165    -3844    -3526    -3258    -3066 
   -2968    -2979    -3084    -3252    -3478    -3741    -4034    -4333 
   -4585    -4795    -4988    -5143    -5240    -5272    -5229    -5140 
   -5056    -4999    -4982    -5028    -5113    -5198    -5266    -5308 
   -5339    -5374    -5414    -5444    -5495    -5572    -5625    -5634 
   -5616    -5589    -5584    -5616    -5652    -5728    -5887    -6106 
   -6367    -6625    -6861    -7090    -7305    -7457    -7555    -7659 
   -7763    -7823    -7809    -7738    -7647    -7521    -7303    -6990 
   -6633    -6296    -5998    -5681    -5349    -5085    -4930    -4835 
   -4771    -4766    -4829    -4952    -5072    -5155    -5238    -5306 
   -5313    -5251    -5129    -4988    -4859    -4704    -4509    -4326 
   -4198    -4077    -3944    -3840    -3775    -3771    -3817    -3892 
   -4000    -4133    -4262    -4352    -4388    -4380    -4360    -4332 
   -4294    -4252    -4204    -4134    -4035    -3929    -3824    -3736 
   -3668    -3600    -3518    -3436    -3373    -3343    -3365    -3444 
   -3613    -3867    -4156    -4456    -4741    -4982    -5176    -5346 
   -5458    -5510    -5547    -5555    -5529    -5500    -5434    -5319 
   -5222    -5143    -5063    -4992    -4916    -4859    -4854    -4870 
   -4886    -4923    -4981    -5045    -5129    -5227    -5292    -5330 
   -5330    -5265    -5194    -5146    -5090    -5042    -5012    -4974 
   -4959    -4942    -4858    -4769    -4718    -4705    -4733    -4765 
   -4789    -4834    -4882    -4854    -4774    -4687    -4557    -4367 
   -4148    -3971    -3889    -3912    -3995    -4134    -4383    -4733 
   -5132    -5531    -5901    -6265    -6619    -6875    -7000    -7052 
