Origin Time       2015/02/17 08:06:00
Lat.              39.872
Long.             143.192
Depth. (km)       13
Mag.              6.9
Station Code      HKD105
Station Lat.      42.4825
Station Long.     142.0543
Station Height(m) 6
Record Time       2015/02/17 08:08:05
Sampling Freq(Hz) 100Hz
Duration Time(s)  79
Dir.              N-S
Scale Factor      3920(gal)/6182761
Max. Acc. (gal)   2.405
Last Correction   2015/02/17 08:08:05
Memo.             
[...]
    8365     8349     8321     8262     8200     8167     8128     8075 
    8035     8007     7991     7980     7943     7887     7828     7771 
    7714     7659     7637     7656     7701     7777     7888     8027 
    8178     8320     8443     8506     8487     8410     8302     8215 
    8161     8142     8186     8286     8442     8660     8903     9109 
    9243     9275     9190     9000     8737     8448     8179     7949 
    7743     7537     7326     7162     7091     7125     7248     7439 
    7680     7906     8076     8220     8358     8487     8599     8693 
    8780     8846     8871     8886     8899     8903     8894     8855 
    8798     8761     8757     8758     8752     8771     8825     8926 
    9075     9227     9382     9533     9605     9556     9377     9092 
    8753     8435     8204     8071     8013     7995     8005     8042 
    8088     8098     8075     8079     8138     8227     8305     8375 
    8440     8488     8503     8452     8353     8243     8118     7968 
    7817     7657     7480     7339     7280     7298     7389     7521 
    7655     7812     8036     8286     8459     8525     8523     8497 
    8502     8562     8671     8813     8966     9096     9168     9157 
    9059     8888     8654     8398     8160     7977     7865     7823 
    7869     7957     8049     8165     8284     8356     8377     8354 
    8302     8249     8200     8163     8116     8033     7935     7857 
    7850     7928     8073     8257     8449     8621     8773     8905 
    8996     9029     8978     8825     8575     8272     7988     7752 
    7590     7532     7554     7628     7724     7802     7879     7983 
    8099     8211     8323     8413     8439     8415     8380     8349 
    8323     8270     8156     8021     7885     7745     7665     7670 
    7734     7836     7940     8006     8029     8034     8029     8043 
    8094     8162     8196     8191     8215     8329     8531     8759 
    8983     9163     9271     9356     9451     9546     9657     9767 
    9839     9903     9975    10037    10105    10164    10167    10074 
    9887     9643     9379     9168     9036     8905     8747     8572 
    8381     8236     8170     8171     8246     8367     8463     8494 
    8440     8320     8182     8048     7918     7780     7653     7527 
    7385     7269     7200     7208     7313     7465     7619     7748 
    7831     7849     7785     7669     7564     7467     7397     7386 
    7421     7509     7631     7763     7915     8077     8210     8327 
    8441     8524     8574     8606     8615     8590     8563     8565 
    8574     8569     8577     8599     8612     8620     8609     8581 
    8557     8523     8490     8488     8505     8522     8526     8502 
    8446     8350     8219     8061     7915     7812     7717     7622 
    7557     7549     7592     7689     7833     7975     8066     8088 
    8056     8006     7983     7975     7963     7960     7965     7964 
    7932     7894     7860     7818     7804     7830     7881     7960 
    8000     7940     7833     7703     7527     7335     7158     7025 
    6981     7029     7128     7262     7437     7641     7837     7990 
    8085     8154     8245     8342     8434     8529     8636     8750 
    8874     8992     9078     9137     9148     9086     8964     8845 
    8745     8658     8589     8515     8458     8403     8308     8208 
    8181     8251     8366     8486     8588     8649     8648     8576 
    8455     8348     8313     8378     8507     8628     8718     8743 
    8687     8604     8545     8522     8509     8481     8442     8401 
    8353     8318     8306     8283     8216     8110     7990     7865 
    7752     7656     7534     7357     7154     6971     6864     6878 
    7014     7221     7424     7598     7722     7803     7850     7865 
    7881     7876     7831     7759     7690     7669     7720     7827 
    7927     7987     8028     8044     7988     7895     7809     7731 
    7650     7553     7498     7547     7705     7957     8268     8577 
    8812     8943     8980     8968     8972     9016     9067     9110 
    9123     9085     9027     8957     8874     8825     8828     8832 
    8789     8679     8533     8412     8330     8253     8168     8098 
    8048     8012     7990     7983     8009     8049     8071     8068 
    8051     8022     7982     7940     7939     8014     8137     8285 
    8451     8649     8898     9173     9423     9646     9848     9998 
   10097    10139    10139    10158    10187    10183    10149    10103 
   10045     9965     9855     9720     9583     9467     9379     9345 
    9395     9494     9612     9726     9772     9730     9642     9529 
    9407     9271     9116     8956     8793     8652     8542     8456 
    8387     8309     8222     8132     8057     7996     7930     7830 
    7688     7542     7391     7213     7041     6913     6823     6754 
    6679     6575     6466     6403     6410     6462     6557     6734 
    6968     7192     7356     7424     7415     7394     7376     7376 
    7403     7443     7503     7602     7754     7954     8170     8340 
    8405     8348     8206     8050     7913     7763     7593     7438 
    7324     7270     7298     7440     7677     7933     8156     8323 
    8448     8563     8665     8747     8831     8906     8923     8889 
    8839     8790     8734     8656     8538     8406     8316     8275 
    8265     8260     8230     8179     8139     8115     8116     8179 
    8306     8472     8684     8938     9204     9468     9723     9971 
   10224    10483    10728    10911    11003    11014    10957    10847 
   10703    10532    10347    10161     9964     9762     9585     9459 
    9389     9355     9325     9294     9292     9332     9394     9439 
    9436     9328     9068     8693     8264     7845     7504     7249 
    7059     6966     6976     7075     7281     7562     7873     8191 
    8487     8725     8873     8952     8964     8892     8742     8536 
    8287     8007     7673     7265     6844     6455     6112     5858 
    5722     5695     5780     5976     6243     6571     6973     7410 
    7821     8138     8328     8442     8499     8486     8417     8294 
    8139     7961     7769     7595     7469     7421     7437     7496 
    7602     7751     7929     8103     8225     8296     8327     8281 
    8146     7961     7784     7625     7452     7251     7011     6768 
    6606     6523     6516     6657     6926     7261     7625     7959 
    8263     8533     8696     8720     8664     8588     8530     8521 
    8550     8608     8727     8880     9030     9197     9390     9607 
    9826     9990    10079    10131    10156    10123    10061     9988 
    9888     9787     9713     9663     9657     9705     9758     9803 
    9846     9896    10003    10184    10372    10508    10592    10605 
   10549    10452    10327    10203    10065     9866     9606     9313 
    9040     8847     8729     8663     8658     8681     8708     8735 
    8753     8771     8764     8648     8389     8078     7799     7582 
    7455     7417     7421     7473     7564     7639     7705     7773 
    7791     7722     7577     7414     7294     7211     7142     7069 
    6994     6966     6988     7062     7212     7408     7618     7799 
    7871     7846     7798     7749     7679     7545     7329     7050 
    6718     6354     6000     5731     5589     5553     5611     5750 
    5935     6132     6276     6321     6304     6264     6195     6094 
    5991     5910     5850     5829     5878     6009     6230     6533 
    6870     7209     7516     7783     8015     8169     8268     8382 
    8507     8634     8764     8892     9017     9102     9115     9057 
    8936     8793     8675     8586     8520     8497     8542     8606 
    8652     8715     8813     8916     8984     8925     8695     8352 
    7942     7512     7122     6801     6543     6313     6091     5896 
    5779     5757     5810     5890     5954     5999     6028     6050 
    6082     6117     6147     6171     6192     6221     6298     6449 
    6629     6809     6997     7163     7309     7451     7547     7599 
    7644     7668     7669     7670     7685     7739     7842     7978 
    8109     8201     8269     8336     8396     8461     8539     8616 
    8695     8759     8764     8720     8669     8615     8582     8626 
    8732     8875     9027     9161     9314     9506     9721     9938 
   10146    10367    10565    10694    10752    10742    10686    10578 
   10393    10178    10001     9881     9777     9649     9530     9447 
    9382     9336     9323     9339     9377     9415     9430     9446 
    9468     9489     9522     9566     9613     9690     9808     9931 
   10038    10147    10263    10350    10409    10446    10459    10514 
   10632    10763    10904    11057    11170    11214    11181    11078 
   10966    10874    10791    10725    10711    10777    10917    11111 
   11301    11405    11396    11266    11006    10663    10305     9958 
    9626     9295     8978     8713     8527     8414     8348     8289 
    8202     8061     7852     7600     7350     7132     6938     6760 
    6605     6484     6412     6378     6352     6346     6378     6420 
    6446     6453     6450     6455     6474     6505     6564     6678 
    6847     7073     7363     7705     8094     8520     8922     9248 
    9496     9665     9767     9788     9727     9623     9496     9349 
    9179     9012     8882     8795     8725     8676     8673     8730 
    8837     8960     9087     9217     9319     9329     9233     9057 
    8827     8581     8302     7975     7659     7400     7200     7086 
    7105     7253     7508     7829     8143     8413     8660     8885 
    9075     9217     9263     9196     9064     8900     8719     8547 
    8393     8271     8224     8275     8395     8556     8756     8946 
    9101     9224     9268     9209     9046     8800     8505     8158 
    7742     7290     6871     6543     6325     6211     6183     6243 
    6390     6593     6800     6970     7116     7244     7317     7337 
    7355     7407     7491     7562     7588     7575     7545     7511 
    7468     7424     7418     7445     7479     7525     7547     7532 
    7507     7460     7400     7374     7394     7443     7491     7505 
    7486     7465     7468     7478     7475     7458     7422     7338 
    7196     7045     6920     6826     6719     6587     6468     6378 
    6341     6351     6406     6538     6738     6966     7183     7378 
    7568     7724     7779     7707     7531     7279     6968     6647 
    6391     6229     6177     6235     6379     6583     6837     7109 
    7358     7577     7733     7814     7850     7855     7841     7843 
    7865     7858     7818     7780     7784     7846     7967     8163 
    8445     8827     9291     9754    10172    10543    10837    11030 
   11103    11027    10861    10649    10362    10032     9712     9415 
    9189     9051     8980     8990     9071     9182     9269     9306 
    9277     9157     9005     8878     8778     8729     8712     8670 
    8600     8514     8425     8337     8232     8098     7948     7799 
    7647     7510     7403     7328     7320     7387     7495     7626 
    7761     7869     7947     8009     8057     8093     8114     8109 
    8082     8052     8035     8063     8127     8172     8191     8186 
    8134     8046     7966     7900     7831     7716     7524     7293 
    7079     6930     6853     6842     6895     7002     7153     7331 
    7527     7760     8005     8202     8367     8533     8717     8937 
    9169     9388     9568     9699     9779     9778     9706     9614 
    9475     9261     9025     8783     8548     8370     8253     8223 
    8314     8488     8704     8940     9156     9355     9536     9690 
    9805     9878     9941    10016    10081    10132    10196    10254 
   10295    10305    10276    10233    10157    10012     9804     9552 
    9303     9083     8894     8733     8617     8553     8519     8464 
    8346     8170     7954     7719     7522     7372     7267     7231 
    7251     7333     7477     7649     7813     7917     7936     7851 
    7666     7433     7170     6880     6608     6377     6183     6016 
    5871     5794     5817     5935     6127     6369     6667     7020 
    7376     7678     7909     8062     8152     8200     8218     8224 
    8256     8342     8479     8698     9017     9397     9792    10191 
   10579    10937    11264    11483    11546    11479    11289    10994 
   10631    10222     9798     9361     8845     8275     7720     7222 
    6819     6512     6292     6145     6077     6089     6151     6247 
    6395     6549     6648     6716     6753     6778     6844     6943 
    7060     7246     7509     7798     8077     8314     8506     8691 
    8874     9022     9124     9167     9139     9042     8870     8647 
    8421     8214     8004     7813     7695     7646     7650     7683 
    7730     7786     7818     7801     7735     7624     7463     7255 
    6994     6697     6397     6121     5916     5800     5796     5914 
    6102     6311     6538     6777     7031     7294     7550     7789 
    7996     8184     8342     8447     8515     8556     8566     8546 
    8512     8507     8564     8695     8897     9138     9410     9723 
   10060    10414    10765    11094    11417    11709    11925    12051 
   12078    12030    11923    11735    11503    11264    11035    10811 
   10582    10353    10120     9876     9593     9270     8916     8518 
    8063     7549     7017     6509     6063     5682     5338     5048 
    4838     4673     4566     4541     4558     4636     4769     4903 
    5067     5300     5580     5888     6221     6556     6914     7304 
    7673     7991     8263     8467     8586     8618     8582     8533 
    8518     8535     8558     8587     8630     8656     8627     8545 
    8438     8318     8186     8043     7934     7914     7990     8122 
    8281     8496     8772     9083     9403     9698     9954    10137 
   10220    10190    10079     9932     9750     9525     9268     8991 
    8736     8565     8466     8443     8519     8653     8821     9025 
    9238     9446     9662     9863    10013    10081    10034     9892 
    9691     9453     9219     9025     8878     8802     8783     8792 
    8834     8895     8961     9041     9123     9219     9323     9347 
    9262     9109     8920     8734     8576     8438     8321     8233 
    8131     8018     7924     7828     7724     7616     7504     7412 
    7387     7433     7528     7650     7761     7837     7846     7778 
    7676     7581     7504     7456     7435     7444     7521     7649 
    7778     7870     7899     7886     7855     7806     7754     7720 
    7689     7641     7581     7526     7500     7531     7625     7747 
    7890     8057     8209     8314     8387     8461     8558     8663 
    8756     8838     8937     9048     9119     9165     9219     9262 
    9289     9278     9216     9092     8912     8683     8428     8189 
    7990     7843     7752     7724     7765     7880     8038     8206 
    8392     8597     8823     9061     9304     9542     9778    10010 
   10213    10373    10477    10539    10592    10638    10668    10661 
   10588    10453    10278    10077     9871     9696     9549     9404 
    9257     9095     8909     8709     8496     8294     8136     8011 
    7887     7767     7675     7615     7587     7586     7594     7631 
    7735     7861     7986     8141     8294     8418     8479     8459 
    8392     8323     8266     8218     8182     8157     8134     8082 
    7994     7902     7855     7889     7997     8150     8339     8546 
    8717     8830     8892     8913     8928     8933     8886     8772 
    8635     8485     8303     8116     7944     7816     7782     7821 
    7891     7984     8064     8104     8109     8090     8061     8039 
    8020     7983     7953     7963     7983     7969     7942     7928 
    7923     7917     7874     7796     7699     7582     7437     7289 
    7194     7171     7199     7252     7310     7361     7404     7429 
    7440     7455     7448     7419     7388     7391     7457     7578 
    7752     7961     8181     8419     8687     8955     9203     9429 
    9619     9773     9907    10020    10088    10107    10079    10003 
    9917     9828     9729     9673     9650     9629     9617     9590 
    9554     9522     9463     9373     9261     9129     8976     8816 
    8674     8560     8462     8384     8291     8176     8057     7899 
    7737     7587     7433     7317     7214     7088     6960     6834 
    6726     6676     6683     6751     6856     6950     7036     7121 
    7223     7341     7435     7481     7459     7397     7363     7350 
    7339     7352     7350     7302     7221     7113     7043     7068 
    7146     7222     7304     7411     7555     7764     8054     8380 
    8691     8948     9088     9104     9027     8857     8564     8157 
    7685     7207     6777     6402     6133     6001     5971     6015 
    6116     6279     6478     6655     6793     6863     6836     6759 
    6666     6558     6491     6500     6552     6646     6806     7018 
    7266     7524     7757     7983     8190     8359     8517     8673 
    8791     8861     8901     8916     8914     8918     8937     8944 
    8947     8966     8991     9046     9181     9371     9572     9770 
    9920    10016    10053    10000     9867     9665     9401     9085 
    8756     8480     8299     8224     8245     8333     8473     8653 
    8813     8942     9033     9071     9065     8991     8839     8657 
    8469     8264     8038     7794     7548     7326     7130     6952 
    6791     6667     6569     6480     6427     6416     6466     6579 
    6733     6919     7108     7278     7443     7591     7731     7892 
    8050     8173     8278     8392     8522     8680     8842     8991 
    9133     9244     9306     9298     9222     9122     9003     8829 
    8618     8402     8191     7994     7799     7646     7572     7578 
    7669     7845     8118     8468     8837     9178     9495     9787 
   10060    10308    10499    10665    10804    10878    10929    10981 
   11036    11129    11255    11376    11494    11576    11579    11515 
   11395    11233    11051    10854    10632    10398    10171     9933 
    9664     9384     9095     8778     8457     8169     7927     7727 
    7560     7399     7242     7087     6931     6786     6681     6647 
    6669     6759     6941     7210     7559     7941     8299     8627 
    8929     9168     9338     9438     9462     9437     9372     9274 
    9164     9059     8939     8792     8611     8412     8229     8048 
    7878     7750     7635     7528     7452     7380     7315     7291 
    7301     7342     7417     7526     7668     7827     7951     8007 
    8034     8055     8029     7969     7941     7949     7992     8080 
    8185     8299     8440     8566     8649     8725     8785     8833 
    8869     8856     8805     8746     8676     8578     8498     8465 
    8453     8455     8469     8506     8604     8752     8911     9081 
    9240     9370     9463     9475     9416     9300     9105     8836 
