Origin Time       2013/10/26 02:10:00
Lat.              37.195
Long.             144.568
Depth. (km)       56
Mag.              7.1
Station Code      HKD112
Station Lat.      41.9370
Station Long.     143.2403
Station Height(m) 15
Record Time       2013/10/26 02:11:42
Sampling Freq(Hz) 100Hz
Duration Time(s)  130
Dir.              U-D
Scale Factor      3920(gal)/6182761
Max. Acc. (gal)   2.410
Last Correction   2013/10/26 02:11:42
Memo.             
[...]
  -41010   -40433   -40474   -41130   -41411   -41038   -40605   -40455 
  -40466   -40589   -40846   -41014   -40937   -40875   -40991   -41024 
  -40880   -40904   -41111   -40983   -40461   -40154   -40447   -41055 
  -41367   -41114   -40678   -40571   -40808   -40953   -40781   -40561 
  -40601   -41001   -41471   -41391   -40820   -40598   -40944   -41267 
  -41270   -41005   -40558   -40430   -40989   -41558   -41430   -40941 
  -40526   -40226   -40282   -40624   -40720   -40756   -41151   -41337 
  -40921   -40644   -40915   -41188   -41089   -40854   -40887   -41155 
  -41137   -40868   -41016   -41353   -41079   -40659   -40930   -41332 
  -41112   -40598   -40320   -40500   -41104   -41581   -41439   -40915 
  -40498   -40420   -40628   -40777   -40610   -40458   -40698   -41091 
  -41324   -41355   -41075   -40598   -40426   -40828   -41317   -40988 
  -39945   -39635   -40609   -41573   -41565   -41036   -40672   -40674 
  -41024   -41536   -41592   -40775   -39984   -40453   -41616   -41857 
  -41033   -40168   -39739   -39865   -40562   -41146   -41051   -40720 
  -40697   -40998   -41445   -41613   -41102   -40368   -40288   -40828 
  -41202   -41129   -41003   -41081   -41184   -40976   -40550   -40575 
  -41104   -41208   -40699   -40436   -40579   -40621   -40727   -41123 
  -41190   -40777   -40807   -41402   -41545   -41099   -40811   -40731 
  -40616   -40773   -41236   -41322   -40642   -39920   -40310   -41653 
  -42230   -41156   -39887   -40012   -41007   -41595   -41453   -40689 
  -39914   -40411   -41959   -42372   -40947   -39635   -40003   -41325 
  -41797   -40880   -39923   -39924   -40285   -40496   -40822   -41277 
  -41566   -41412   -40809   -40427   -40724   -41114   -41057   -40650 
  -40120   -39855   -40322   -41342   -41936   -41466   -40665   -40710 
  -41566   -42123   -41613   -40481   -39934   -40376   -40940   -41049 
  -40921   -40454   -39845   -40290   -41767   -42375   -41324   -40037 
  -39898   -40755   -41505   -41374   -40522   -39630   -39418   -40244 
  -41518   -42017   -41248   -40123   -39902   -40799   -41881   -42121 
  -41494   -40740   -40289   -40238   -40792   -41661   -41756   -40758 
  -39969   -40255   -40732   -40652   -40463   -40483   -40538   -40645 
  -40877   -41208   -41538   -41458   -40877   -40612   -41059   -41495 
  -41347   -40701   -39998   -39994   -40845   -41467   -41147   -40693 
  -40762   -40753   -40430   -40514   -40909   -40822   -40596   -40879 
  -41075   -40714   -40353   -40333   -40683   -41293   -41374   -40768 
  -40669   -41290   -41374   -40586   -39812   -39749   -40512   -41345 
  -41133   -40253   -40181   -41113   -41948   -42085   -41827   -41493 
  -41023   -40465   -40252   -40657   -41247   -41246   -40573   -40046 
  -40214   -40680   -40938   -41019   -41110   -41165   -41024   -40753 
  -40514   -40251   -40235   -41038   -42144   -42162   -41010   -40148 
  -40343   -40869   -40985   -40809   -40677   -40592   -40553   -40923 
  -41761   -42223   -41598   -40589   -40406   -40854   -40930   -40620 
  -40480   -40619   -40832   -40854   -40703   -40684   -40629   -40296 
  -40314   -41056   -41581   -41112   -40290   -40042   -40524   -41432 
  -42037   -41460   -40107   -39728   -41028   -42387   -42191   -41299 
  -41208   -41354   -40731   -40110   -40468   -41210   -41241   -40473 
  -39822   -40092   -40908   -41230   -40820   -40399   -40643   -41392 
  -41649   -40859   -39998   -40245   -41121   -41424   -41045   -40630 
  -40602   -40954   -41177   -40965   -40956   -41411   -41343   -40520 
  -40169   -40679   -41049   -40901   -40976   -41453   -41437   -40620 
  -40081   -40577   -41317   -41433   -41268   -41208   -40936   -40390 
  -40063   -40181   -40384   -40497   -40766   -40983   -40825   -40821 
  -41303   -41784   -42125   -42243   -41679   -40890   -40556   -40166 
  -39725   -40139   -40817   -40640   -40345   -40805   -41348   -41328 
  -41022   -40909   -41163   -41451   -41240   -40656   -40383   -40611 
  -40917   -41020   -41083   -41267   -41148   -40340   -39583   -39821 
  -40748   -41379   -41193   -40513   -40208   -40692   -41553   -42145 
  -41992   -41206   -40595   -40589   -40759   -40793   -40881   -41082 
  -41097   -40729   -40411   -40695   -40914   -40270   -39888   -40707 
  -41461   -41294   -40844   -40424   -40204   -40653   -41450   -41685 
  -41101   -40425   -40513   -41199   -41594   -41301   -40674   -40316 
  -40410   -40554   -40546   -40502   -40409   -40608   -41226   -41223 
  -40284   -39788   -40223   -40694   -40939   -41023   -40621   -40142 
  -40581   -42004   -43230   -43059   -41813   -40965   -40903   -40818 
  -40782   -41353   -41595   -40477   -39401   -40283   -42120   -42343 
  -40629   -39114   -39233   -40185   -40849   -41132   -40902   -40154 
  -40094   -41304   -42195   -41445   -40026   -39573   -40312   -41093 
  -41184   -41199   -41620   -41941   -41871   -41644   -41208   -40750 
  -41018   -41629   -41079   -39546   -39164   -40586   -41747   -41196 
  -40226   -40370   -40975   -40761   -40195   -40500   -41401   -41656 
  -40962   -40231   -40339   -40918   -40915   -40420   -40415   -40934 
  -41344   -41398   -40887   -40199   -40446   -41232   -41256   -41169 
  -41806   -41915   -40841   -40121   -40792   -41662   -41140   -39746 
  -39436   -40618   -41686   -41421   -40361   -40037   -41101   -42220 
  -41890   -40576   -39574   -39318   -39736   -40617   -41542   -42054 
  -41671   -40567   -40024   -40766   -41728   -41639   -40656   -39853 
  -40048   -41053   -41675   -41283   -40943   -41535   -42078   -41537 
  -40595   -40354   -40622   -40617   -40383   -40432   -40790   -41130 
  -41306   -41451   -41446   -40838   -40113   -40459   -41519   -41787 
  -41070   -40406   -40611   -41541   -42118   -41823   -41311   -40901 
  -40368   -39924   -39890   -40299   -40832   -40690   -39899   -39789 
  -40723   -41591   -41679   -41045   -40363   -40686   -41687   -41697 
  -40469   -39548   -39678   -40081   -40502   -41556   -42366   -41351 
  -39739   -39964   -41490   -42159   -41461   -40253   -39739   -40541 
  -41329   -40494   -39141   -39500   -41346   -42691   -42610   -41464 
  -39993   -39151   -39539   -40809   -41976   -42091   -40930   -39548 
  -39542   -40905   -41844   -41511   -40923   -40952   -41413   -41581 
  -40941   -40277   -40710   -41611   -41781   -41601   -41740   -41547 
  -40551   -39768   -40119   -41047   -41708   -42087   -42220   -41755 
  -40732   -39845   -39981   -41213   -41729   -39798   -37448   -38116 
  -40791   -41833   -40781   -39756   -40035   -41445   -42659   -42400 
  -41282   -40842   -41347   -41748   -41174   -40290   -40348   -40959 
  -40836   -40155   -40002   -40531   -41061   -40957   -40279   -39990 
  -40654   -41582   -42166   -42340   -41682   -40360   -39765   -40309 
  -40752   -40647   -40871   -41595   -41759   -40705   -39563   -40096 
  -41869   -42694   -42127   -41403   -40811   -40272   -40237   -40276 
  -39662   -39115   -39586   -40696   -41461   -41333   -40751   -40778 
  -41511   -41938   -41697   -41324   -40750   -39586   -38836   -39791 
  -41424   -41927   -41611   -41410   -40956   -40124   -39786   -40331 
  -41027   -40914   -40140   -40057   -41287   -42547   -42341   -40834 
  -39620   -40110   -41681   -42346   -41920   -41684   -41455   -40802 
  -40816   -41631   -41574   -40195   -38850   -38570   -39357   -40418 
  -40934   -40953   -40799   -40813   -41642   -42794   -42451   -40589 
  -39454   -40008   -41098   -41584   -41177   -40427   -40263   -40941 
  -41998   -42914   -42969   -41743   -40275   -39884   -40341   -40680 
  -40493   -39927   -39547   -39751   -40137   -40457   -41299   -42632 
  -43217   -42421   -41401   -41441   -42005   -41780   -40706   -39599 
  -38874   -38672   -39167   -40128   -40708   -40238   -39250   -39043 
  -40000   -41083   -41240   -40528   -39900   -40393   -42045   -43646 
  -43940   -42708   -40944   -40233   -41038   -41930   -41629   -40557 
  -39849   -40309   -41634   -42199   -41327   -40565   -40957   -41441 
  -41000   -40051   -39506   -39656   -40010   -40033   -39838   -39931 
  -40428   -40853   -41067   -41513   -41947   -41742   -41528   -41890 
  -41828   -40966   -40250   -39854   -39965   -41335   -42807   -42557 
  -41247   -40403   -40310   -40646   -40864   -40738   -40681   -40687 
  -40583   -40672   -40741   -40498   -40525   -40789   -40473   -40101 
  -40768   -41698   -41351   -40121   -39912   -41255   -42330   -41675 
  -40246   -39720   -40507   -41843   -42411   -41483   -39976   -39270 
  -39523   -40002   -40055   -39763   -40005   -40915   -41567   -42152 
  -43245   -43364   -41475   -39617   -39692   -40813   -41349   -40756 
  -39373   -38418   -39070   -40805   -42130   -42315   -41402   -40165 
  -40202   -42005   -43548   -42907   -40929   -39555   -39406   -40184 
  -41547   -42459   -41526   -39278   -38192   -39480   -41581   -42491 
  -42118   -41480   -40958   -40374   -39932   -40049   -40348   -40205 
  -40157   -40877   -41523   -41172   -40660   -41114   -41921   -41735 
  -40751   -40572   -41417   -41739   -41226   -40909   -40869   -40631 
  -40438   -40774   -41586   -42292   -42282   -41593   -40986   -40899 
  -40737   -39916   -38866   -38355   -38743   -39853   -40867   -41128 
  -41239   -42123   -43279   -43372   -42038   -40122   -38867   -39203 
  -40836   -42142   -42006   -41097   -40389   -40033   -40199   -40986 
  -41513   -40972   -40023   -39798   -40515   -41283   -40904   -39718 
  -39300   -39979   -40921   -41672   -42057   -41991   -41757   -41721 
  -41981   -42112   -41651   -41303   -41500   -40648   -38591   -38213 
  -40195   -41795   -41769   -41037   -40318   -39920   -39838   -40134 
  -40825   -41195   -41373   -42263   -42845   -41804   -40409   -40190 
  -40382   -39921   -39389   -39513   -39926   -40165   -40402   -40812 
  -40872   -40314   -40357   -41642   -42241   -40757   -38942   -38866 
  -40376   -42193   -43270   -43013   -41705   -40812   -41648   -43598 
  -44598   -43367   -40740   -38835   -38957   -40435   -41458   -40844 
  -39168   -38331   -39454   -41405   -42317   -41529   -39548   -37903 
  -38406   -40840   -42623   -41784   -39254   -37859   -39259   -41949 
  -43292   -42856   -41847   -40849   -40210   -40517   -41273   -41223 
  -40400   -40055   -40650   -41188   -40814   -40124   -40080   -40549 
  -40742   -40479   -40478   -41118   -41538   -41184   -40995   -41648 
  -42527   -42766   -41868   -40429   -39970   -40659   -41244   -41355 
  -41463   -41648   -41650   -41194   -40668   -40939   -41306   -40432 
  -39623   -40424   -41048   -39987   -39058   -39745   -40875   -41193 
  -41011   -41044   -41428   -41725   -41563   -41157   -40727   -40257 
  -40173   -40929   -41821   -41658   -40562   -39852   -40267   -40877 
  -40294   -39194   -39739   -41735   -42351   -40675   -39145   -39646 
  -41363   -42457   -41911   -40458   -39802   -40570   -41858   -42274 
  -41122   -39392   -38655   -39024   -39657   -40055   -40225   -40694 
  -41662   -42390   -42230   -41241   -40323   -40685   -41669   -41401 
  -40529   -41313   -43195   -43511   -42077   -41189   -41464   -41253 
  -39922   -38874   -39130   -39826   -39913   -39659   -39628   -39883 
  -40526   -41657   -42841   -43296   -42732   -41894   -41464   -41037 
  -40744   -41614   -42820   -42259   -40220   -38865   -39331   -41182 
  -42618   -42047   -40619   -40423   -41224   -41653   -41166   -39935 
  -38952   -39198   -39990   -40046   -39594   -39915   -41503   -43371 
  -44136   -43331   -41542   -40002   -39730   -40349   -40517   -39942 
  -39630   -39785   -39351   -38472   -39154   -41795   -43678   -43040 
  -41414   -40364   -39670   -39391   -40093   -40981   -40519   -38752 
  -37619   -38724   -41226   -42881   -42853   -42126   -41739   -41881 
  -42189   -42035   -41039   -39893   -39726   -40408   -40981   -41361 
  -41633   -41129   -40186   -40340   -41633   -42495   -42250   -41506 
  -40828   -40000   -38644   -38156   -40499   -43921   -44667   -42745 
  -41002   -40770   -41758   -42864   -42483   -40741   -39474   -39054 
  -38592   -38474   -39403   -40395   -40082   -38877   -38376   -39176 
  -40526   -41777   -42526   -42083   -40776   -40441   -41772   -42972 
  -42355   -40520   -39267   -39372   -39831   -39580   -39403   -40439 
  -41749   -42026   -42066   -42512   -42067   -40558   -39915   -40608 
  -41032   -40632   -40448   -40820   -40869   -40448   -40818   -42259 
  -42946   -41844   -40541   -40448   -40639   -40285   -40426   -41655 
  -42571   -41840   -40357   -40088   -41043   -41266   -40322   -40105 
  -41256   -42012   -41382   -40407   -40275   -41150   -42206   -42359 
  -41472   -40400   -39976   -40420   -41032   -40765   -39841   -39439 
  -39734   -40050   -40235   -40625   -41370   -42100   -42093   -41219 
  -40314   -40017   -40202   -40721   -41413   -41872   -41915   -41614 
  -41274   -41365   -41638   -41310   -40296   -39075   -38220   -38668 
  -40601   -42179   -41562   -39848   -39751   -41263   -41614   -40300 
  -39761   -40552   -41003   -40997   -41281   -41149   -40086   -39130 
  -39227   -39938   -40338   -40446   -40893   -41714   -42377   -42467 
  -42137   -41955   -41889   -41330   -40680   -41005   -41719   -41324 
  -40352   -40430   -41275   -41489   -40935   -40613   -41136   -41857 
  -41740   -40832   -39853   -39135   -39002   -39851   -41002   -41125 
  -40541   -40706   -41063   -39889   -37985   -37878   -40024   -42171 
  -42280   -40907   -40006   -40626   -42634   -44664   -44615   -42276 
  -39882   -39157   -40027   -41414   -41831   -40929   -40039   -39902 
  -40150   -40869   -41873   -41960   -40926   -40240   -40870   -42044 
  -42314   -41310   -40286   -40424   -41239   -41743   -41861   -41467 
  -40105   -38806   -39470   -41774   -43339   -42811   -40823   -39033 
  -38913   -40231   -41312   -41196   -40475   -40317   -41187   -42235 
  -42291   -41320   -40219   -39699   -39784   -39829   -39327   -38699 
  -38599   -39204   -40331   -41528   -42366   -42576   -42112   -41320 
  -40683   -40730   -41662   -42425   -41555   -39274   -37513   -37901 
  -40062   -42140   -42993   -42541   -40891   -39228   -39397   -41208 
  -42535   -41988   -40130   -39026   -40206   -42202   -42294   -40553 
  -39356   -40094   -42054   -43355   -42839   -41466   -40948   -41299 
  -41358   -40994   -40813   -40580   -39918   -39580   -40292   -41451 
  -42072   -41757   -40729   -40057   -40578   -41346   -41187   -40720 
  -40719   -40618   -40256   -40256   -40198   -39446   -38891   -39355 
  -40232   -41077   -41979   -42326   -41544   -40556   -40768   -41783 
  -41839   -40544   -39341   -39560   -41044   -42053   -41297   -40171 
  -40518   -41660   -42202   -42004   -41514   -41418   -41919   -41878 
  -40654   -39484   -39387   -39985   -40588   -40657   -40437   -40989 
  -42056   -42176   -41502   -41203   -41201   -41088   -40963   -40786 
  -40720   -41031   -41298   -41106   -40729   -40390   -40122   -40224 
  -40709   -40995   -40554   -39705   -39760   -41221   -42589   -42529 
  -41429   -40115   -39216   -39500   -40815   -41620   -41048   -40127 
  -39934   -40158   -40445   -41089   -41604   -41244   -40769   -41142 
  -41760   -41639   -40821   -40084   -40083   -40608   -40870   -40688 
  -40661   -41007   -41237   -41203   -41283   -41412   -41084   -40229 
  -39247   -38619   -38960   -40382   -41750   -42018   -41642   -41385 
  -41218   -41214   -41524   -41504   -40856   -40581   -41286   -42081 
  -42049   -41211   -40125   -39744   -40449   -41139   -40963   -40699 
  -41021   -41365   -41399   -41452   -41291   -40752   -40671   -41033 
  -40686   -40134   -40651   -41218   -40592   -39851   -39880   -39920 
  -39822   -40447   -41654   -42306   -42098   -41551   -40942   -40626 
  -40998   -41648   -41738   -40828   -39446   -39221   -40797   -42147 
  -41573   -40331   -39747   -39222   -38742   -39458   -41059   -41699 
  -40941   -40546   -41622   -42789   -42425   -41157   -40641   -41134 
  -41676   -41733   -41461   -41014   -40469   -40036   -39694   -39182 
  -38917   -39802   -41617   -42901   -42778   -41903   -41498   -41904 
  -42299   -41889   -40983   -40531   -40802   -41182   -41235   -41134 
  -40995   -40693   -40449   -40514   -40451   -39998   -39875   -40417 
  -40633   -40156   -40039   -40537   -40751   -40360   -39694   -39199 
  -39510   -40730   -41757   -41511   -40549   -40264   -40840   -41284 
  -41280   -41530   -42201   -42591   -42454   -42182   -41787   -41014 
  -40442   -41009   -42050   -41661   -39799   -38706   -39415   -40533 
  -40889   -40985   -41572   -41951   -40995   -39763   -40332   -42003 
  -42176   -40577   -39462   -40132   -41481   -41802   -41027   -40397 
  -40233   -40218   -40831   -41563   -40724   -39026   -38821   -39882 
  -40523   -40741   -40986   -40889   -40405   -40115   -40638   -41771 
  -42266   -41512   -40357   -39850   -40292   -40976   -40887   -40397 
  -40664   -41335   -41354   -40852   -40371   -40229   -40834   -41802 
  -42040   -41458   -40786   -40469   -40881   -41776   -41886   -40917 
  -40290   -40677   -40979   -40568   -40321   -40716   -40946   -40661 
  -40661   -41328   -42057   -42070   -41023   -39748   -39737   -40973 
  -41820   -41446   -40770   -40686   -40802   -40702   -40865   -41249 
  -41184   -41104   -41585   -41817   -41380   -41088   -41241   -41411 
  -41434   -41151   -40320   -39380   -39299   -40472   -42111   -42775 
  -41871   -40508   -40306   -41375   -42096   -41285   -39696   -38698 
  -38777   -39703   -40668   -40565   -39483   -39005   -40143   -41908 
  -42580   -41882   -41152   -41416   -42058   -41794   -40690   -40122 
  -40343   -40182   -39503   -39345   -40042   -40951   -41434   -41528 
  -41564   -41348   -40727   -40374   -40569   -40656   -40609   -40933 
  -41316   -41307   -41255   -41509   -41745   -41561   -40971   -40392 
  -40460   -41148   -41289   -40247   -39263   -39603   -40528   -40737 
  -40584   -40948   -41456   -41744   -42292   -42865   -42619   -41631 
  -40635   -40230   -40610   -41121   -40786   -39810   -39334   -39679 
  -40363   -41013   -41217   -40878   -40669   -41050   -41585   -41716 
  -41487   -41276   -41124   -40848   -40695   -40904   -41105   -40951 
  -40612   -40427   -40558   -40737   -40630   -40404   -40271   -40302 
  -40725   -41265   -41211   -40793   -40698   -40581   -39948   -39403 
  -39616   -40279   -40703   -40635   -40449   -40810   -41638   -41926 
  -41399   -40919   -40802   -40664   -40662   -40994   -41053   -40276 
  -39209   -39091   -40302   -41567   -41492   -40578   -40544   -41883 
  -43240   -43312   -42270   -41068   -40480   -40652   -40857   -40430 
  -39796   -39625   -39871   -40393   -41183   -41911   -42276   -42232 
  -41852   -41486   -41313   -41002   -40530   -40337   -40450   -40516 
  -40453   -40483   -40910   -41669   -42059   -41691   -41113   -40816 
  -40817   -41098   -41278   -40960   -40738   -41108   -41373   -41122 
  -40915   -40903   -40658   -40131   -39779   -40071   -40874   -41327 
  -40840   -39978   -39636   -39856   -40208   -40671   -41230   -41228 
  -40446   -39980   -40499   -41183   -41376   -41047   -40040   -39140 
  -39834   -41607   -42282   -41405   -40649   -40931   -41484   -41639 
  -41346   -40645   -40039   -40026   -40208   -40360   -40824   -41039 
