Origin Time       2013/10/26 02:10:00
Lat.              37.195
Long.             144.568
Depth. (km)       56
Mag.              7.1
Station Code      HKD112
Station Lat.      41.9370
Station Long.     143.2403
Station Height(m) 15
Record Time       2013/10/26 02:11:42
Sampling Freq(Hz) 100Hz
Duration Time(s)  130
Dir.              N-S
Scale Factor      3920(gal)/6182761
Max. Acc. (gal)   7.247
Last Correction   2013/10/26 02:11:42
Memo.             
[...]
   -7716    -7696    -7635    -7620    -7712    -7917    -8009    -7820 
   -7574    -7543    -7691    -7788    -7653    -7409    -7393    -7637 
   -7764    -7655    -7715    -8191    -8635    -8441    -7765    -7383 
   -7538    -7637    -7269    -6809    -6858    -7381    -7728    -7657 
   -7660    -7998    -8340    -8403    -8247    -8073    -7961    -7812 
   -7563    -7381    -7450    -7658    -7751    -7618    -7354    -7234 
   -7397    -7620    -7716    -7792    -7951    -8054    -7908    -7682 
   -7741    -7948    -7881    -7640    -7605    -7612    -7270    -6885 
   -7105    -7758    -8012    -7630    -7325    -7660    -8185    -8231 
   -7936    -7788    -7811    -7739    -7594    -7590    -7619    -7382 
   -6988    -6850    -7147    -7676    -8042    -7974    -7631    -7508 
   -7857    -8296    -8346    -8088    -7912    -7898    -7773    -7489 
   -7477    -7930    -8293    -8051    -7492    -7245    -7399    -7556 
   -7558    -7586    -7654    -7568    -7314    -7163    -7328    -7646 
   -7806    -7686    -7442    -7463    -7914    -8422    -8541    -8301 
   -8113    -8120    -8020    -7726    -7511    -7463    -7343    -6936 
   -6455    -6365    -6744    -7288    -7774    -8185    -8595    -8950 
   -9050    -8797    -8299    -7839    -7640    -7536    -7220    -6789 
   -6666    -7083    -7750    -8087    -7963    -7784    -7744    -7694 
   -7567    -7429    -7359    -7385    -7446    -7498    -7582    -7713 
   -7867    -8037    -8113    -7989    -7787    -7720    -7847    -8004 
   -7968    -7777    -7670    -7679    -7619    -7364    -6996    -6796 
   -6974    -7360    -7587    -7600    -7776    -8354    -8985    -9114 
   -8684    -8140    -7810    -7603    -7321    -7018    -6925    -7101 
   -7359    -7491    -7500    -7597    -7892    -8161    -8095    -7777 
   -7568    -7630    -7909    -8190    -8147    -7767    -7356    -7112 
   -7011    -7010    -7174    -7567    -8051    -8278    -8053    -7719 
   -7774    -8105    -8196    -7871    -7407    -7213    -7416    -7755 
   -8054    -8327    -8377    -7992    -7479    -7365    -7624    -7755 
   -7554    -7302    -7283    -7443    -7578    -7665    -7753    -7723 
   -7513    -7335    -7394    -7675    -8006    -8146    -8013    -7824 
   -7732    -7629    -7472    -7427    -7560    -7614    -7357    -7115 
   -7426    -8153    -8576    -8324    -7755    -7396    -7400    -7638 
   -7999    -8318    -8345    -8091    -7859    -7783    -7706    -7512 
   -7269    -7033    -6828    -6831    -7229    -7873    -8371    -8492 
   -8344    -8137    -7886    -7537    -7248    -7133    -7014    -6805 
   -6767    -7156    -7860    -8434    -8526    -8295    -8128    -8026 
   -7744    -7410    -7378    -7592    -7647    -7476    -7401    -7532 
   -7730    -7906    -7977    -7898    -7852    -8018    -8245    -8264 
   -8070    -7817    -7464    -6923    -6569    -6949    -7781    -8116 
   -7685    -7301    -7624    -8198    -8308    -8051    -7850    -7844 
   -8026    -8152    -7881    -7436    -7427    -7874    -8047    -7459 
   -6714    -6811    -7575    -7879    -7518    -7421    -8019    -8609 
   -8441    -7808    -7569    -7901    -8185    -7937    -7305    -6802 
   -6814    -7341    -8047    -8430    -8257    -7920    -7925    -8176 
   -8171    -7714    -7208    -7078    -7177    -7198    -7262    -7576 
   -7938    -8075    -8087    -8087    -7879    -7446    -7195    -7375 
   -7663    -7651    -7385    -7173    -7104    -7070    -7203    -7708 
   -8301    -8501    -8364    -8312    -8460    -8521    -8282    -7798 
   -7199    -6677    -6559    -7018    -7737    -8131    -7984    -7698 
   -7702    -7899    -8060    -8203    -8300    -8133    -7658    -7298 
   -7536    -8132    -8320    -7868    -7353    -7212    -7224    -7167 
   -7178    -7356    -7546    -7510    -7261    -7140    -7369    -7707 
   -7725    -7408    -7218    -7422    -7778    -8086    -8390    -8596 
   -8524    -8251    -8097    -8256    -8385    -7991    -7319    -7010 
   -7039    -6958    -6783    -6861    -7260    -7614    -7462    -6962 
   -6952    -7783    -8704    -8853    -8327    -7844    -7673    -7451 
   -7009    -6789    -7151    -7697    -7793    -7544    -7651    -8277 
   -8803    -8796    -8426    -7986    -7615    -7355    -7246    -7261 
   -7245    -7155    -7127    -7105    -6890    -6663    -6857    -7381 
   -7669    -7521    -7345    -7527    -7898    -8168    -8531    -9119 
   -9431    -9065    -8442    -8183    -8158    -7867    -7377    -7055 
   -6927    -6796    -6665    -6799    -7232    -7546    -7531    -7534 
   -7870    -8313    -8467    -8331    -8184    -8206    -8240    -7946 
   -7406    -7198    -7591    -8092    -8084    -7696    -7616    -7970 
   -8042    -7479    -7006    -7302    -7876    -7722    -6830    -6320 
   -6818    -7551    -7600    -7112    -6776    -6842    -7037    -7138 
   -7322    -7855    -8630    -9113    -8905    -8373    -8155    -8152 
   -7766    -6931    -6345    -6593    -7288    -7645    -7653    -7789 
   -7977    -7848    -7509    -7350    -7372    -7150    -6616    -6402 
   -6891    -7565    -7856    -7971    -8309    -8683    -8725    -8616 
   -8753    -8984    -8920    -8619    -8273    -7875    -7499    -7248 
   -7037    -6775    -6478    -6242    -6226    -6430    -6766    -7335 
   -8054    -8472    -8498    -8568    -8931    -9373    -9551    -9342 
   -8985    -8746    -8485    -7930    -7323    -7125    -7199    -7102 
   -6903    -7062    -7595    -7875    -7555    -7148    -7191    -7557 
   -7805    -7698    -7474    -7581    -8001    -8295    -8290    -8149 
   -7973    -7761    -7518    -7298    -7299    -7616    -7977    -8076 
   -7965    -7951    -8188    -8263    -7752    -7091    -6795    -6622 
   -6331    -6096    -6075    -6268    -6518    -6711    -7026    -7665 
   -8635    -9793   -10703   -10849   -10210    -9308    -8640    -8141 
   -7490    -6810    -6413    -6337    -6591    -7001    -7169    -7150 
   -7281    -7490    -7454    -7101    -6715    -6595    -6748    -7119 
   -7700    -8133    -8003    -7599    -7514    -7786    -8177    -8705 
   -9260    -9233    -8301    -7304    -7270    -7806    -7655    -6543 
   -5512    -5450    -6072    -6792    -7604    -8468    -9035    -9230 
   -9187    -8877    -8315    -7779    -7505    -7300    -6791    -6267 
   -6536    -7626    -8696    -9240    -9454    -9741   -10249   -10677 
  -10432    -9253    -7796    -7038    -7001    -6869    -6470    -6660 
   -7691    -8331    -7682    -6821    -7158    -8135    -8116    -6873 
   -5843    -6081    -7002    -7597    -7837    -8092    -8155    -7647 
   -6819    -6354    -6648    -7403    -7971    -8272    -8776    -9336 
   -9195    -8241    -7287    -6919    -6695    -6066    -5630    -6398 
   -8116    -9376    -9490    -9321    -9748   -10200    -9582    -8070 
   -6908    -6606    -6513    -6121    -5756    -5948    -6499    -6551 
   -5878    -5441    -6063    -7278    -8121    -8433    -8716    -9174 
   -9474    -9338    -9001    -8833    -8638    -7896    -6750    -6055 
   -6212    -6645    -6696    -6439    -6315    -6459    -6775    -7371 
   -8369    -9386    -9860    -9896   -10017   -10120    -9646    -8606 
   -7623    -7157    -7094    -7158    -7454    -8042    -8309    -7596 
   -6189    -5165    -5268    -6062    -6588    -6763    -7308    -8315 
   -9050    -9087    -8706    -8388    -8211    -7788    -7124    -6937 
   -7706    -9031   -10108   -10539   -10400    -9573    -7940    -6304 
   -5722    -6024    -6129    -5503    -4774    -4882    -5697    -6178 
   -6081    -6216    -6858    -7240    -6891    -6491    -6934    -8213 
   -9739   -11170   -12518   -13628   -13776   -12423   -10263    -8526 
   -7400    -6231    -4865    -3722    -3029    -2664    -2496    -2785 
   -3999    -6015    -8032    -9468   -10543   -11714   -12758   -13040 
  -12591   -11974   -11174    -9692    -7650    -5804    -4583    -3959 
   -4002    -4952    -6555    -7692    -7628    -7349    -7977    -8561 
   -7454    -4978    -3007    -2660    -3322    -3879    -4454    -6070 
   -8800   -11578   -13594   -14907   -15924   -16517   -15788   -13248 
   -9742    -6582    -4270    -2337     -355     1094     1033     -540 
   -2810    -5232    -7587    -9559   -10901   -11619   -11773   -11400 
  -10787   -10419   -10359   -10108    -9436    -8945    -9285    -9904 
   -9410    -7432    -5206    -3990    -3784    -3942    -4207    -4724 
   -5509    -6298    -6861    -7216    -7555    -8053    -8544    -8519 
   -7865    -7318    -7653    -8753    -9991   -11122   -12060   -12257 
  -11270    -9431    -7310    -5222    -3546    -2724    -2861    -3497 
   -3896    -4032    -4848    -6737    -8601    -9199    -8677    -8207 
   -8447    -8834    -8754    -8653    -9049    -9607   -10105   -10997 
  -12349   -13151   -12206    -9561    -6647    -4816    -4058    -3524 
   -2920    -2568    -2692    -3438    -4854    -6626    -8439   -10254 
  -11968   -13307   -14013   -13910   -13001   -11321    -9044    -6904 
   -5561    -4759    -3871    -2836    -2195    -2381    -3342    -4910 
   -7015    -9379   -11381   -12414   -12360   -11595   -10464    -9002 
   -7375    -6209    -6088    -6859    -7819    -8514    -8928    -9067 
   -8949    -8845    -9046    -9352    -9091    -8099    -7247    -7289 
   -7958    -8598    -8707    -8024    -6710    -5213    -4060    -3739 
   -4279    -5291    -6549    -7892    -8882    -9229    -9161    -9081 
   -9122    -9021    -8593    -8313    -8723    -9376    -9311    -8385 
   -7439    -7259    -7675    -7846    -7407    -6835    -6493    -6097 
   -5305    -4400    -4033    -4228    -4421    -4638    -5379    -6673 
   -8263    -9872   -11188   -12300   -13211   -13277   -12261   -10702 
   -8916    -6933    -4904    -3126    -2147    -2235    -2899    -3652 
   -4557    -5818    -7384    -8789    -9535    -9898   -10710   -12062 
  -12916   -12351   -10728    -9143    -7905    -6271    -4039    -2379 
   -2422    -3928    -5782    -7326    -8886   -10853   -12753   -13767 
  -13612   -12539   -11005    -9338    -7574    -5944    -5114    -5141 
   -4911    -3731    -2619    -2969    -4732    -6677    -7913    -8595 
   -9383   -10514   -11581   -12104   -11790   -10548    -8911    -7743 
   -7203    -6799    -6185    -5398    -4782    -4824    -5803    -7539 
   -9311   -10109    -9646    -8821    -8610    -8943    -9059    -8624 
   -7949    -7206    -6283    -5394    -5063    -5413    -5853    -5911 
   -5824    -5955    -6496    -7536    -8739    -9415    -9222    -8672 
   -8661    -9211    -9419    -9023    -8673    -8512    -7988    -7026 
   -6410    -6736    -7348    -7126    -6093    -5317    -5510    -6396 
   -7340    -8117    -8862    -9623   -10164   -10227    -9950    -9613 
   -9082    -7996    -6479    -5287    -5059    -5647    -6396    -6858 
   -6994    -6964    -6990    -7128    -7189    -7102    -6940    -6676 
   -6373    -6328    -6804    -7799    -8860    -9251    -8852    -8158 
   -7265    -6250    -5950    -7115    -9335   -11359   -12360   -12555 
  -12500   -12301   -11755   -10614    -8739    -6891    -6429    -7359 
   -8241    -7878    -6051    -3585    -1609     -525     -533    -1890 
   -4093    -6256    -7917    -9062   -10115   -11358   -12202   -11739 
   -9826    -7408    -5781    -5589    -6557    -7942    -9120    -9624 
   -9217    -8321    -7327    -5856    -3768    -2016    -1880    -3751 
   -6679    -9268   -10944   -11944   -12585   -13004   -13135   -12772 
  -11832   -10536    -9448    -9055    -9138    -9010    -8135    -6418 
   -4408    -2831    -1917    -1606    -1806    -2573    -4391    -7670 
  -11924   -15718   -17502   -16934   -15015   -12618    -9757    -6388 
   -3015     -232     1625     2077      620    -2436    -5892    -8509 
   -9853   -10301   -10236    -9740    -9004    -8178    -6964    -5149 
   -3305    -2432    -2964    -4361    -5927    -7688    -9868   -12049 
  -13435   -13836   -14076   -14791   -15079   -13720   -11076    -8333 
   -5841    -3180     -288     1936     2551     1811      372    -1964 
   -5341    -8925   -11823   -13934   -15575   -16626   -16462   -15016 
  -13104   -11378    -9705    -7707    -5561    -3777    -2432    -1384 
    -755     -636    -1020    -2341    -5142    -8917   -12156   -13821 
  -14295   -14431   -14058   -12436    -9927    -7941    -7210    -7028 
   -6442    -5835    -6608    -8950   -11038   -11309   -10117    -8605 
   -7297    -5963    -4423    -3248    -3104    -3923    -5131    -6071 
   -6508    -6921    -7799    -9059   -10187   -10498    -9879    -9180 
   -9022    -8829    -7813    -6347    -5520    -5515    -5585    -5560 
   -6214    -7991   -10003   -10925   -10592    -9718    -8542    -6775 
   -4464    -2235     -681      -71     -747    -2965    -6395   -10373 
  -14030   -16035   -15407   -12690    -9399    -6615    -4601    -3252 
   -2822    -4004    -6753    -9751   -11694   -12308   -11942   -10957 
   -9456    -7462    -5590    -4849    -5274    -5776    -5502    -4720 
   -4441    -5459    -7749   -10660   -13487   -15830   -17496   -18231 
  -17704   -15955   -13703   -11582    -9199    -5703    -1383     2025 
    3084     2147      527    -1139    -2883    -4448    -5323    -5625 
   -6160    -7232    -8115    -8155    -7582    -7048    -6970    -7387 
   -8217    -9315   -10244   -10472    -9934    -9235    -8987    -8818 
   -7739    -5769    -4047    -3285    -3369    -4316    -6442    -9472 
  -12346   -14289   -15721   -17232   -17711   -15206    -9799    -3828 
     631     3082     3735     2532     -665    -5154    -9367   -12426 
  -14813   -16915   -18054   -17185   -14254   -10754    -8327    -7278 
   -7059    -7122    -7012    -6617    -6211    -5837    -5153    -4118 
   -3435    -3904    -5250    -6335    -6874    -7693    -8842    -9049 
   -7653    -5592    -4007    -3258    -3549    -4986    -6939    -8527 
   -9496   -10174   -10969   -11894   -12506   -12340   -10995    -8262 
   -4944    -2698    -2352    -3147    -3926    -4450    -5202    -6216 
   -6933    -7424    -8415    -9650    -9943    -9227    -9010   -10219 
  -11778   -12176   -11437   -10706   -10551   -10277    -9157    -7643 
   -6487    -5644    -4735    -3785    -3415    -4314    -6243    -8049 
   -8874    -8831    -8420    -7833    -6962    -5809    -4836    -4671 
   -5399    -6648    -8211    -9966   -11430   -11945   -11332   -10212 
   -9408    -8996    -8382    -7381    -6655    -7080    -8768   -10591 
  -11023    -9725    -7718    -6041    -4858    -3911    -3439    -4054 
   -5723    -7756    -9676   -11248   -11912   -11013    -8694    -6099 
   -4362    -3751    -4110    -5301    -6857    -8090    -8786    -9333 
   -9861    -9804    -8982    -8108    -7722    -7540    -7105    -6694 
   -6959    -7741    -8326    -8479    -8480    -8704    -9177    -9522 
   -9723   -10236   -11071   -11577   -11047    -9122    -6154    -3265 
   -1377     -351      303      294    -1217    -4372    -7977   -10485 
  -11654   -12431   -13220   -13299   -11816    -8749    -5116    -2164 
    -509     -357    -1728    -4094    -6542    -8292    -9055    -9395 
  -10193   -11306   -11713   -11052   -10250   -10379   -11224   -11691 
  -11369   -10604    -9482    -7762    -5518    -3356    -1898    -1327 
   -1786    -3575    -6429    -9235   -10970   -11623   -11949   -12368 
  -12380   -11439    -9820    -8078    -6418    -4901    -3723    -3224 
   -3618    -4756    -6248    -7765    -9339   -11173   -13051   -14246 
  -13987   -12009    -8754    -5137    -2065      -36      814      435 
   -1163    -3671    -6437    -8934   -11061   -12930   -14632   -16030 
  -16677   -16131   -14224   -10981    -6940    -3385    -1489    -1368 
   -2196    -3233    -4670    -6734    -8499    -9031    -8781    -8602 
   -8386    -7417    -5707    -4462    -4780    -6252    -7483    -7901 
   -8306    -9374   -10541   -10900   -10431    -9764    -9129    -8250 
   -7133    -6329    -6243    -6398    -6012    -5270    -5108    -5895 
   -7100    -8039    -8410    -8248    -7823    -7537    -7646    -8105 
   -8524    -8293    -7156    -5838    -5700    -7393   -10000   -12020 
  -12967   -13403   -13740   -13465   -11672    -8490    -5224    -2676 
    -524     1398     2457     1956      -28    -2455    -4265    -5700 
   -7860   -10878   -13700   -15508   -16379   -16786   -16709   -15447 
  -12770    -9596    -6898    -4808    -3164    -2198    -2348    -3693 
   -5744    -7816    -9444   -10443   -10867   -10900   -10494    -9217 
   -6861    -3993    -1547     -251     -311    -1442    -3365    -5868 
   -8474   -10730   -12574   -14083   -15199   -15669   -15030   -13015 
  -10170    -7566    -5822    -4797    -4137    -3736    -3715    -4236 
   -5251    -6525    -7937    -9326   -10249   -10408   -10034    -9450 
   -8445    -6651    -4565    -3343    -3553    -4793    -6405    -8161 
  -10130   -12136   -13580   -13700   -12179    -9446    -6247    -3318 
   -1336     -579     -689    -1231    -2291    -4172    -6762    -9459 
  -11618   -12968   -13526   -13345   -12591   -11723   -11144   -10581 
   -9377    -7480    -5641    -4530    -4144    -4105    -4072    -4184 
   -5135    -7036    -8857    -9691    -9532    -8733    -7625    -6552 
   -5854    -5832    -6708    -8273    -9685   -10180    -9801    -8970 
   -7971    -7076    -6479    -6294    -6778    -7853    -8763    -9002 
   -8915    -8828    -8564    -8169    -8123    -8486    -8533    -7759 
   -6690    -6019    -5536    -4749    -4008    -4074    -4889    -5785 
   -6671    -8093   -10045   -11488   -11545   -10569    -9629    -9486 
  -10000   -10212    -9294    -7398    -5354    -3813    -2906    -2514 
   -2633    -3381    -4716    -6471    -8591   -10985   -13221   -14703 
  -15114   -14592   -13605   -12599   -11676   -10678    -9451    -7924 
   -6286    -4968    -4037    -3132    -2110    -1376    -1740    -3605 
   -6251    -8492    -9810   -10427   -10553   -10004    -8679    -7010 
   -5594    -4537    -3609    -3008    -3339    -4876    -7268    -9941 
  -12484   -14249   -14344   -12780   -10664    -8837    -7226    -5740 
   -5011    -5416    -6108    -6200    -6230    -7161    -8366    -8199 
   -6480    -4849    -4714    -5851    -7191    -8471   -10087   -11698 
  -12405   -11940   -10694    -9160    -7748    -6662    -5914    -5609 
   -5935    -6753    -7531    -7742    -7349    -6920    -6839    -6617 
   -5835    -5183    -5635    -7119    -8667    -9708   -10528   -11416 
  -12021   -11733   -10446    -8669    -6887    -5293    -4009    -3344 
   -3819    -5454    -7370    -8685    -9123    -8775    -8056    -7557 
   -7551    -7927    -8644    -9808   -11148   -11894   -11494   -10026 
   -7916    -5504    -2848     -294     1057      378    -1971    -5039 
   -8120   -10987   -13511   -15192   -15637   -15007   -13549   -11371 
   -8722    -5969    -3556    -1888     -927     -453     -774    -2266 
   -4456    -6458    -8020    -9578   -11418   -13111   -13880   -13355 
  -11909   -10166    -8330    -6423    -4893    -4317    -4732    -5715 
   -6830    -7765    -8368    -8692    -8891    -8958    -8654    -7939 
   -7235    -6980    -7199    -7473    -7380    -7099    -7011    -6933 
   -6654    -6607    -7283    -8458    -9351    -9456    -9089    -8762 
   -8388    -7678    -6788    -6277    -6697    -8139   -10009   -11380 
  -11657   -10965    -9852    -8533    -6718    -4450    -2654    -2349 
