Origin Time       2013/10/26 02:10:00
Lat.              37.195
Long.             144.568
Depth. (km)       56
Mag.              7.1
Station Code      HKD112
Station Lat.      41.9370
Station Long.     143.2403
Station Height(m) 15
Record Time       2013/10/26 02:11:42
Sampling Freq(Hz) 100Hz
Duration Time(s)  130
Dir.              E-W
Scale Factor      3920(gal)/6182761
Max. Acc. (gal)   9.058
Last Correction   2013/10/26 02:11:42
Memo.             
[...]
   28446    28039    27880    28091    28380    28455    28342    28297 
   28425    28535    28432    28085    27667    27610    28094    28614 
   28636    28261    27937    27889    27940    27896    27873    27930 
   27937    27966    28090    28080    27887    27812    27967    28159 
   28252    28304    28500    28909    29200    29018    28517    28108 
   27959    27986    27968    27725    27426    27402    27622    27782 
   27744    27577    27490    27701    28105    28346    28241    27988 
   28062    28742    29575    29706    29023    28359    28372    28857 
   29095    28638    27821    27305    27361    27756    27997    27776 
   27359    27218    27422    27717    27942    28102    28246    28411 
   28571    28580    28279    27843    27725    28034    28404    28475 
   28215    27942    27950    28167    28400    28481    28285    27997 
   27858    27807    27849    28033    28128    28068    28065    28094 
   28067    28059    28045    28010    28106    28330    28542    28737 
   28938    29066    28945    28424    27735    27317    27314    27698 
   28237    28372    27998    27755    27966    28181    28074    27888 
   27941    28276    28675    28840    28700    28383    28045    27874 
   27907    27963    27964    28006    28216    28563    28670    28267 
   27638    27306    27543    28094    28383    28228    28160    28635 
   29212    29163    28488    27782    27519    27618    27709    27761 
   27967    28293    28596    28781    28765    28577    28373    28225 
   28106    28028    27885    27528    27202    27298    27696    27989 
   28042    27933    27834    27944    28208    28359    28371    28445 
   28612    28688    28584    28416    28330    28359    28299    27980 
   27676    27628    27718    27970    28327    28381    28038    27727 
   27900    28486    28897    28773    28428    28359    28539    28555 
   28183    27515    27037    27332    28163    28660    28541    28283 
   28282    28486    28629    28534    28266    27964    27699    27562 
   27535    27520    27576    27687    27701    27704    27952    28399 
   28680    28676    28686    28854    28908    28556    27942    27588 
   27720    28038    28278    28305    28039    27701    27568    27634 
   27729    27724    27777    28056    28368    28519    28568    28590 
   28554    28426    28334    28343    28346    28317    28233    28075 
   28008    28094    28125    27951    27667    27545    27769    28143 
   28341    28373    28471    28656    28692    28504    28307    28147 
   27926    27839    28029    28307    28519    28577    28422    28248 
   28199    28065    27719    27391    27298    27494    27876    28126 
   28095    28066    28221    28357    28309    28176    28056    27965 
   27999    28268    28646    28752    28389    27951    27990    28333 
   28318    27904    27671    27883    28258    28379    28130    27897 
   28087    28596    28964    28861    28437    28116    28065    28047 
   27797    27386    27091    27054    27318    27861    28334    28332 
   28067    27998    28074    28086    28142    28308    28440    28450 
   28354    28263    28334    28579    28835    28894    28662    28243 
   27816    27625    27825    28092    28039    27812    27666    27650 
   27738    27705    27503    27645    28313    28914    28943    28495 
   28083    28134    28416    28380    28074    28049    28423    28727 
   28650    28395    28237    28100    27840    27575    27430    27482 
   27788    28145    28379    28582    28724    28635    28375    28217 
   28300    28501    28547    28340    28168    28169    28068    27811 
   27614    27524    27504    27556    27763    28244    28666    28583 
   28309    28280    28215    27885    27648    27814    28206    28361 
   28066    27686    27721    28218    28802    29015    28707    28188 
   27843    27769    27877    28060    28200    28194    28067    28006 
   28096    28079    27708    27258    27260    27816    28433    28562 
   28284    28207    28552    28812    28548    28015    27728    27844 
   28192    28445    28297    27890    27725    27974    28342    28520 
   28413    28127    27909    27986    28341    28618    28435    27940 
   27728    28042    28479    28605    28444    28312    28385    28541 
   28554    28303    27902    27650    27666    27775    27794    27726 
   27779    28116    28448    28354    27967    27705    27647    27732 
   27999    28349    28632    28822    28825    28577    28373    28447 
   28512    28310    27996    27788    27838    28055    28074    27885 
   27846    28013    28254    28434    28306    27968    27842    27949 
   28055    28096    28056    28012    28151    28445    28584    28371 
   28019    27886    28001    28099    28109    28187    28335    28369 
   28180    27898    27806    28009    28283    28335    28119    27907 
   27934    28109    28233    28279    28426    28806    29109    28924 
   28376    27888    27667    27715    27849    27752    27527    27664 
   28145    28418    28246    27824    27406    27286    27604    28032 
   28293    28552    28770    28612    28158    27811    27775    28003 
   28262    28372    28488    28692    28775    28777    28795    28517 
   27857    27283    27067    27133    27450    27814    27958    28087 
   28419    28666    28618    28462    28392    28430    28466    28394 
   28336    28455    28570    28472    28295    28057    27579    27048 
   26903    27251    27706    27794    27580    27630    28165    28757 
   28945    28677    28260    28155    28548    29119    29353    29072 
   28618    28338    28120    27772    27338    26881    26600    26900 
   27731    28476    28833    28988    29015    28832    28408    27757 
   27087    26825    27183    27939    28688    29156    29346    29394 
   29207    28591    27784    27350    27467    27844    28262    28654 
   28890    28955    28860    28331    27361    26655    26704    27079 
   27291    27468    27723    27892    28088    28553    29065    29119 
   28578    27965    27960    28489    28848    28678    28229    27905 
   28004    28484    28670    27974    27101    27226    28119    28579 
   28215    27699    27819    28602    29159    28787    27883    27275 
   27352    27860    28149    28087    28220    28593    28697    28504 
   28331    28268    28254    28162    27949    27848    28097    28585 
   28859    28529    27741    27113    27152    27606    27692    27261 
   27021    27437    28222    28911    29147    28785    28339    28454 
   28880    28943    28430    27647    27182    27429    28104    28476 
   28181    27629    27486    27979    28696    29008    28749    28273 
   28014    28185    28595    28765    28497    28010    27541    27295 
   27493    27969    28195    28028    27773    27614    27600    27792 
   28062    28205    28253    28306    28355    28431    28506    28360 
   27965    27627    27568    27818    28234    28479    28530    28748 
   28989    28696    28018    27679    27828    28012    28031    27999 
   27921    27892    28125    28429    28486    28352    28069    27673 
   27617    28037    28371    28425    28558    28808    28886    28523 
   27724    27139    27355    27829    27763    27450    27597    28203 
   28764    28836    28350    27722    27427    27592    28101    28705 
   29065    28972    28551    28084    27727    27513    27408    27387 
   27501    27684    27790    27879    28013    28136    28396    28875 
   29140    28769    27979    27317    27126    27390    27794    27992 
   27976    28046    28457    29169    29782    29838    29241    28411 
   27896    27892    28276    28658    28627    28322    28019    27573 
   26992    26562    26348    26345    26706    27431    28185    28590 
   28507    28175    28134    28568    28855    28399    27658    27646 
   28523    29356    29424    29080    28928    28911    28775    28584 
   28462    28488    28627    28544    28083    27657    27619    27738 
   27638    27367    27374    27792    28088    27939    27802    28033 
   28335    28485    28559    28519    28470    28635    28839    28840 
   28766    28663    28449    28311    28292    28074    27637    27361 
   27505    27908    28155    28178    28295    28549    28668    28528 
   28180    27784    27572    27577    27639    27756    28113    28709 
   29084    28852    28428    28350    28355    28123    27906    27761 
   27554    27494    27602    27657    27855    28216    28212    27800 
   27544    27719    28218    28710    28742    28382    28167    28200 
   28181    28012    27747    27518    27494    27558    27616    27947 
   28567    29067    29295    29435    29586    29573    29057    28062 
   27213    27057    27446    27811    27791    27568    27583    27866 
   28109    28242    28373    28465    28407    28221    28158    28327 
   28336    28058    27973    28105    28061    27880    27585    27037 
   26666    26997    27791    28408    28592    28703    29246    30178 
   30933    30970    30191    29100    28347    28041    27803    27393 
   27197    27744    28580    28717    28055    27088    26105    25477 
   25434    25512    25328    25417    26545    28578    30416    31107 
   30825    30312    29758    29084    28706    28915    29130    28789 
   28261    28108    28238    28120    27319    26050    25184    25344 
   26292    27224    27523    27482    27803    28349    28415    27975 
   27635    27835    28561    29371    29805    29815    29617    29475 
   29351    28720    27557    27014    27902    29209    29477    28852 
   28473    28661    28783    28459    28100    28225    28709    28992 
   28793    28245    27615    27099    26650    26266    26332    27091 
   28225    29383    30478    31382    31782    31254    29731    28027 
   26886    25913    24903    24559    24802    24785    24600    25029 
   26209    27422    27919    27930    28533    30207    32027    32666 
   31885    30698    29952    29258    27918    26180    24948    24784 
   25404    26196    27036    27895    28314    28180    28128    28665 
   29591    30335    30506    30152    29604    28895    27718    26381 
   25851    26359    27124    27620    28020    28563    29086    29083 
   28232    26836    25564    24859    24771    25177    25813    26392 
   27018    27923    28900    29616    29902    29696    29326    29090 
   28755    28240    27834    27546    27147    26572    26024    25933 
   26457    27205    28015    29161    30625    32107    33216    33551 
   33428    33489    33314    31890    29176    26093    23443    21636 
   21146    22120    23747    25265    26952    29221    31726    33678 
   34312    33631    32826    32679    32276    30601    28109    25932 
   24616    23866    23053    21978    21157    21244    22473    24718 
   27581    30409    32643    34201    35271    35612    34579    32032 
   28725    25819    24000    22879    21929    21758    23099    25304 
   27329    29125    30980    32647    33733    34056    33515    32119 
   30150    28133    26538    25429    24511    23712    23549    24318 
   25151    25127    24969    26035    28265    30369    31147    30462 
   29600    29821    30593    30613    29818    29049    28476    27420 
   25672    24259    24155    25021    26115    27346    28838    30368 
   31427    31593    30937    29884    28749    27725    26959    26239 
   25155    23990    23627    24349    25709    27464    29680    32030 
   33537    33275    31555    29772    28726    28093    27381    26375 
   25478    25699    27096    28424    29249    30425    32248    34018 
   34940    34469    32618    30052    27375    24848    22716    21111 
   19986    19707    20968    23483    25993    28014    29975    31860 
   33305    34259    34756    34883    34579    33319    30975    28342 
   26157    24443    22859    21315    20508    21313    23302    25317 
   27231    29298    31053    32249    33102    33421    32951    31907 
   30531    29152    28387    28262    28065    27406    26590    26348 
   27119    28240    28773    28863    29061    29273    29385    29555 
   29677    29608    29315    28605    27508    26402    25425    24588 
   24291    24947    26445    28270    29584    29672    28863    28103 
   27834    28186    29190    30281    30740    30598    30383    30262 
   29840    28633    26651    24427    22574    21483    21294    21974 
   23291    24839    26330    27823    29577    31661    33581    34563 
   34412    33648    32705    31523    29817    27480    24976    23126 
   22322    22356    22855    23487    24375    26147    28670    30739 
   31854    32826    34193    35439    35713    34601    32507    30208 
   27913    25391    22873    21107    20561    21114    22467    24250 
   25924    27406    29182    31162    32539    32926    32414    31295 
   30395    30082    29449    27923    26182    25070    24968    25626 
   26357    26996    27867    28904    29823    30399    30323    29670 
   28864    27972    27145    27062    27858    28744    29194    29429 
   29825    30362    30511    29761    28232    26726    26128    26311 
   26015    24541    22891    22526    23721    25687    27786    30096 
   32756    35188    36769    37589    37363    35193    31300    27073 
   23508    21041    19871    19567    19523    19956    21361    23591 
   26257    28946    31144    32873    34709    36712    38080    38059 
   36574    33919    30547    27065    23828    20649    17369    14689 
   13851    15534    19449    24668    30124    34910    38428    40447 
   40813    39372    36298    32324    28473    25234    22447    20292 
   19500    20418    22411    24487    26373    28486    30846    32853 
   33909    33700    32486    31075    29881    28683    27417    26306 
   25330    24298    23313    22688    22591    23135    24523    26993 
   30544    34394    37238    38459    38417    37453    35415    32261 
   28305    24076    20634    19165    19820    21628    23509    24969 
   26087    27299    28875    30339    30954    30750    30503    30740 
   31103    30566    28506    25617    23119    21687    21647    23039 
   25427    28264    31096    33434    34730    34574    33209    31514 
   29733    27198    24075    21526    20080    19851    20934    22594 
   24124    25918    28528    31805    34864    36852    37943    38254 
   36849    33433    29311    25955    23962    23375    23802    24497 
   25320    26694    28341    29204    28451    26531    25151    25470 
   26963    28399    29121    29248    29286    29625    29853    28987 
   27098    25723    26122    27991    30027    31184    31375    31316 
   31657    32107    31593    29375    26022    23175    22027    22398 
   23356    24017    24135    24469    25932    28242    30007    30361 
   29936    30014    31200    32877    33900    33682    32266    29964 
   27350    25047    23494    23021    23753    25388    27323    29009 
   30259    31279    32278    33073    33162    32248    30755    29375 
   28096    26443    24501    23007    22603    23162    24043    25155 
   26877    28964    30679    31656    32058    32237    32251    31803 
   30851    29402    26880    23273    20050    18421    18371    19704 
   22232    25518    29230    32980    35968    37536    37857    37330 
   35849    33386    30403    27463    25063    23404    22246    21468 
   21390    22390    24573    27380    29742    31420    33131    34848 
   35474    34444    32440    30582    29466    28505    26564    23929 
   22348    22567    23405    23551    23276    23825    25628    28055 
   30373    32131    33163    33466    32914    31376    28910    25928 
   23492    22473    22323    22098    22181    23405    25392    27150 
   28552    30180    32290    34516    36152    36716    36280    35013 
   32892    29968    26713    24060    22713    22690    23800    25823 
   28149    29875    30393    29984    29642    29721    29348    27876 
   25904    24461    24382    25830    27550    28324    28845    30216 
   32085    33304    32962    31032    28564    26393    24232    21856 
   19970    19337    19896    20969    21950    22608    23109    24076 
   26012    28647    31419    34162    36741    38353    38068    36211 
   34302    33235    32559    31801    31099    30595    30431    30764 
   31212    31044    29888    27911    25856    24650    24507    24932 
   25471    26023    26868    28391    30342    31747    31890    30910 
   29147    26671    23962    22015    21272    21564    22878    24985 
   27012    28345    29239    30153    31090    31457    30663    29364 
   28790    28756    28200    26767    24885    23701    24317    26053 
   27262    27827    28545    29248    29477    29459    29453    29419 
   29422    29704    30511    31821    33158    33897    33592    31929 
   28997    25679    23036    21461    20886    21195    22246    23979 
   26274    28807    31428    34145    36583    38115    38222    36391 
   32650    28252    24698    22386    20933    19973    19106    18126 
   17560    18346    20892    24551    28275    31762    35281    38448 
   40069    39287    36194    31499    26141    21127    17574    16577 
   18388    21916    25678    29019    31930    34258    35499    35250 
   34064    33183    32897    32341    30904    28840    26815    25126 
   23376    21423    20109    20296    21977    24793    28463    32442 
   35848    37821    37917    36365    33793    30671    27415    24785 
   23418    23241    23695    24248    24884    25968    27486    28966 
   29883    29776    28693    27397    26524    25870    24926    24009 
   24162    25633    27607    29455    30780    31074    30550    29918 
   29138    27987    27047    26840    27085    27301    27396    27495 
   27562    27605    27840    28285    28815    29496    30335    31149 
   31931    32748    33109    32215    29974    27087    24444    22681 
   21901    22090    23501    26129    29306    32080    33963    35254 
   36495    37606    37626    35726    32434    29055    26198    23724 
   21577    20043    19587    20343    21685    22731    23276    24031 
   25830    28405    30646    32132    33130    33614    33445    32636 
   31044    28717    26146    23852    22527    22922    24778    26951 
   28768    30306    31767    33057    33573    32757    30980    29178 
   27828    26851    26055    25163    24201    23951    24926    26500 
   27794    28310    28000    27672    28405    30087    31525    31845 
   31165    30155    29207    28117    26665    25163    24188    24141 
   25118    26816    28661    30120    30803    30663    30034    29196 
   28294    27606    27395    27506    27466    27121    26668    26089 
   25093    23692    22732    23369    25842    29294    32569    34589 
   34825    33919    32836    31572    29576    26640    23318    21101 
   21130    22685    24242    25225    26022    27188    28715    29849 
   30051    29858    30002    30206    29747    28579    27211    26053 
   25242    24764    24546    24684    25340    26240    27186    28872 
   31825    35342    38418    40419    40646    38725    35191    30732 
   25645    20610    16879    15311    15959    18320    21294    23728 
   25523    27552    30401    33668    36508    38371    39105    38882 
   37903    35914    32678    28718    24811    21453    19026    17714 
