Origin Time       2014/12/03 23:19:00
Lat.              35.290
Long.             137.118
Depth. (km)       45
Mag.              4.2
Station Code      SIG008
Station Lat.      35.0701
Station Long.     136.2946
Station Height(m) 218
Record Time       2014/12/03 23:20:05
Sampling Freq(Hz) 100Hz
Duration Time(s)  66
Dir.              N-S
Scale Factor      7845(gal)/8223790
Max. Acc. (gal)   9.188
Last Correction   2014/12/03 23:20:05
Memo.             
[...]
     382      380      379      382      383      380      379      380 
     380      380      382      380      379      380      380      378 
     380      383      383      380      379      380      383      383 
     380      379      378      378      380      380      382      383 
     383      383      380      382      382      378      379      383 
     380      378      380      380      378      380      383      383 
     378      379      380      378      378      379      379      382 
     383      382      383      382      379      380      383      379 
     375      378      383      383      379      378      378      378 
     380      383      380      376      378      379      380      383 
     386      380      378      379      382      380      378      380 
     382      378      376      383      383      379      375      376 
     380      380      378      378      380      380      380      378 
     375      378      382      382      379      382      382      379 
     378      380      382      379      378      379      382      382 
     382      379      378      379      380      383      383      382 
     376      376      380      383      382      376      376      382 
     383      380      380      380      380      380      380      378 
     378      383      383      382      380      378      378      383 
     386      382      379      380      380      382      379      378 
     380      383      382      379      379      379      380      386 
     386      382      379      379      382      380      382      383 
     380      378      380      382      380      380      379      378 
     380      382      382      383      380      378      382      383 
     379      376      379      382      383      382      380      382 
     382      380      380      383      382      379      382      383 
     383      380      378      380      383      382      379      379 
     380      380      383      383      378      378      380      380 
     382      383      380      379      380      380      379      378 
     383      383      380      380      380      379      379      380 
     379      380      380      379      379      379      378      382 
     383      382      382      382      378      376      382      383 
     386      383      379      378      382      383      383      379 
     380      383      383      380      378      379      382      379 
     379      382      382      379      379      379      380      380 
     379      382      383      380      379      380      382      382 
     379      378      383      380      373      378      383      386 
     386      383      376      373      379      386      383      379 
     376      379      383      380      378      380      379      380 
     383      382      378      378      379      380      382      380 
     379      382      382      382      380      382      380      379 
     380      382      380      380      380      380      383      382 
     379      380      382      380      379      379      376      376 
     382      382      380      382      382      378      376      379 
     382      379      376      378      376      376      383      388 
     387      386      383      376      368      368      375      386 
     392      394      396      392      375      367      370      367 
     363      373      383      380      375      379      376      359 
     311      263      276      328      376      448      548      645 
     654      544      419      356      295      182      106      184 
     344      425      448      510      557      475      261       47 
      64      344      583      568      430      423      618      654 
     259       22      357      556      186     -114      144      531 
     445      194      276      359      251      411      769      769 
     666      954     1092      623      298      604      761      317 
      29      180      167     -110     -322     -275       76      425 
     476      407      490      621      598      535      461      251 
     155      310      263      -52       36      642      984      788 
     614      718      661      243      -17      203      398      152 
     -79      126      468      643      727      831      826      372 
    -332     -463      136      810     1205     1192      618     -121 
    -276      191      557      633      795      664     -198     -851 
    -342      579      724      236       58      378      733     1101 
    1308      783       21       44      648      907      471      -98 
    -152      122      238      244      521     1009     1038      500 
     211      376      413      228       40     -261     -562     -369 
     172      498      808     1182      814     -144     -341      481 
    1208     1333     1412     1318      444     -383     -249      197 
     411      531      306     -328     -576       14      575      313 
     -18      496     1206     1085      451      141      202      251 
     147       14       52      396      859      974      542     -190 
    -579      -79      602      376     -207       20      787     1161 
    1282     1644     1732     1012      105     -167      141      329 
      76      -11      449      657       51     -419        5      445 
      64     -396      -35      702      959      708      414      344 
     326        4     -370       85     1239     1671     1053      569 
     603      430      -17     -124       45      -32      -47      430 
     702      349      259      724      855      718     1028     1148 
     386     -340     -126      301       60     -244       64      390 
     243      162      427      499      218       39       91      348 
     739      870      753      654      402      112      183      535 
     897     1060      769        2     -615     -357      468      819 
     511      341      641      776      162     -533     -171      868 
    1232      754      310      246      413      767      961      660 
     349      538      733      237     -473     -702     -608     -228 
     376      612      513      544      604      585      711      864 
     619       22     -186      417     1140     1252     1020      767 
     392       54     -102     -417     -900     -950     -588     -383 
     -40      981     1883     1620      828      573      654      649 
     743      908      683      217      149      403      440      195 
       2      -58     -280     -467      -91      368      306      379 
     936     1229     1152     1205     1154      648      163      168 
     203     -257     -695     -529     -211     -112      147      658 
    1085     1308     1316      885       82     -292      166      737 
     827      658      592      604      274     -270     -360     -151 
    -101       60      391      530      583      720      756      750 
     958     1232     1174      688       58     -441     -760     -838 
    -324      847     1680     1232      149     -391     -399     -225 
     472     1470     1690      992      326       99      -70     -252 
    -126      259      565      661      639      616      514       60 
    -566     -592      124      810     1042     1011      811      373 
     -91     -172      292     1093     1622     1358      511     -409 
   -1081    -1198     -603      359      993      967      673      517 
     410      284      353      792     1243      993      280       87 
     341      280      141      568     1081      789      -98     -668 
    -375      519     1162     1020      486      125      -70     -162 
     124      808     1232      834      106     -228     -186       -8 
     251      702     1217     1129      344     -191       47      587 
     769      409      -51      -52      394      918     1135      799 
     189     -159     -228     -370     -490     -105      614      807 
     301      -70      180      724     1120     1058      680      575 
     683      540      418      619      777      692      588      436 
      81     -209     -183      -75       20      360      745      600 
      47     -229     -140       -9      287      785      943      581 
     336      595      746      353      122      473      684      499 
     469      453       85      -85      403      981      957      419 
     -79     -163       56      121      -72     -144      -21      162 
     460      708      715      765     1024     1143      885      515 
     380      508      635      542      236      -59       25      418 
     537      287      120      245      490      594      513      325 
      56     -137     -162     -198     -140      457     1305     1478 
     850      183       37      436      932      913      499      274 
     122     -221     -403     -232       79      396      504      287 
     168      561     1088     1080      664      392      237        9 
      71      668     1175      900      178     -255     -326     -170 
     263      518      147     -193      230      939     1119      799 
     449      240      203      342      475      573      664      517 
      51     -301       -5      838     1551     1682     1453     1065 
     324     -423     -472      -58      116      -67     -248      -25 
     421      425      -16     -256      -85      180      207      122 
     427     1055     1405     1363     1182      927      604      225 
    -101      -75      251      340      -40     -535     -666     -351 
     109      625     1193     1372     1096      938      919      499 
    -203     -418       28      531      720      656      479      449 
     549      330     -241     -575     -263      379      750      718 
     545      241     -112      -67      441      869      843      571 
     616     1078     1318      972      325     -251     -496     -221 
     475     1124     1367     1188      696       81     -367     -502 
    -423     -238       44      355      469      363      376      566 
     556      338      283      596     1089     1057      163     -770 
    -893     -315      496     1256     1609     1296      614      233 
     450      800      830      633      319       13      -70      -81 
    -141       68      525      668      326      -56     -101      117 
     286      364      529      648      573      503      521      496 
     427      349      139     -197     -279      178      999     1765 
    2027     1478      395     -552    -1046     -996     -388      382 
     892      972      623      298      410      630      454      -16 
     -44      699     1200      702       49     -112     -311     -549 
    -121      804     1360     1308      957      549      329      468 
     728      754      558      340      228      187       68     -121 
    -357     -463      -11      642      739      670      955      931 
     313       -8      303      585      553      456      333       68 
    -229     -244      174      677      773      477      263      369 
     540      491      253      135      450      997     1139      715 
     197       44      321      634      646      418       71     -178 
     -36      209       47     -180       36      379      598      932 
    1148      899      523      414      376       93     -249     -209 
     218      670      907      747      240     -126        4      461 
     877     1127     1193      872      228     -263     -376      -70 
     525      832      519       41      -60      139      221      189 
     387      664      603      360      135      -72      144      823 
    1185      953      649      486      147     -298     -298      157 
     572      754      715      506      387      434      413      241 
     184      427      715      764      633      409      137       -5 
     164      542      642      283     -129     -380     -344      193 
     784      741      259       70      357      638      689      815 
    1063     1120      857      390       29      108      469      589 
     344       58      -67      -49       51      199      418      577 
     545      467      340      106       13      156      438      851 
    1062      733      415      634      824      419     -144     -218 
     144      392      246       31      126      376      399      203 
     140      382      668      693      564      642      866      731 
     198     -175     -110      229      623      796      585      310 
     178       25       79      611     1155     1075      449      -32 
     -44       99      163      206      251      357      715     1112 
     977      326     -314     -619     -460       44      481      526 
     199     -324     -827     -890     -246      849     1838     2098 
    1429      380     -232      -72      562     1340     2130     2720 
    2932     2794     2485     1945      903     -297    -1225    -2133 
   -3040    -3631    -3923    -3762    -2683     -568     2073     4212 
    4954     4238     2555      629     -423      116     1629     2739 
    2485      965    -1058    -2836    -3580    -2944    -1598     -361 
     448      693      495      391      795     1686     2791     3524 
    3213     2011      724     -422    -1653    -2663    -2747    -1549 
     451     2288     3316     3275     2253      963      -58    -1162 
   -2647    -4128    -5065    -5152    -4495    -3407    -2056     -511 
    1308     3458     5771     8062     9804    10012     8190     4746 
     704    -2490    -3898    -3865    -3213    -2338    -1277      -39 
    1065     1206      112    -1100    -1575    -1485     -684      741 
    1539     1004     -143    -1035    -1140     -186     1287     1984 
    1324      356      508     1961     3639     4156     2428    -1364 
   -5044    -6147    -4322    -1086     2026     4191     4897     3932 
    1876     -141    -1501    -2274    -2338    -1421      -70      692 
     706      495      283      -63     -787    -1771    -2258    -1663 
     -54     1930     3300     3690     3906     4472     4429     2840 
     561     -903    -1453    -1815    -1877    -1225     -334      -74 
    -760    -2031    -2860    -1830     1453     5065     6243     4626 
    2350     1080      657      317     -125     -456     -643     -707 
    -635     -564     -749    -1543    -2875    -3632    -2405      837 
    4390     6521     6683     5051     2249     -656    -2740    -3450 
   -2772    -1663    -1273    -1509    -1320     -346      907     2305 
    3946     5259     5385     3877      918    -2559    -4994    -5309 
   -4183    -3034    -1833      225     2501     3607     3655     3746 
    3850     3242     2072      772     -874    -2913    -4502    -4951 
   -4530    -3499    -1702      476     2224     3221     3563     3485 
    3303     3056     2515     1618      672      186      -37    -1023 
   -2759    -3757    -3194    -1567      577     2755     3956     3325 
    1350     -446    -1047     -654       32      649      919      600 
     329      919     1800     1741      680     -225     -248      129 
     329      548     1036     1410     1151      369     -342     -629 
    -495        1      626     1131     1605     1982     1761      421 
   -1848    -3456    -2606      280     2903     3592     2401      639 
    -218      121      862     1273     1132      832      816      558 
    -446    -1352    -1318     -876     -874    -1294    -1575    -1117 
     427     2396     3338     2655     1080     -251     -657     -175 
     758     1424      990     -417    -1595    -1703     -803      654 
    1904     2153     1445      562       22      -54      272      683 
     785      361     -305     -253      974     2261     2278     1177 
    -137    -1224    -1877    -1980    -1532     -318     1409     2506 
    2285     1385      850      912      961      517     -325    -1251 
   -1912    -1822     -864      357     1233     1580     1455     1125 
     689      153       49      683     1398     1557     1170      657 
     612     1069     1347     1247     1152     1012      545       11 
    -218     -459    -1204    -2053    -2083    -1281     -658     -761 
   -1097    -1071     -621      121     1127     2319     3472     4185 
    4191     3731     3082     2239     1360      581     -460    -2027 
   -3466    -3620    -2138       21     1480     1516      353    -1133 
   -1890    -1422     -245      797     1304     1221      687       56 
    -334     -454     -530     -491      318     1891     2803     2249 
    1325     1140     1514     1825     1702     1051       41     -832 
   -1182    -1229    -1142     -608      248      837      989      954 
     997     1189     1260     1138     1183     1421     1390      873 
      59     -718    -1088    -1023     -931     -977     -877     -514 
     -60      610     1753     2818     2948     2172      929     -552 
   -1701    -1784     -911       87      638      818     1000     1212 
    1132      805      594      612      649      245     -838    -2010 
   -2288    -1460     -299      259      -17     -660     -943     -218 
    1310     2455     2531     1872      999      484      874     1980 
    2789     2376      897     -548    -1063     -456      874     1929 
    1869      877     -410    -1615    -2267    -1750     -225     1080 
    1414     1362     1409     1200      635       76     -303     -271 
     446     1414     1861     1571      726     -392    -1374    -1760 
   -1275     -257      506      556      110     -259     -163      506 
    1544     2266     2218     1823     1521     1154      638      299 
     398      680      832      939      934      581       44     -537 
   -1329    -2265    -2880    -2743    -1949     -888      282     1341 
    1939     2043     2027     2280     2587     2257     1107     -228 
   -1080    -1100     -288      751     1279     1051      108    -1217 
   -2208    -2215    -1129      368     1345     1671     1725     1528 
    1053      623      468      515      589      610      615      619 
     581      595      670      493       27     -224     -122       22 
     187      449      765     1196     1574     1447      621     -645 
   -1630    -1698    -1017     -108      702     1053      855      540 
     453      777     1682     2592     2489     1379      282      -64 
     240      697      877      592     -108     -810     -943     -496 
      20      318      326      -71     -697    -1026     -706      186 
    1297     2091     2074     1382      810      873     1125      950 
     448        8     -245     -317     -256     -133       13      -23 
    -510    -1129    -1220     -706      -29      569     1121     1598 
    1939     2280     2770     3075     2517      929     -996    -2266 
   -2332    -1472     -490       75      373      774     1174     1228 
    1043      932      847      723      692      603      237     -129 
    -297     -530     -888    -1013     -630      112      652      558 
      98     -129      157      889     1705     2049     1733     1188 
     808      451     -110     -573     -518     -135      164      387 
     650      831      830      735      669      610      496      491 
     765     1073     1005      618      348      307      236       47 
