Origin Time       2014/12/03 23:19:00
Lat.              35.290
Long.             137.118
Depth. (km)       45
Mag.              4.2
Station Code      SIG008
Station Lat.      35.0701
Station Long.     136.2946
Station Height(m) 218
Record Time       2014/12/03 23:20:05
Sampling Freq(Hz) 100Hz
Duration Time(s)  66
Dir.              E-W
Scale Factor      7845(gal)/8223790
Max. Acc. (gal)   8.295
Last Correction   2014/12/03 23:20:05
Memo.             
[...]
   -7997    -7998    -7992    -7990    -7994    -8000    -7998    -7993 
   -7996    -7997    -7997    -7996    -7990    -7990    -7997    -7997 
   -7993    -7993    -7992    -7994    -7994    -7992    -7996    -8001 
   -7996    -7992    -7989    -7989    -7993    -7997    -7996    -7994 
   -7994    -7994    -7992    -7993    -7997    -7996    -7993    -7994 
   -7996    -7996    -7992    -7993    -8000    -8000    -7993    -7990 
   -7993    -7996    -7993    -7994    -7997    -7997    -7993    -7992 
   -7998    -8004    -7993    -7983    -7993    -8005    -8001    -7992 
   -7993    -7997    -7996    -7996    -7997    -7993    -7993    -7997 
   -7994    -7994    -7994    -7994    -7996    -7996    -7993    -7997 
   -7996    -7987    -7993    -8001    -7994    -7987    -7994    -7997 
   -7993    -7994    -7996    -7994    -7996    -7996    -7994    -7993 
   -7994    -7997    -7996    -7990    -7994    -8000    -7996    -7993 
   -7994    -7992    -7993    -7997    -7998    -7997    -7997    -7996 
   -7993    -7994    -7996    -7998    -7996    -7990    -7993    -7998 
   -7996    -7992    -7992    -7994    -7998    -7997    -7993    -7992 
   -7994    -8000    -7998    -7992    -7993    -7996    -7997    -7997 
   -7994    -7996    -7997    -7993    -7993    -7997    -7998    -7998 
   -7998    -7993    -7990    -7993    -7994    -7997    -8000    -7993 
   -7990    -7996    -7998    -7996    -7993    -7993    -7994    -7996 
   -7996    -7994    -7994    -7997    -7998    -7993    -7992    -7993 
   -7994    -7996    -7997    -7997    -7993    -7992    -7996    -7997 
   -7994    -7996    -7996    -7992    -7996    -8001    -7996    -7990 
   -7992    -7994    -7996    -7996    -7994    -7997    -7997    -7993 
   -7993    -7996    -7996    -7994    -7998    -7997    -7992    -7993 
   -7996    -7998    -8000    -7997    -7994    -7997    -7998    -7997 
   -7996    -7994    -7994    -7996    -7997    -7996    -7992    -7990 
   -7998    -8004    -8000    -7992    -7992    -7994    -7997    -8000 
   -7997    -7992    -7994    -7998    -7998    -7997    -7994    -7994 
   -7996    -7994    -7994    -7996    -7996    -7996    -8000    -7997 
   -7989    -7992    -7994    -7993    -7997    -7998    -7994    -7993 
   -7996    -7993    -7993    -7997    -7996    -7992    -7992    -7994 
   -7997    -7996    -7994    -7996    -7997    -7996    -7996    -7997 
   -7997    -7994    -7992    -7994    -7996    -7994    -7996    -7997 
   -7997    -7996    -7994    -7992    -7993    -7994    -7993    -7993 
   -7998    -8001    -7994    -7989    -7994    -7997    -7992    -7990 
   -7992    -7996    -7997    -7994    -7992    -7990    -7993    -7997 
   -7998    -7989    -7987    -7996    -7998    -7996    -7996    -7993 
   -7993    -7997    -7994    -7992    -7997    -7998    -7990    -7993 
   -7997    -7993    -7993    -8000    -7997    -7993    -7994    -7993 
   -7992    -7996    -7998    -7994    -7993    -7993    -7992    -7994 
   -7994    -7990    -7996    -8000    -7993    -7992    -7996    -7994 
   -7990    -7992    -7994    -7996    -7996    -7997    -7996    -7993 
   -7994    -8001    -8004    -8000    -7998    -8000    -7996    -7989 
   -7986    -7989    -8001    -8009    -8007    -8000    -7985    -7967 
   -7964    -7974    -7990    -8012    -8017    -8005    -8000    -8005 
   -8005    -8007    -8016    -8027    -8032    -8035    -8071    -8139 
   -8174    -8162    -8116    -8016    -7875    -7736    -7641    -7632 
   -7731    -7862    -7951    -8029    -8077    -8025    -7954    -7967 
   -8004    -7987    -7969    -8002    -8121    -8309    -8459    -8451 
   -8241    -7921    -7673    -7651    -7811    -7960    -8051    -8135 
   -8230    -8302    -8205    -8007    -7936    -7940    -7919    -7969 
   -8007    -7935    -8098    -8581    -8694    -8191    -7622    -7218 
   -6891    -6756    -6910    -7273    -7515    -7527    -7994    -8999 
   -9343    -8802    -8414    -8329    -8093    -7871    -7755    -7580 
   -7601    -7942    -8167    -8297    -8854    -9354    -8737    -7541 
   -7177    -7504    -7663    -7839    -8093    -7890    -7713    -8283 
   -8853    -8545    -7780    -7246    -7049    -7101    -7400    -8013 
   -8780    -9092    -8648    -8073    -7956    -7997    -7839    -7848 
   -8154    -8064    -7414    -7068    -7312    -7542    -7844    -8500 
   -8694    -8259    -8385    -9027    -9088    -8743    -8418    -7619 
   -6427    -5875    -6556    -8016    -9130    -9154    -8502    -8002 
   -7884    -7863    -7751    -7789    -8039    -8106    -8047    -8213 
   -8313    -7969    -7528    -7469    -7693    -7955    -8245    -8477 
   -8533    -8571    -8515    -7780    -6670    -6673    -7943    -8947 
   -9078    -8941    -8780    -8479    -8109    -7657    -7164    -7076 
   -7437    -7541    -7130    -7063    -7892    -8594    -8434    -8248 
   -8168    -7632    -7636    -8812    -9571    -9042    -8385    -8083 
   -7547    -7105    -7318    -7649    -7659    -7639    -7634    -7585 
   -7823    -8360    -8715    -8579    -8077    -7712    -7816    -7931 
   -7604    -7327    -7753    -8424    -8603    -8587    -8793    -8812 
   -8406    -8177    -8278    -7920    -7129    -6817    -6916    -6916 
   -7226    -8137    -8977    -9228    -9123    -8787    -8040    -7410 
   -7769    -8459    -8206    -7491    -7231    -7132    -7103    -7480 
   -7831    -7928    -8444    -9127    -8793    -7773    -7387    -7586 
   -7723    -7938    -8116    -7834    -7793    -8683    -9292    -8764 
   -8469    -8814    -8222    -6898    -6683    -7365    -7595    -7807 
   -8568    -8824    -8101    -7426    -7353    -7709    -8464    -8965 
   -8428    -7632    -7561    -7696    -7611    -7809    -8307    -8630 
   -8560    -7969    -7312    -7578    -8556    -8976    -8661    -8278 
   -7808    -7106    -6841    -7573    -8414    -8198    -7531    -7500 
   -7641    -7318    -7188    -7804    -8559    -8707    -8459    -8424 
   -8337    -7859    -7756    -8252    -8248    -7647    -7642    -8367 
   -8911    -8919    -8671    -8500    -8257    -7681    -7340    -7487 
   -7352    -6829    -6529    -6650    -7388    -8634    -9304    -9088 
   -9040    -9074    -8055    -6727    -6843    -7990    -8437    -8054 
   -7929    -8264    -8497    -8577    -8652    -8519    -8286    -8162 
   -7749    -6948    -6475    -6891    -7958    -8824    -8806    -8094 
   -7485    -7501    -7877    -8158    -8497    -8878    -8577    -7631 
   -7132    -7416    -7723    -7774    -8023    -8540    -8696    -8032 
   -7273    -7508    -8317    -8603    -8474    -8394    -8120    -7703 
   -7674    -7881    -7862    -7798    -7951    -8286    -8552    -8349 
   -7936    -7925    -8056    -8048    -8280    -8421    -7780    -6867 
   -6581    -7003    -7708    -8210    -8490    -8927    -9207    -8743 
   -8032    -7663    -7447    -7402    -7647    -7925    -8166    -8306 
   -8078    -7720    -7801    -8281    -8494    -8129    -7612    -7335 
   -7330    -7685    -8321    -8891    -9235    -9104    -8436    -7824 
   -7360    -6736    -6775    -7956    -8812    -8340    -7614    -7487 
   -7485    -7542    -8111    -8707    -8543    -8237    -8607    -8746 
   -7939    -7396    -7850    -8321    -8197    -7960    -7959    -7936 
   -7496    -6889    -6883    -7360    -7646    -7903    -8421    -8870 
   -8970    -8631    -7963    -7600    -7967    -8556    -8815    -8873 
   -8669    -7875    -7132    -7229    -7585    -7524    -7497    -7778 
   -7824    -7588    -7565    -7647    -7773    -8365    -8976    -8739 
   -8047    -7723    -7681    -7777    -8259    -8704    -8617    -8543 
   -8708    -8293    -7447    -7377    -7896    -7908    -7626    -7645 
   -7547    -7269    -7550    -8245    -8596    -8496    -7993    -7381 
   -7591    -8583    -9030    -8542    -7958    -7578    -7249    -7290 
   -7821    -8294    -8374    -8324    -8330    -8215    -7909    -7695 
   -7774    -7966    -8128    -8404    -8768    -8733    -7905    -7080 
   -7560    -8764    -8893    -8024    -7527    -7396    -6990    -6723 
   -7146    -7890    -8338    -8502    -8644    -8525    -7987    -7736 
   -8120    -8305    -8013    -8019    -8297    -8182    -7996    -8132 
   -7974    -7458    -7531    -8274    -8683    -8433    -8244    -8252 
   -7693    -6818    -6771    -7334    -7510    -7527    -8013    -8708 
   -9024    -8818    -8426    -8179    -8013    -7990    -8444    -8937 
   -8560    -7759    -7636    -7848    -7611    -7295    -7364    -7647 
   -7942    -8090    -7936    -7589    -7503    -7881    -8235    -8322 
   -8421    -8347    -7915    -7749    -8078    -8117    -7666    -7515 
   -7728    -7813    -8125    -8860    -9067    -8360    -7770    -8001 
   -8428    -8276    -7655    -7134    -6939    -7125    -7825    -8633 
   -8914    -8741    -8451    -8220    -8171    -8025    -7635    -7682 
   -8199    -8055    -7260    -7029    -7285    -7240    -7325    -8006 
   -8716    -9127    -9408    -9428    -8976    -8232    -7533    -6956 
   -6559    -6751    -7507    -8000    -8027    -8263    -8714    -8762 
   -8391    -7981    -7692    -7557    -7645    -7921    -8081    -7913 
   -7697    -7722    -7909    -8144    -8364    -8421    -8298    -8318 
   -8577    -8404    -7489    -6802    -7130    -7879    -8281    -8522 
   -8787    -8612    -8143    -8215    -8648    -8500    -7780    -7179 
   -7009    -7148    -7380    -7750    -8370    -8881    -8843    -8403 
   -8006    -7789    -7736    -7939    -8225    -8035    -7263    -6651 
   -6805    -7456    -8175    -8919    -9408    -9137    -8361    -7915 
   -8000    -8175    -8270    -8356    -8243    -7789    -7333    -7250 
   -7452    -7634    -7711    -7803    -7911    -7950    -8160    -8596 
   -8662    -8185    -7730    -7607    -7784    -8175    -8557    -8654 
   -8198    -7410    -7123    -7553    -8131    -8587    -8824    -8586 
   -7990    -7589    -7609    -7727    -7607    -7240    -6918    -7061 
   -7704    -8359    -8760    -8964    -8800    -8318    -7947    -7784 
   -7692    -7823    -8281    -8679    -8523    -7931    -7416    -7281 
   -7565    -7938    -8048    -8240    -8665    -8617    -8241    -8380 
   -8355    -7371    -6646    -7150    -7955    -8464    -9107    -9437 
   -8758    -7570    -6524    -6076    -6798    -8081    -8687    -8696 
   -8483    -7780    -7064    -7248    -8063    -8638    -8802    -8708 
   -8324    -7938    -8031    -8364    -8243    -7603    -7059    -7150 
   -7807    -8497    -8903    -9055    -8837    -7915    -6694    -6444 
   -7403    -8317    -8568    -8522    -8233    -7836    -7933    -8431 
   -8538    -8208    -8046    -7884    -7377    -7173    -7600    -7919 
   -7865    -7978    -8414    -8665    -8434    -8203    -8370    -8340 
   -7788    -7422    -7398    -7312    -7604    -8391    -8691    -8226 
   -7766    -7728    -7916    -8006    -7959    -7936    -7867    -7807 
   -8035    -8375    -8391    -8048    -7593    -7378    -7699    -8413 
   -8939    -8895    -8441    -7929    -7508    -7246    -7415    -8149 
   -8830    -8688    -7987    -7433    -7021    -6828    -7444    -8513 
   -8984    -8838    -8617    -8283    -7820    -7703    -8044    -8128 
   -7522    -6976    -7134    -7623    -8168    -8830    -9221    -8942 
   -8309    -7860    -7595    -7258    -7061    -7371    -7962    -8349 
   -8482    -8363    -7909    -7473    -7422    -7672    -8190    -8776 
   -8779    -8148    -7645    -7636    -7831    -7925    -7927    -7936 
   -7952    -8054    -8203    -8167    -8004    -7894    -7792    -7747 
   -7730    -7669    -7830    -8225    -8507    -8474    -8050    -7597 
   -7712    -8163    -8332    -8244    -8247    -8391    -8378    -8089 
   -7948    -8214    -8569    -8662    -8433    -8035    -7654    -7327 
   -7110    -7190    -7535    -7854    -8039    -8068    -7780    -7296 
   -7142    -7611    -8229    -8224    -7832    -7919    -8243    -8189 
   -8170    -8413    -8410    -8236    -8286    -8299    -8063    -7865 
   -7720    -7470    -7501    -8118    -8599    -8322    -7966    -8139 
   -8398    -8391    -8329    -8259    -8066    -7925    -7964    -8039 
   -8043    -7859    -7512    -7366    -7519    -7704    -7920    -8239 
   -8418    -8333    -8075    -7825    -7834    -8051    -8224    -8248 
   -8035    -7634    -7411    -7646    -8158    -8406    -8152    -7881 
   -7884    -7890    -7931    -8113    -8176    -8136    -8182    -8105 
   -7905    -7939    -7931    -7539    -7275    -7561    -8122    -8538 
   -8540    -8205    -7875    -7769    -7870    -8127    -8533    -8735 
   -8168    -7168    -6795    -7167    -7453    -7622    -8212    -8799 
   -8857    -8775    -8681    -8406    -8286    -8224    -7677    -6976 
   -6682    -6667    -6863    -7296    -7759    -8226    -8760    -9374 
  -10069   -10511   -10281    -9329    -7924    -6536    -5585    -5348 
   -6015    -7271    -8174    -8189    -7792    -7461    -7049    -6720 
   -6961    -7464    -7704    -8120    -9198   -10137    -9768    -8295 
   -6782    -5638    -4908    -4954    -6002    -7717    -9639   -11732 
  -13890   -15016   -14084   -11686    -9107    -7245    -6762    -7506 
   -8243    -7875    -6426    -4764    -3866    -4225    -5524    -6814 
   -7435    -7595    -7869    -8630    -9833   -10804   -10692    -9248 
   -6952    -4680    -3312    -3477    -5242    -7715    -9724   -11061 
  -12136   -13003   -13618   -14025   -13917   -12837   -10806    -8259 
   -5697    -3782    -2706    -1651     -305      197    -1289    -5036 
  -10359   -15083   -16690   -14638   -10412    -5925    -2662    -1414 
   -1941    -3312    -4822    -6069    -6891    -7916    -9779   -11804 
  -13012   -13205   -12202    -9872    -7121    -5494    -5705    -7257 
   -9277   -10671   -10359    -8672    -7292    -7159    -8051    -9514 
  -10476    -9845    -8167    -6606    -5512    -5489    -7214    -9779 
  -11364   -10790    -8155    -4909    -2647    -1890    -2573    -4756 
   -8177   -11761   -14107   -14257   -12125    -8851    -6331    -5580 
   -5957    -6478    -7167    -8329    -9296    -9161    -8174    -7173 
   -6543    -6388    -6866    -8007    -9494   -10665   -10994   -10667 
  -10130    -9397    -8418    -7222    -5610    -3915    -3272    -3893 
   -4852    -5985    -7531    -8698    -8827    -8644    -9071   -10219 
  -11745   -13063   -13419   -12409   -10372    -8077    -6145    -5166 
   -5422    -5968    -5724    -5221    -5302    -5567    -5780    -6426 
   -7200    -7909    -9417   -11021   -10542    -8326    -6909    -7387 
   -9065   -10783   -11364   -10459    -8992    -8000    -7780    -8109 
   -8407    -8182    -7526    -6683    -5910    -5503    -5069    -4209 
   -3809    -4471    -5563    -7047    -9352   -11785   -13177   -13317 
  -12946   -12329   -10829    -8757    -7392    -6640    -5555    -4280 
   -3362    -3142    -4365    -7442   -11346   -14004   -13860   -11346 
   -8457    -6677    -6075    -6192    -6918    -8005    -8384    -7588 
   -6619    -6095    -5872    -6180    -7198    -8665    -9876    -9732 
   -8217    -6739    -6316    -7218    -9300   -11110   -10963    -9304 
   -7766    -6976    -6994    -7894    -8937    -8839    -7258    -5447 
   -5053    -6192    -7969    -9930   -11119   -10142    -7666    -6200 
   -6852    -8229    -8523    -7743    -7323    -7884    -9011   -10296 
  -10709    -8937    -5540    -2844    -2317    -3542    -5850    -9062 
  -11973   -12713   -11207    -8993    -7242    -6600    -7601    -9745 
  -10980    -9640    -6705    -4676    -4818    -6671    -9193   -11280 
  -11755   -10050    -7350    -5667    -5416    -5694    -6415    -7848 
   -9281    -9832    -9431    -8584    -7801    -7188    -6786    -7040 
   -8094    -9312   -10111   -10296    -9711    -8530    -7339    -6646 
   -6840    -7657    -7924    -7192    -6346    -6068    -6517    -7680 
   -8938    -9490    -9092    -7967    -6775    -6332    -6853    -7870 
   -8748    -8966    -8494    -8013    -8028    -8328    -8742    -9254 
   -9269    -8189    -6736    -6562    -8002    -9481    -9898    -9491 
   -8235    -6326    -5219    -5623    -6538    -7446    -8615    -9400 
   -9009    -7893    -6939    -6681    -7203    -7924    -8281    -8456 
   -8884    -9556    -9849    -9379    -8733    -8384    -7998    -7543 
   -7538    -7874    -8014    -8186    -8723    -9215    -9393    -9286 
   -8687    -7766    -7177    -7213    -7677    -8222    -8471    -8135 
   -7155    -5911    -5055    -5047    -6037    -7712    -9211    -9740 
   -9108    -7804    -6891    -6971    -7384    -7491    -7789    -8808 
   -9984   -10349    -9591    -8125    -6709    -5933    -5798    -6133 
   -7179    -8986   -10601   -10945   -10276    -9501    -8560    -7183 
   -6089    -5719    -5594    -5545    -5760    -6262    -7271    -8857 
  -10293   -10689    -9888    -8563    -7581    -7398    -8147    -9504 
  -10498   -10604   -10359   -10218    -9923    -9302    -8560    -7958 
   -7527    -6752    -5377    -4228    -4140    -5038    -6400    -7695 
   -8653    -9200    -9243    -8949    -8496    -7778    -6975    -6578 
   -6760    -7217    -7597    -7985    -8451    -8692    -8727    -8796 
   -8787    -8525    -7950    -7452    -7680    -8262    -8391    -8317 
   -8553    -8802    -8467    -7715    -7444    -7854    -8070    -7816 
   -7581    -7312    -6902    -6964    -7670    -8360    -8756    -9099 
   -9190    -8497    -7287    -6552    -6642    -7119    -7832    -8598 
   -8542    -7470    -6793    -7433    -8507    -9165    -9479    -9188 
   -7933    -6639    -6675    -7902    -9069    -9747   -10195    -9869 
   -8319    -6687    -6120    -6211    -6501    -7272    -8139    -8235 
   -7797    -7739    -8037    -8100    -8289    -9216   -10068    -9828 
   -8947    -8149    -7427    -7047    -7573    -8538    -8810    -8451 
   -8444    -8896    -9038    -8463    -7624    -7118    -6897    -6764 
   -7003    -7705    -8291    -8336    -7960    -7442    -7020    -6666 
   -6380    -6574    -7283    -8070    -8992   -10017   -10315    -9535 
   -8266    -6976    -5967    -5737    -6497    -7875    -9189    -9640 
   -8819    -7402    -6569    -6698    -7368    -8032    -8385    -8607 
   -8957    -9158    -8787    -8085    -7892    -8606    -9612   -10049 
   -9715    -9038    -8407    -7817    -7395    -7622    -8303    -8527 
   -8125    -7670    -7310    -7018    -7083    -7631    -8247    -8284 
   -7641    -6943    -6764    -7190    -8116    -9213    -9628    -8787 
   -7485    -6766    -6384    -5872    -5732    -6385    -7458    -8553 
   -9553   -10127    -9771    -8633    -7614    -7209    -7076    -7134 
   -7596    -8078    -8066    -7663    -7333    -7473    -7996    -8447 
   -8617    -8321    -7434    -6382    -5725    -5691    -6334    -7449 
   -8480    -8931    -8785    -8460    -8298    -8314    -8568    -9147 
   -9821   -10378   -10758   -10771   -10496   -10201    -9653    -8553 
   -7295    -6392    -5957    -5891    -5987    -6145    -6554    -7233 
   -7877    -8394    -8684    -8316    -7515    -7307    -7990    -8934 
   -9683    -9998    -9621    -8753    -7956    -7497    -7388    -7619 
   -7827    -7492    -6794    -6446    -6660    -7130    -7727    -8322 
   -8572    -8486    -8226    -7784    -7555    -8051    -8995    -9660 
   -9625    -8989    -8191    -7562    -7198    -7192    -7512    -7798 
   -7727    -7426    -7182    -7176    -7547    -8104    -8306    -7982 
