Origin Time       2014/12/03 23:19:00
Lat.              35.290
Long.             137.118
Depth. (km)       45
Mag.              4.2
Station Code      SIG008
Station Lat.      35.0701
Station Long.     136.2946
Station Height(m) 218
Record Time       2014/12/03 23:20:05
Sampling Freq(Hz) 100Hz
Duration Time(s)  66
Dir.              U-D
Scale Factor      7845(gal)/8223790
Max. Acc. (gal)   3.065
Last Correction   2014/12/03 23:20:05
Memo.             
[...]
   30235    30237    30238    30237    30237    30237    30238    30238 
   30240    30238    30237    30238    30238    30237    30237    30237 
   30238    30238    30235    30235    30238    30237    30235    30237 
   30237    30235    30238    30238    30235    30235    30238    30240 
   30238    30237    30237    30238    30240    30238    30238    30240 
   30240    30238    30238    30238    30240    30237    30238    30240 
   30238    30240    30240    30238    30240    30241    30237    30235 
   30240    30238    30237    30240    30241    30240    30240    30238 
   30240    30242    30241    30235    30234    30238    30242    30242 
   30235    30233    30240    30241    30240    30240    30237    30237 
   30240    30240    30238    30237    30235    30237    30240    30237 
   30237    30240    30240    30238    30238    30237    30238    30240 
   30238    30238    30238    30240    30238    30235    30238    30240 
   30237    30237    30240    30238    30237    30237    30238    30240 
   30240    30240    30240    30237    30241    30248    30254    30265 
   30276    30279    30277    30264    30234    30202    30181    30183 
   30208    30258    30307    30316    30265    30194    30152    30140 
   30145    30187    30264    30312    30306    30321    30379    30385 
   30346    30339    30350    30390    30472    30622    30928    31206 
   31153    30778    30227    29552    28732    27928    27595    27966 
   28779    29651    30474    31317    31922    31889    31422    31024 
   30712    30257    29751    29623    30273    31395    31833    30973 
   29689    29073    29416    30069    30002    29816    30608    31172 
   30520    30118    30821    31064    29682    28255    28580    29953 
   30950    31302    31136    30366    29575    29776    30327    29991 
   29525    29783    29929    29879    30802    32117    31965    30672 
   29914    30030    30730    31599    31333    29629    28344    28412 
   28845    29386    30179    30362    29893    29988    30831    31534 
   31768    31448    30430    29377    29317    30132    30580    30117 
   29613    29647    29547    29114    29652    31587    33096    32575 
   30532    28890    28853    29394    29394    29776    30986    31469 
   30380    28977    28783    29836    31063    31324    30426    29663 
   29890    30172    29943    30055    30824    31247    30770    30252 
   30584    31306    31213    30322    29941    30277    30137    29239 
   28622    28954    29994    31009    31241    30771    30134    29494 
   29280    29795    30276    30304    30562    30852    30253    29650 
   30210    30719    30345    30350    30790    30549    30136    30280 
   30234    29859    30277    31202    30765    29226    29079    30080 
   29906    29531    30819    32054    31521    30462    29681    28563 
   28216    29921    31669    31436    30315    29816    29995    30223 
   30150    30165    30492    30657    30481    30424    30468    30100 
   29654    29678    29782    29762    30133    30816    31122    30815 
   30161    29739    29914    30338    30719    30905    30316    29068 
   28418    29153    30638    31622    31445    30639    30289    30339 
   29879    29506    30211    30782    30154    29818    30743    31392 
   30877    30275    30028    29764    29766    29937    29573    29259 
   30090    30977    30446    29960    30947    31518    30353    29502 
   30181    30667    30294    30399    30753    29872    28524    28520 
   29567    30788    31881    31706    30036    28927    29560    30618 
   30712    30256    30331    30812    30588    29870    30334    31646 
   31434    29695    28584    28759    29469    30265    30978    31399 
   31359    30667    29472    28777    29305    30507    31297    30762 
   29282    28857    30195    31245    30661    30040    30821    31577 
   30657    29343    29536    30383    29857    28437    28827    31024 
   31876    30951    30611    31108    31037    30250    29390    28830 
   29010    29782    30129    30252    31059    31718    31101    29802 
   28996    29170    30034    30813    31047    30928    30825    30882 
   30809    30254    29590    29492    29678    29536    29542    30180 
   30748    30659    30200    29844    30029    30851    31384    30932 
   30383    30289    30026    29621    29801    30449    30551    30013 
   29793    30020    30240    30431    30538    30354    29848    29432 
   29720    30379    30743    31129    31465    30728    29165    28698 
   29879    30761    30420    30276    30825    30871    29893    29079 
   29517    30265    30192    29976    30280    30689    30681    30069 
   29565    30169    31367    31851    31432    30677    29809    29026 
   28821    29112    29606    30397    30834    30375    30132    30609 
   30658    30175    30261    30703    30607    30248    29870    29444 
   29612    30206    30388    30596    31216    31449    30915    29840 
   28779    28854    29991    30713    30878    31225    31116    29918 
   28871    29216    30276    30923    31004    30885    30806    30404 
   29397    28761    29401    30242    30160    30226    31082    31175 
   30020    29289    29658    30269    30778    31139    31121    30933 
   30478    29560    28926    29047    29484    30118    31086    31772 
   31499    30685    30030    29571    29444    29921    30550    30804 
   30654    30126    29511    29434    29902    30206    30249    30573 
   30661    29756    29111    30019    31230    31224    30565    30122 
   29879    29878    30007    30018    30441    31460    31704    30420 
   29188    29338    30072    30539    30751    30581    30175    29852 
   29208    28561    29157    30588    31239    30893    30657    30886 
   30886    30501    30071    29678    29621    30084    30723    31234 
   31228    30276    29160    29335    30347    30522    30057    30076 
   30253    29844    29322    29733    30782    30828    29871    29845 
   30851    31143    30720    30504    30102    29560    29718    30150 
   30071    30057    30672    31079    30631    30106    30002    29844 
   29802    30474    31185    30634    29416    29495    30591    30584 
   29700    29650    30002    29965    30307    30765    30375    29914 
   30024    30208    30609    31010    30433    29578    29903    30793 
   30923    30547    30330    30161    29987    29954    30061    30360 
   30582    30249    29770    29774    29963    30071    30410    30812 
   30631    30055    29828    29920    29995    30148    30250    30195 
   30478    31222    31360    30273    29354    29817    30669    30588 
   29862    29631    30137    30588    30487    30073    29883    30261 
   30680    30275    29639    29976    30622    30451    30211    30572 
   30535    29647    29182    29749    30337    30597    30846    30535 
   29758    29690    30341    30613    30524    30859    31113    30372 
   29354    29277    29972    30441    30470    30707    31162    31113 
   30492    29743    29197    29339    30168    30743    30682    30502 
   30213    29520    29124    29848    30817    30929    30727    30692 
   30370    29787    29675    30132    30086    29538    30053    31386 
   31634    30684    29675    29106    29234    29814    30048    30226 
   30920    31089    30063    29309    29798    30406    30281    30172 
   30584    30793    30458    30252    30511    30824    30731    30080 
   29363    29358    30061    30808    31047    30670    29997    29277 
   28738    29045    30484    31914    32054    31360    30882    30564 
   30013    29257    28675    28891    29754    30416    30735    30854 
   30535    30099    30194    30549    30624    30511    30315    30028 
   29964    30191    30234    30013    29893    29871    29922    30210 
   30673    31216    31417    30746    29718    29406    29925    30416 
   30396    30234    30098    29712    29335    29712    30765    31449 
   31228    30603    30160    29934    29632    29242    29313    30141 
   30994    31059    30620    30142    29631    29536    30160    30713 
   30732    30530    29922    29266    29886    31230    31363    30518 
   30106    29945    29732    30099    30640    30626    30565    30424 
   29531    28715    29180    30434    31064    30620    29856    29467 
   29677    30352    31044    31515    31491    30623    29609    29546 
   30229    30802    30882    30413    29635    29064    29177    29894 
   30630    31058    31135    30806    30316    29987    29668    29168 
   28965    29512    30268    30684    31060    31376    31043    30207 
   29824    30310    30736    30333    29976    30292    30330    29763 
   29509    29808    30105    30303    30519    30601    30705    30952 
   30902    30488    30172    30001    29681    29320    29424    30091 
   30788    31133    31113    30723    30049    29551    29614    29960 
   30175    30343    30493    30300    29781    29484    29741    30172 
   30379    30547    30738    30551    30001    29791    30276    30690 
   30483    30225    30150    29960    29952    30352    30730    30747 
   30451    30121    29930    29798    29920    30483    30940    30897 
   30616    30091    29425    29349    29917    30402    30627    30689 
   30352    30018    30439    31129    31145    30711    30303    29540 
   28533    28364    29409    30869    31517    30842    29905    29664 
   29768    29949    30233    30392    30441    30487    30406    30422 
   30925    31282    30649    29865    29954    30271    30390    30645 
   30500    29776    29474    29879    30304    30321    30119    30103 
   30204    30129    29982    30165    30636    30547    29814    29624 
   30119    30424    30466    30429    30338    30465    30420    29679 
   29289    30192    31075    30734    30063    29934    30030    30256 
   30663    30757    30643    30611    30007    29091    29162    30078 
   30720    30842    30666    30118    29471    29404    29785    30233 
   30905    31286    30861    30492    30682    30654    30211    30040 
   30267    30406    30227    29910    29871    30195    30447    30451 
   30277    29902    29643    29883    30229    30053    29752    30115 
   30755    30824    30634    30762    30651    29909    29327    29466 
   30122    30874    30966    30275    29901    30159    30248    30179 
   30454    30743    30522    30049    29862    29947    30068    30113 
   30115    30280    30561    30697    30510    30217    30306    30542 
   30362    29956    29698    29592    29609    29849    30181    30418 
   30657    30682    30315    30057    30051    30137    30599    31356 
   31729    31318    30299    29088    28308    28443    29174    29875 
   30284    30524    30727    30653    30181    29725    29754    30254 
   30819    31247    31201    30407    29752    29909    30389    30815 
   30906    30535    30072    29640    29261    29423    30418    31552 
   31836    31186    30042    28857    28071    27731    28001    29059 
   30284    31213    31926    32097    31517    30886    30711    30634 
   30645    31044    31410    31440    31627    31931    31538    30389 
   29312    28683    28444    28728    29276    29674    30207    30932 
   31074    30141    28745    28094    28372    28784    29533    30963 
   31866    31468    30649    30160    30043    30129    30060    29849 
   30011    30276    29849    29596    30728    31986    31907    31361 
   31176    30765    30188    30260    30588    30315    29729    29201 
   28545    28197    28713    29650    30466    30897    30627    30300 
   30798    31342    31037    30318    29450    28536    28370    29056 
   29546    29830    30889    32125    32295    31684    31070    30647 
   30483    30699    31113    31199    30800    30241    29785    29720 
   30026    30009    29446    29025    29116    29493    30040    30570 
   30565    30252    30372    30478    30040    29764    29817    29571 
   29343    29762    30152    29843    29718    30479    31387    31719 
   31610    31564    31773    31681    31020    30694    31259    31753 
   31336    30450    29502    28413    27892    28746    30010    30237 
   29868    29929    29974    29531    29502    30410    31002    30022 
   28486    28343    29470    30446    30920    30961    30235    29293 
   29320    30246    31205    31878    32061    31546    30605    29716 
   29347    29781    30738    31538    31594    30819    29752    29191 
   29458    29961    29997    29721    29478    29177    28987    29378 
   30167    30484    30187    30005    30082    30095    30098    30261 
   30511    30516    30204    29943    29747    29570    30121    31672 
   32948    32791    31818    30959    29936    28759    28381    29042 
   30280    31556    31932    31128    30042    29384    29135    29036 
   29151    29953    31044    31170    30307    29704    29778    29893 
   29961    30456    30996    30908    30690    30950    30977    30176 
   29455    29542    29825    29795    29717    30022    30716    30955 
   30329    29830    29934    29994    30175    31097    32023    31803 
   30825    30267    30246    29887    29038    28721    29154    29262 
   28907    29087    29812    30294    30539    30801    30782    30481 
   30474    30936    31320    31249    30917    30519    30071    29602 
   29423    30024    31004    31294    30786    29970    29182    29083 
   29790    30476    30601    30233    29592    29069    29069    29647 
   30595    31463    31467    30369    29002    28287    28638    30161 
   32270    33451    32803    31309    30123    29243    29153    30418 
   31440    30726    29497    29195    29515    29870    30214    30496 
   30527    30060    29137    28570    29038    30121    31112    31518 
   31097    30356    30020    30195    30667    31068    30902    30287 
   29876    29535    28850    28480    28902    29693    30628    31420 
   31558    31159    30777    30568    30315    30169    30642    31418 
   31496    30817    30257    30009    29561    29003    28850    29288 
   30043    30445    30245    30168    30542    30750    30672    30781 
   30989    30869    30522    30377    30314    29936    29593    29791 
   30095    29918    29469    29222    29388    29931    30592    31017 
   31175    31347    31459    31059    30399    30318    30665    30537 
   30032    29808    29701    29393    29092    29064    29439    29959 
   30005    29463    29053    29442    30426    31321    31657    31236 
   30415    30010    30203    30511    30696    30663    30165    29403 
   29056    29258    29543    29890    30532    31172    31377    31284 
   31183    30811    29952    29106    28842    29274    30078    30707 
   30828    30561    30200    29895    29751    29862    30140    30487 
   30909    31121    30759    30327    30568    31054    31089    30975 
   31063    31108    31059    30902    30330    29579    29177    29065 
   29164    29396    29413    29457    29868    30091    29799    29654 
   30020    30481    30925    31527    31780    31287    30493    29814 
   29470    29581    29871    30184    30535    30615    30246    29627 
   28998    28705    29158    30217    31036    31179    31118    31017 
   30578    30083    30042    30342    30542    30557    30599    30709 
   30647    30279    29972    30040    30140    29922    29584    29401 
   29481    29928    30591    30894    30605    30246    30175    30100 
   29972    30181    30647    30912    30950    30881    30634    30296 
   30020    29740    29405    29277    29633    30213    30408    30192 
   30105    30207    30057    29701    29695    30057    30184    30060 
   30132    30330    30531    30866    31206    31236    30800    30092 
   29616    29732    30172    30389    30473    30608    30365    29739 
   29412    29640    30106    30588    31047    31387    31548    31459 
   30970    30273    29916    29941    29874    29824    30215    30624 
   30515    30214    30017    29654    29102    28825    28981    29347 
   29997    30849    31099    30512    29810    29331    29095    29484 
   30403    31016    31023    30986    31164    31143    30823    30550 
   30310    30015    29967    30072    29929    29733    29818    29988 
   29999    29886    29743    29659    29809    30321    30819    30689 
   29991    29374    29231    29386    29695    30352    31014    31064 
   30765    30646    30681    30734    30806    30842    30790    30823 
   31020    31126    30885    30337    30013    30300    30643    30516 
   30279    30190    29972    29732    29931    30383    30554    30649 
   30967    31060    30677    30152    29650    29409    29647    29848 
   29646    29596    29863    29856    29558    29450    29647    29965 
   30165    30204    30370    30778    31036    30840    30507    30395 
   30342    30091    29727    29547    29763    30210    30478    30418 
   30345    30465    30492    30242    29940    29943    30308    30468 
   30071    29690    29785    30028    30080    30029    29982    29963 
   30073    30195    30109    30102    30507    30886    30696    30275 
   30230    30495    30669    30708    30836    31047    30984    30504 
   30118    30222    30388    30250    30177    30396    30532    30346 
   29948    29515    29374    29640    29917    29959    29977    30129 
   30226    29947    29370    29070    29424    30152    30666    30753 
   30715    30761    30730    30535    30393    30532    30754    30651 
   30342    30361    30686    30824    30723    30627    30430    30017 
   29763    30051    30504    30441    29987    29716    29637    29560 
   29727    30200    30434    30225    30052    30020    29944    30003 
   30335    30690    30785    30727    30882    31079    30736    29997 
   29612    29650    29647    29659    29953    30311    30377    30267 
   30261    30342    30512    30802    30913    30624    30134    29832 
   29994    30500    30806    30600    30240    30056    30022    30141 
   30217    30069    30029    30137    30013    29772    29700    29587 
   29388    29475    29857    30145    30289    30461    30531    30362 
   30218    30365    30626    30839    31060    30936    30172    29488 
   29578    29979    30188    30375    30511    30508    30604    30568 
   30111    29852    30188    30493    30531    30697    30792    30507 
   30218    30169    30111    30020    30113    30264    30176    29909 
   29797    30025    30358    30385    30141    29997    29987    29954 
   29954    30037    30126    30288    30615    30948    31056    30948 
   30780    30670    30604    30487    30458    30603    30526    30063 
   29698    29814    30218    30505    30528    30393    30169    29771 
   29286    29165    29625    30194    30347    30161    29977    29870 
   29802    29961    30354    30501    30184    29897    29964    30063 
   29972    29930    30102    30291    30256    30172    30295    30373 
   30318    30499    30771    30751    30555    30341    30117    30011 
   30154    30465    30665    30611    30358    30006    29763    29825 
   30046    30123    30086    30176    30354    30446    30505    30667 
   30901    30924    30604    30294    30248    30260    30092    29782 
   29521    29506    29783    30088    30195    30295    30468    30449 
   30308    30360    30504    30481    30342    30339    30558    30711 
   30489    30126    30061    30238    30315    30244    30222    30392 
