Origin Time       2011/03/11 14:46:00
Lat.              38.103
Long.             142.860
Depth. (km)       24
Mag.              9.0
Station Code      TCG014
Station Lat.      36.5450
Station Long.     140.1742
Station Height(m) 130
Record Time       2011/03/11 14:47:09
Sampling Freq(Hz) 100Hz
Duration Time(s)  300
Dir.              U-D
Scale Factor      3920(gal)/6182761
Max. Acc. (gal)   493.632
Last Correction   2011/03/11 14:46:54
Memo.             
[...]
  -40085   -27297    12034    65781   102890   104816    82373    50006 
    2170   -57575   -93817   -80530   -29850    31264    80846   105414 
   98568    63854    20847   -14119   -46514   -80326   -98943   -86228 
  -45233     8488    51088    54932    15868   -33879   -56685   -41107 
   -4843    27728    55012    88746   125945   154326   155433   105622 
   12473   -79254  -134058  -149037  -141980  -122908   -73482    15263 
  104224   151432   163049   169060   174792   159038   114587    55975 
  -11392   -84376  -141177  -156758  -121431   -53207    14835    74456 
  128689   156282   136791    77174     2769   -53499   -69325   -48981 
  -14101    14544    30816    41216    40620    10586   -40780   -71629 
  -57003   -12854    33269    66253    87754   108935   127713   127235 
   99316    48509    -9576   -49885   -57936   -34611    13700    69286 
  105333   106215    76281    28534   -26289   -72178   -89226   -78527 
  -54403   -14892    42846    96802   122662   127885   120225    73055 
  -11765   -82149  -116301  -127880  -115222   -73687   -18458    31743 
   71939    96705    88236    38139   -31133   -84508  -105143   -83696 
  -13850    75418   138754   166353   169656   135943    54848   -31261 
  -85019  -115177  -110710   -65311   -12632    44302   112838   158361 
  151605    96606    14442   -62695  -104295  -102519   -69668   -23126 
   18787    43639    45441    16299   -40571   -95075  -109404   -75019 
  -21351    22275    58143    93195   119493   141251   160236   151264 
  104542    36723   -30989   -63652   -42897    -2720    16696    19125 
   19803     3910   -37508   -71346   -62849   -22430    19135    61186 
  111556   141759   127230    83769    33931    -7133   -35621   -52190 
  -46847   -37371   -44899   -41815   -20051    -9095   -11732   -17452 
  -25062   -24217       22    49168   104657   140819   149755   133960 
   90002    26449   -33832   -70801   -75751   -62034   -40851    -2444 
   43891    68976    67430    52277    24050   -15255   -39558   -39982 
  -36672   -22160    19527    61793    70754    46675    17698     9482 
   14071     7991   -14076   -37015   -41721   -29944   -14170    -2857 
  -10263   -33236   -43527   -29054       -3    35271    60970    53747 
   15782   -33206   -86639  -131111  -128609   -64343    18484    73132 
  103731   133960   158319   146841    82768   -10584   -86662  -119952 
 -111985   -69871    -7715    59720   123664   159379   141242    85174 
   23800   -33130   -69853   -57606    -6578    41104    66036    72046 
   64773    48586    27587    11564     3772    -9287   -32933   -51376 
  -41117     9651    81534   131363   124440    60788   -15795   -45352 
  -21907   -10600   -43393   -62435   -28276    15865    28128    16913 
    3196    -4476   -11629   -26235   -38708   -33543   -16909    -2471 
   23486    85501   171543   240554   266949   255692   223203   163604 
   56957   -78698  -188203  -232636  -214364  -164623  -114661   -63615 
   11007   103098   174579   193510   152114    73787    -5899   -72280 
 -120797  -133671   -92540   -10022    71382   123650   149880   153949 
  127700    71949     5681   -51622   -89730  -101393   -82784   -41342 
    4328    39251    62496    75331    70511    46064    17683     3643 
    6494    17146    27404    30972    20553     -549   -13155   -10008 
   -8577   -23067   -47786   -58532   -33005    14919    55481    82458 
   95057    84295    56090    25865    -3705   -34087   -57199   -57481 
  -26434    25217    80335   121189   128152   104655    75853    49924 
   12855   -39892   -86825  -106561  -101901   -77932   -31171    30183 
   87114   124001   130916    97799    17157   -89519  -166800  -176448 
 -133670   -72503    -1832    82230   165415   220629   230492   193380 
  118408    24769   -63272  -129642  -163455  -147411   -74459    28073 
  118774   178147   199008   166609    77619   -36488  -123203  -155028 
 -147819  -112606   -31648    84916   173562   178880   110768    22666 
  -52571  -109890  -129694   -85711    12307   120755   191260   189677 
  114081    -4531  -129275  -235258  -300184  -295507  -206902   -63001 
   80538   185992   238865   227127   145483    13788  -116746  -187066 
 -176662  -113515   -29238    59748   127807   156352   165019   171881 
  162689   139573   125417   108933    52200   -57141  -176857  -241493 
 -228805  -160695   -55515    77913   210545   285014   257009   139828 
  -17573  -179371  -315824  -374373  -309016  -132948    94089   299363 
  408361   381406   234515    29127  -153648  -270841  -317690  -277143 
 -128520    97277   289267   343515   268300   118832   -74323  -247046 
 -317054  -275069  -167543   -23169   155278   334014   427486   389444 
  263763   113697   -15972   -93842  -116839   -95799   -34612    51721 
  128561   155129   101130   -18717  -142098  -224569  -262994  -244709 
 -153824   -23274    87390   150826   185338   218221   236916   204567 
  122194    23712   -67619  -127223  -122834   -57911    24850    87610 
  110726    88970    40155   -11852   -66456  -124037  -148756  -109134 
  -36455    12449    23806    21307    20783    18057     6833    -2302 
    6667    28955    57842    87034    90242    64051    34391    11466 
    6178    32998    75198   101018    99555    79593    44318    -6611 
  -52326   -72429   -79004   -84371   -69466   -24333    19279    28940 
   10499    -8386   -16406   -21057   -13465    20192    62697   100537 
  145322   178608   154436    70321   -28754  -104819  -151220  -173688 
 -171555  -142528   -86101    -8045    66321   105718    97779    45333 
  -37726  -113803  -136512   -97140   -28427    43166   112984   179269 
  239979   278701   257719   167645    39652  -101877  -226204  -279689 
 -243864  -153693   -49083    49426   136037   203973   224424   173972 
   84773    18363    -5785   -22956   -66112  -114850  -112441   -36879 
   60565   117877   122214    79820     6126   -59547   -96118  -109470 
  -90116   -32803    37959   105883   165298   188790   159418   109341 
   76606    50863    -4220   -92781  -175799  -208118  -171053   -79034 
   28888   109820   148019   157455   145984   100973    19437   -59522 
  -79504   -39895    -2534    -9415   -34047   -24402    25027    63049 
   48809      397   -36251   -38038   -15605    -2051   -23777   -53410 
  -40150     8853    59827   112151   164215   196381   195108   159442 
  100749    22201   -67627  -113802   -84918   -24885    32805    87276 
  119199    97878    16926   -83285  -154834  -186730  -171043  -108931 
  -38180    26908    94934   131287   103676    28274   -59096  -101359 
  -78594   -45418    -1913   104073   229373   268452   188752    61582 
  -33369   -77289   -66454   -18395    12739    14370    11851    10806 
    8749     -235   -21546   -41756   -44065   -25962     7092    56718 
  119462   166529   174290   153628   132363   124080   114019    81071 
   22233   -54539  -134549  -190876  -201324  -163051   -96789   -40038 
    3537    72194   173431   254231   245631   135665    -8720  -127815 
 -218259  -283231  -316996  -305592  -220085   -70837    87001   225482 
  334246   386857   361799   236600    22473  -180697  -291519  -335394 
 -325880  -236983  -106452    17163   128512   210874   256464   267666 
  218035   102588   -36874  -148415  -179855  -110515     4952    98721 
  166263   209899   211101   179366   119464    17772  -117655  -254433 
 -329744  -289727  -137387    88274   306571   409325   347000   161206 
  -67021  -264470  -363333  -319761  -173521   -14710   114588   225895 
  337139   427275   415593   257657    27572  -170685  -290689  -323306 
 -274266  -158055    -8051   105466   126505    77224    25028     -873 
  -15993   -11835    33046    94863   144467   184152   205297   187421 
  141626    91698    42102    -8680   -71606  -154456  -228285  -256394 
 -240490  -217454  -197228  -125587    19375   173191   298977   407550 
  445416   329804    95389  -113332  -208725  -222742  -190421   -88736 
   82472   240944   301980   276358   203478    83712   -52898  -157365 
 -222894  -242065  -203291  -130458   -51164    19970    65263    81768 
   84551    90049   114546   141409   111249      378  -134552  -208145 
 -191719  -136356   -76317    18914   148688   243586   252877   188646 
   77647   -55042  -151260  -162362  -120494   -85150   -61483   -22556 
   44118   127520   186817   179942   108354   -11597  -140344  -178443 
  -91547    15490    49383    36404    62538   153394   231276   211961 
   98783   -43426  -160232  -231630  -261926  -267311  -252112  -197080 
  -72966   119361   297247   343868   242466   100520    13713   -44421 
 -141839  -253189  -290842  -210748   -39379   151911   294186   351388 
  309771   187611    39788   -87065  -186499  -258139  -253084  -124408 
   80635   246308   280565   201090   110945    47645   -28959  -120413 
 -192530  -222448  -187097   -75394    83221   225219   290313   271387 
  206024   119526    32207   -21032   -39456   -59674   -91439  -115661 
 -119175   -91464   -30523    54875   159316   250044   274333   235464 
  172930    89081   -27611  -158752  -255059  -263112  -182154   -58803 
   78238   209536   291268   301211   269618   225748   159694    44388 
 -110174  -229729  -250387  -185952   -88739   -12747    -3000   -68411 
 -174218  -246764  -213361   -77511    85785   196635   215791   173203 
  137774   123686    74061   -32789  -148802  -236054  -272777  -229031 
 -130029   -46612    16841   100523   182621   204318   153833    73686 
   13588    -6852    -8171   -13334    -3491    28396    43917    30770 
    2545   -53678  -127726  -148266   -85671   -10423     9624   -14427 
  -38822   -55606   -84424  -135138  -185251  -156302    -8154   164055 
  262896   296397   295125   257629   157183   -14610  -192818  -288302 
 -263113  -145701    -7989   100937   175349   187190   100652   -37716 
 -146369  -205071  -222862  -201442  -150290   -78955     2760    65854 
   79511    60791    70486   134535   204666   231376   231822   235476 
  237325   229993   191632    79758  -102116  -292420  -423798  -451351 
 -362455  -164046   116500   392973   554648   547338   384220   125563 
 -141592  -337669  -429328  -448129  -425421  -322592   -99801   196948 
  471210   632920   632263   495450   279360    22330  -211963  -361798 
 -436972  -456436  -392014  -217064    43322   300321   456219   471646 
  357997   161188   -49347  -216580  -313305  -337701  -311334  -270397 
 -218780  -123033    13821   149451   246793   297560   332876   354700 
  314337   197402    45673   -80136  -136448  -123555   -68657     -437 
   44555    30520   -26655   -61522   -45296   -22417   -54960  -148735 
 -242945  -279896  -246292  -147697     6882   168018   251809   225341 
  116395   -29057  -151982  -211138  -203756  -142381   -54190    26053 
  103717   211737   327012   370619   307704   186680    65996   -53863 
 -184741  -289431  -327831  -283823  -149963    39715   216809   310880 
  276120   152998    19864  -129797  -323849  -486911  -513912  -401853 
 -228008   -35323   180410   404866   605920   718796   649846   393763 
   63915  -218816  -415523  -560034  -665891  -684779  -569365  -322534 
   -6061   280111   463514   536683   533745   500936   453211   351128 
  168269   -54997  -242336  -331666  -325280  -278343  -210720  -104094 
   28401   155482   247709   268324   220519   155132   106580    69917 
   21526   -42807   -87181   -84553   -56682   -33645   -24659   -47518 
 -107181  -150602  -130425   -62204    15862    78745   139726   236398 
  341134   379775   362249   329115   233036    61239   -92758  -188137 
 -248723  -263046  -246140  -246608  -256323  -258707  -266682  -236571 
 -105782    68840   180370   236318   293472   321225   281385   222789 
  189615   165231   118778    43657   -15569   -24520   -28078   -72829 
 -146768  -220152  -268715  -286710  -282536  -256091  -211262  -145298 
  -36339   105316   223872   290505   333648   369192   365092   311981 
  255042   215219   155547    64105   -27216  -129691  -266306  -402398 
 -519355  -589850  -522230  -340228  -197798  -103114    59205   249117 
  349502   380451   383496   344296   271232   176096    79308    16805 
    -970     4304   -16824   -74207  -110330  -101060   -60325    21399 
  129282   215910   263483   280868   283012   275052   240545   187939 
  154790   142351   127588    90052   -22891  -232448  -444542  -561533 
 -575242  -494468  -354569  -237566  -160007   -74109    52196   219914 
  367156   414097   343463   189352    16149  -121148  -205918  -231635 
 -198504  -127857   -55068     2992    62525   129904   191204   236076 
  255155   243023   190604   100930    31367    37874   111689   216551 
  313762   369156   359697   261758    90041   -98329  -267963  -401426 
 -489516  -533577  -493508  -324122   -80279   118582   221210   266113 
  273854   227608   145391    50853   -47326  -113621  -126535  -107565 
  -76592   -33577    29012   104356   179713   263803   349897   396900 
  381871   307585   172410   -13856  -200376  -329400  -379709  -335341 
 -186444    10917   169368   270177   339597   364027   345676   325285 
  273420   126932  -112037  -397289  -643927  -757677  -714720  -550445 
 -343198  -178430   -32286   154125   341200   485124   574794   592575 
  564613   526322   462046   340005   163854   -13385  -157585  -288775 
 -406963  -486895  -541830  -590970  -600662  -526200  -370642  -170014 
   42517   252303   447712   585294   657540   741490   782517   586459 
  223494   -66101  -298606  -556417  -749310  -764311  -599349  -423975 
 -344246  -200236    82579   348963   532176   658999   695546   650366 
  562112   385611   103059  -189758  -401010  -518923  -555468  -511382 
 -392719  -203885    44774   303842   508390   613826   592382   444342 
  201839   -70743  -292596  -432715  -503217  -503641  -435096  -320752 
 -180733     2917   219852   375356   457625   540376   562003   440919 
  231815     1118  -204096  -337732  -392078  -379394  -320152  -231301 
 -121475   -17405    63942   144894   228656   273716   250372   165869 
   54973   -40168  -105120  -153648  -184157  -164592   -81049    34900 
  134886   185929   193053   185647   177139   154569    89657   -25628 
 -141433  -189285  -146805   -46649    49853    93804    68808    -9872 
  -93466  -129485   -85945    32369   150596   189298   159995   127781 
  138173   187675   239774   263174   221309    88310  -109266  -314981 
 -465078  -510779  -452720  -336284  -231356  -179393  -140784   -56884 
   78889   260914   467320   604252   585314   442832   275403   133072 
   24451   -28820   -37988   -62766  -120326  -168781  -174243  -134970 
  -59080    50754   158881   194608   146710    68551   -10089   -69757 
  -70317    -7116    86658   193070   282876   297198   226456   130666 
   44710   -58185  -186061  -285407  -307930  -255680  -155210   -49675 
   10997    17340     4498     4927    32931    80230   102112    67381 
   -7303  -117229  -260681  -348655  -259619   -34723   132061   181303 
  234430   353992   509306   601850   500610   243049   -26991  -243741 
 -375647  -448669  -516138  -539943  -483081  -351771  -141048    96501 
  264177   339900   373975   400611   415032   396374   306928   139174 
  -26578  -107149  -120832  -133440  -174503  -228202  -238093  -148635 
   32896   254996   455561   554014   499858   321494    81922  -162903 
 -369909  -524750  -638953  -704483  -676710  -542418  -348713  -125606 
  137537   418231   630584   695831   614276   425660   166110   -81573 
 -229438  -275781  -239479  -121751    24132   124198   163767   172079 
  175245   195081   244379   296789   325395   328394   260040    85752 
 -138878  -372814  -585642  -699784  -720649  -708001  -595544  -299395 
   76025   338686   435022   461990   500559   526363   490555   397204 
  273292   127019   -11172   -70845   -56826   -49033   -53488   -16405 
   56902   103258    97749    62446    -6767  -105420  -193315  -270654 
 -342599  -357902  -290432  -157695    37460   266755   446890   505375 
  440933   312724   188615    99888     -572  -178839  -356052  -380278 
 -274438  -142403    19300   184839   262806   239380   165413    97861 
   58379    29872    10666   -19881  -104252  -223873  -314551  -333003 
 -266761  -129059    20537   114358   166956   241876   344462   419400 
  430635   387916   288301   116108   -85504  -253368  -375997  -449724 
 -483742  -509628  -466139  -273389   -10302   206772   342797   385975 
  361140   313545   255730   190438   117916    31685   -55304  -102602 
  -94873   -60264   -11244    51960    98814    78515   -28594  -149364 
 -180052  -129603   -83318   -61046   -23144    47695   129858   187568 
  198012   152561    57920   -46898  -106331   -94154   -43824    -7416 
    6738    15231    23178    36521    77851   156625   217368   175099 
   28139  -129798  -228580  -265973  -246324  -182950  -100753     5162 
  132726   250265   341575   403877   411976   331166   180431    23978 
 -107955  -213111  -281290  -310016  -301269  -257902  -194160  -118218 
  -31201    46197    87590   106326   139566   189949   239521   275999 
  268498   205318   130569    72750    21965   -12926   -21980   -38178 
  -88957  -138942  -142011  -101628   -32064    43249    55557   -22787 
 -116532  -154997  -138013   -72890    29236   118628   161797   173968 
  177996   181835   182706   174743   145414    76314   -22092  -110057 
 -169056  -198363  -195576  -176659  -155800  -116209   -31876   100177 
  255998   399965   473439   411633   217421   -33640  -253182  -384030 
 -419273  -377717  -302144  -247733  -197102   -83419   112608   354228 
  555449   628448   565439   425878   279667   161384    44546  -111542 
 -299099  -458212  -530719  -510364  -413251  -249289   -37317   196046 
  385391   447715   389229   275866   140455     6088  -103299  -199821 
 -303063  -390681  -426949  -406964  -328492  -178782    32773   274612 
  490786   608665   597861   486692   321688   152317    17884   -87600 
 -194239  -305580  -392218  -405059  -321183  -173441   -18139    97349 
  172154   241826   315103   382289   421643   378877   245462    84130 
  -73609  -225162  -335166  -378576  -363778  -302848  -215727  -113621 
   13597   147140   237959   263740   219473   102617   -44342  -158251 
 -210386  -194394  -133591   -79757   -46505     1293    85824   194310 
  304644   390183   401313   306482   160444    40604   -54910  -145350 
 -200960  -207606  -178873  -114964   -22370    79252   158617   171246 
  113724    30867   -54767  -136245  -179041  -166282  -124922   -76302 
   -1472   127426   265055   331208   349044   387283   412608   353583 
  218896    49262  -132815  -280126  -345206  -332252  -263205  -161999 
  -71296     1561    96784   212637   325994   425536   420989   238923 
  -21170  -222026  -322925  -330689  -258157  -130813    -1202    81058 
  106783    81372    26126   -15674   -42402   -85336  -129129  -134629 
 -112899  -105591  -110103   -89464   -36852    28311    78301    81607 
   45128     8950   -13259   -34088   -58944   -71232   -36033    49647 
  136134   181775   180173   138884    79137    27814    -8346   -48466 
  -99196  -121711   -87190   -14931    79226   176880   230127   224794 
  194093   153743    95808    16370   -77242  -162514  -202114  -168092 
  -86732   -13813    43406   113264   189364   229230   214480   168041 
