Origin Time       2014/09/10 01:54:00
Lat.              36.822
Long.             140.583
Depth. (km)       7
Mag.              3.9
Station Code      FKS019
Station Lat.      37.6030
Station Long.     140.4368
Station Height(m) 235
Record Time       2014/09/10 01:54:35
Sampling Freq(Hz) 100Hz
Duration Time(s)  60
Dir.              E-W
Scale Factor      7845(gal)/8223790
Max. Acc. (gal)   4.032
Last Correction   2014/09/10 01:54:35
Memo.             
[...]
   -3928    -3925    -3924    -3928    -3931    -3928    -3928    -3931 
   -3927    -3927    -3929    -3931    -3931    -3928    -3928    -3929 
   -3931    -3931    -3929    -3929    -3924    -3925    -3932    -3931 
   -3929    -3932    -3929    -3927    -3932    -3932    -3931    -3935 
   -3931    -3925    -3928    -3929    -3927    -3927    -3931    -3931 
   -3928    -3929    -3928    -3925    -3932    -3929    -3924    -3932 
   -3932    -3928    -3929    -3931    -3929    -3932    -3932    -3928 
   -3929    -3931    -3929    -3928    -3929    -3929    -3928    -3929 
   -3928    -3928    -3929    -3927    -3928    -3931    -3928    -3925 
   -3927    -3928    -3927    -3928    -3929    -3925    -3927    -3935 
   -3932    -3928    -3931    -3931    -3929    -3931    -3931    -3927 
   -3927    -3928    -3924    -3927    -3931    -3931    -3931    -3931 
   -3928    -3929    -3929    -3927    -3928    -3932    -3929    -3925 
   -3928    -3929    -3927    -3929    -3928    -3923    -3925    -3928 
   -3928    -3931    -3929    -3927    -3929    -3932    -3929    -3928 
   -3928    -3927    -3924    -3927    -3925    -3924    -3928    -3927 
   -3925    -3931    -3931    -3927    -3932    -3931    -3927    -3928 
   -3928    -3929    -3928    -3925    -3928    -3931    -3929    -3927 
   -3928    -3931    -3927    -3927    -3932    -3931    -3928    -3929 
   -3925    -3924    -3931    -3931    -3927    -3931    -3929    -3925 
   -3928    -3928    -3927    -3929    -3929    -3925    -3928    -3932 
   -3931    -3929    -3932    -3931    -3928    -3929    -3928    -3924 
   -3931    -3932    -3927    -3928    -3931    -3928    -3928    -3929 
   -3927    -3927    -3929    -3927    -3927    -3929    -3927    -3929 
   -3932    -3929    -3929    -3935    -3932    -3927    -3928    -3929 
   -3927    -3929    -3931    -3927    -3927    -3927    -3924    -3927 
   -3929    -3928    -3924    -3927    -3931    -3927    -3928    -3931 
   -3928    -3929    -3935    -3929    -3928    -3932    -3928    -3927 
   -3929    -3927    -3928    -3932    -3928    -3927    -3931    -3927 
   -3924    -3932    -3931    -3925    -3929    -3929    -3927    -3928 
   -3929    -3929    -3929    -3932    -3931    -3928    -3931    -3928 
   -3928    -3931    -3927    -3927    -3931    -3929    -3929    -3932 
   -3932    -3929    -3932    -3932    -3928    -3929    -3929    -3925 
   -3928    -3932    -3928    -3925    -3929    -3931    -3929    -3929 
   -3927    -3924    -3928    -3931    -3928    -3929    -3931    -3927 
   -3929    -3932    -3932    -3929    -3928    -3927    -3928    -3928 
   -3925    -3928    -3929    -3927    -3928    -3932    -3929    -3928 
   -3927    -3925    -3927    -3929    -3929    -3925    -3927    -3929 
   -3927    -3929    -3932    -3931    -3931    -3929    -3929    -3931 
   -3929    -3927    -3928    -3932    -3929    -3928    -3931    -3928 
   -3925    -3928    -3925    -3924    -3928    -3928    -3927    -3929 
   -3931    -3928    -3929    -3931    -3929    -3931    -3931    -3931 
   -3931    -3929    -3928    -3927    -3925    -3928    -3928    -3929 
   -3932    -3931    -3931    -3929    -3927    -3928    -3928    -3927 
   -3928    -3931    -3931    -3928    -3929    -3931    -3928    -3929 
   -3928    -3927    -3931    -3928    -3925    -3929    -3932    -3929 
   -3927    -3929    -3928    -3931    -3932    -3929    -3927    -3927 
   -3925    -3927    -3929    -3928    -3929    -3931    -3928    -3927 
   -3929    -3929    -3925    -3929    -3929    -3924    -3928    -3929 
   -3928    -3931    -3931    -3927    -3927    -3928    -3924    -3927 
   -3931    -3928    -3927    -3929    -3929    -3929    -3932    -3932 
   -3927    -3928    -3931    -3928    -3928    -3928    -3927    -3929 
   -3929    -3928    -3928    -3931    -3929    -3927    -3929    -3929 
   -3928    -3931    -3928    -3924    -3928    -3929    -3927    -3929 
   -3929    -3927    -3931    -3929    -3924    -3927    -3927    -3925 
   -3928    -3929    -3927    -3931    -3936    -3935    -3929    -3925 
   -3924    -3928    -3940    -3943    -3936    -3929    -3924    -3932 
   -3962    -3990    -3982    -3939    -3886    -3850    -3856    -3908 
   -3951    -3939    -3878    -3801    -3781    -3877    -4027    -4118 
   -4110    -4012    -3879    -3796    -3769    -3782    -3858    -3969 
   -4067    -4128    -4112    -4059    -4043    -4014    -3924    -3813 
   -3727    -3701    -3780    -3942    -4067    -4044    -3948    -3916 
   -3904    -3878    -3925    -3982    -3944    -3873    -3788    -3747 
   -3870    -4021    -4060    -4071    -4039    -3939    -3920    -3946 
   -3917    -3947    -3974    -3889    -3838    -3819    -3775    -3886 
   -4087    -4120    -4071    -4013    -3851    -3769    -3886    -3944 
   -3846    -3753    -3747    -3855    -4031    -4125    -4136    -4140 
   -4078    -3963    -3899    -3854    -3790    -3797    -3879    -3885 
   -3815    -3844    -3990    -4149    -4203    -4071    -3878    -3769 
   -3713    -3697    -3765    -3909    -4010    -4002    -3977    -4012 
   -4074    -4016    -3786    -3689    -3878    -4001    -3969    -4028 
   -4116    -4117    -4051    -3852    -3694    -3828    -4067    -4128 
   -4055    -4021    -3956    -3724    -3555    -3697    -3912    -3888 
   -3769    -3893    -4126    -4105    -4002    -4014    -3883    -3748 
   -3866    -3929    -3954    -4131    -4144    -4003    -4014    -3955 
   -3732    -3781    -4036    -4021    -3927    -3956    -3785    -3623 
   -3823    -4051    -4131    -4113    -3904    -3730    -3852    -4014 
   -3994    -3939    -3897    -3827    -3838    -3879    -3925    -4101 
   -4185    -4003    -3875    -3935    -3942    -3807    -3738    -3892 
   -4001    -3890    -3867    -4000    -4016    -3977    -3991    -3886 
   -3776    -3917    -4045    -3970    -3954    -3946    -3819    -3854 
   -4016    -3960    -3842    -3963    -4072    -3916    -3793    -3854 
   -3904    -3939    -3983    -4009    -4020    -3935    -3804    -3831 
   -3978    -4047    -4032    -4040    -4010    -3861    -3712    -3813 
   -4106    -4068    -3705    -3667    -3913    -3928    -3827    -3919 
   -4028    -3973    -3923    -3969    -3990    -3973    -4006    -4033 
   -3963    -3929    -3965    -3892    -3801    -3877    -3960    -3974 
   -3963    -3867    -3890    -4055    -3927    -3732    -3867    -3920 
   -3808    -3882    -4000    -4086    -4145    -3956    -3755    -3838 
   -3989    -4086    -4093    -3878    -3753    -3932    -3898    -3677 
   -3939    -4276    -4079    -3871    -3954    -3989    -3910    -3834 
   -3839    -3885    -3869    -3898    -3902    -3816    -3905    -4060 
   -3982    -3854    -3852    -3854    -3831    -3842    -3888    -4078 
   -4278    -4109    -3794    -3770    -3883    -3898    -3927    -4090 
   -4185    -4017    -3896    -3969    -3904    -3801    -3865    -3763 
   -3657    -3915    -4052    -3888    -3927    -4132    -4114    -3890 
   -3776    -3883    -3929    -3865    -3916    -4036    -4090    -4006 
   -3838    -3836    -3905    -3834    -3874    -4047    -4090    -4033 
   -3901    -3839    -3984    -3948    -3753    -3828    -3963    -3932 
   -3893    -3947    -4085    -4025    -3732    -3676    -3885    -3939 
   -3838    -3969    -4203    -4068    -3912    -4036    -3948    -3796 
   -3904    -3886    -3909    -4209    -4194    -3880    -3873    -3967 
   -3793    -3650    -3781    -3963    -3956    -3811    -3828    -4059 
   -4081    -3893    -3875    -3842    -3711    -3770    -3940    -4058 
   -4149    -4197    -4082    -3902    -3978    -4086    -3943    -3932 
   -4002    -3828    -3788    -3967    -4023    -3959    -3816    -3727 
   -3754    -3653    -3649    -3963    -4163    -4116    -4032    -3951 
   -3909    -3846    -3815    -4041    -4256    -4074    -3809    -3804 
   -3905    -4006    -4079    -4012    -3871    -3828    -3863    -3813 
   -3788    -3959    -4062    -3909    -3798    -3846    -3877    -4043 
   -4276    -4167    -3973    -3910    -3742    -3709    -3842    -3847 
   -3867    -3935    -3924    -3981    -4129    -4116    -3908    -3865 
   -3962    -3913    -3802    -3646    -3622    -3948    -4171    -4156 
   -4168    -3993    -3766    -3929    -4101    -3906    -3788    -3875 
   -3848    -3828    -3888    -3920    -4064    -4116    -3958    -3928 
   -3913    -3838    -3854    -3797    -3937    -4197    -3915    -3612 
   -3861    -4085    -4067    -4017    -3944    -3964    -4032    -3936 
   -3842    -3919    -4003    -4001    -3880    -3747    -3905    -4014 
   -3674    -3561    -3923    -4032    -3866    -3951    -4236    -4203 
   -3890    -3875    -4021    -3897    -3850    -4036    -4114    -4102 
   -4012    -3740    -3613    -3776    -3920    -3962    -3990    -3940 
   -3847    -3792    -3809    -3984    -4098    -3858    -3627    -3863 
   -4202    -4149    -3951    -4016    -4182    -4087    -3869    -3854 
   -3943    -3910    -3781    -3748    -3832    -3844    -3865    -4036 
   -4159    -4133    -3990    -3696    -3542    -3775    -4032    -4052 
   -4051    -4025    -3882    -3878    -4000    -3951    -3861    -3883 
   -3910    -4008    -4107    -3978    -3836    -3909    -3978    -3928 
   -3852    -3839    -3920    -4003    -4074    -4112    -3955    -3700 
   -3611    -3707    -3943    -4162    -4050    -3793    -3851    -4017 
   -3910    -3812    -4035    -4266    -4228    -4009    -3746    -3620 
   -3685    -3781    -3865    -4044    -4215    -4097    -3893    -3970 
   -4082    -3947    -3738    -3712    -3886    -3962    -3824    -3811 
   -4028    -4135    -3967    -3789    -3865    -4017    -4027    -4025 
   -3994    -3851    -3762    -3703    -3751    -4114    -4293    -4016 
   -3935    -4081    -3915    -3719    -3850    -3989    -3959    -3880 
   -3844    -3917    -3994    -3908    -3838    -4001    -4074    -3861 
   -3771    -3863    -3901    -3958    -3905    -3727    -3790    -4001 
   -4118    -4131    -4059    -4074    -4059    -3901    -3912    -3931 
   -3727    -3696    -3889    -4001    -4082    -4082    -3905    -3790 
   -3748    -3705    -3906    -4263    -4223    -3724    -3514    -3901 
   -4220    -4167    -4028    -3865    -3759    -3802    -3861    -3970 
   -4064    -4000    -3974    -3981    -3936    -3989    -3954    -3750 
   -3743    -3928    -3947    -3859    -3986    -4112    -3888    -3719 
   -3901    -4028    -3948    -3865    -3861    -3975    -4110    -4058 
   -3977    -4039    -3932    -3728    -3750    -3804    -3951    -4233 
   -4163    -3828    -3730    -3834    -3897    -3979    -4097    -3991 
   -3770    -3705    -3753    -3923    -4029    -3897    -3964    -4088 
   -3824    -3800    -4137    -4104    -3916    -3901    -3821    -3821 
   -4047    -4253    -4191    -3963    -3880    -3824    -3699    -3721 
   -3844    -3932    -3885    -3811    -4062    -4241    -3890    -3727 
   -3955    -3766    -3573    -4010    -4241    -4050    -4140    -4090 
   -3566    -3559    -4158    -4240    -3909    -3951    -3986    -3748 
   -3846    -4114    -3919    -3670    -3813    -3974    -3978    -4010 
   -4074    -4014    -3936    -4069    -4068    -3767    -3703    -3893 
   -3915    -3794    -3763    -3854    -3915    -3984    -4088    -3924 
   -3678    -3901    -4213    -4095    -4071    -4166    -3865    -3825 
   -4203    -4091    -3776    -3747    -3707    -3742    -3851    -3879 
   -3990    -4016    -3813    -3684    -3788    -3970    -4106    -4220 
   -4183    -3894    -3709    -3890    -4171    -4192    -4055    -4027 
   -3885    -3607    -3603    -3750    -3836    -4025    -4098    -3944 
   -3937    -3983    -3935    -4032    -4000    -3678    -3731    -4143 
   -4093    -3711    -3730    -3932    -3927    -4032    -4178    -4021 
   -3867    -3828    -3811    -4055    -4248    -3877    -3524    -3838 
   -4168    -3971    -3915    -4159    -4016    -3719    -3842    -4040 
   -3943    -3727    -3647    -3839    -4029    -3956    -3973    -4164 
   -4214    -4153    -3869    -3427    -3500    -3937    -4016    -3951 
   -4156    -4256    -4048    -3859    -3731    -3785    -4086    -4067 
   -3898    -3969    -3858    -3875    -4051    -3774    -3767    -4140 
   -3890    -3576    -3892    -4086    -3847    -3780    -4035    -4214 
   -4067    -3819    -3838    -3959    -3958    -4074    -4248    -4128 
   -3869    -3805    -3855    -3761    -3605    -3719    -3897    -3717 
   -3651    -4110    -4372    -4086    -3940    -4025    -3912    -3865 
   -3983    -3986    -3978    -3894    -3786    -3924    -4072    -4101 
   -4021    -3794    -3774    -3921    -3811    -3719    -3960    -4140 
   -4074    -4028    -4001    -3896    -3851    -3869    -3811    -3757 
   -3846    -3885    -3834    -3955    -4105    -4009    -3861    -3875 
   -3998    -4024    -3920    -3878    -3836    -3879    -4148    -4159 
   -3899    -3917    -3973    -3817    -3796    -3989    -4200    -4151 
   -3809    -3700    -3917    -3943    -3871    -4082    -4097    -3628 
   -3429    -3653    -3765    -3967    -4143    -3797    -3681    -4172 
   -4293    -4021    -4112    -4255    -4006    -3844    -4017    -4052 
   -3861    -3789    -3908    -4156    -4310    -4210    -4228    -4410 
   -4287    -3842    -3256    -2659    -2388    -2504    -2776    -3265 
   -4021    -4600    -4852    -5101    -5112    -4869    -4958    -5027 
   -4688    -4573    -4467    -3666    -2735    -2438    -2748    -3117 
   -3360    -3973    -4592    -4266    -3154    -1942    -1344    -1894 
   -3183    -4928    -7007    -8156    -7645    -6318    -4954    -3925 
   -3330    -2868    -2331    -1557    -1021    -1852    -3569    -4641 
   -5304    -6066    -5971    -4702    -3273    -2488    -2319    -2138 
   -1981    -2848    -4349    -4949    -4851    -5085    -5247    -4818 
   -4283    -3736    -2979    -2886    -3801    -4464    -4399    -4426 
   -4936    -5698    -6114    -5493    -4093    -2852    -1972    -1417 
   -1744    -2625    -2867    -2517    -2830    -4477    -6165    -6345 
   -5854    -5215    -3568    -2220    -2220    -2261    -2768    -4288 
   -4789    -4294    -4907    -5746    -5113    -4430    -4606    -4135 
   -3109    -2709    -2874    -3709    -4706    -5198    -5713    -5093 
   -3067    -2392    -2506    -1744    -1992    -2949    -2805    -2818 
   -3715    -4518    -5316    -6417    -7045    -6728    -5753    -4289 
   -3044    -2674    -2565    -2362    -2633    -3717    -4885    -4961 
   -4418    -4311    -3757    -2527    -2647    -4063    -4082    -2736 
   -2525    -3645    -4720    -5111    -4956    -5049    -4970    -3865 
   -3029    -3049    -2592    -2286    -3504    -4818    -5235    -5572 
   -5060    -3727    -3817    -4855    -4585    -3604    -3423    -3524 
   -3312    -3111    -2945    -3345    -4444    -4683    -3835    -3601 
   -4027    -3600    -2909    -3608    -4702    -4560    -3807    -3789 
   -4315    -4195    -4024    -4677    -4864    -4341    -3937    -3323 
   -3102    -3927    -4850    -5098    -4595    -3842    -2967    -2045 
   -2369    -3419    -3440    -3451    -4261    -4450    -3912    -3781 
   -4010    -4074    -4077    -4456    -5108    -5003    -4159    -3998 
   -4321    -4197    -4228    -4228    -3476    -3310    -4163    -4010 
   -2872    -2681    -3094    -3202    -3535    -3931    -4172    -4687 
   -4757    -4093    -3869    -4298    -4452    -4067    -3643    -3335 
   -3146    -3523    -4507    -5197    -4742    -3919    -3846    -3753 
   -3516    -4014    -3901    -2740    -3111    -5112    -5737    -4699 
   -4282    -4291    -3295    -2546    -3006    -3245    -3280    -3759 
   -3642    -3395    -4052    -4324    -3875    -3896    -4228    -4180 
   -3723    -3715    -4637    -4986    -4344    -4256    -4739    -4777 
   -4194    -3411    -2988    -3186    -3780    -4027    -3832    -3919 
   -3989    -3561    -3194    -3314    -3657    -3765    -3681    -3858 
   -4189    -4228    -4175    -4529    -4922    -4619    -3680    -2990 
   -3489    -4492    -4592    -4199    -4036    -3963    -4006    -3885 
   -3653    -4088    -4453    -3596    -2871    -3457    -3925    -3689 
   -3856    -4039    -3678    -4001    -4870    -4810    -4176    -3699 
   -3377    -3505    -3746    -3406    -2901    -3115    -3923    -4322 
   -4268    -4645    -5012    -4315    -3271    -3310    -4279    -4907 
   -4707    -4217    -4118    -4517    -4393    -3291    -2436    -2516 
   -2963    -3336    -3848    -4614    -4974    -4842    -4540    -3899 
   -3549    -3558    -3080    -3114    -4189    -4642    -4228    -4040 
   -4195    -4449    -4535    -3974    -3574    -4332    -4297    -2820 
   -2952    -4151    -3817    -3624    -4560    -4800    -4024    -2843 
   -2134    -3186    -4812    -4486    -3094    -3123    -4166    -4665 
   -4761    -5098    -5155    -4318    -3763    -4156    -4044    -3470 
   -3692    -4074    -4000    -3828    -3639    -3608    -3693    -3649 
   -3653    -3348    -2496    -2381    -3557    -4695    -5100    -4876 
   -4048    -3784    -4746    -5290    -4842    -4459    -3885    -3199 
   -3574    -4567    -4784    -3834    -2783    -2857    -3164    -2898 
   -3280    -4289    -4537    -4031    -3472    -3102    -3229    -4081 
   -4932    -4923    -4455    -3932    -3335    -3380    -4121    -4306 
   -4058    -4490    -4685    -4054    -4220    -4878    -4174    -2729 
   -2392    -3380    -4535    -4888    -4368    -4047    -4571    -4797 
   -4083    -2896    -1971    -2011    -2174    -2386    -4131    -5643 
   -4720    -3547    -4014    -4819    -4726    -4287    -4322    -4685 
   -5211    -5614    -5112    -4088    -3784    -4086    -4010    -3507 
   -3190    -2975    -2115    -1080    -1755    -3781    -4550    -4291 
   -4654    -4530    -3886    -4393    -4561    -3775    -4464    -5605 
   -4955    -3942    -3500    -3397    -4147    -4594    -4151    -4256 
   -4164    -3003    -2467    -3082    -3740    -4043    -3861    -3312 
   -3234    -3588    -3591    -3763    -4519    -4716    -4087    -3781 
   -3906    -3959    -4318    -4862    -4770    -4205    -3821    -3897 
   -4510    -5161    -5169    -4464    -3090    -1888    -2165    -3194 
   -3870    -4155    -3751    -3607    -4252    -4125    -3782    -4403 
   -4391    -3500    -3241    -3163    -2940    -3645    -4745    -5213 
   -5491    -5150    -3782    -2999    -3323    -4006    -5053    -5467 
   -4240    -2816    -2712    -3470    -4225    -4714    -4430    -3346 
   -2694    -2690    -2863    -3694    -4464    -4263    -4122    -3964 
   -3169    -3375    -4726    -4781    -3997    -4608    -5112    -3732 
   -2909    -3929    -4606    -4702    -5074    -4696    -3694    -3311 
   -3280    -2857    -2381    -3014    -4530    -5113    -4357    -3462 
   -3184    -3275    -3358    -3634    -4151    -4467    -4410    -4332 
   -4556    -4579    -3927    -3424    -3609    -3821    -4005    -4590 
   -4936    -4324    -3623    -3736    -3994    -4027    -4236    -4099 
   -3222    -2839    -3640    -4149    -3469    -3067    -3850    -4305 
   -3690    -3534    -4133    -4256    -4014    -3965    -3954    -3979 
   -3978    -3905    -4187    -4638    -4757    -4774    -4392    -3406 
   -3083    -3716    -3929    -3279    -2929    -3785    -4644    -4455 
   -4492    -4941    -4305    -3041    -2668    -3254    -4067    -4359 
   -3673    -2959    -3439    -4310    -4237    -3919    -4615    -5147 
