Origin Time       2014/09/10 01:54:00
Lat.              36.822
Long.             140.583
Depth. (km)       7
Mag.              3.9
Station Code      FKS019
Station Lat.      37.6030
Station Long.     140.4368
Station Height(m) 235
Record Time       2014/09/10 01:54:35
Sampling Freq(Hz) 100Hz
Duration Time(s)  60
Dir.              N-S
Scale Factor      7845(gal)/8223790
Max. Acc. (gal)   3.492
Last Correction   2014/09/10 01:54:35
Memo.             
[...]
   11207    11207    11213    11210    11206    11210    11213    11211 
   11210    11209    11207    11209    11209    11209    11209    11210 
   11209    11207    11211    11211    11206    11206    11210    11209 
   11209    11207    11207    11211    11209    11207    11211    11211 
   11207    11209    11209    11209    11210    11210    11210    11211 
   11211    11211    11210    11209    11209    11211    11210    11206 
   11206    11211    11211    11209    11211    11211    11209    11207 
   11207    11206    11207    11209    11209    11209    11211    11211 
   11210    11211    11211    11209    11209    11207    11206    11206 
   11209    11210    11210    11209    11207    11209    11210    11210 
   11211    11210    11207    11207    11210    11213    11213    11211 
   11210    11207    11211    11213    11209    11211    11211    11206 
   11207    11209    11210    11209    11209    11209    11209    11209 
   11209    11207    11206    11207    11207    11209    11210    11209 
   11209    11210    11211    11210    11207    11207    11210    11209 
   11210    11211    11209    11207    11207    11209    11210    11209 
   11210    11210    11207    11209    11210    11209    11211    11210 
   11207    11210    11213    11210    11211    11211    11209    11210 
   11211    11210    11210    11210    11210    11210    11210    11210 
   11210    11211    11211    11210    11213    11210    11204    11209 
   11210    11207    11210    11214    11211    11211    11213    11211 
   11211    11210    11207    11207    11210    11210    11209    11210 
   11209    11206    11211    11214    11210    11210    11209    11207 
   11211    11211    11210    11213    11214    11210    11209    11210 
   11213    11210    11206    11207    11207    11209    11210    11207 
   11209    11213    11211    11210    11210    11211    11211    11210 
   11209    11209    11210    11209    11209    11214    11214    11210 
   11211    11211    11210    11207    11207    11209    11210    11211 
   11210    11210    11211    11209    11207    11209    11209    11210 
   11213    11211    11210    11213    11213    11211    11213    11214 
   11210    11206    11210    11209    11207    11210    11207    11204 
   11210    11211    11207    11210    11213    11210    11209    11211 
   11209    11207    11210    11210    11209    11210    11211    11211 
   11211    11211    11213    11211    11209    11207    11209    11207 
   11204    11207    11209    11209    11213    11211    11209    11209 
   11206    11204    11209    11207    11206    11210    11210    11206 
   11209    11210    11209    11210    11211    11209    11206    11207 
   11206    11204    11207    11207    11206    11209    11213    11210 
   11210    11211    11207    11207    11209    11206    11207    11211 
   11209    11207    11211    11210    11207    11209    11209    11209 
   11211    11207    11204    11207    11210    11210    11214    11213 
   11207    11207    11211    11207    11204    11210    11211    11207 
   11210    11210    11210    11213    11211    11210    11213    11210 
   11209    11210    11207    11204    11204    11207    11211    11211 
   11209    11210    11210    11211    11210    11209    11209    11209 
   11207    11207    11209    11211    11211    11207    11207    11211 
   11211    11207    11206    11207    11210    11210    11209    11210 
   11211    11210    11207    11209    11211    11210    11206    11206 
   11209    11211    11211    11211    11209    11209    11210    11210 
   11211    11210    11209    11210    11209    11209    11209    11209 
   11207    11207    11209    11209    11207    11210    11211    11211 
   11211    11207    11206    11209    11209    11210    11213    11210 
   11209    11207    11209    11211    11209    11206    11209    11209 
   11213    11218    11218    11218    11214    11217    11227    11233 
   11226    11213    11196    11194    11210    11244    11277    11287 
   11254    11175    11086    11065    11142    11257    11327    11276 
   11079    10818    10665    10781    11202    11739    12044    11886 
   11337    10763    10563    10839    11323    11630    11551    11184 
   10890    10972    11348    11677    11685    11353    10941    10727 
   10801    11111    11480    11624    11411    11072    10891    10943 
   11230    11527    11476    11105    10741    10617    10859    11387 
   11770    11691    11306    10930    10868    11264    11792    11896 
   11454    10901    10585    10574    10909    11399    11587    11407 
   11206    11098    11038    11133    11318    11395    11381    11313 
   11079    10868    10940    11157    11377    11502    11438    11313 
   11276    11356    11419    11267    10929    10666    10755    11142 
   11442    11556    11616    11469    11113    10914    10971    11064 
   11064    11037    11092    11214    11277    11237    11264    11469 
   11551    11241    10871    10908    11311    11700    11732    11392 
   10929    10654    10793    11257    11649    11615    11256    10970 
   10886    10976    11157    11223    11175    11200    11330    11327 
   11114    11105    11419    11541    11337    11142    10967    10844 
   11028    11319    11449    11435    11180    10953    11144    11364 
   11326    11345    11331    11071    10957    11151    11268    11303 
   11411    11345    11029    10790    10953    11455    11751    11520 
   11033    10667    10666    11021    11524    11911    11790    11210 
   10774    10743    10994    11344    11499    11365    11169    11113 
   11160    11206    11236    11137    10983    11029    11234    11450 
   11524    11399    11204    11002    10962    11165    11340    11371 
   11376    11249    10970    10916    11105    11226    11327    11473 
   11518    11387    11103    10875    10929    11192    11472    11550 
   11259    10908    10947    11132    11146    11247    11362    11295 
   11365    11449    11133    10719    10724    11061    11371    11568 
   11484    11098    10972    11261    11412    11308    11311    11296 
   11140    11105    11051    10893    11032    11391    11537    11425 
   11157    10975    11171    11519    11465    10975    10731    11039 
   11398    11464    11373    11321    11214    10924    10833    11179 
   11491    11504    11368    11118    10916    10996    11330    11693 
   11745    11408    11053    10889    10909    11159    11396    11233 
   10956    10999    11062    10983    11011    11138    11310    11385 
   11209    11126    11280    11325    11354    11518    11454    11157 
   11037    11043    11052    11299    11484    11242    11169    11415 
   11325    10984    10860    11029    11306    11307    11152    11134 
   11111    11171    11394    11461    11271    11083    11009    10963 
   11076    11334    11487    11557    11415    11024    10903    11102 
   11213    11277    11406    11377    11259    11353    11412    11192 
   11048    11022    10874    10845    11045    11087    11049    11300 
   11566    11538    11371    11107    10924    11156    11507    11549 
   11381    11232    11192    11181    11155    11134    10932    10847 
   11310    11561    11210    11067    11152    11088    11145    11286 
   11280    11117    10928    11051    11391    11597    11605    11356 
   10979    10821    10968    11221    11419    11516    11504    11368 
   11140    10917    10852    11107    11435    11469    11264    11052 
   10990    11053    11157    11294    11414    11415    11183    10968 
   11018    11132    11387    11772    11591    10843    10488    10909 
   11516    11677    11398    11125    11041    10941    10887    11114 
   11362    11341    11275    11364    11318    11115    11254    11441 
   11288    11246    11219    10989    11028    11319    11319    11122 
   11157    11229    11256    11368    11222    10974    10975    11026 
   11191    11385    11245    11039    11111    11310    11434    11435 
   11398    11307    11145    11057    11132    11210    11157    11160 
   11214    11183    11256    11383    11331    11209    11141    11090 
   11037    11056    11190    11315    11288    11128    10991    11107 
   11385    11583    11615    11283    10962    11125    11200    11097 
   11263    11318    11105    11006    11052    11163    11291    11319 
   11280    11291    11194    10983    11076    11206    11002    11088 
   11422    11346    11187    11286    11268    11242    11577    11705 
   11268    10998    11076    11102    11133    11178    11140    11118 
   11064    10974    11074    11253    11236    11302    11479    11269 
   10925    10987    11315    11504    11431    11265    11095    11016 
   11192    11464    11546    11367    10972    10670    10955    11503 
   11387    10806    10748    11229    11604    11626    11407    11107 
   10871    10962    11272    11306    11221    11322    11381    11381 
   11321    11025    10836    11119    11547    11589    11202    10835 
   10867    11226    11535    11542    11273    10882    10743    11113 
   11546    11473    11161    11149    11276    11299    11344    11225 
   10935    10994    11284    11133    10828    11032    11431    11572 
   11495    11304    11209    11181    11044    11002    11148    11242 
   11237    11273    11271    11168    11164    11218    11222    11300 
   11271    11039    11078    11373    11387    11175    11109    11246 
   11422    11265    10827    10781    11178    11394    11325    11292 
   11319    11203    11064    11200    11483    11572    11313    10980 
   11064    11259    11080    11163    11570    11419    10979    10849 
   10839    10989    11323    11392    11213    11167    11232    11268 
   11362    11446    11202    10955    11163    11344    11337    11426 
   11333    11067    10922    10909    11199    11556    11412    11107 
   11062    11036    11011    11144    11323    11313    11074    11029 
   11283    11367    11310    11404    11442    11195    10987    11223 
   11543    11392    11052    10920    10824    10843    11348    11937 
   11813    11175    10775    10712    10816    11153    11524    11524 
   11280    11083    10963    11051    11323    11480    11385    11236 
   11132    10998    11016    11244    11411    11384    11294    11183 
   11065    11211    11473    11520    11394    10956    10592    10885 
   11313    11394    11257    11011    11016    11322    11418    11345 
   11269    11165    11234    11241    11021    10987    11250    11470 
   11325    11013    11011    11264    11437    11415    11256    11105 
   11044    11115    11318    11446    11341    11098    10937    11028 
   11263    11458    11531    11311    10895    10748    10948    11188 
   11414    11603    11485    11037    10766    11001    11398    11499 
   11217    11053    11222    11094    10970    11435    11641    11321 
   11296    11396    11233    11229    11311    11105    11053    11277 
   11180    10967    10996    10951    10980    11203    11126    11006 
   11364    11638    11485    11261    10913    10794    11354    11757 
   11516    11244    11110    11002    11124    11304    11090    11010 
   11491    11541    11014    10871    11011    11041    11171    11452 
   11553    11333    11136    11102    11070    10956    10785    10990 
   11526    11580    11337    11514    11630    11227    10963    10989 
   10933    11099    11538    11641    11225    10910    11029    11129 
   11022    10901    10989    11421    11731    11533    11103    10821 
   10887    11283    11659    11543    11067    11011    11381    11430 
   11217    11115    11103    11261    11313    10962    10829    11199 
   11317    11092    11204    11398    11198    11113    11311    11225 
   10929    10914    11113    11433    11772    11537    11002    11018 
   11283    11330    11334    11391    11345    11156    11048    10935 
   10791    11059    11500    11483    11210    11151    11184    11043 
   10943    11160    11470    11535    11242    10890    10913    11075 
   11171    11534    11835    11526    11022    10839    10978    11245 
   11295    11076    10930    10971    11067    11253    11658    11956 
   11663    11078    10739    10611    10791    11549    12118    11608 
   10833    10736    10845    11025    11510    11512    10856    10600 
   10955    11407    11700    11570    11221    11163    11352    11610 
   11616    11176    10930    11028    11005    11024    11167    11256 
   11310    11214    11083    11149    11175    11095    11192    11276 
   11206    11245    11214    11094    11277    11411    11161    11021 
   11161    11214    11145    11256    11473    11412    11214    11200 
   11233    11300    11457    11422    11134    10968    11065    11099 
   11026    11044    11033    11033    11133    11138    11062    11234 
   11718    11963    11573    10984    10741    10849    11065    11310 
   11438    11371    11259    11067    10971    11225    11496    11608 
   11630    11396    11079    11003    11007    10980    10947    10667 
   10311    10336    10702    11422    12460    12960    12424    11512 
   10889    10697    10654    10631    11045    11561    11439    10910 
   10396    10192    10632    11554    12479    12995    12744    11848 
   10952    10312    10058    10272    10431    10536    10991    11287 
   10994    10601    10656    11175    11807    12239    12244    11668 
   10887    10787    11734    12988    13487    12849    11159     8853 
    7548     8590    10651    11834    12393    12982    13201    12571 
   11155     9968     9879    10218    10484    10860    10824    10270 
   10291    11080    11311    10864    11107    12012    12931    13724 
   13547    12422    11654    11472    11406    11286    10636     9370 
    8846     9626    10208    10300    11024    11866    11526    10381 
   10208    11245    11777    11861    12522    12837    12668    12581 
   11650    10478    10257    10126    10262    11300    11789    10949 
   10369    10959    11302    10999    11241    11668    11854    12035 
   11462    10670    10500    10162    10372    11543    11753    11038 
   10897    11062    11090    11685    12559    12179    10945    10514 
   10970    11682    12150    12023    11464    10866    10732    10787 
   10612    10654    10370     9828    10744    12155    11916    11126 
   11529    12309    12136    11225    10192     9872    10663    11188 
   11269    12056    12642    12162    11587    11087    10304    10315 
   11145    11067    10746    11535    11830    11190    11377    11745 
   10989    10323    10422    10555    10918    11530    11635    11508 
   11622    11364    11014    11626    12394    11962    10692    10127 
   10762    10999    10687    11342    11706    10875    10996    11630 
   11026    10885    11805    11940    11506    11475    11155    10390 
   10438    11191    11128    10868    11620    11732    10625    10698 
   11998    12069    11145    11155    11502    11102    10812    11090 
   11249    11107    11464    12071    11531    10739    10854    10624 
   10369    11323    11973    11275    10650    10854    11308    11739 
   12074    11836    11072    10563    10422    10334    10740    11624 
   11812    11191    10810    10862    11176    11826    12309    11861 
   11056    11091    11267    10790    10678    11184    11268    11078 
   11645    12316    11727    10594    10520    11021    10816    10751 
   11292    11227    10841    10758    10820    11371    11898    11607 
   11214    11554    11777    10833    10181    11230    12141    11635 
   11105    11009    11032    11751    12396    11757    10740    10331 
   10463    11053    11488    11360    11133    10810    10303    10347 
   11260    11765    11249    11138    11418    11033    11064    11776 
   11767    11356    11321    11306    11354    11762    11980    11331 
   10577    10831    11128    10827    11241    11591    10628    10269 
   11043    11276    11323    11826    11774    11055    10700    10665 
   10674    11092    11244    10752    10945    12075    12834    12715 
   12020    11091    10597    10638    10554    10728    11558    11668 
   10592    10166    10970    11487    11277    10994    10724    10513 
   10602    10864    11367    12579    13444    12402    10929    10805 
   11083    10982    10743    10736    11010    10912    10982    11724 
   12106    12086    11547    10087     9536    10747    11645    11597 
   11747    11577    10530    10019    10725    11439    11589    11896 
   11925    11003    10508    10844    11246    12286    12829    11103 
    9543    10781    12676    12590    11668    11188    10304     9568 
   10238    11402    12116    12050    10497     8826     9614    11874 
   12702    12280    11758    10940    10773    11233    10600    10237 
   11624    12546    12013    11261    10740    11029    11985    11913 
   11076    11079    11263    10804    10818    11554    11750    11302 
   11059    10905    10555    10625    11029    10760    10561    11418 
   11658    10836    10683    10897    11210    12421    13261    12488 
   11230    10990    11402    11651    12417    12704    10633     8176 
    8027     9521    10925    11319    10432     9544     9950    10878 
   12101    13724    14222    13327    11955    10885    11479    12718 
   12147    10839    10535    10395    10208    10785    11018    10447 
   10889    11608    11082    10912    11408    11284    11044    11286 
   11491    11441    11203    10332     9620    10380    11141    11033 
   11577    12174    11769    11728    12390    12436    11973    11581 
   10901    10566    10932    10697    10247    10444    10623    11504 
   12657    11819    10440    10497    10791    10740    10458     9888 
   10022    11010    11893    12679    13061    12140    11006    11421 
   12399    12136    11333    10994    10843    10956    11159    11225 
   11452    11290    10771    10722    10773    10986    11527    11175 
   10329    10031     9528     9734    11396    12276    12472    13132 
   12244    10172    10008    10821    10894    11661    12351    11389 
   11095    12086    12108    11654    11572    10683     9975    11038 
   11886    11157    10562    10459    10257    10933    12183    12058 
   10887    10362    10428    10750    11442    11885    12055    12027 
   11148    10608    11325    11500    11138    11686    11854    10768 
   10303    11047    11669    11869    11831    11204    10405    10304 
   10779    11286    11772    11840    11051    10370    10523    10901 
   11431    11781    11091    10432    10858    11398    11497    11484 
   11495    11461    11399    11908    12465    11591    10403    10646 
   11541    12086    11961    11126    10085     9289     9761    11593 
   12503    11889    11263    10648     9965    10153    10968    11455 
   11535    11506    11749    12210    11826    10806    10673    11124 
   11507    12252    12560    11642    10635    10671    11322    11402 
   10771    10347    10422    10617    10908    11412    11429    10438 
    9830    10743    11924    12401    12862    12849    11416    10126 
   10304    11055    12001    12626    11638    10147    10230    11022 
   11095    11277    11755    11345    10530    10557    11002    10999 
   11029    11597    11516    10412    10296    11508    12155    12197 
