Origin Time       2014/09/10 01:54:00
Lat.              36.822
Long.             140.583
Depth. (km)       7
Mag.              3.9
Station Code      FKS019
Station Lat.      37.6030
Station Long.     140.4368
Station Height(m) 235
Record Time       2014/09/10 01:54:35
Sampling Freq(Hz) 100Hz
Duration Time(s)  60
Dir.              U-D
Scale Factor      7845(gal)/8223790
Max. Acc. (gal)   1.257
Last Correction   2014/09/10 01:54:35
Memo.             
[...]
   -3219    -3218    -3217    -3218    -3217    -3213    -3213    -3215 
   -3213    -3215    -3215    -3211    -3211    -3213    -3215    -3217 
   -3215    -3217    -3218    -3213    -3211    -3213    -3215    -3211 
   -3211    -3218    -3219    -3213    -3215    -3218    -3217    -3215 
   -3213    -3213    -3215    -3215    -3213    -3213    -3215    -3217 
   -3215    -3213    -3217    -3219    -3217    -3213    -3213    -3213 
   -3215    -3215    -3217    -3215    -3215    -3215    -3217    -3217 
   -3215    -3213    -3215    -3215    -3213    -3213    -3217    -3217 
   -3215    -3217    -3219    -3217    -3213    -3213    -3215    -3217 
   -3215    -3213    -3213    -3217    -3217    -3215    -3215    -3215 
   -3213    -3217    -3215    -3213    -3218    -3218    -3213    -3213 
   -3217    -3217    -3215    -3215    -3217    -3215    -3213    -3213 
   -3213    -3215    -3213    -3213    -3213    -3215    -3213    -3215 
   -3215    -3213    -3217    -3213    -3211    -3213    -3213    -3213 
   -3217    -3217    -3217    -3215    -3217    -3215    -3213    -3215 
   -3215    -3213    -3217    -3215    -3211    -3217    -3221    -3215 
   -3213    -3215    -3217    -3217    -3217    -3217    -3218    -3217 
   -3215    -3215    -3217    -3215    -3213    -3217    -3218    -3213 
   -3213    -3217    -3217    -3215    -3215    -3217    -3217    -3217 
   -3217    -3217    -3215    -3215    -3213    -3213    -3213    -3213 
   -3213    -3213    -3213    -3215    -3215    -3215    -3213    -3213 
   -3218    -3219    -3215    -3215    -3215    -3213    -3213    -3215 
   -3218    -3221    -3218    -3215    -3217    -3217    -3217    -3213 
   -3213    -3213    -3217    -3215    -3215    -3217    -3215    -3218 
   -3217    -3213    -3217    -3221    -3215    -3213    -3213    -3217 
   -3215    -3213    -3213    -3217    -3217    -3215    -3217    -3217 
   -3217    -3217    -3218    -3217    -3213    -3213    -3217    -3215 
   -3215    -3218    -3213    -3213    -3215    -3215    -3213    -3215 
   -3217    -3217    -3218    -3217    -3213    -3215    -3215    -3215 
   -3215    -3217    -3217    -3213    -3213    -3215    -3215    -3213 
   -3217    -3217    -3217    -3217    -3217    -3213    -3213    -3213 
   -3215    -3217    -3217    -3217    -3217    -3215    -3215    -3217 
   -3217    -3213    -3213    -3217    -3218    -3213    -3215    -3219 
   -3217    -3213    -3215    -3217    -3215    -3215    -3217    -3218 
   -3215    -3215    -3217    -3215    -3215    -3217    -3215    -3217 
   -3218    -3215    -3213    -3213    -3211    -3213    -3219    -3215 
   -3215    -3219    -3217    -3215    -3217    -3215    -3213    -3213 
   -3217    -3215    -3213    -3217    -3219    -3217    -3215    -3217 
   -3217    -3218    -3215    -3213    -3211    -3213    -3213    -3213 
   -3215    -3217    -3217    -3215    -3217    -3217    -3213    -3213 
   -3213    -3213    -3213    -3215    -3218    -3219    -3217    -3213 
   -3215    -3217    -3215    -3213    -3217    -3213    -3213    -3213 
   -3213    -3213    -3213    -3211    -3215    -3218    -3217    -3217 
   -3218    -3213    -3213    -3215    -3215    -3213    -3213    -3215 
   -3219    -3218    -3215    -3215    -3213    -3213    -3215    -3211 
   -3213    -3213    -3213    -3213    -3213    -3215    -3217    -3213 
   -3215    -3218    -3217    -3213    -3213    -3213    -3213    -3213 
   -3210    -3211    -3217    -3215    -3213    -3213    -3213    -3213 
   -3215    -3215    -3215    -3215    -3213    -3217    -3219    -3213 
   -3213    -3217    -3215    -3215    -3217    -3213    -3213    -3215 
   -3217    -3217    -3217    -3215    -3217    -3217    -3217    -3215 
   -3213    -3213    -3211    -3210    -3213    -3215    -3211    -3208 
   -3211    -3211    -3213    -3218    -3213    -3188    -3159    -3165 
   -3217    -3272    -3281    -3230    -3160    -3140    -3202    -3327 
   -3459    -3492    -3331    -3046    -2895    -3010    -3244    -3381 
   -3317    -3122    -3015    -3114    -3294    -3397    -3376    -3281 
   -3145    -2990    -2983    -3219    -3430    -3352    -3161    -3107 
   -3121    -3177    -3345    -3435    -3276    -3025    -2926    -3041 
   -3260    -3407    -3434    -3406    -3253    -2988    -3024    -3391 
   -3478    -3231    -3130    -3079    -2876    -2952    -3368    -3555 
   -3403    -3240    -3190    -3173    -3113    -3109    -3275    -3369 
   -3217    -3127    -3207    -3245    -3303    -3419    -3304    -3010 
   -2951    -3082    -3121    -3140    -3268    -3381    -3304    -3165 
   -3188    -3304    -3377    -3369    -3237    -3018    -2944    -3098 
   -3245    -3273    -3296    -3334    -3284    -3149    -3109    -3265 
   -3380    -3252    -3136    -3192    -3171    -3041    -3088    -3358 
   -3543    -3416    -3126    -2951    -3052    -3350    -3419    -3042 
   -2817    -3130    -3364    -3215    -3226    -3483    -3511    -3303 
   -3208    -3208    -3121    -3060    -3194    -3261    -3002    -2895 
   -3248    -3440    -3237    -3219    -3419    -3341    -3122    -3107 
   -3094    -3103    -3291    -3273    -3076    -3237    -3474    -3310 
   -3202    -3379    -3348    -3133    -2988    -2802    -2905    -3476 
   -3704    -3342    -3115    -3090    -2959    -3069    -3499    -3609 
   -3210    -2924    -3099    -3258    -3117    -3159    -3472    -3426 
   -3037    -2928    -3167    -3430    -3469    -3200    -2936    -3007 
   -3249    -3375    -3375    -3353    -3307    -3192    -3038    -3025 
   -3229    -3350    -3273    -3114    -2887    -2938    -3407    -3615 
   -3275    -3123    -3465    -3464    -2949    -2817    -3190    -3369 
   -3225    -3153    -3231    -3291    -3253    -3098    -3094    -3393 
   -3430    -2984    -2910    -3515    -3746    -3071    -2598    -3134 
   -3742    -3466    -2920    -3010    -3410    -3430    -3113    -2884 
   -3095    -3496    -3469    -3033    -2776    -3071    -3563    -3599 
   -3180    -2924    -3107    -3375    -3412    -3330    -3284    -3198 
   -3078    -3134    -3294    -3287    -3188    -3163    -3082    -2967 
   -3061    -3304    -3391    -3284    -3306    -3388    -3138    -2920 
   -3304    -3667    -3249    -2801    -3073    -3281    -2995    -3068 
   -3485    -3396    -3094    -3144    -3231    -3213    -3325    -3407 
   -3165    -2928    -3127    -3384    -3316    -3250    -3360    -3392 
   -3271    -3071    -2971    -3264    -3546    -3076    -2546    -3013 
   -3700    -3499    -2980    -3096    -3555    -3484    -2976    -2943 
   -3420    -3543    -3105    -2810    -3099    -3491    -3397    -3053 
   -3044    -3341    -3298    -2896    -3086    -3678    -3440    -2866 
   -3100    -3449    -3132    -2957    -3376    -3520    -3109    -2906 
   -3196    -3510    -3380    -2967    -2915    -3335    -3508    -3045 
   -2794    -3377    -3796    -3339    -2901    -3133    -3402    -3210 
   -3107    -3377    -3368    -2957    -2909    -3346    -3407    -2924 
   -2886    -3402    -3431    -3069    -3184    -3534    -3573    -3279 
   -2855    -2933    -3532    -3519    -2872    -2816    -3289    -3443 
   -3315    -3159    -3084    -3268    -3393    -3118    -2911    -3146 
   -3487    -3514    -3163    -2870    -3005    -3343    -3439    -3199 
   -3065    -3299    -3485    -3333    -3106    -3003    -3067    -3330 
   -3404    -3037    -2820    -3245    -3680    -3435    -3115    -3191 
   -3157    -3042    -3167    -3235    -3202    -3283    -3215    -3015 
   -3142    -3424    -3396    -3106    -2948    -3245    -3570    -3280 
   -2994    -3416    -3662    -3083    -2658    -2986    -3385    -3446 
   -3296    -3068    -3052    -3322    -3442    -3138    -2999    -3291 
   -3272    -3014    -3090    -3232    -3354    -3601    -3465    -2870 
   -2833    -3469    -3535    -2921    -2791    -3322    -3601    -3252 
   -2886    -3044    -3377    -3429    -3231    -3051    -3222    -3523 
   -3373    -3026    -3001    -3095    -3191    -3434    -3331    -2868 
   -3002    -3514    -3416    -3090    -3163    -3269    -3207    -3142 
   -3103    -3194    -3384    -3419    -3177    -2997    -3258    -3407 
   -2976    -2851    -3418    -3554    -3071    -3140    -3570    -3349 
   -2982    -3163    -3388    -3194    -2902    -3046    -3381    -3234 
   -3006    -3372    -3673    -3183    -2818    -3329    -3603    -3125 
   -2920    -3125    -3127    -3068    -3172    -3231    -3283    -3450 
   -3443    -3246    -3126    -3092    -3254    -3440    -3204    -2940 
   -3076    -3119    -2986    -3296    -3728    -3407    -2755    -2836 
   -3492    -3646    -3146    -3007    -3381    -3298    -2824    -3060 
   -3754    -3611    -2799    -2673    -3373    -3692    -3210    -2913 
   -3304    -3546    -3160    -2841    -3032    -3376    -3511    -3302 
   -2886    -2856    -3377    -3539    -3168    -3240    -3501    -3096 
   -2816    -3353    -3591    -3053    -2895    -3250    -3222    -3145 
   -3345    -3157    -3003    -3538    -3653    -2798    -2577    -3523 
   -3886    -3184    -2835    -3159    -3284    -3173    -3267    -3317 
   -3203    -3238    -3244    -3060    -3113    -3372    -3316    -3088 
   -3167    -3315    -3227    -3194    -3296    -3241    -3065    -3098 
   -3329    -3385    -3232    -3142    -3122    -3138    -3227    -3190 
   -3098    -3303    -3473    -3167    -2961    -3312    -3500    -3167 
   -3018    -3258    -3245    -2976    -3071    -3402    -3442    -3244 
   -3134    -3119    -3056    -3146    -3492    -3582    -3130    -2766 
   -3036    -3454    -3399    -3221    -3338    -3345    -3094    -3017 
   -3121    -3207    -3341    -3264    -2837    -2776    -3418    -3842 
   -3376    -2889    -3186    -3438    -3098    -3083    -3627    -3630 
   -2915    -2694    -3238    -3459    -3133    -3140    -3362    -3078 
   -2833    -3264    -3666    -3410    -3028    -3033    -3146    -3256 
   -3438    -3360    -3060    -3040    -3192    -3144    -3013    -3086 
   -3419    -3685    -3395    -2836    -2974    -3574    -3418    -2914 
   -3111    -3349    -3080    -3069    -3334    -3210    -3134    -3488 
   -3523    -3090    -2924    -3187    -3418    -3395    -3094    -2737 
   -2978    -3607    -3623    -3130    -2982    -3146    -3245    -3407 
   -3373    -2964    -2961    -3454    -3470    -3025    -3065    -3402 
   -3256    -3071    -3346    -3326    -2848    -2980    -3518    -3325 
   -2910    -3175    -3580    -3423    -3102    -3169    -3329    -3280 
   -3218    -3090    -2844    -2915    -3355    -3499    -3192    -3141 
   -3442    -3369    -3056    -3272    -3511    -3090    -2913    -3343 
   -3245    -2754    -3063    -3592    -3379    -3138    -3262    -3271 
   -3403    -3532    -3037    -2716    -3207    -3454    -3076    -2967 
   -3168    -3219    -3388    -3515    -3176    -2938    -3153    -3296 
   -3180    -3118    -3288    -3514    -3454    -3163    -2994    -3090 
   -3277    -3311    -3099    -2932    -3218    -3508    -3204    -2937 
   -3206    -3333    -3238    -3528    -3591    -2895    -2681    -3339 
   -3534    -3167    -3113    -3200    -3241    -3449    -3299    -2795 
   -3106    -3781    -3319    -2597    -2972    -3604    -3538    -3146 
   -2982    -2978    -3036    -3392    -3670    -3289    -2857    -3057 
   -3294    -3240    -3358    -3400    -3165    -3142    -3281    -3262 
   -3141    -3064    -3168    -3365    -3226    -2899    -3133    -3619 
   -3499    -3056    -2936    -3180    -3362    -3090    -2855    -3245 
   -3546    -3177    -3044    -3435    -3316    -2879    -3262    -3800 
   -3373    -2786    -2982    -3457    -3473    -3113    -3028    -3355 
   -3406    -2991    -2876    -3194    -3294    -3225    -3169    -3065 
   -3287    -3638    -3379    -2894    -3068    -3427    -3257    -3130 
   -3206    -3048    -3025    -3295    -3364    -3254    -3345    -3358 
   -2943    -2754    -3360    -3835    -3407    -2972    -3032    -2997 
   -3146    -3608    -3342    -2744    -3102    -3694    -3439    -2947 
   -2998    -3381    -3526    -3198    -2816    -2921    -3333    -3554 
   -3454    -3191    -2990    -2928    -3068    -3381    -3399    -3094 
   -3127    -3411    -3331    -3113    -3258    -3595    -3523    -2824 
   -2457    -3257    -3924    -3234    -2543    -2988    -3497    -3304 
   -3078    -3261    -3466    -3440    -3267    -2956    -2867    -3383 
   -3761    -3204    -2604    -3022    -3747    -3663    -3041    -2778 
   -3113    -3522    -3360    -2866    -2952    -3495    -3465    -2979 
   -2938    -3385    -3634    -3261    -2824    -3029    -3418    -3369 
   -3186    -3067    -2903    -3029    -3528    -3727    -3345    -2986 
   -3088    -3372    -3380    -3140    -3100    -3210    -3123    -3133 
   -3310    -3157    -3019    -3366    -3358    -2855    -3032    -3474 
   -3194    -3106    -3561    -3481    -3064    -3082    -3196    -3299 
   -3554    -3406    -2983    -2906    -2786    -2644    -3127    -3592 
   -3294    -3048    -3383    -3563    -3360    -3261    -3302    -3226 
   -3113    -3246    -3499    -3362    -3055    -3291    -3503    -2836 
   -2250    -2872    -3932    -3997    -3306    -3140    -3303    -2951 
   -2602    -2829    -3009    -3014    -3395    -3634    -3284    -3099 
   -3372    -3501    -3416    -3445    -3357    -3186    -3360    -3383 
   -2810    -2454    -2693    -2739    -2494    -2814    -3662    -4225 
   -4405    -4426    -4194    -3721    -3171    -2841    -2972    -3041 
   -2659    -2575    -3213    -3676    -3223    -2427    -2079    -1971 
   -1898    -2601    -3861    -4286    -4140    -4517    -4531    -3476 
   -2733    -2970    -3082    -2717    -2609    -2705    -2740    -3203 
   -3747    -3586    -3388    -3746    -3847    -3288    -2948    -3310 
   -3550    -2948    -2304    -2662    -3119    -2698    -2862    -4077 
   -4023    -2681    -2752    -3960    -3928    -3034    -2911    -3171 
   -2806    -2539    -3296    -3989    -3754    -3477    -3407    -2951 
   -2385    -2493    -3130    -3380    -3302    -3681    -4172    -3912 
   -3111    -2687    -2910    -3105    -3002    -3001    -2941    -2849 
   -3342    -4069    -3948    -2887    -2236    -2982    -3879    -3465 
   -2650    -2743    -3226    -3380    -3427    -3369    -3307    -3665 
   -3819    -3373    -3088    -2976    -2752    -2654    -2469    -2288 
   -2755    -3653    -4106    -3910    -3731    -3951    -4079    -3591 
   -2971    -2817    -2527    -2110    -2574    -3111    -2785    -3096 
   -4410    -4495    -3219    -2882    -3538    -3443    -2652    -2504 
   -3102    -3335    -2933    -2929    -3727    -4167    -3589    -2986 
   -2910    -2806    -2632    -2775    -2974    -2891    -2947    -3473 
   -4001    -4052    -3929    -3917    -3407    -2469    -2430    -3038 
   -2802    -2303    -2702    -3211    -3402    -3962    -4410    -4064 
   -3600    -3396    -2974    -2419    -2319    -2596    -2872    -3208 
   -3449    -3500    -3847    -4220    -3727    -2755    -2531    -2980 
   -3090    -2852    -2975    -3393    -3542    -3526    -3534    -3325 
   -3177    -3298    -3219    -2984    -2840    -2671    -2694    -2994 
   -3183    -3358    -3694    -3693    -3288    -3142    -3289    -3319 
   -3164    -2911    -2910    -3171    -3136    -3042    -3515    -3984 
   -3653    -3153    -3096    -3019    -2956    -3345    -3704    -3366 
   -2887    -3010    -3206    -3080    -3056    -3052    -2821    -2938 
   -3504    -3437    -3010    -3445    -3939    -3495    -2992    -3148 
   -3260    -2887    -2749    -3026    -3202    -3469    -3828    -3674 
   -3288    -3138    -2910    -2836    -3245    -3316    -2687    -2417 
   -3160    -3991    -3842    -3238    -3221    -3470    -3393    -3173 
   -2956    -2791    -2806    -2889    -3041    -3395    -3674    -3537 
   -3361    -3565    -3492    -2851    -2691    -3184    -3402    -3331 
   -3268    -3192    -3294    -3284    -3026    -3187    -3657    -3558 
   -2961    -2721    -2876    -2926    -3100    -3372    -3188    -2983 
   -3319    -3626    -3535    -3522    -3566    -3109    -2604    -2949 
   -3443    -3117    -2782    -3188    -3585    -3569    -3404    -3067 
   -2991    -3527    -3622    -2731    -2412    -3407    -3920    -3102 
   -2682    -3477    -3848    -3024    -2577    -3099    -3457    -3402 
   -3171    -2913    -3213    -3689    -3539    -3186    -3173    -3277 
   -3323    -3561    -3501    -2582    -2143    -2887    -3223    -2959 
   -3396    -3883    -3504    -3406    -3697    -3055    -2301    -2872 
   -3658    -3300    -2731    -3052    -3591    -3678    -3527    -3319 
   -3306    -3334    -2882    -2544    -3118    -3793    -3608    -3071 
   -2913    -3229    -3886    -4086    -3056    -1977    -2354    -3191 
   -3030    -2587    -2959    -3646    -3846    -3646    -3338    -3161 
   -3273    -3458    -3464    -3121    -2575    -2620    -3414    -3882 
   -3624    -3322    -3242    -3323    -3524    -3550    -3322    -3024 
   -2709    -2535    -2614    -2903    -3516    -3920    -3440    -2991 
   -3213    -3154    -2743    -2751    -3032    -3387    -3793    -3808 
   -3400    -3215    -3474    -3563    -3235    -2902    -2855    -3134 
   -3234    -2782    -2586    -3192    -3514    -2860    -2515    -3163 
   -3685    -3534    -3352    -3489    -3581    -3311    -3159    -3537 
   -3732    -3406    -3241    -3271    -3103    -2886    -2690    -2508 
   -2659    -3048    -3230    -3435    -3716    -3715    -3719    -3690 
   -3179    -2778    -3044    -3129    -2720    -2949    -3609    -3544 
   -3262    -3238    -3153    -3173    -3059    -2664    -2917    -3715 
   -3677    -3080    -3303    -3797    -3501    -3094    -3115    -3203 
   -3227    -3003    -2655    -2605    -2721    -3051    -3597    -3761 
   -3522    -3399    -3414    -3355    -3103    -2694    -2544    -2891 
   -3349    -3508    -3655    -4017    -3932    -3203    -2737    -3052 
   -3503    -3180    -2504    -2525    -2794    -2863    -3549    -4382 
   -4124    -3353    -2866    -2639    -3083    -3686    -3092    -2020 
   -2091    -2903    -3456    -3863    -4085    -3788    -3465    -3607 
   -3780    -3388    -2775    -2756    -3094    -2866    -2327    -2565 
   -3388    -3863    -3920    -3744    -3480    -3271    -2805    -2297 
   -2578    -3357    -3550    -3134    -2994    -3369    -3696    -3738 
   -3580    -3208    -2929    -2876    -2820    -2882    -3169    -3430 
   -3511    -3450    -3345    -3283    -3308    -3226    -2806    -2602 
   -3261    -3904    -3487    -2833    -2978    -3422    -3499    -3364 
   -3241    -3126    -3071    -3099    -2971    -2667    -2822    -3459 
   -3674    -3426    -3338    -3516    -3866    -3842    -2941    -2147 
   -2475    -3213    -3477    -3411    -3357    -3410    -3609    -3748 
   -3277    -2361    -2182    -2984    -3549    -3360    -3227    -3584 
   -3846    -3518    -2917    -2731    -3100    -3397    -3242    -2943 
   -2913    -3280    -3576    -3316    -2963    -3167    -3719    -3908 
   -3418    -2764    -2729    -3069    -2880    -2631    -3234    -3754 
   -3322    -2878    -3080    -3483    -3666    -3431    -3007    -3032 
   -3316    -3231    -3232    -3658    -3681    -3109    -2763    -2913 
   -3204    -3376    -3254    -2853    -2673    -3140    -3667    -3468 
   -3240    -3838    -4059    -2959    -2162    -2727    -3267    -3168 
   -3307    -3550    -3396    -3234    -3254    -3330    -3336    -3037 
