Origin Time       2015/03/20 01:56:00
Lat.              36.085
Long.             140.012
Depth. (km)       66
Mag.              3.6
Station Code      GNM009
Station Lat.      36.4106
Station Long.     139.3251
Station Height(m) 114
Record Time       2015/03/20 01:56:27
Sampling Freq(Hz) 100Hz
Duration Time(s)  60
Dir.              N-S
Scale Factor      7845(gal)/8223790
Max. Acc. (gal)   3.847
Last Correction   2015/03/20 01:56:27
Memo.             
[...]
   -8332    -8316    -8303    -8311    -8333    -8337    -8324    -8322 
   -8329    -8311    -8293    -8310    -8348    -8357    -8330    -8302 
   -8294    -8305    -8330    -8349    -8341    -8318    -8301    -8297 
   -8314    -8341    -8347    -8326    -8303    -8298    -8313    -8333 
   -8340    -8333    -8328    -8324    -8309    -8295    -8311    -8334 
   -8337    -8333    -8330    -8313    -8301    -8311    -8326    -8326 
   -8333    -8340    -8318    -8297    -8310    -8329    -8333    -8333 
   -8324    -8307    -8309    -8324    -8324    -8321    -8330    -8338 
   -8330    -8306    -8286    -8297    -8334    -8363    -8351    -8311 
   -8289    -8298    -8324    -8337    -8324    -8314    -8322    -8334 
   -8328    -8310    -8298    -8306    -8334    -8352    -8333    -8305 
   -8303    -8318    -8332    -8336    -8322    -8305    -8311    -8330 
   -8336    -8322    -8311    -8313    -8324    -8333    -8329    -8313 
   -8309    -8319    -8328    -8332    -8333    -8324    -8309    -8301 
   -8314    -8333    -8334    -8324    -8318    -8316    -8318    -8322 
   -8318    -8316    -8324    -8332    -8326    -8316    -8313    -8318 
   -8322    -8321    -8321    -8329    -8330    -8317    -8307    -8313 
   -8324    -8329    -8329    -8324    -8318    -8313    -8311    -8314 
   -8328    -8338    -8328    -8316    -8311    -8309    -8318    -8334 
   -8332    -8317    -8314    -8317    -8318    -8326    -8333    -8319 
   -8306    -8309    -8321    -8330    -8330    -8324    -8324    -8324 
   -8311    -8307    -8319    -8326    -8324    -8322    -8322    -8321 
   -8313    -8310    -8326    -8343    -8332    -8309    -8305    -8317 
   -8324    -8328    -8324    -8321    -8321    -8321    -8316    -8313 
   -8319    -8332    -8337    -8329    -8310    -8299    -8307    -8329 
   -8341    -8333    -8316    -8306    -8311    -8318    -8322    -8329 
   -8328    -8321    -8321    -8321    -8311    -8307    -8321    -8343 
   -8347    -8318    -8290    -8298    -8322    -8336    -8338    -8330 
   -8313    -8306    -8316    -8321    -8319    -8318    -8322    -8328 
   -8329    -8322    -8310    -8310    -8326    -8326    -8317    -8324 
   -8330    -8319    -8311    -8316    -8321    -8326    -8330    -8322 
   -8306    -8302    -8319    -8334    -8333    -8324    -8309    -8306 
   -8316    -8322    -8329    -8333    -8326    -8318    -8319    -8319 
   -8314    -8316    -8329    -8343    -8355    -8351    -8297    -8210 
   -8179    -8251    -8397    -8553    -8594    -8398    -8133    -8137 
   -8404    -8473    -8131    -7825    -8078    -8687    -8942    -8559 
   -8023    -7893    -8156    -8464    -8550    -8365    -8208    -8259 
   -8293    -8306    -8430    -8371    -8179    -8398    -8764    -8484 
   -7820    -7716    -8174    -8527    -8710    -8829    -8536    -7878 
   -7642    -8187    -8811    -8734    -8162    -8035    -8586    -8738 
   -8102    -7847    -8322    -8449    -7963    -7839    -8424    -8905 
   -8896    -8760    -8464    -8059    -7962    -7916    -7809    -8175 
   -8648    -8536    -8244    -8294    -8517    -8698    -8691    -8266 
   -7815    -8073    -8598    -8553    -8164    -7913    -7998    -8486 
   -8884    -8464    -7586    -7634    -8676    -9217    -8714    -7931 
   -7657    -8201    -8914    -8853    -8310    -8102    -8052    -7944 
   -8222    -8772    -8893    -8417    -7756    -7470    -7915    -8694 
   -8955    -8680    -8575    -8630    -8301    -7925    -7969    -8012 
   -8120    -8579    -8715    -8361    -8208    -8305    -8318    -8301 
   -8406    -8502    -8374    -8078    -8019    -8424    -8699    -8291 
   -7785    -7905    -8355    -8604    -8748    -8787    -8537    -8256 
   -8144    -8064    -7952    -7869    -8118    -8816    -9193    -8662 
   -7859    -7500    -7761    -8612    -9180    -8530    -7510    -7515 
   -8418    -9217    -9227    -8410    -7736    -8054    -8608    -8598 
   -8301    -7875    -7647    -8181    -8896    -8889    -8322    -7939 
   -8163    -8602    -8411    -7731    -7685    -8332    -8637    -8716 
   -9100    -8915    -7890    -7569    -8382    -8757    -8082    -7578 
   -8128    -9069    -9018    -7925    -7578    -8494    -8999    -8587 
   -8179    -7850    -7643    -8082    -8688    -8712    -8546    -8568 
   -8444    -8101    -7902    -8155    -8569    -8418    -7954    -8175 
   -8834    -8818    -8122    -7758    -8205    -8769    -8610    -8012 
   -7773    -8009    -8502    -8937    -8819    -8286    -7931    -7967 
   -8220    -8322    -8275    -8464    -8687    -8553    -8290    -8083 
   -7971    -8118    -8437    -8714    -8727    -8316    -7915    -8121 
   -8602    -8519    -8104    -8182    -8430    -8247    -8113    -8451 
   -8608    -8139    -7905    -8579    -9232    -8769    -7817    -7669 
   -8007    -8050    -8303    -8797    -8588    -7955    -8025    -8549 
   -8525    -8127    -8132    -8622    -8901    -8382    -7844    -8094 
   -8190    -7874    -8384    -9134    -8658    -7911    -8044    -8374 
   -8351    -8102    -7963    -8398    -8964    -8704    -7994    -7950 
   -8428    -8638    -8610    -8484    -8102    -7815    -8009    -8411 
   -8635    -8586    -8387    -8321    -8334    -8067    -7827    -8177 
   -8648    -8630    -8447    -8482    -8459    -7994    -7608    -8136 
   -8972    -8887    -8125    -7901    -8330    -8397    -8068    -8291 
   -8789    -8664    -8302    -8397    -8561    -8226    -7765    -7711 
   -7936    -8240    -8507    -8595    -8538    -8272    -7960    -8176 
   -8710    -8730    -8367    -8421    -8904    -8866    -7969    -7385 
   -7874    -8661    -8876    -8453    -7962    -7808    -7812    -8078 
   -8770    -9150    -8719    -8155    -8083    -8236    -8159    -8090 
   -8486    -8901    -8706    -8151    -7623    -7435    -7982    -8877 
   -9139    -8599    -8108    -8179    -8447    -8441    -8040    -7770 
   -8245    -8891    -8739    -8149    -7955    -8010    -8027    -8278 
   -8700    -8891    -8692    -8262    -8245    -8752    -8779    -8128 
   -7576    -7473    -7884    -8500    -8765    -8523    -8129    -8136 
   -8303    -8143    -8160    -8564    -8804    -8742    -8496    -8240 
   -8218    -8313    -8388    -8380    -8160    -8052    -8197    -8225 
   -8294    -8469    -8318    -8078    -8063    -8137    -8464    -8866 
   -8874    -8739    -8523    -7832    -7248    -7676    -8644    -9081 
   -8743    -8214    -8172    -8487    -8469    -8185    -8127    -8266 
   -8509    -8637    -8226    -7614    -7684    -8552    -9180    -8688 
   -7761    -7534    -7843    -8137    -8698    -9520    -9543    -8352 
   -7136    -7130    -8264    -9267    -9071    -8237    -7940    -8144 
   -8264    -8264    -8113    -7850    -8117    -8937    -9188    -8467 
   -7767    -7852    -8368    -8673    -8629    -8398    -8127    -7944 
   -8043    -8441    -8785    -8684    -8233    -7936    -7931    -7963 
   -8110    -8390    -8633    -8887    -8938    -8529    -7894    -7593 
   -8048    -8776    -8920    -8573    -8262    -8048    -7886    -7906 
   -8167    -8460    -8529    -8404    -8283    -8280    -8355    -8352 
   -8326    -8336    -8233    -8197    -8523    -8878    -8702    -8048 
   -7584    -7827    -8629    -8996    -8233    -7581    -8209    -9022 
   -8915    -8372    -8077    -7981    -7901    -8194    -8791    -8779 
   -8097    -7890    -8428    -8538    -7933    -7726    -8263    -8823 
   -8919    -8708    -8461    -8023    -7566    -7799    -8588    -9023 
   -8702    -8056    -7811    -8170    -8688    -8799    -8348    -7832 
   -7836    -8428    -8922    -8600    -8035    -8085    -8337    -8186 
   -7912    -8121    -8827    -9173    -8556    -7742    -7705    -8159 
   -8464    -8664    -8742    -8477    -8039    -7820    -8004    -8437 
   -8745    -8661    -8309    -8071    -8224    -8596    -8644    -8172 
   -7877    -8324    -8708    -8322    -7897    -7948    -8109    -8210 
   -8340    -8549    -8764    -8766    -8517    -8232    -8012    -7931 
   -8225    -8588    -8459    -8313    -8533    -8372    -7812    -7842 
   -8483    -8803    -8340    -7862    -8338    -8985    -8540    -7751 
   -7900    -8573    -8754    -8553    -8426    -8194    -8062    -8338 
   -8464    -8251    -8187    -8343    -8487    -8352    -8031    -8054 
   -8286    -8247    -8245    -8525    -8625    -8391    -8147    -8085 
   -8257    -8527    -8615    -8433    -8159    -8085    -8290    -8424 
   -8299    -8278    -8424    -8279    -8000    -8257    -8777    -8802 
   -8454    -8117    -7852    -7974    -8428    -8556    -8355    -8255 
   -8245    -8290    -8395    -8436    -8472    -8487    -8245    -8046 
   -8356    -8691    -8421    -7974    -8029    -8424    -8426    -8035 
   -8095    -8672    -8865    -8370    -7913    -8044    -8317    -8301 
   -8314    -8407    -8230    -8129    -8509    -8822    -8576    -8102 
   -8012    -8410    -8487    -7884    -7684    -8428    -9092    -8964 
   -8467    -8046    -7692    -7580    -8044    -8741    -8977    -8683 
   -8341    -8334    -8430    -8154    -7769    -7974    -8633    -8926 
   -8645    -8121    -7735    -7944    -8505    -8621    -8301    -8043 
   -8009    -8248    -8606    -8738    -8623    -8411    -8221    -8206 
   -8244    -8191    -8278    -8484    -8487    -8370    -8248    -7974 
   -7839    -8202    -8668    -8816    -8669    -8337    -8073    -8010 
   -8007    -8122    -8456    -8739    -8627    -8197    -7971    -8336 
   -8807    -8673    -8266    -8212    -8268    -8071    -7935    -8214 
   -8653    -8619    -7987    -7518    -7695    -8132    -8579    -9057 
   -9213    -8762    -8148    -7990    -8199    -8349    -8324    -8263 
   -8314    -8367    -8248    -8078    -8056    -8297    -8577    -8527 
   -8297    -8236    -8421    -8704    -8684    -8191    -7750    -7951 
   -8557    -8870    -8642    -8172    -7946    -8109    -8322    -8321 
   -8217    -8253    -8390    -8436    -8464    -8385    -8029    -7920 
   -8317    -8476    -8186    -8118    -8352    -8472    -8529    -8615 
   -8447    -8068    -7969    -8364    -8889    -8962    -8533    -8185 
   -8098    -8021    -7979    -8059    -8104    -7987    -7990    -8390 
   -8772    -8819    -8780    -8487    -7796    -7596    -8333    -8993 
   -8934    -8513    -8066    -7819    -7865    -8164    -8672    -8839 
   -8434    -8213    -8352    -8221    -7998    -8280    -8623    -8380 
   -7986    -8139    -8640    -8696    -8163    -7873    -8189    -8494 
   -8565    -8598    -8356    -7940    -8056    -8626    -8702    -8110 
   -7777    -8208    -8762    -8679    -8127    -7766    -7956    -8617 
   -9073    -8738    -8025    -7677    -7905    -8430    -8833    -8919 
   -8646    -8054    -7669    -7913    -8283    -8385    -8487    -8640 
   -8637    -8408    -8073    -7798    -7727    -8116    -8776    -8923 
   -8494    -8244    -8371    -8437    -8257    -8063    -8108    -8336 
   -8414    -8276    -8306    -8553    -8568    -8426    -8486    -8384 
   -7966    -7928    -8363    -8559    -8306    -8010    -8032    -8371 
   -8683    -8668    -8372    -8133    -8209    -8457    -8553    -8464 
   -8484    -8484    -7896    -7142    -7392    -8428    -8947    -8626 
   -8395    -8696    -8815    -8490    -8302    -8360    -8314    -8172 
   -8210    -8356    -8291    -8033    -7812    -7896    -8380    -8773 
   -8797    -8753    -8494    -8017    -8062    -8503    -8367    -7840 
   -7928    -8723    -9340    -9038    -8007    -7279    -7666    -8538 
   -8644    -8106    -7940    -8310    -8727    -8842    -8482    -7952 
   -7831    -8006    -8078    -8284    -8841    -9158    -8752    -8260 
   -8212    -8105    -7766    -7655    -7948    -8569    -9120    -8972 
   -8410    -8388    -8874    -8938    -8177    -7141    -6794    -7484 
   -8383    -8668    -8711    -9123    -9337    -8572    -7349    -6713 
   -6990    -7817    -8642    -9221    -9481    -9173    -8398    -7827 
   -7843    -8348    -9265   -10168    -9994    -8281    -6235    -5371 
   -5933    -7657   -10214   -12083   -11583    -9108    -6582    -5552 
   -6299    -7696    -8515    -8814    -9382   -10179   -10083    -8507 
   -6569    -5826    -6347    -7169    -8278   -10060   -11499   -11315 
   -9801    -8028    -6639    -6077    -6744    -8338    -9571    -9246 
   -7839    -7132    -7756    -8571    -8453    -7291    -6115    -6424 
   -8208    -9960   -10777   -10836   -10261    -8884    -7125    -5875 
   -5614    -6521    -8523   -10542   -11032    -9958    -8680    -7939 
   -7695    -7792    -7955    -7789    -7071    -6704    -7920    -9609 
   -9601    -8309    -7707    -7863    -7616    -7383    -8424   -10204 
  -10640    -9112    -7580    -7480    -7846    -7871    -8039    -8459 
   -9254   -10593   -10781    -8370    -5539    -5161    -6980    -9063 
  -10224   -10249    -9099    -7002    -5355    -5602    -7391    -9256 
  -10204    -9880    -8545    -7638    -8594   -10331   -10147    -7524 
   -5290    -6161    -9003   -10393    -9081    -7101    -6903    -8163 
   -8943    -8981    -8938    -8891    -8986    -8939    -7981    -6813 
   -7132    -8785    -9804    -9250    -8095    -7438    -7159    -6743 
   -6847    -8284    -9788    -9734    -8885    -8579    -8421    -7804 
   -7499    -8027    -8337    -7867    -7836    -9212   -11153   -11896 
  -10430    -7415    -4949    -5036    -7482    -9856   -10153    -8695 
   -7203    -7140    -8459    -9441    -8999    -8068    -7627    -7678 
   -7989    -8012    -7360    -6639    -6538    -7296    -9174   -11470 
  -12353   -11033    -8457    -6212    -5593    -6669    -8286    -9270 
   -9096    -7912    -6705    -6555    -7569    -9158   -10335   -10072 
   -8625    -7482    -7827    -9324   -10041    -8660    -6372    -5431 
   -6681    -8981   -10401   -10116    -9035    -8177    -7794    -7825 
   -7916    -7987    -8486    -9301    -9744    -9305    -8136    -7167 
   -7250    -8294    -9261    -9049    -7578    -5849    -5298    -6759 
   -9355   -11091   -10913    -9454    -7964    -7627    -8881   -10370 
  -10234    -8472    -6554    -5595    -5788    -6791    -8326    -9886 
  -10228    -8785    -6782    -5817    -6459    -8253   -10142   -10990 
  -10362    -8968    -7782    -7182    -7026    -7163    -7923    -9104 
   -9443    -8676    -7969    -8170    -9027    -9594    -9173    -8055 
   -7273    -7605    -8730    -9555    -9352    -8553    -8094    -8043 
   -7650    -6822    -6717    -7964    -9454    -9757    -8600    -7107 
   -6889    -8002    -8819    -8532    -7954    -7784    -8113    -8854 
   -9360    -9142    -8591    -8040    -7659    -7756    -8000    -8098 
   -8496    -9182    -9720    -9830    -8968    -7164    -5752    -6014 
   -7720    -9463   -10081    -9483    -8457    -7811    -7815    -8272 
   -8677    -8785    -8621    -8148    -7938    -8343    -8397    -7840 
   -7928    -8834    -9234    -8563    -7553    -7284    -8391   -10223 
  -10980    -9547    -6988    -5575    -6181    -7705    -8945    -9533 
   -9574    -9262    -8650    -7793    -6914    -6446    -6706    -7472 
   -8473    -9493    -9859    -9352    -8703    -8274    -7813    -7473 
   -7735    -8550    -9223    -9201    -8718    -8132    -7346    -6710 
   -7052    -8139    -8929    -9086    -8953    -8858    -8785    -8626 
   -8667    -8814    -8492    -7940    -7771    -7986    -8394    -8856 
   -8959    -8364    -7519    -7264    -7813    -8487    -8642    -8583 
   -8638    -8434    -8071    -8202    -8729    -9051    -9040    -8868 
   -8721    -8615    -8194    -7569    -7416    -7723    -7969    -8148 
   -8483    -8770    -8563    -7928    -7542    -7740    -8154    -8506 
   -8803    -8884    -8662    -8382    -8334    -8454    -8326    -7842 
   -7591    -8004    -8614    -8874    -8833    -8532    -7933    -7500 
   -7711    -8082    -8046    -8241    -9058    -9521    -8968    -8014 
   -7530    -7636    -7969    -8401    -8876    -9057    -8706    -8052 
   -7692    -7938    -8436    -8694    -8611    -8307    -8029    -8078 
   -8340    -8590    -8928    -9104    -8779    -8232    -7912    -8016 
   -8401    -8519    -8025    -7378    -7371    -8108    -8972    -9327 
   -9111    -8749    -8403    -8066    -8025    -8271    -8289    -8059 
   -8062    -8217    -8241    -8168    -8004    -7877    -8032    -8299 
   -8324    -8334    -8777    -9197    -8907    -8198    -7799    -7929 
   -8220    -8319    -8391    -8830    -9391    -9045    -7669    -6802 
   -7381    -8385    -8641    -8387    -8496    -8974    -9070    -8520 
   -7738    -7231    -7362    -7977    -8587    -8928    -8815    -8310 
   -7971    -8152    -8530    -8563    -8195    -7966    -8306    -8989 
   -9387    -9027    -8073    -7518    -7993    -8631    -8649    -8431 
   -8284    -8233    -8333    -8275    -7835    -7369    -7350    -7827 
   -8479    -9050    -9359    -9059    -8195    -7433    -7356    -8149 
   -9437   -10081    -9427    -8301    -7560    -7245    -7496    -8262 
   -8850    -8916    -8731    -8424    -7920    -7441    -7283    -7562 
   -8382    -9278    -9559    -9373    -8889    -8029    -7410    -7601 
   -8182    -8494    -8474    -8316    -8104    -8133    -8417    -8437 
   -8272    -8380    -8476    -8174    -7900    -8085    -8464    -8644 
   -8454    -8104    -8206    -8687    -8694    -8132    -7622    -7557 
   -8078    -8637    -8418    -8029    -8404    -8993    -9217    -9081 
   -8411    -7784    -7902    -8284    -8472    -8444    -8125    -7897 
   -7979    -7974    -7928    -8307    -9126    -9698    -9246    -8148 
   -7652    -8047    -8444    -8224    -7609    -7307    -7865    -9005 
   -9701    -9211    -8068    -7508    -7647    -7801    -8116    -8691 
   -8797    -8437    -8418    -8818    -8968    -8548    -7893    -7622 
   -8046    -8490    -8116    -7482    -7609    -8469    -9379    -9530 
   -8599    -7493    -7268    -7750    -8260    -8543    -8654    -8762 
   -8753    -8253    -7726    -7990    -8700    -9000    -8695    -8068 
   -7712    -8005    -8483    -8520    -8241    -8191    -8469    -8657 
   -8467    -8124    -8082    -8341    -8503    -8590    -8830    -8901 
   -8421    -7792    -7649    -7992    -8444    -8756    -8737    -8313 
   -7863    -7936    -8317    -8338    -8133    -8324    -8800    -8857 
   -8365    -7893    -7700    -7678    -7875    -8257    -8719    -9112 
   -9049    -8503    -7913    -7561    -7716    -8520    -9283    -9015 
   -7921    -7360    -8052    -9047    -9071    -8324    -7879    -8023 
   -8171    -7940    -7704    -8021    -8757    -9139    -8750    -8114 
   -7989    -8414    -8839    -8888    -8644    -8387    -8217    -7912 
   -7484    -7510    -8286    -9076    -9023    -8404    -8137    -8290 
   -8149    -7755    -7905    -8611    -8999    -8669    -8120    -7884 
   -7940    -8073    -8264    -8549    -8792    -8796    -8492    -7986 
   -7732    -8241    -9111    -9360    -8770    -8044    -7780    -7832 
   -7823    -7758    -7919    -8433    -8896    -8741    -8063    -7547 
   -7744    -8527    -9084    -8976    -8612    -8241    -7854    -7844 
   -8387    -8887    -8779    -8330    -8075    -7917    -7715    -7821 
   -8298    -8776    -9009    -8896    -8492    -8006    -7789    -8100 
   -8536    -8523    -8229    -8102    -8218    -8421    -8550    -8487 
   -8306    -8225    -8333    -8590    -8664    -8247    -7859    -8144 
   -8672    -8664    -8174    -7749    -7676    -7974    -8463    -8710 
