Origin Time       2015/03/20 01:56:00
Lat.              36.085
Long.             140.012
Depth. (km)       66
Mag.              3.6
Station Code      GNM009
Station Lat.      36.4106
Station Long.     139.3251
Station Height(m) 114
Record Time       2015/03/20 01:56:27
Sampling Freq(Hz) 100Hz
Duration Time(s)  60
Dir.              U-D
Scale Factor      7845(gal)/8223790
Max. Acc. (gal)   1.631
Last Correction   2015/03/20 01:56:27
Memo.             
[...]
    5640     5625     5622     5626     5630     5636     5628     5617 
    5626     5637     5634     5629     5628     5629     5632     5629 
    5623     5632     5641     5636     5623     5620     5625     5638 
    5638     5622     5621     5633     5633     5626     5630     5630 
    5623     5630     5637     5629     5626     5637     5636     5622 
    5625     5636     5632     5625     5626     5632     5629     5626 
    5637     5638     5623     5618     5630     5633     5630     5630 
    5628     5623     5629     5632     5629     5630     5636     5633 
    5626     5626     5632     5636     5633     5626     5622     5630 
    5637     5629     5622     5628     5633     5632     5634     5633 
    5629     5626     5622     5626     5637     5643     5633     5617 
    5616     5638     5648     5628     5614     5629     5640     5629 
    5620     5623     5634     5638     5632     5622     5625     5630 
    5630     5629     5628     5628     5632     5634     5628     5626 
    5632     5630     5625     5630     5636     5634     5630     5626 
    5628     5636     5637     5625     5618     5633     5647     5634 
    5616     5621     5638     5637     5628     5626     5629     5632 
    5632     5628     5626     5632     5636     5632     5628     5628 
    5628     5628     5633     5637     5632     5621     5625     5634 
    5629     5622     5630     5634     5630     5633     5630     5617 
    5622     5641     5640     5623     5621     5632     5638     5637 
    5623     5617     5633     5645     5629     5616     5626     5638 
    5638     5625     5621     5633     5636     5626     5626     5626 
    5623     5638     5649     5629     5611     5621     5637     5641 
    5636     5620     5622     5644     5640     5616     5617     5637 
    5647     5637     5620     5618     5633     5640     5629     5622 
    5629     5630     5634     5634     5618     5616     5637     5643 
    5626     5621     5629     5636     5629     5620     5629     5645 
    5636     5620     5622     5634     5638     5629     5618     5623 
    5634     5633     5622     5622     5630     5637     5633     5625 
    5622     5629     5636     5636     5630     5626     5625     5636 
    5643     5630     5618     5628     5640     5636     5628     5623 
    5626     5637     5636     5625     5623     5632     5633     5632 
    5629     5628     5633     5633     5623     5623     5634     5640 
    5634     5623     5621     5634     5647     5633     5613     5622 
    5648     5645     5620     5609     5630     5648     5636     5622 
    5628     5629     5626     5637     5638     5621     5618     5637 
    5640     5625     5620     5629     5638     5638     5628     5618 
    5626     5637     5636     5629     5622     5626     5641     5638 
    5622     5621     5628     5634     5643     5637     5620     5621 
    5638     5637     5625     5623     5628     5637     5643     5625 
    5611     5630     5648     5633     5620     5626     5630     5632 
    5638     5637     5623     5621     5632     5638     5630     5621 
    5626     5637     5637     5626     5621     5628     5634     5628 
    5594     5526     5408     5273     5297     5649     6158     6280 
    5815     5455     5856     6408     6006     4877     4392     5130 
    6189     6444     5811     5161     5139     5499     5719     5722 
    5771     5880     5741     5512     5659     5795     5437     5232 
    5590     5718     5427     5814     6772     6459     4915     4584 
    5786     6139     5135     4664     5427     6243     6123     5552 
    5656     6309     6205     5138     4666     5409     5798     5381 
    5601     6135     5724     5336     5911     6247     5493     4737 
    5174     6153     6385     5791     5081     5057     5730     6073 
    5958     5991     5694     4949     5011     5968     6156     5405 
    5259     5562     5343     5476     6192     6210     5755     5697 
    5688     5493     5339     5339     5493     5616     5594     5417 
    5395     5923     6235     5626     5150     5629     6192     5981 
    5456     5435     5674     5501     5275     5467     5609     5552 
    5697     5891     5782     5579     5679     5857     5756     5551 
    5298     5179     5625     6192     6062     5328     4891     5443 
    6396     6316     5189     4828     5790     6427     5964     5406 
    5371     5343     5155     5459     6186     6273     5436     4901 
    5474     6203     6085     5401     4943     5256     6145     6521 
    5687     4629     4791     5983     6678     6033     5017     5059 
    5977     6493     6011     5105     4854     5541     6207     5961 
    5125     4862     5625     6392     6148     5292     5004     5637 
    6080     5607     5408     6068     6060     5031     4909     6112 
    6505     5304     4490     5356     6478     6239     5355     5297 
    5775     5711     5498     5929     6131     5312     4567     5027 
    6146     6502     5780     5130     5347     5933     6049     5688 
    5418     5472     5772     5954     5587     5139     5422     6023 
    5973     5563     5513     5579     5479     5433     5634     5958 
    5802     5217     5337     6077     6033     5343     5310     5724 
    5692     5557     5715     5557     5082     5347     6296     6527 
    5826     5552     5999     5738     4735     4788     5683     5567 
    4935     5418     6277     5918     5047     5416     6577     6617 
    5598     5219     5663     5697     5277     5578     6262     5876 
    5186     5714     6386     5719     4669     5032     6261     6049 
    4635     4600     5892     6120     5201     5105     6169     6791 
    6185     5544     5725     5802     5213     4938     5617     6112 
    5409     4822     5529     6230     5887     5382     5397     5570 
    5776     6157     6070     5251     4962     5803     6434     5937 
    5235     5339     5788     5607     5022     5147     5996     6289 
    5703     5328     5570     5715     5556     5578     5686     5368 
    5070     5664     6471     6087     5022     5058     6238     6666 
    5744     5017     5238     5568     5544     5460     5541     5702 
    5741     5664     5755     5992     5927     5636     5670     5727 
    5251     4803     5117     5895     6292     6048     5675     5564 
    5574     5466     5389     5547     5622     5402     5440     6000 
    6103     5398     5063     5514     6126     6389     5940     5190 
    5030     5522     5902     5609     5250     5483     5853     6027 
    5985     5447     4980     5481     6239     6110     5517     5362 
    5552     5645     5651     5568     5350     5485     6021     5956 
    5296     5281     5809     5807     5437     5462     5864     5989 
    5549     5085     5189     5792     6232     6038     5544     5287 
    5445     5888     5981     5325     4978     5760     6432     5873 
    4868     4837     5922     6465     5724     5260     5732     5992 
    5778     5724     5584     5051     5042     5841     6057     5321 
    5093     5898     6480     6083     5459     5313     5429     5475 
    5485     5464     5409     5539     5803     5888     5793     5665 
    5585     5702     5925     5899     5551     5166     5213     5942 
    6543     5918     4777     4769     5714     6199     5913     5525 
    5363     5300     5524     6093     6115     5283     4845     5510 
    6397     6399     5637     5185     5358     5532     5466     5481 
    5703     5830     5787     5780     5616     5235     5400     6251 
    6388     5377     4806     5343     5949     5864     5359     5161 
    5559     6029     6015     5682     5543     5623     5557     5486 
    5775     5998     5676     5320     5655     6207     5759     4770 
    5042     6252     6351     5336     5027     5719     6012     5417 
    5009     5540     6023     5535     5265     5946     6042     5243 
    5344     6289     6199     5325     5475     6272     5980     5001 
    5112     6023     5988     5131     4969     5551     5829     5749 
    5844     5840     5489     5393     5741     5998     5776     5189 
    4956     5539     6219     6014     5125     4907     5904     6702 
    6134     5143     5088     5844     6285     5846     5166     5059 
    5491     5934     5957     5510     5147     5437     5975     5945 
    5475     5319     5640     5972     5940     5487     5026     5196 
    5773     5914     5668     5707     5902     5759     5582     5780 
    6019     5753     5205     5212     5622     5552     5360     5778 
    6042     5460     5119     5864     6436     5717     4932     5347 
    6033     5962     5721     5626     5188     4958     5659     6262 
    5819     5240     5532     6146     6030     5363     5184     5653 
    5937     5567     5254     5659     5999     5634     5327     5519 
    5697     5675     5724     5734     5502     5441     5759     5869 
    5636     5466     5441     5567     5703     5656     5660     5768 
    5786     5703     5497     5404     5630     5782     5738     5682 
    5478     5410     5775     5944     5556     5208     5397     5869 
    6058     5792     5481     5564     5864     5883     5632     5439 
    5324     5310     5508     5611     5400     5398     5998     6376 
    5741     5058     5547     6485     6285     5044     4622     5641 
    6264     5470     4793     5400     6154     5834     5325     5721 
    6162     5795     5508     5929     6015     5224     4855     5618 
    6061     5208     4623     5583     6627     6258     5389     5483 
    6207     6196     5476     5254     5489     5335     5251     5796 
    5994     5394     5285     5992     6100     5359     5186     5907 
    6183     5487     5008     5443     5803     5472     5356     5744 
    5724     5382     5684     6316     6103     5268     5173     5841 
    6076     5714     5501     5579     5621     5567     5547     5590 
    5663     5648     5570     5607     5759     5886     5725     5270 
    5148     5491     5613     5445     5536     5838     5898     5580 
    5321     5732     6295     5918     5175     5409     6112     5968 
    5377     5460     5940     5902     5429     5350     5740     5713 
    5135     5057     5718     5998     5536     5443     6079     6276 
    5532     4977     5406     6014     5904     5422     5282     5521 
    5672     5665     5755     5684     5431     5663     6246     6106 
    5254     4969     5590     6061     5721     5205     5425     6044 
    5983     5398     5281     5528     5571     5733     6151     6064 
    5366     5051     5468     5795     5601     5485     5765     5859 
    5481     5204     5387     5672     5881     6131     6058     5551 
    5427     5922     6104     5584     5144     5331     5659     5598 
    5440     5501     5460     5336     5672     6114     5852     5487 
    5786     5880     5281     5150     5948     6361     5628     4931 
    5400     6196     5863     4851     4895     5902     6204     5721 
    5727     6072     5806     5363     5585     6015     5733     5057 
    5047     5625     5923     5800     5582     5454     5559     5798 
    5877     5722     5478     5381     5528     5621     5489     5455 
    5736     5953     5826     5775     5908     5724     5362     5456 
    5896     5944     5405     5003     5324     5823     5767     5460 
    5417     5599     5778     5722     5537     5609     5919     6012 
    5773     5539     5414     5408     5671     5910     5722     5468 
    5548     5563     5339     5448     5891     5895     5370     5275 
    6060     6519     5749     4994     5448     6099     5651     4932 
    5308     6026     5817     5263     5324     5751     5950     5813 
    5427     5127     5508     6349     6448     5493     4854     5485 
    6205     5778     5116     5355     5844     5775     5597     5694 
    5688     5605     5719     5727     5603     5764     5948     5609 
    5107     5062     5355     5684     5849     5652     5478     5772 
    6052     5759     5377     5560     5940     5933     5687     5402 
    5255     5574     5991     5692     4959     5053     6002     6319 
    5664     5301     5734     6234     6099     5416     5065     5410 
    5652     5443     5445     5779     5702     5252     5395     5964 
    5896     5406     5437     5972     6389     6377     6029     5590 
    5221     5055     5104     5193     5314     5532     5788     6012 
    5962     5689     5686     5701     5294     5134     5525     5718 
    5644     5827     6091     6089     5894     5629     5368     5147 
    5171     5549     5732     5443     5368     5841     6120     5655 
    5128     5502     6388     6624     5995     5215     4876     4891 
    5040     5471     5972     5996     5694     5630     5845     6021 
    6049     6065     6043     5842     5721     5726     5317     4475 
    3924     4293     5478     6579     6858     6372     5603     5223 
    5610     6004     5455     4673     5058     6361     7110     6760 
    5995     5485     5300     4884     4256     4402     5157     5599 
    6053     6666     6602     5985     5786     5827     5232     4445 
    4699     5796     6440     6440     6401     6106     5277     4731 
    5134     5694     5543     5244     5705     6594     6837     6196 
    5405     4946     4945     5517     6076     5601     4557     4839 
    6590     7319     5763     3950     3920     5116     6092     6463 
    6436     6222     6019     5760     5475     5440     5594     5717 
    5656     5302     4914     4969     5508     5991     6006     5800 
    5474     4911     4928     5972     6739     6393     5791     5837 
    6380     6450     5499     4414     4207     4629     5093     5528 
    5981     6356     6460     6183     5859     6061     6366     5837 
    5093     5024     4985     4629     4464     4684     5443     6478 
    6866     6569     6397     6475     6184     5490     5128     5239 
    5552     5904     5549     4644     4654     5455     5790     5632 
    5413     5348     5694     6228     6342     5830     5346     5618 
    6079     5791     5255     5348     5856     6003     5641     5487 
    5656     5489     5256     5443     5533     5324     5355     5819 
    6219     6165     5977     5917     5806     5575     5312     5040 
    4795     4869     5483     6177     6196     5603     5383     5814 
    6191     6435     6759     6601     5590     4518     4486     5294 
    5691     5258     4623     4406     4858     5568     5688     5327 
    5555     6531     7183     6808     5976     5706     6039     6282 
    6142     5742     5248     4914     5017     5452     5606     5324 
    5375     5877     5821     5179     5009     5467     5813     5734 
    5645     5769     5765     5572     5524     5599     5598     5629 
    5792     5814     5533     5335     5636     6199     6353     5961 
    5611     5823     6316     6151     5298     4878     5163     5263 
    4899     4789     5229     5597     5560     5643     6057     6006 
    5383     5325     6073     6505     5925     5066     5147     5910 
    6022     5452     5300     5684     5841     5729     5915     6196 
    5961     5672     5825     5691     5131     5042     5406     5427 
    4949     4810     5634     6536     6427     5896     5960     6232 
    5945     5481     5498     5557     5097     4710     5081     5724 
    5852     5628     5628     5756     5701     5618     5590     5476 
    5354     5437     5678     5795     5759     5788     5971     6230 
    6265     5871     5443     5383     5495     5428     5263     5424 
    5906     6143     5729     5115     5186     5779     5918     5417 
    4968     5189     5833     6053     5617     5173     5289     5727 
    5884     5744     5757     5967     6042     5830     5559     5742 
    6262     6186     5502     5178     5332     5314     5093     5204 
    5637     5687     5258     5251     5791     5864     5486     5566 
    5868     5719     5530     5748     6027     6110     6052     5945 
    5749     5331     5166     5664     6019     5559     5101     5606 
    6304     5830     4818     4896     5810     6153     5825     5487 
    5290     5293     5493     5602     5459     5301     5466     5869 
    6191     6218     5977     5831     5857     5694     5350     5259 
    5517     5605     5313     5293     5869     6147     5641     5343 
    5672     5844     5637     5377     5289     5574     5958     5957 
    5715     5630     5614     5536     5524     5436     5135     5016 
    5350     5861     6191     6184     5868     5549     5555     5744 
    5898     6000     5904     5616     5514     5684     5636     5157 
    4872     5267     5779     5603     5223     5598     6138     5894 
    5406     5402     5552     5505     5575     5807     5880     5861 
    5887     5933     5967     5822     5513     5441     5707     5873 
    5733     5519     5440     5502     5583     5594     5533     5466 
    5437     5352     5194     5260     5664     5850     5584     5576 
    5930     5910     5540     5389     5503     5609     5713     6044 
    6345     6142     5709     5533     5610     5694     5549     5265 
    5316     5764     6053     5842     5400     5254     5421     5377 
    5155     5169     5368     5625     5890     5938     5773     5618 
    5540     5688     6081     6200     5767     5373     5638     6165 
    6137     5585     5175     5302     5647     5506     5067     5246 
    5826     5902     5653     5597     5564     5462     5494     5617 
    5641     5598     5664     5791     5760     5641     5632     5692 
    5727     5737     5738     5682     5524     5464     5622     5689 
    5601     5633     5691     5616     5605     5607     5436     5324 
    5503     5782     5873     5757     5632     5692     5871     5765 
    5398     5448     5938     6091     5692     5327     5428     5742 
    5740     5377     5159     5339     5524     5552     5752     5891 
    5593     5405     5749     5999     5675     5339     5730     6315 
    5991     5231     5337     6012     6029     5425     5212     5578 
    5776     5532     5343     5414     5478     5425     5406     5636 
    5911     5814     5578     5583     5705     5807     5836     5773 
    5656     5475     5433     5691     5894     5683     5343     5405 
    5793     5895     5636     5617     5859     5844     5634     5535 
    5533     5656     5809     5697     5390     5254     5425     5636 
    5613     5532     5526     5383     5300     5672     6106     6021 
    5616     5455     5656     5776     5653     5664     5787     5692 
    5517     5559     5680     5555     5404     5665     5960     5721 
    5344     5456     5811     5802     5513     5490     5697     5697 
    5568     5556     5525     5524     5740     5914     5760     5475 
    5467     5764     5873     5638     5521     5674     5715     5568 
    5514     5552     5470     5306     5368     5746     5995     5787 
    5589     5772     5867     5549     5281     5435     5726     5757 
    5584     5490     5544     5652     5742     5759     5659     5578 
    5764     6000     5765     5332     5418     5817     5822     5493 
