Origin Time       2015/03/20 01:56:00
Lat.              36.085
Long.             140.012
Depth. (km)       66
Mag.              3.6
Station Code      GNM009
Station Lat.      36.4106
Station Long.     139.3251
Station Height(m) 114
Record Time       2015/03/20 01:56:27
Sampling Freq(Hz) 100Hz
Duration Time(s)  60
Dir.              E-W
Scale Factor      7845(gal)/8223790
Max. Acc. (gal)   6.907
Last Correction   2015/03/20 01:56:27
Memo.             
[...]
    4538     4537     4540     4545     4531     4515     4522     4544 
    4553     4548     4531     4518     4519     4534     4541     4541 
    4544     4535     4523     4529     4537     4538     4544     4540 
    4523     4529     4548     4542     4523     4525     4534     4542 
    4548     4541     4522     4518     4537     4546     4537     4527 
    4526     4541     4552     4533     4523     4550     4550     4517 
    4518     4542     4548     4546     4538     4517     4519     4554 
    4568     4542     4513     4506     4531     4563     4552     4522 
    4525     4541     4541     4534     4525     4523     4540     4553 
    4535     4514     4527     4554     4553     4523     4511     4533 
    4557     4552     4525     4511     4533     4557     4548     4523 
    4523     4541     4545     4529     4522     4534     4550     4549 
    4530     4519     4522     4531     4553     4561     4534     4506 
    4517     4546     4558     4542     4533     4533     4525     4522 
    4540     4554     4546     4527     4518     4523     4542     4554 
    4545     4525     4514     4529     4554     4556     4531     4518 
    4527     4538     4545     4541     4530     4527     4535     4538 
    4531     4535     4541     4535     4525     4525     4540     4550 
    4546     4533     4526     4530     4535     4537     4537     4533 
    4534     4538     4529     4521     4540     4557     4544     4517 
    4511     4533     4560     4557     4531     4514     4515     4533 
    4557     4557     4530     4515     4529     4545     4545     4537 
    4525     4526     4545     4554     4537     4523     4531     4535 
    4529     4535     4548     4546     4537     4523     4515     4531 
    4556     4553     4530     4517     4522     4538     4548     4542 
    4534     4533     4531     4533     4538     4540     4537     4534 
    4533     4531     4535     4537     4538     4544     4533     4523 
    4533     4537     4533     4537     4534     4529     4540     4544 
    4531     4533     4540     4529     4527     4538     4535     4541 
    4557     4537     4507     4515     4542     4557     4554     4530 
    4517     4533     4545     4534     4530     4537     4541     4546 
    4540     4522     4527     4544     4542     4529     4522     4530 
    4550     4553     4527     4511     4526     4548     4557     4542 
    4518     4517     4538     4549     4545     4538     4533     4533 
    4533     4526     4531     4549     4550     4533     4519     4519 
    4537     4558     4548     4515     4514     4542     4553     4538 
    4529     4531     4537     4540     4534     4533     4545     4544 
    4527     4527     4533     4534     4545     4548     4526     4519 
    4537     4549     4542     4529     4523     4534     4545     4534 
    4527     4537     4541     4537     4535     4535     4538     4542 
    4527     4521     4542     4557     4541     4523     4523     4531 
    4545     4549     4534     4527     4535     4544     4538     4523 
    4518     4542     4560     4541     4522     4526     4530     4541 
    4548     4533     4525     4545     4545     4523     4521     4537 
    4546     4545     4530     4519     4537     4552     4541     4529 
    4529     4530     4545     4556     4531     4507     4531     4560 
    4548     4526     4527     4534     4544     4545     4526     4525 
    4550     4556     4535     4519     4515     4533     4558     4552 
    4523     4522     4542     4545     4535     4531     4533     4533 
    4537     4540     4533     4534     4544     4535     4526     4534 
    4544     4549     4548     4550     4579     4606     4554     4395 
    4266     4371     4671     4819     4646     4519     4773     5027 
    4720     4071     3770     4033     4515     4804     4758     4661 
    4820     4988     4685     4054     3773     4137     4715     5050 
    5074     4779     4410     4476     4652     4135     3569     4205 
    5243     5034     4247     4556     5339     4928     3719     3333 
    4106     5158     5472     4895     4438     4627     4696     4369 
    4338     4553     4217     3782     4344     5105     4877     4617 
    5043     4985     4126     3728     4311     5050     5000     4137 
    3658     4591     5664     4992     3765     4126     4978     4619 
    4284     4880     4954     4302     4203     4445     4398     4359 
    4263     4217     4854     5383     4811     4410     4812     4557 
    3809     3854     4271     4537     4843     5063     4905     4445 
    4352     4737     4708     4243     4144     4525     4966     5017 
    4622     4149     3861     4117     4851     5097     4638     4363 
    4549     4712     4762     4780     4384     3931     4270     4766 
    4563     4288     4521     4895     5038     4712     4107     4098 
    4656     4752     4415     4321     4380     4406     4556     4742 
    4772     4725     4527     4202     4283     4758     4837     4425 
    4166     4448     5109     5294     4603     3964     3936     4283 
    4760     4677     4082     4155     4926     5402     5186     4375 
    3773     4245     4909     4563     4012     4425     5258     5312 
    4388     3589     4050     5111     5093     4029     3681     4567 
    5173     4810     4541     4727     4592     4200     4240     4498 
    4471     4329     4456     4895     5123     4719     4345     4564 
    4641     4140     3767     4101     4926     5383     4914     4258 
    4353     4753     4560     4271     4687     4926     4289     4033 
    4718     4981     4360     3994     4472     5121     4892     3937 
    3689     4452     5119     5177     4878     4564     4423     4220 
    4014     4453     5167     4959     4140     3956     4353     4506 
    4421     4608     4949     4803     4233     4175     4797     5073 
    4735     4511     4333     3946     4014     4710     5104     4791 
    4434     4502     4703     4590     4401     4719     4977     4395 
    3951     4431     4793     4530     4486     4811     4669     3965 
    3755     4600     5563     5325     4097     3601     4338     4854 
    4590     4386     4664     5127     4942     3993     3880     4982 
    5296     4352     3873     4074     3888     3871     4833     5645 
    5296     4557     4383     4568     4522     4314     4283     4464 
    4781     5001     4892     4654     4372     3993     4125     4799 
    4791     4110     4129     4784     4931     4517     4276     4507 
    4946     5023     4353     3636     4002     5032     5259     4540 
    4105     4572     5107     4788     4064     3902     4324     4748 
    4795     4537     4534     4923     4882     4247     3969     4171 
    4222     4311     4918     5526     5205     4280     3901     4255 
    4623     4594     4494     4730     4994     4761     4306     4202 
    4261     4066     3970     4534     5235     5286     4956     4552 
    4067     4006     4390     4540     4654     5077     5004     4322 
    4162     4553     4614     4448     4391     4140     4105     4922 
    5447     4734     4067     4214     4457     4587     4550     4194 
    4153     4784     5217     4779     4302     4723     5073     4324 
    3642     4090     4823     5036     4982     4704     4102     3888 
    4486     5148     4997     4225     3998     4592     4909     4446 
    3919     4081     4768     5071     4638     4368     4820     5082 
    4669     4444     4603     4393     4106     4437     4627     4171 
    4174     4795     4823     4284     4144     4553     4989     5022 
    4654     4212     4260     4976     5197     4225     3595     4388 
    5285     5069     4297     3896     4152     4838     5200     4673 
    3898     3852     4479     5084     5059     4357     4035     4752 
    5140     4425     3971     4238     4372     4471     4874     5202 
    5069     4425     3839     4051     4685     4946     4916     4820 
    4654     4506     4203     3893     4050     4463     4878     5161 
    4779     4149     4368     4959     4769     4256     4228     4401 
    4603     4738     4500     4261     4382     4549     4446     4248 
    4595     5431     5495     4403     3554     3743     4167     4441 
    5107     5649     4887     3727     3951     4927     5051     4494 
    4391     4864     4834     4039     3775     4544     5081     4730 
    4491     4741     4461     3846     4271     5201     4916     3892 
    3932     4876     5100     4402     4148     4830     5266     4745 
    3915     3647     4314     5113     4961     4401     4347     4614 
    4847     4880     4535     4036     3974     4529     5107     4943 
    4163     3955     4685     5073     4681     4405     4374     4409 
    4665     4779     4588     4542     4610     4523     4374     4149 
    4064     4635     5263     4993     4299     3993     4178     4661 
    4878     4484     4228     4773     5174     4615     4159     4560 
    4926     4644     4140     4009     4330     4580     4615     4854 
    4918     4286     3896     4475     4893     4515     4473     5060 
    5090     4334     3890     4263     4630     4491     4483     4652 
    4464     4496     4992     4772     3986     4021     4610     4810 
    4812     4830     4658     4552     4691     4563     4152     4205 
    4695     4970     4777     4275     4104     4565     4801     4382 
    4066     4263     4654     4861     4733     4541     4515     4591 
    4726     4704     4378     4248     4549     4635     4355     4288 
    4573     4882     4839     4372     4047     4342     4868     4943 
    4591     4433     4544     4406     4149     4248     4545     4783 
    4881     4730     4518     4396     4276     4444     4896     4803 
    4218     4212     4769     4981     4594     4180     4371     4876 
    4787     4083     3804     4482     5173     4887     4299     4342 
    4468     4228     4388     5084     5281     4831     4639     4653 
    4189     3719     4054     4824     5046     4360     3767     4440 
    5382     4951     4023     4233     5013     5020     4461     4357 
    4649     4498     4105     4213     4399     4199     4340     4978 
    5177     4718     4270     4330     4695     4698     4415     4483 
    4710     4715     4596     4326     4079     4286     4738     4950 
    4799     4441     4398     4800     4841     4310     3973     4109 
    4577     5109     5015     4379     4166     4333     4278     4276 
    4588     4904     4927     4666     4556     4658     4450     4197 
    4463     4699     4515     4388     4423     4541     4654     4423 
    4311     4814     4988     4472     4440     4907     4777     4245 
    4214     4661     4824     4364     3882     4131     4791     4770 
    4215     4371     4984     4834     4301     4436     4936     4928 
    4330     3842     4212     5086     5223     4635     4519     4604 
    4002     3719     4603     5259     4784     4252     4348     4440 
    4074     3835     4571     5786     5980     4955     3967     3736 
    3931     4202     4457     4615     4696     4788     4911     4849 
    4419     4054     4176     4502     4753     4876     4718     4496 
    4568     4518     4062     3954     4599     5179     4951     4220 
    3974     4610     5130     4787     4405     4573     4626     4423 
    4515     4525     4133     4260     4923     4880     4317     4317 
    4568     4436     4170     4074     4387     5077     5263     4656 
    4270     4405     4461     4498     4725     4831     4761     4654 
    4436     4243     4223     4217     4380     4795     4945     4716 
    4522     4421     4417     4554     4576     4596     4800     4702 
    4315     4352     4556     4240     3880     4238     4889     5039 
    4797     4576     4401     4382     4561     4565     4468     4681 
    4874     4573     4207     4396     4806     4881     4684     4430 
    4310     4393     4413     4243     4228     4496     4714     4851 
    4994     4814     4360     4223     4398     4418     4413     4662 
    4852     4689     4352     4245     4461     4461     4158     4391 
    5092     5136     4533     4209     4293     4395     4506     4733 
    4962     5026     4823     4403     3979     3835     4183     4706 
    4814     4638     4565     4577     4622     4560     4320     4158 
    4275     4671     5035     4892     4467     4531     4976     4814 
    4097     3944     4401     4707     4797     4716     4529     4631 
    4692     4205     3880     4419     5120     5034     4336     3847 
    4063     4808     5294     4851     3990     4023     4951     5158 
    4324     4067     4708     4908     4475     4248     4467     4953 
    5179     4504     3670     3840     4407     4464     4455     4596 
    4517     4754     5555     5610     4641     4036     4113     4025 
    3544     3117     3252     4055     5116     6170     7119     7334 
    6037     3443     1147      957     3003     5854     8063     8553 
    7006     4464     2442     1888     2894     4205     4220     3537 
    3899     4779     4734     4287     4666     5938     7011     6843 
    5752     4429     2732      943      268     1775     5414     9050 
    9845     7654     4708     2089     -463    -1952     -513     3997 
    9202    11724    10120     6417     3515     1973      733     -310 
     261     3449     7878    10821    10746     8101     4187      133 
   -2690    -2473     1512     7495    11776    11580     8203     5268 
    3665     2249     1509     2012     2802     3573     4868     6376 
    7276     6875     4842     2519     1942     2721     3194     3619 
    5080     7129     8486     8451     7069     4787     1973     -504 
   -1146      110     2273     5275     8349     9445     7889     5016 
    2837     2475     3387     4716     6087     6721     5948     4243 
    2517     1570     2457     4958     6446     5192     3177     3225 
    5100     6411     5971     4822     4406     4564     4369     3937 
    4012     4757     5271     4905     4538     4708     4611     4041 
    3820     4317     5030     5613     6056     5764     4619     3757 
    3719     4248     5154     5460     4228     2336     1371     1856 
    3542     5607     6524     5599     4001     3511     4747     6620 
    7756     7538     5644     2739     1102     2154     4614     6401 
    6323     4276     2012     1615     2488     3134     3970     5476 
    6919     7438     6633     5385     4927     4770     4176     4051 
    5032     5980     5949     5092     3140      788      903     4357 
    8086     9023     6721     2794     -418     -928     1798     5782 
    8181     8208     6608     4233     2546     2779     4324     5594 
    5719     4963     4185     4003     4419     4931     4997     4502 
    3901     3778     4074     4531     5506     6812     6875     4855 
    2219     1278     2740     4692     5123     4587     4315     4120 
    3754     3834     4700     5618     5637     5093     5024     5390 
    5718     5977     5655     4459     3294     2809     2894     3445 
    4383     5583     6178     5223     3802     3457     3774     4102 
    4730     5452     5562     5063     4656     4495     3963     3388 
    3936     5298     5996     5486     4410     3588     3497     4162 
    5093     5328     4091     2421     2311     3709     5229     6170 
    6216     5861     5655     4758     3383     3459     4841     5289 
    4452     3894     4088     4167     3867     3866     4309     4743 
    5292     6127     6615     5992     4459     3345     3504     3996 
    3663     3045     3198     4001     4738     4993     4768     4666 
    5208     5883     5961     5427     4739     4472     4475     3964 
    3140     3065     4062     5205     5389     4822     4665     5069 
    4997     4209     3563     3454     3925     4892     5605     5535 
    4850     4039     3684     3746     3956     4600     5519     5913 
    5679     5306     4918     4415     3798     3248     3169     3696 
    4549     5391     5590     4738     3473     2755     3244     4808 
    6048     5977     5323     5057     5107     4846     4197     3861 
    3994     3855     3437     3308     3492     4107     5024     5331 
    5062     5332     6035     5996     5086     4145     3532     3258 
    3570     4399     5209     5764     5902     5184     3832     2849 
    2820     3709     5285     6853     7398     6521     4750     3165 
    2600     2776     3196     4058     5127     5555     5262     4729 
    4098     3618     3716     4305     4770     4637     4268     4463 
    5104     5341     5178     5277     5273     4411     3254     3009 
    3915     4901     4963     4511     4357     4514     4634     4388 
    3696     3253     3751     4723     5304     5113     4548     4727 
    5755     6168     5443     4789     4803     4742     4167     3582 
    3573     4006     4253     4217     4348     4881     5585     5798 
    5152     4171     3469     3354     4017     4899     4956     4436 
    4641     5595     5919     5063     4005     3690     3763     3557 
    3628     4758     6146     6249     4882     3280     2601     3102 
    4228     5285     5763     5333     4433     3766     3303     3231 
    4129     5422     5807     5300     5100     5209     4418     3117 
    2928     3823     4935     5973     6301     5637     4685     3858 
    3276     3283     3859     4653     5485     5950     5661     4982 
    4396     3960     3705     3811     4440     5250     5575     5412 
    4965     4098     3310     3275     3694     4306     5229     5809 
    5339     4534     4367     4383     3960     3723     4159     4838 
    5377     5506     4874     3802     3144     3245     3773     4291 
    4691     5051     5070     4460     3924     4189     4756     5009 
    5086     4996     4752     4835     5062     4702     4058     3812 
    3962     4440     5069     5437     5590     5483     4683     3538 
    2986     3355     4392     5617     6189     5637     4638     3870 
    3369     3426     4187     5026     5385     5215     4722     4286 
    4060     3983     4384     5278     5579     4611     3388     3312 
    4456     5530     5462     4723     4288     4082     3798     3951 
    4826     5574     5432     4611     3563     2820     2960     3815 
    4738     5337     5355     4943     4702     4752     4757     4517 
    4110     4090     4590     4764     4405     4162     4159     4327 
    4629     4808     5119     5653     5605     4961     4563     4364 
    4087     4185     4885     5532     5325     4504     4145     4409 
    4537     4482     4494     4352     4112     3973     3946     4280 
    5008     5514     5262     4402     3439     2867     3213     4522 
    5859     6081     5173     4158     3537     3156     3358     4392 
    5502     5756     4985     3944     3740     4546     5278     5135 
    4596     4338     4301     4186     4093     4429     5136     5448 
    5082     4656     4492     4307     4055     4027     4253     4579 
    4953     5127     4780     4301     4433     4862     4658     4145 
    4275     4780     4792     4288     4033     4419     4843     4824 
    4692     4653     4592     4579     4621     4568     4452     4268 
