Origin Time       2018/05/18 02:56:00
Lat.              35.463
Long.             140.385
Depth. (km)       28
Mag.              2.9
Station Code      CHB013
Station Lat.      35.4327
Station Long.     140.2905
Station Height(m) 13
Record Time       2018/05/18 02:56:21
Sampling Freq(Hz) 100Hz
Duration Time(s)  60
Dir.              E-W
Scale Factor      7845(gal)/8223790
Max. Acc. (gal)   4.340
Last Correction   2018/05/18 02:56:21
Memo.             
[...]
  -15924   -15928   -15929   -15921   -15920   -15925   -15923   -15924 
  -15931   -15925   -15924   -15931   -15924   -15920   -15929   -15931 
  -15919   -15917   -15924   -15923   -15925   -15931   -15924   -15921 
  -15925   -15923   -15923   -15932   -15929   -15919   -15925   -15931 
  -15923   -15920   -15924   -15924   -15924   -15927   -15925   -15928 
  -15927   -15919   -15920   -15929   -15925   -15919   -15927   -15931 
  -15927   -15927   -15928   -15924   -15920   -15920   -15923   -15925 
  -15927   -15927   -15928   -15929   -15924   -15917   -15925   -15927 
  -15917   -15924   -15931   -15923   -15928   -15931   -15920   -15920 
  -15928   -15927   -15923   -15924   -15928   -15927   -15928   -15928 
  -15920   -15919   -15925   -15923   -15921   -15931   -15927   -15920 
  -15925   -15924   -15919   -15923   -15927   -15923   -15923   -15924 
  -15925   -15929   -15925   -15919   -15924   -15928   -15919   -15916 
  -15928   -15932   -15927   -15927   -15924   -15919   -15923   -15923 
  -15919   -15924   -15927   -15923   -15924   -15928   -15928   -15924 
  -15924   -15923   -15923   -15931   -15929   -15920   -15921   -15928 
  -15929   -15925   -15921   -15923   -15928   -15928   -15923   -15919 
  -15924   -15927   -15921   -15924   -15927   -15921   -15920   -15927 
  -15924   -15920   -15924   -15927   -15925   -15921   -15917   -15919 
  -15925   -15924   -15921   -15928   -15932   -15927   -15924   -15927 
  -15924   -15921   -15920   -15919   -15925   -15927   -15919   -15924 
  -15932   -15928   -15917   -15913   -15916   -15921   -15924   -15924 
  -15924   -15923   -15924   -15925   -15928   -15925   -15917   -15923 
  -15935   -15928   -15924   -15928   -15920   -15917   -15925   -15925 
  -15923   -15921   -15921   -15925   -15925   -15923   -15919   -15917 
  -15923   -15921   -15921   -15931   -15924   -15916   -15924   -15925 
  -15924   -15929   -15924   -15916   -15921   -15928   -15931   -15931 
  -15927   -15916   -15917   -15931   -15929   -15919   -15919   -15923 
  -15925   -15927   -15923   -15921   -15920   -15920   -15921   -15921 
  -15924   -15925   -15924   -15924   -15927   -15929   -15929   -15921 
  -15920   -15929   -15925   -15915   -15919   -15927   -15925   -15924 
  -15923   -15921   -15923   -15920   -15919   -15927   -15931   -15924 
  -15919   -15923   -15928   -15928   -15924   -15920   -15923   -15928 
  -15931   -15928   -15927   -15925   -15919   -15920   -15928   -15923 
  -15917   -15925   -15931   -15925   -15923   -15928   -15921   -15915 
  -15924   -15925   -15921   -15928   -15931   -15923   -15925   -15929 
  -15921   -15921   -15925   -15921   -15921   -15927   -15925   -15924 
  -15927   -15925   -15925   -15924   -15917   -15919   -15934   -15932 
  -15920   -15925   -15932   -15925   -15921   -15923   -15920   -15920 
  -15927   -15927   -15925   -15924   -15916   -15920   -15927   -15921 
  -15920   -15927   -15924   -15921   -15928   -15931   -15921   -15924 
  -15927   -15915   -15917   -15934   -15928   -15921   -15927   -15919 
  -15915   -15931   -15932   -15919   -15921   -15925   -15919   -15921 
  -15924   -15920   -15924   -15924   -15919   -15925   -15931   -15920 
  -15919   -15929   -15925   -15917   -15921   -15924   -15920   -15921 
  -15925   -15925   -15923   -15921   -15919   -15924   -15929   -15921 
  -15916   -15925   -15927   -15923   -15929   -15934   -15920   -15920 
  -15927   -15917   -15917   -15929   -15927   -15921   -15924   -15924 
  -15924   -15925   -15923   -15923   -15929   -15925   -15920   -15924 
  -15928   -15925   -15924   -15928   -15925   -15917   -15923   -15929 
  -15925   -15923   -15920   -15920   -15925   -15928   -15925   -15921 
  -15925   -15924   -15916   -15923   -15929   -15923   -15920   -15920 
  -15924   -15932   -15928   -15921   -15927   -15927   -15925   -15929 
  -15927   -15919   -15920   -15931   -15936   -15931   -15925   -15921 
  -15919   -15921   -15927   -15928   -15923   -15917   -15920   -15925 
  -15928   -15920   -15916   -15921   -15920   -15923   -15934   -15927 
  -15921   -15932   -15932   -15925   -15927   -15924   -15921   -15925 
  -15927   -15923   -15924   -15927   -15921   -15921   -15931   -15925 
  -15917   -15917   -15919   -15925   -15932   -15925   -15920   -15921 
  -15925   -15925   -15927   -15925   -15919   -15917   -15925   -15928 
  -15928   -15928   -15921   -15919   -15921   -15924   -15925   -15924 
  -15921   -15920   -15924   -15927   -15924   -15923   -15925   -15920 
  -15919   -15932   -15929   -15920   -15923   -15923   -15923   -15925 
  -15921   -15919   -15925   -15925   -15923   -15928   -15929   -15923 
  -15920   -15923   -15924   -15919   -15917   -15920   -15919   -15925 
  -15931   -15917   -15913   -15923   -15924   -15924   -15923   -15915 
  -15919   -15932   -15934   -15923   -15923   -15923   -15919   -15924 
  -15927   -15917   -15924   -15932   -15927   -15924   -15924   -15924 
  -15924   -15919   -15916   -15920   -15921   -15924   -15925   -15924 
  -15921   -15923   -15928   -15925   -15916   -15917   -15924   -15927 
  -15924   -15924   -15924   -15920   -15919   -15923   -15923   -15924 
  -15927   -15927   -15925   -15925   -15923   -15917   -15920   -15924 
  -15923   -15923   -15924   -15924   -15929   -15931   -15923   -15919 
  -15915   -15912   -15921   -15925   -15920   -15920   -15931   -15931 
  -15923   -15920   -15924   -15928   -15928   -15920   -15917   -15927 
  -15929   -15921   -15925   -15929   -15921   -15919   -15925   -15929 
  -15925   -15921   -15924   -15927   -15924   -15919   -15921   -15929 
  -15925   -15919   -15928   -15935   -15923   -15921   -15929   -15920 
  -15913   -15927   -15928   -15920   -15925   -15927   -15923   -15928 
  -15928   -15921   -15923   -15923   -15917   -15925   -15935   -15928 
  -15923   -15928   -15923   -15919   -15927   -15925   -15919   -15921 
  -15923   -15925   -15932   -15929   -15923   -15925   -15928   -15921 
  -15920   -15928   -15927   -15921   -15925   -15927   -15925   -15924 
  -15921   -15925   -15928   -15924   -15920   -15925   -15927   -15917 
  -15923   -15929   -15920   -15923   -15931   -15927   -15923   -15927 
  -15924   -15924   -15929   -15923   -15917   -15923   -15931   -15932 
  -15928   -15924   -15921   -15924   -15928   -15923   -15917   -15925 
  -15931   -15924   -15923   -15928   -15931   -15931   -15928   -15920 
  -15924   -15931   -15921   -15919   -15931   -15927   -15920   -15934 
  -15932   -15917   -15919   -15924   -15924   -15924   -15923   -15919 
  -15920   -15925   -15927   -15925   -15923   -15917   -15921   -15928 
  -15927   -15924   -15928   -15927   -15920   -15924   -15927   -15923 
  -15928   -15934   -15924   -15923   -15928   -15920   -15916   -15924 
  -15921   -15921   -15932   -15931   -15920   -15920   -15923   -15921 
  -15923   -15920   -15915   -15921   -15928   -15920   -15921   -15929 
  -15927   -15923   -15928   -15925   -15919   -15927   -15928   -15921 
  -15928   -15927   -15915   -15921   -15934   -15927   -15920   -15920 
  -15921   -15925   -15925   -15916   -15917   -15928   -15924   -15913 
  -15919   -15925   -15921   -15919   -15923   -15925   -15932   -15935 
  -15921   -15919   -15931   -15928   -15923   -15925   -15923   -15921 
  -15925   -15924   -15921   -15923   -15924   -15919   -15916   -15923 
  -15924   -15916   -15921   -15927   -15923   -15924   -15924   -15920 
  -15924   -15932   -15929   -15923   -15925   -15925   -15925   -15929 
  -15924   -15920   -15927   -15923   -15919   -15927   -15925   -15920 
  -15923   -15925   -15921   -15921   -15924   -15921   -15923   -15929 
  -15927   -15919   -15925   -15929   -15925   -15929   -15932   -15928 
  -15928   -15925   -15919   -15925   -15931   -15920   -15916   -15923 
  -15923   -15923   -15928   -15924   -15915   -15919   -15929   -15924 
  -15920   -15921   -15924   -15931   -15934   -15924   -15924   -15931 
  -15924   -15927   -15935   -15925   -15919   -15928   -15928   -15920 
  -15927   -15929   -15921   -15927   -15928   -15917   -15921   -15929 
  -15919   -15917   -15929   -15931   -15923   -15921   -15927   -15924 
  -15923   -15928   -15925   -15921   -15925   -15927   -15927   -15932 
  -15927   -15923   -15928   -15925   -15919   -15923   -15927   -15923 
  -15923   -15920   -15917   -15927   -15931   -15916   -15916   -15928 
  -15925   -15920   -15920   -15924   -15928   -15924   -15919   -15923 
  -15929   -15924   -15915   -15924   -15934   -15925   -15921   -15927 
  -15925   -15917   -15917   -15921   -15924   -15925   -15921   -15920 
  -15927   -15919   -15909   -15921   -15931   -15920   -15915   -15921 
  -15923   -15920   -15921   -15924   -15925   -15925   -15923   -15925 
  -15928   -15924   -15925   -15936   -15934   -15919   -15923   -15928 
  -15920   -15921   -15929   -15921   -15921   -15927   -15923   -15921 
  -15920   -15923   -15927   -15921   -15921   -15924   -15925   -15924 
  -15920   -15919   -15921   -15923   -15921   -15923   -15927   -15927 
  -15924   -15927   -15928   -15924   -15919   -15919   -15927   -15929 
  -15920   -15923   -15932   -15924   -15919   -15928   -15923   -15916 
  -15925   -15928   -15928   -15932   -15927   -15919   -15921   -15928 
  -15931   -15928   -15921   -15919   -15928   -15932   -15921   -15919 
  -15929   -15924   -15915   -15923   -15927   -15920   -15920   -15924 
  -15921   -15921   -15925   -15925   -15924   -15925   -15917   -15917 
  -15931   -15929   -15920   -15928   -15931   -15919   -15920   -15923 
  -15915   -15927   -15935   -15915   -15917   -15954   -15952   -15917 
  -15927   -15942   -15906   -15943   -16005   -15880   -15786   -15889 
  -15896   -15898   -16011   -15931   -15854   -15986   -15982   -15900 
  -15955   -15896   -15795   -15949   -16060   -15938   -15936   -16002 
  -15900   -15886   -15965   -15885   -15889   -15982   -15853   -15803 
  -15963   -15963   -15916   -15985   -15948   -15865   -15923   -15979 
  -15898   -15880   -15984   -15959   -15880   -15934   -15949   -15896 
  -15901   -15896   -15900   -15965   -15959   -15944   -15997   -15929 
  -15813   -15886   -15942   -15870   -15912   -16013   -15974   -15900 
  -15904   -15929   -15942   -15939   -15911   -15889   -15905   -15911 
  -15946   -16013   -15920   -15804   -15916   -15989   -15963   -16017 
  -15919   -15769   -15898   -16035   -16005   -15963   -15861   -15776 
  -15888   -15970   -15863   -15869   -16015   -16009   -15917   -15963 
  -15958   -15823   -15869   -15984   -15927   -15949   -15997   -15854 
  -15857   -16004   -15893   -15790   -15925   -15962   -15981   -16098 
  -15971   -15741   -15790   -15946   -15988   -15969   -15925   -15917 
  -15908   -15866   -15981   -16106   -15938   -15774   -15869   -15985 
  -15958   -15853   -15863   -15951   -15842   -15834   -16097   -16011 
  -15720   -15851   -16020   -16009   -16090   -16055   -15947   -15939 
  -15788   -15707   -15898   -15927   -15790   -15828   -15942   -15944 
  -15916   -16087   -16275   -16069   -15855   -15948   -15867   -15673 
  -15739   -15873   -15970   -16021   -15925   -15870   -15938   -15928 
  -15903   -15963   -15924   -15858   -16000   -16104   -15965   -15854 
  -15881   -15849   -15788   -15888   -15989   -15928   -15912   -15985 
  -16033   -16043   -15924   -15803   -15830   -15846   -15909   -16047 
  -16000   -15863   -15880   -15978   -15972   -15854   -15824   -15920 
  -16002   -15958   -15799   -15884   -16166   -16077   -15863   -15905 
  -15813   -15723   -15951   -16031   -15857   -15820   -15908   -15997 
  -16079   -16025   -15889   -15896   -15935   -15851   -15919   -16077 
  -15884   -15677   -15880   -15996   -15929   -16081   -16137   -15912 
  -15817   -15894   -15898   -15830   -15846   -15859   -15759   -15817 
  -15948   -15777   -15830   -16316   -16246   -15715   -15782   -16228 
  -16325   -16106   -15805   -15672   -15731   -15773   -15970   -16232 
  -15979   -15561   -15770   -16164   -16025   -15739   -15797   -15850 
  -15674   -15766   -16183   -16326   -16121   -15861   -15743   -15923 
  -16032   -15906   -16008   -16038   -15678   -15664   -16015   -16096 
  -16059   -16046   -15863   -15705   -15720   -15838   -16065   -16223 
  -16128   -15936   -15844   -15763   -15620   -15622   -15807   -16017 
  -16194   -16124   -15853   -15896   -16136   -16074   -15905   -15858 
  -15801   -15809   -15958   -16038   -16000   -15993   -15962   -15843 
  -15849   -15920   -15838   -15847   -16033   -15986   -15741   -15745 
  -15925   -15954   -15947   -16051   -16077   -15943   -15793   -15847 
  -16075   -16083   -15925   -15963   -16000   -15877   -15803   -15782 
  -15738   -15731   -15842   -16005   -16100   -16113   -16092   -16047 
  -16019   -15990   -15916   -15807   -15711   -15705   -15817   -15915 
  -15917   -15974   -16113   -16089   -15923   -15876   -15892   -15896 
  -16000   -16051   -15955   -15944   -15928   -15705   -15616   -15851 
  -16035   -16042   -16025   -15949   -15896   -16029   -16070   -15781 
  -15628   -15893   -16109   -16058   -15924   -15739   -15678   -15905 
  -16116   -16119   -16074   -15949   -15721   -15754   -16004   -15932 
  -15803   -16055   -16197   -16000   -15862   -15850   -15813   -15731 
  -15754   -16005   -16151   -15959   -15820   -16013   -16201   -16050 
  -15827   -15889   -15994   -15850   -15721   -15842   -15936   -15781 
  -15660   -15754   -15727   -15758   -16451   -17305   -17822   -18585 
  -19197   -18783   -17856   -16225   -13565   -12074   -12483   -12258 
  -11375   -11988   -13581   -15094   -16794   -17809   -17450   -17081 
  -17250   -17258   -17763   -18816   -18396   -16856   -16429   -15797 
  -13312   -11500   -12012   -13289   -14881   -16899   -18117   -18395 
  -18364   -17474   -16094   -15977   -17054   -17513   -17067   -16659 
  -15583   -13212   -11840   -13188   -15638   -17589   -18616   -18108 
  -16669   -15742   -15097   -14166   -13809   -14986   -17231   -18474 
  -17408   -15611   -14906   -15048   -15398   -15893   -16491   -16915 
  -16968   -17087   -17098   -15660   -13300   -12677   -14393   -16254 
  -16702   -16259   -15747   -15390   -15853   -17084   -17408   -16883 
  -17127   -17089   -15566   -14551   -14831   -14575   -14087   -14936 
  -16193   -16729   -17350   -18117   -17724   -16173   -15013   -14856 
  -15003   -15407   -16478   -17425   -17302   -16633   -16081   -15327 
  -14438   -14175   -14700   -15438   -15786   -15678   -15510   -15502 
  -15769   -16395   -16981   -17074   -16738   -16197   -15657   -15545 
  -16071   -16634   -16476   -15812   -15490   -15615   -15720   -16033 
  -16794   -17054   -16066   -14897   -14844   -15392   -15579   -15731 
  -16255   -16698   -16584   -15859   -14971   -14728   -15354   -16012 
  -15915   -15503   -15588   -16055   -16351   -16313   -16175   -16093 
  -15924   -15855   -16314   -16860   -16695   -16029   -15668   -15714 
  -15597   -15229   -15279   -15943   -16521   -16555   -16347   -16305 
  -16563   -16987   -17200   -16935   -16266   -15414   -14558   -13936 
  -13895   -14536   -15410   -15992   -16213   -16178   -15936   -15736 
  -15813   -15944   -15870   -15893   -16286   -16660   -16679   -16425 
  -15961   -15627   -15923   -16565   -16820   -16501   -15778   -14913 
  -14415   -14508   -14743   -14962   -15639   -16686   -17329   -17421 
  -17475   -17528   -17044   -15984   -15157   -15120   -15533   -15970 
  -16375   -16606   -16449   -16056   -15682   -15261   -14743   -14412 
  -14531   -15097   -15911   -16583   -16741   -16359   -15785   -15447 
  -15542   -15893   -16086   -15975   -15842   -15873   -15955   -16009 
  -16155   -16536   -17037   -17193   -16652   -15811   -15313   -15030 
  -14634   -14561   -15219   -16131   -16615   -16625   -16524   -16444 
  -16260   -16028   -15886   -15764   -15595   -15444   -15403   -15556 
  -15932   -16391   -16657   -16580   -16322   -16140   -16106   -16102 
  -15970   -15766   -15738   -15855   -15723   -15272   -14979   -15147 
  -15565   -15904   -15913   -15607   -15493   -15944   -16636   -17162 
  -17377   -17054   -16320   -15811   -15651   -15390   -14998   -14836 
  -14979   -15259   -15562   -15924   -16353   -16740   -16984   -16988 
  -16719   -16349   -15998   -15581   -15105   -14837   -14987   -15333 
  -15589   -15777   -15888   -15905   -16083   -16448   -16592   -16443 
  -16367   -16476   -16586   -16595   -16501   -16241   -15724   -15036 
  -14515   -14428   -14671   -15021   -15485   -16090   -16654   -16949 
  -16883   -16497   -16025   -15795   -15932   -16231   -16414   -16417 
  -16332   -16189   -15965   -15766   -15749   -15890   -16012   -15955 
  -15646   -15165   -14844   -14959   -15447   -16087   -16567   -16556 
  -16098   -15610   -15376   -15457   -15817   -16246   -16434   -16244 
  -15826   -15435   -15255   -15368   -15731   -16179   -16546   -16846 
  -17145   -17263   -16938   -16341   -15904   -15707   -15545   -15396 
  -15329   -15292   -15314   -15449   -15628   -15834   -16055   -16104 
  -15840   -15426   -15188   -15358   -15884   -16459   -16831   -16895 
  -16623   -16208   -15929   -15838   -15853   -15906   -15873   -15703 
  -15500   -15412   -15539   -15840   -16129   -16282   -16309   -16190 
  -15900   -15601   -15510   -15615   -15826   -16078   -16282   -16387 
  -16374   -16195   -15915   -15627   -15350   -15165   -15202   -15488 
  -15929   -16329   -16468   -16337   -16154   -16028   -15839   -15579 
  -15475   -15577   -15692   -15766   -15862   -15952   -16046   -16270 
  -16680   -17107   -17301   -17184   -16817   -16194   -15348   -14580 
  -14220   -14315   -14735   -15371   -16054   -16588   -16843   -16764 
  -16403   -15932   -15561   -15407   -15453   -15599   -15746   -15882 
  -16063   -16301   -16551   -16752   -16816   -16633   -16198   -15746 
  -15484   -15373   -15352   -15421   -15526   -15624   -15704   -15703 
  -15624   -15599   -15724   -15939   -16131   -16294   -16463   -16555 
  -16472   -16210   -15820   -15433   -15215   -15277   -15577   -15917 
  -16197   -16441   -16542   -16414   -16147   -15785   -15403   -15252 
  -15435   -15795   -16150   -16444   -16659   -16695   -16463   -16060 
  -15742   -15665   -15728   -15782   -15834   -15876   -15820   -15698 
  -15604   -15529   -15507   -15653   -15939   -16213   -16363   -16332 
  -16112   -15844   -15721   -15751   -15822   -15859   -15823   -15750 
  -15741   -15828   -15984   -16164   -16275   -16267   -16213   -16143 
  -16058   -15977   -15827   -15570   -15334   -15236   -15336   -15651 
  -16013   -16248   -16406   -16497   -16444   -16326   -16248   -16155 
  -16031   -15939   -15880   -15738   -15457   -15209   -15221   -15476 
  -15769   -16012   -16225   -16368   -16388   -16332   -16291   -16227 
  -16013   -15641   -15288   -15163   -15300   -15579   -15882   -16164 
  -16375   -16471   -16441   -16275   -15996   -15703   -15502   -15460 
  -15592   -15843   -16109   -16272   -16244   -16058   -15834   -15678 
  -15688   -15893   -16195   -16454   -16565   -16482   -16267   -16031 
  -15807   -15592   -15452   -15447   -15538   -15628   -15653   -15638 
  -15630   -15622   -15655   -15793   -15981   -16143   -16270   -16360 
  -16428   -16480   -16443   -16244   -15969   -15730   -15565   -15502 
  -15543   -15669   -15857   -16043   -16151   -16179   -16133   -15990 
  -15790   -15622   -15522   -15487   -15503   -15562   -15687   -15884 
