Origin Time       2018/05/18 02:56:00
Lat.              35.463
Long.             140.385
Depth. (km)       28
Mag.              2.9
Station Code      CHB013
Station Lat.      35.4327
Station Long.     140.2905
Station Height(m) 13
Record Time       2018/05/18 02:56:21
Sampling Freq(Hz) 100Hz
Duration Time(s)  60
Dir.              N-S
Scale Factor      7845(gal)/8223790
Max. Acc. (gal)   5.722
Last Correction   2018/05/18 02:56:21
Memo.             
[...]
   -5448    -5448    -5443    -5439    -5439    -5443    -5440    -5435 
   -5443    -5452    -5443    -5441    -5448    -5441    -5433    -5441 
   -5448    -5441    -5437    -5443    -5447    -5445    -5445    -5447 
   -5443    -5436    -5441    -5448    -5443    -5437    -5447    -5448 
   -5441    -5448    -5455    -5447    -5443    -5447    -5445    -5445 
   -5445    -5440    -5440    -5441    -5437    -5440    -5452    -5452 
   -5439    -5443    -5456    -5443    -5435    -5443    -5443    -5439 
   -5441    -5447    -5455    -5452    -5445    -5443    -5443    -5443 
   -5445    -5443    -5440    -5439    -5443    -5448    -5441    -5439 
   -5451    -5448    -5436    -5443    -5454    -5448    -5439    -5439 
   -5445    -5447    -5441    -5443    -5447    -5448    -5443    -5445 
   -5448    -5443    -5437    -5441    -5447    -5441    -5436    -5441 
   -5448    -5445    -5440    -5443    -5448    -5443    -5436    -5433 
   -5440    -5454    -5459    -5447    -5437    -5447    -5448    -5443 
   -5443    -5447    -5445    -5445    -5447    -5447    -5443    -5445 
   -5448    -5441    -5441    -5452    -5447    -5437    -5439    -5439 
   -5440    -5445    -5443    -5439    -5448    -5454    -5443    -5443 
   -5451    -5443    -5441    -5448    -5443    -5437    -5448    -5452 
   -5441    -5439    -5447    -5451    -5443    -5436    -5435    -5440 
   -5445    -5441    -5437    -5440    -5443    -5445    -5445    -5443 
   -5440    -5441    -5445    -5443    -5437    -5439    -5448    -5448 
   -5448    -5445    -5441    -5443    -5447    -5443    -5445    -5448 
   -5435    -5431    -5443    -5448    -5448    -5448    -5440    -5441 
   -5448    -5443    -5441    -5448    -5443    -5435    -5443    -5455 
   -5451    -5443    -5443    -5443    -5447    -5448    -5443    -5443 
   -5443    -5439    -5441    -5452    -5443    -5429    -5443    -5454 
   -5439    -5431    -5441    -5445    -5436    -5437    -5447    -5448 
   -5445    -5443    -5443    -5451    -5455    -5445    -5441    -5441 
   -5439    -5448    -5456    -5443    -5437    -5445    -5443    -5443 
   -5445    -5437    -5433    -5440    -5445    -5447    -5443    -5440 
   -5443    -5445    -5443    -5441    -5440    -5443    -5447    -5447 
   -5447    -5445    -5445    -5447    -5440    -5441    -5451    -5452 
   -5445    -5441    -5441    -5441    -5443    -5443    -5437    -5436 
   -5447    -5454    -5443    -5436    -5443    -5447    -5443    -5440 
   -5443    -5441    -5440    -5443    -5451    -5451    -5447    -5448 
   -5443    -5437    -5443    -5443    -5435    -5443    -5452    -5440 
   -5435    -5448    -5452    -5441    -5440    -5448    -5451    -5441 
   -5440    -5447    -5448    -5443    -5440    -5451    -5452    -5440 
   -5441    -5451    -5447    -5437    -5433    -5440    -5443    -5439 
   -5443    -5452    -5448    -5448    -5451    -5445    -5441    -5443 
   -5445    -5443    -5441    -5440    -5448    -5454    -5448    -5443 
   -5443    -5445    -5443    -5441    -5443    -5443    -5443    -5440 
   -5439    -5443    -5447    -5445    -5445    -5443    -5441    -5443 
   -5445    -5448    -5445    -5440    -5445    -5451    -5448    -5452 
   -5448    -5443    -5445    -5447    -5445    -5443    -5436    -5436 
   -5447    -5448    -5443    -5441    -5443    -5443    -5440    -5441 
   -5440    -5436    -5443    -5448    -5448    -5447    -5448    -5447 
   -5447    -5445    -5447    -5448    -5443    -5439    -5447    -5448 
   -5439    -5437    -5441    -5443    -5448    -5443    -5437    -5443 
   -5443    -5436    -5441    -5447    -5439    -5437    -5445    -5448 
   -5448    -5451    -5445    -5441    -5443    -5445    -5437    -5439 
   -5445    -5443    -5443    -5447    -5447    -5441    -5440    -5440 
   -5443    -5445    -5441    -5441    -5448    -5445    -5439    -5441 
   -5448    -5448    -5443    -5443    -5447    -5448    -5448    -5443 
   -5437    -5441    -5445    -5447    -5447    -5441    -5443    -5447 
   -5440    -5436    -5439    -5439    -5441    -5443    -5443    -5443 
   -5440    -5443    -5454    -5447    -5439    -5445    -5448    -5443 
   -5441    -5447    -5451    -5448    -5443    -5443    -5448    -5443 
   -5436    -5443    -5440    -5435    -5443    -5452    -5443    -5436 
   -5435    -5447    -5456    -5441    -5432    -5445    -5451    -5439 
   -5436    -5445    -5451    -5443    -5437    -5441    -5448    -5443 
   -5439    -5441    -5448    -5447    -5443    -5451    -5448    -5435 
   -5439    -5451    -5451    -5445    -5441    -5443    -5441    -5439 
   -5443    -5448    -5445    -5445    -5448    -5448    -5451    -5448 
   -5443    -5436    -5436    -5445    -5452    -5443    -5436    -5448 
   -5455    -5448    -5445    -5443    -5439    -5443    -5443    -5437 
   -5441    -5452    -5448    -5443    -5448    -5451    -5454    -5448 
   -5439    -5441    -5448    -5448    -5445    -5445    -5448    -5448 
   -5443    -5445    -5443    -5437    -5443    -5448    -5443    -5439 
   -5436    -5440    -5448    -5445    -5437    -5443    -5459    -5455 
   -5440    -5443    -5447    -5439    -5440    -5443    -5440    -5448 
   -5448    -5440    -5448    -5448    -5439    -5439    -5445    -5443 
   -5440    -5440    -5443    -5452    -5452    -5448    -5451    -5445 
   -5436    -5440    -5447    -5443    -5441    -5443    -5445    -5451 
   -5447    -5439    -5443    -5448    -5445    -5439    -5440    -5448 
   -5448    -5440    -5441    -5443    -5439    -5439    -5447    -5451 
   -5447    -5443    -5447    -5445    -5440    -5439    -5443    -5443 
   -5440    -5445    -5447    -5445    -5448    -5445    -5439    -5440 
   -5441    -5441    -5445    -5441    -5443    -5448    -5448    -5443 
   -5440    -5445    -5448    -5435    -5435    -5452    -5451    -5439 
   -5440    -5448    -5447    -5439    -5440    -5445    -5441    -5436 
   -5443    -5451    -5448    -5440    -5441    -5448    -5445    -5439 
   -5443    -5447    -5441    -5440    -5448    -5448    -5437    -5437 
   -5447    -5441    -5437    -5443    -5445    -5443    -5440    -5441 
   -5443    -5443    -5441    -5440    -5443    -5447    -5441    -5443 
   -5451    -5443    -5437    -5443    -5439    -5432    -5443    -5451 
   -5445    -5441    -5445    -5451    -5445    -5436    -5439    -5445 
   -5441    -5433    -5440    -5448    -5447    -5440    -5443    -5448 
   -5443    -5437    -5443    -5448    -5437    -5435    -5443    -5448 
   -5443    -5443    -5443    -5443    -5441    -5443    -5448    -5445 
   -5440    -5443    -5448    -5447    -5440    -5441    -5443    -5445 
   -5447    -5445    -5443    -5443    -5439    -5439    -5447    -5440 
   -5433    -5443    -5448    -5443    -5447    -5455    -5451    -5447 
   -5448    -5448    -5447    -5448    -5443    -5443    -5451    -5448 
   -5441    -5445    -5443    -5437    -5443    -5440    -5432    -5443 
   -5448    -5437    -5437    -5452    -5455    -5443    -5436    -5445 
   -5454    -5448    -5447    -5448    -5451    -5448    -5443    -5443 
   -5448    -5447    -5441    -5439    -5441    -5448    -5447    -5435 
   -5436    -5447    -5447    -5445    -5445    -5443    -5445    -5448 
   -5445    -5443    -5441    -5440    -5443    -5448    -5448    -5443 
   -5443    -5445    -5441    -5440    -5441    -5439    -5443    -5445 
   -5437    -5443    -5454    -5445    -5439    -5443    -5447    -5443 
   -5440    -5441    -5443    -5441    -5443    -5451    -5454    -5445 
   -5441    -5443    -5445    -5441    -5441    -5443    -5441    -5441 
   -5441    -5441    -5448    -5448    -5437    -5439    -5448    -5443 
   -5433    -5436    -5443    -5440    -5436    -5441    -5451    -5447 
   -5439    -5441    -5448    -5447    -5443    -5448    -5448    -5443 
   -5447    -5452    -5447    -5443    -5441    -5443    -5447    -5447 
   -5440    -5433    -5440    -5443    -5433    -5436    -5451    -5448 
   -5441    -5448    -5451    -5441    -5447    -5452    -5447    -5440 
   -5443    -5451    -5454    -5441    -5436    -5445    -5448    -5445 
   -5439    -5440    -5447    -5439    -5432    -5445    -5448    -5441 
   -5445    -5452    -5445    -5439    -5441    -5447    -5448    -5443 
   -5435    -5448    -5455    -5439    -5441    -5452    -5447    -5445 
   -5443    -5437    -5448    -5448    -5435    -5436    -5443    -5443 
   -5448    -5443    -5436    -5445    -5455    -5447    -5436    -5440 
   -5447    -5443    -5443    -5443    -5443    -5441    -5439    -5448 
   -5456    -5441    -5436    -5448    -5447    -5441    -5448    -5451 
   -5448    -5440    -5433    -5448    -5460    -5441    -5431    -5440 
   -5443    -5441    -5455    -5458    -5443    -5437    -5443    -5447 
   -5445    -5435    -5433    -5445    -5448    -5441    -5443    -5451 
   -5454    -5451    -5445    -5441    -5448    -5454    -5445    -5440 
   -5443    -5441    -5443    -5448    -5443    -5443    -5451    -5447 
   -5440    -5447    -5448    -5437    -5437    -5448    -5448    -5440 
   -5439    -5451    -5454    -5441    -5436    -5443    -5448    -5441 
   -5437    -5443    -5445    -5443    -5447    -5448    -5439    -5435 
   -5447    -5448    -5441    -5441    -5443    -5443    -5452    -5454 
   -5447    -5441    -5441    -5448    -5448    -5437    -5436    -5443 
   -5447    -5443    -5441    -5443    -5445    -5445    -5445    -5440 
   -5439    -5443    -5443    -5445    -5441    -5429    -5439    -5456 
   -5455    -5455    -5462    -5448    -5433    -5435    -5421    -5401 
   -5404    -5374    -5377    -5503    -5566    -5528    -5568    -5518 
   -5362    -5377    -5436    -5373    -5386    -5486    -5440    -5335 
   -5436    -5524    -5433    -5471    -5537    -5429    -5406    -5466 
   -5458    -5437    -5424    -5443    -5447    -5439    -5478    -5441 
   -5420    -5458    -5401    -5416    -5497    -5470    -5456    -5431 
   -5387    -5474    -5510    -5412    -5371    -5410    -5447    -5478 
   -5491    -5464    -5422    -5440    -5476    -5429    -5417    -5497 
   -5485    -5413    -5401    -5402    -5424    -5445    -5448    -5478 
   -5443    -5394    -5464    -5506    -5468    -5462    -5454    -5413 
   -5373    -5370    -5414    -5481    -5513    -5479    -5455    -5463 
   -5432    -5408    -5431    -5412    -5379    -5481    -5595    -5524 
   -5447    -5445    -5335    -5278    -5424    -5502    -5487    -5494 
   -5435    -5404    -5479    -5487    -5456    -5471    -5414    -5356 
   -5448    -5462    -5350    -5421    -5497    -5391    -5443    -5620 
   -5576    -5435    -5410    -5383    -5343    -5436    -5517    -5455 
   -5383    -5335    -5312    -5410    -5575    -5609    -5497    -5448 
   -5471    -5421    -5406    -5474    -5489    -5437    -5344    -5321 
   -5459    -5513    -5445    -5466    -5466    -5405    -5413    -5476 
   -5559    -5516    -5400    -5408    -5410    -5397    -5445    -5424 
   -5410    -5429    -5405    -5456    -5535    -5503    -5394    -5379 
   -5505    -5522    -5458    -5475    -5432    -5362    -5390    -5404 
   -5370    -5435    -5580    -5563    -5440    -5409    -5386    -5404 
   -5536    -5572    -5412    -5290    -5373    -5472    -5483    -5505 
   -5502    -5422    -5363    -5344    -5319    -5398    -5585    -5576 
   -5375    -5339    -5467    -5539    -5575    -5620    -5509    -5231 
   -5151    -5404    -5576    -5514    -5485    -5472    -5398    -5470 
   -5594    -5508    -5358    -5262    -5233    -5341    -5445    -5539 
   -5616    -5530    -5491    -5524    -5364    -5256    -5377    -5445 
   -5503    -5663    -5629    -5375    -5271    -5356    -5428    -5497 
   -5552    -5410    -5175    -5228    -5580    -5810    -5800    -5711 
   -5339    -4889    -5089    -5585    -5555    -5323    -5371    -5395 
   -5309    -5541    -5836    -5629    -5416    -5501    -5271    -5017 
   -5451    -5950    -5742    -5278    -5173    -5247    -5267    -5483 
   -5817    -5744    -5242    -4942    -5259    -5718    -5765    -5643 
   -5535    -5282    -5134    -5339    -5590    -5548    -5360    -5287 
   -5445    -5647    -5506    -5313    -5512    -5622    -5455    -5476 
   -5483    -5223    -5090    -5282    -5590    -5732    -5663    -5524 
   -5328    -5297    -5519    -5625    -5521    -5351    -5235    -5271 
   -5374    -5471    -5432    -5317    -5436    -5575    -5485    -5393 
   -5433    -5584    -5686    -5572    -5387    -5348    -5422    -5413 
   -5348    -5350    -5341    -5402    -5603    -5684    -5539    -5331 
   -5290    -5466    -5543    -5412    -5337    -5474    -5644    -5530 
   -5337    -5398    -5344    -5173    -5316    -5547    -5575    -5491 
   -5398    -5447    -5566    -5497    -5346    -5398    -5570    -5537 
   -5356    -5359    -5506    -5475    -5290    -5247    -5435    -5688 
   -5726    -5537    -5458    -5448    -5314    -5317    -5486    -5471 
   -5314    -5275    -5296    -5296    -5397    -5541    -5575    -5634 
   -5710    -5483    -5124    -5223    -5682    -5791    -5560    -5519 
   -5385    -4981    -5084    -5664    -5827    -5562    -5391    -5435 
   -5479    -5312    -5163    -5343    -5551    -5486    -5397    -5483 
   -5539    -5386    -5273    -5578    -6238    -6768    -6635    -5817 
   -5266    -5535    -5351    -4203    -3984    -4818    -4629    -4222 
   -5135    -5772    -5549    -5622    -5416    -4561    -3877    -3427 
   -3912    -6486    -8920    -8131    -6744    -8263    -8982    -5687 
   -2404    -1074      -22    -1956    -7191    -9153    -7184    -6871 
   -8394    -9283    -8812    -5529     -907      553    -1028    -2779 
   -5529    -9535   -10764    -8532    -7385    -7105    -3861     -884 
   -2281    -4147    -3955    -4469    -5541    -5899    -7362    -9590 
   -9193    -6290    -3944    -2440    -1402    -2471    -4955    -6133 
   -5983    -5950    -6288    -7115    -8424    -8726    -6921    -4271 
   -2392    -2170    -3762    -5108    -4851    -4787    -5479    -6070 
   -6835    -6921    -5717    -5332    -6465    -6787    -5853    -5791 
   -6436    -6080    -5127    -4078    -3156    -3562    -4533    -4552 
   -4789    -5994    -6789    -6629    -6139    -5853    -6166    -6789 
   -6781    -6219    -5930    -5626    -4689    -3627    -3063    -2988 
   -3481    -4548    -5518    -5749    -5649    -6138    -7164    -7647 
   -7210    -6696    -6527    -6091    -5073    -3913    -3117    -3295 
   -4580    -5864    -6417    -6525    -6284    -5879    -5505    -5027 
   -4591    -4121    -3620    -3939    -5273    -6826    -7990    -8334 
   -7657    -6184    -4499    -3483    -3559    -4220    -4869    -5410 
   -5579    -5167    -5053    -5733    -6195    -6081    -6114    -6108 
   -5872    -6166    -6569    -5902    -4888    -4742    -5103    -5301 
   -5150    -4441    -3674    -3877    -4824    -5408    -5397    -5436 
   -6018    -6663    -6552    -6004    -5896    -6319    -6747    -6710 
   -6061    -5074    -4214    -3570    -3199    -3670    -4861    -5601 
   -5548    -5564    -6035    -6446    -6446    -6077    -5387    -4868 
   -5254    -6282    -7030    -7114    -6496    -5273    -4067    -3647 
   -4122    -4877    -5294    -5324    -5333    -5668    -6165    -6440 
   -6528    -6346    -5517    -4483    -4063    -4253    -4773    -5593 
   -6353    -6419    -5732    -4958    -4573    -4469    -4526    -4816 
   -5466    -6241    -6520    -6301    -6168    -6176    -6118    -6053 
   -5845    -5333    -4810    -4573    -4668    -5020    -5327    -5289 
   -5107    -5100    -5086    -5020    -5405    -6073    -6102    -5448 
   -4900    -4872    -5410    -6323    -7001    -6870    -5942    -4818 
   -4191    -4287    -4773    -5243    -5628    -5884    -5795    -5559 
   -5724    -6231    -6366    -5806    -5136    -4918    -4938    -4982 
   -5179    -5323    -5300    -5383    -5356    -4988    -4777    -4973 
   -5205    -5390    -5771    -6169    -6139    -5886    -5787    -5509 
   -4951    -4799    -5286    -5895    -6243    -6251    -5960    -5616 
   -5412    -5140    -4641    -4376    -4722    -5238    -5514    -5706 
   -5950    -6193    -6246    -5802    -4943    -4371    -4592    -5169 
   -5445    -5495    -5594    -5671    -5714    -5827    -5940    -5899 
   -5637    -5339    -5286    -5394    -5448    -5532    -5656    -5578 
   -5242    -5024    -5147    -5163    -4754    -4395    -4483    -4818 
   -5227    -5768    -6307    -6600    -6620    -6399    -5971    -5587 
   -5460    -5356    -4989    -4653    -4747    -5035    -5205    -5475 
   -5940    -6219    -6142    -5879    -5429    -4822    -4445    -4598 
   -5144    -5756    -6100    -6006    -5647    -5308    -5092    -5015 
   -5051    -5135    -5286    -5529    -5751    -5834    -5793    -5780 
   -5881    -5977    -5971    -5962    -5954    -5780    -5433    -5084 
   -4872    -4803    -4801    -4811    -4845    -5035    -5428    -5709 
   -5556    -5204    -5174    -5483    -5729    -5802    -5764    -5548 
   -5225    -4954    -4806    -4839    -5111    -5559    -5953    -6087 
   -6006    -5860    -5701    -5544    -5466    -5533    -5705    -5838 
   -5792    -5578    -5348    -5216    -5186    -5175    -5086    -5011 
   -5139    -5375    -5475    -5432    -5366    -5316    -5260    -5235 
   -5325    -5493    -5630    -5732    -5854    -6042    -6203    -6151 
   -5923    -5713    -5524    -5277    -5016    -4781    -4534    -4299 
   -4247    -4544    -5097    -5647    -6049    -6230    -6129    -5831 
   -5519    -5412    -5603    -5879    -5992    -5979    -5942    -5791 
   -5391    -4916    -4692    -4729    -4803    -4822    -4850    -4943 
   -5128    -5443    -5876    -6301    -6544    -6502    -6249    -5953 
   -5659    -5270    -4830    -4549    -4560    -4791    -5108    -5427 
   -5656    -5768    -5810    -5722    -5454    -5169    -5036    -4999 
   -4976    -5070    -5422    -5968    -6453    -6651    -6539    -6251 
   -5877    -5429    -4989    -4660    -4482    -4511    -4792    -5212 
   -5547    -5641    -5547    -5451    -5435    -5458    -5513    -5616 
   -5692    -5687    -5671    -5665    -5535    -5260    -5058    -5097 
   -5268    -5382    -5409    -5417    -5479    -5549    -5485    -5298 
   -5131    -5053    -5124    -5336    -5539    -5649    -5694    -5714 
   -5791    -5996    -6184    -6107    -5760    -5386    -5152    -5016 
   -4916    -4834    -4725    -4687    -4916    -5343    -5714    -5949 
   -6061    -6006    -5881    -5883    -5961    -5894    -5659    -5371 
   -5060    -4831    -4820    -4932    -5088    -5443    -5994    -6423 
   -6473    -6176    -5719    -5224    -4710    -4256    -4036    -4156 
   -4477    -4835    -5235    -5679    -6043    -6257    -6309    -6191 
   -5927    -5638    -5512    -5593    -5709    -5717    -5618    -5452 
   -5256    -5092    -5034    -5158    -5413    -5598    -5652    -5645 
   -5541    -5332    -5171    -5159    -5285    -5476    -5622    -5686 
   -5661    -5522    -5350    -5239    -5144    -5051    -5053    -5202 
   -5447    -5651    -5752    -5809    -5809    -5682    -5467    -5290 
   -5246    -5293    -5339    -5416    -5597    -5791    -5867    -5854 
   -5829    -5757    -5597    -5300    -4857    -4452    -4311    -4467 
   -4793    -5131    -5412    -5702    -6004    -6210    -6282    -6251 
   -6112    -5876    -5602    -5370    -5190    -5004    -4885    -5016 
   -5341    -5594    -5670    -5682    -5701    -5641    -5421    -5184 
