Origin Time       2018/05/18 02:56:00
Lat.              35.463
Long.             140.385
Depth. (km)       28
Mag.              2.9
Station Code      CHB013
Station Lat.      35.4327
Station Long.     140.2905
Station Height(m) 13
Record Time       2018/05/18 02:56:21
Sampling Freq(Hz) 100Hz
Duration Time(s)  60
Dir.              U-D
Scale Factor      7845(gal)/8223790
Max. Acc. (gal)   2.294
Last Correction   2018/05/18 02:56:21
Memo.             
[...]
   16048    16046    16043    16043    16048    16052    16046    16046 
   16047    16046    16050    16052    16046    16044    16050    16050 
   16044    16044    16048    16048    16048    16044    16042    16044 
   16048    16050    16047    16043    16043    16048    16048    16043 
   16046    16051    16046    16046    16047    16040    16038    16047 
   16050    16044    16044    16046    16043    16050    16054    16046 
   16044    16050    16042    16040    16050    16043    16035    16046 
   16050    16044    16048    16048    16042    16046    16051    16048 
   16047    16046    16042    16046    16048    16043    16046    16054 
   16050    16043    16046    16048    16046    16044    16046    16042 
   16044    16051    16046    16043    16050    16046    16043    16048 
   16047    16046    16052    16052    16040    16038    16051    16052 
   16047    16046    16040    16038    16047    16047    16043    16048 
   16050    16043    16042    16044    16046    16047    16047    16046 
   16044    16047    16052    16050    16046    16043    16046    16051 
   16050    16046    16050    16050    16042    16043    16048    16050 
   16050    16050    16042    16044    16052    16046    16040    16044 
   16046    16047    16050    16047    16044    16048    16051    16044 
   16044    16054    16051    16043    16044    16043    16047    16058 
   16051    16038    16044    16051    16047    16046    16046    16043 
   16046    16051    16048    16047    16048    16043    16042    16047 
   16050    16047    16046    16048    16047    16046    16046    16042 
   16042    16048    16051    16050    16047    16044    16043    16046 
   16043    16038    16047    16054    16044    16042    16048    16047 
   16048    16051    16044    16046    16054    16048    16047    16051 
   16043    16040    16048    16050    16046    16046    16048    16048 
   16051    16050    16043    16044    16051    16046    16046    16054 
   16054    16050    16048    16047    16044    16044    16046    16046 
   16050    16054    16050    16046    16050    16050    16047    16051 
   16048    16040    16047    16054    16046    16042    16047    16047 
   16052    16055    16046    16043    16048    16050    16044    16047 
   16052    16052    16052    16046    16038    16048    16058    16050 
   16042    16046    16048    16051    16050    16043    16043    16050 
   16051    16050    16052    16048    16046    16050    16052    16050 
   16050    16050    16046    16046    16048    16050    16054    16051 
   16043    16043    16044    16046    16050    16048    16044    16047 
   16052    16051    16046    16043    16043    16042    16050    16052 
   16043    16044    16052    16051    16050    16052    16048    16044 
   16050    16055    16050    16043    16047    16051    16051    16051 
   16050    16046    16046    16047    16047    16047    16047    16046 
   16046    16047    16047    16044    16046    16048    16046    16044 
   16047    16048    16050    16047    16047    16050    16050    16047 
   16044    16044    16047    16052    16052    16047    16046    16046 
   16043    16046    16051    16044    16042    16048    16047    16044 
   16051    16051    16044    16043    16042    16042    16046    16050 
   16048    16047    16046    16046    16052    16051    16038    16038 
   16048    16050    16046    16044    16044    16046    16050    16047 
   16043    16047    16048    16044    16044    16046    16044    16044 
   16048    16048    16043    16048    16054    16046    16040    16046 
   16046    16046    16050    16046    16044    16050    16046    16043 
   16048    16051    16043    16038    16040    16040    16046    16050 
   16043    16046    16051    16048    16047    16044    16042    16043 
   16050    16052    16046    16042    16048    16047    16047    16052 
   16046    16038    16043    16044    16044    16047    16048    16048 
   16047    16050    16050    16046    16043    16042    16047    16051 
   16042    16042    16052    16052    16048    16047    16043    16042 
   16048    16051    16047    16044    16044    16044    16046    16048 
   16046    16044    16050    16051    16047    16051    16051    16047 
   16048    16046    16042    16050    16054    16046    16043    16047 
   16044    16046    16052    16046    16040    16046    16047    16051 
   16054    16048    16046    16050    16048    16047    16051    16050 
   16042    16043    16054    16054    16048    16046    16046    16048 
   16051    16050    16047    16042    16043    16050    16056    16054 
   16044    16038    16047    16051    16046    16044    16043    16042 
   16043    16047    16052    16048    16036    16038    16052    16059 
   16051    16042    16046    16052    16052    16050    16042    16043 
   16054    16052    16044    16050    16054    16048    16044    16043 
   16043    16047    16050    16044    16040    16048    16058    16055 
   16050    16044    16042    16048    16052    16044    16038    16047 
   16051    16050    16052    16047    16038    16047    16050    16044 
   16047    16050    16047    16050    16047    16042    16050    16052 
   16040    16042    16050    16048    16046    16047    16044    16046 
   16052    16052    16046    16044    16044    16044    16048    16054 
   16050    16046    16044    16043    16046    16048    16048    16044 
   16038    16046    16059    16055    16038    16036    16047    16051 
   16048    16046    16044    16046    16047    16050    16047    16043 
   16047    16044    16042    16051    16047    16036    16047    16052 
   16042    16038    16044    16046    16047    16047    16042    16042 
   16044    16046    16047    16046    16046    16047    16046    16046 
   16048    16048    16044    16044    16047    16047    16046    16044 
   16044    16046    16048    16046    16042    16046    16050    16046 
   16043    16044    16043    16042    16051    16052    16046    16046 
   16048    16044    16042    16043    16046    16046    16050    16048 
   16044    16051    16055    16047    16042    16046    16046    16047 
   16048    16046    16043    16048    16050    16044    16044    16044 
   16040    16048    16056    16046    16040    16047    16051    16048 
   16046    16047    16051    16048    16040    16042    16055    16055 
   16042    16038    16047    16052    16052    16050    16043    16046 
   16051    16050    16047    16046    16044    16043    16043    16047 
   16052    16047    16040    16047    16054    16046    16043    16048 
   16044    16042    16051    16052    16044    16046    16051    16048 
   16046    16047    16044    16044    16050    16051    16048    16050 
   16050    16048    16048    16046    16046    16047    16044    16043 
   16043    16044    16048    16043    16042    16050    16046    16038 
   16044    16048    16048    16051    16051    16047    16046    16046 
   16043    16046    16048    16050    16046    16042    16043    16050 
   16051    16044    16042    16046    16047    16047    16044    16044 
   16051    16054    16046    16042    16044    16046    16043    16040 
   16047    16052    16047    16046    16046    16046    16048    16042 
   16033    16044    16052    16044    16047    16051    16042    16043 
   16050    16042    16043    16050    16042    16040    16051    16050 
   16042    16046    16047    16042    16043    16050    16051    16048 
   16046    16043    16046    16051    16050    16044    16043    16046 
   16048    16050    16047    16042    16046    16051    16046    16043 
   16048    16051    16047    16044    16046    16051    16052    16043 
   16042    16051    16051    16046    16047    16046    16043    16050 
   16048    16042    16047    16051    16043    16046    16054    16048 
   16043    16043    16043    16046    16052    16051    16046    16043 
   16046    16051    16052    16052    16051    16043    16046    16054 
   16050    16046    16048    16050    16050    16046    16043    16051 
   16052    16042    16040    16044    16050    16056    16055    16043 
   16038    16048    16055    16048    16043    16043    16044    16050 
   16054    16052    16048    16047    16046    16044    16047    16046 
   16046    16051    16050    16047    16051    16050    16044    16043 
   16038    16042    16052    16048    16040    16046    16054    16052 
   16050    16046    16042    16046    16048    16043    16044    16048 
   16050    16047    16044    16047    16048    16046    16048    16046 
   16042    16052    16055    16044    16044    16047    16038    16042 
   16052    16046    16040    16051    16052    16044    16044    16050 
   16050    16048    16044    16038    16044    16050    16048    16048 
   16043    16038    16042    16044    16044    16044    16044    16047 
   16047    16042    16044    16050    16048    16043    16042    16048 
   16051    16046    16048    16048    16042    16043    16048    16043 
   16042    16050    16047    16046    16050    16044    16040    16046 
   16047    16042    16046    16048    16042    16036    16043    16051 
   16050    16046    16044    16044    16046    16051    16048    16043 
   16044    16047    16048    16050    16044    16042    16046    16043 
   16043    16047    16048    16044    16040    16040    16044    16048 
   16044    16040    16046    16051    16050    16051    16050    16046 
   16048    16051    16047    16046    16047    16047    16050    16048 
   16042    16044    16052    16050    16044    16043    16047    16079 
   16159    16260    16291    16163    15972    15886    15835    15785 
   15858    15882    15789    15944    16189    16127    16098    16209 
   16147    16117    16197    16101    15961    16058    16143    15982 
   15952    16093    16065    16038    16056    15972    15986    16081 
   16083    16046    16054    16078    16024    16000    16086    16101 
   16065    16051    15998    16005    16052    16000    15993    16067 
   16025    15965    16096    16228    16119    15961    16011    16104 
   16038    16004    16113    16129    16033    15985    15965    15982 
   16075    16146    16108    16042    16024    16019    16047    16083 
   16025    16001    16085    16079    16024    16073    16015    15817 
   15905    16205    16206    16102    16156    16119    16046    16031 
   15916    15861    16025    16166    16092    16023    16089    16050 
   15969    16059    16083    16004    16050    16074    16019    16065 
   16020    15865    16019    16286    16205    16031    15992    15917 
   15881    15948    16024    16197    16344    16156    15888    16033 
   16371    16285    15938    15923    16035    15878    15820    16038 
   16036    15834    15905    16144    16244    16163    16036    16135 
   16222    15908    15735    16047    16221    16154    16147    16074 
   15970    15979    16020    16044    15990    15924    16028    16190 
   16177    15977    15912    16069    16060    15978    16178    16256 
   15971    15861    16012    16005    16001    16205    16229    15979 
   15882    16013    16132    16140    16090    16069    16047    15909 
   15769    15889    16157    16239    16206    16246    16141    15869 
   15839    16063    16155    16043    15978    16050    16047    15966 
   16046    16101    15943    15901    16133    16270    16077    15886 
   15939    16017    16089    16193    16206    16129    15963    15906 
   16144    16263    16067    15970    15990    15905    15870    16001 
   16119    16154    16155    16073    16029    16171    16229    16069 
   15969    15939    15936    16100    16178    15920    15797    16040 
   16139    16038    16147    16303    16186    15849    15442    15307 
   15780    16330    16033    15487    15986    16722    16632    16733 
   17080    16328    15310    15643    16345    16001    15538    15905 
   16205    15838    15599    15994    16411    16249    15867    15862 
   16123    16198    16092    16151    16301    16152    15911    16008 
   16210    16089    15782    15712    15884    15939    15869    15955 
   16177    16317    16343    16312    16231    16073    15909    15823 
   15842    16027    16218    16094    15811    15790    15969    16071 
   16157    16309    16287    16033    15884    15997    16147    16112 
   16048    16182    16213    15908    15708    15863    16047    16113 
   16194    16236    16074    15862    15917    16085    16042    15988 
   16186    16276    15966    15790    16071    16223    15998    15889 
   16067    16173    16038    15892    15936    16067    16101    16069 
   16071    16109    16112    16024    15942    15981    16033    16000 
   16002    16097    16119    16048    16086    16223    16200    15998 
   15840    15834    15955    16113    16167    16104    16110    16220 
   16206    16065    15974    15884    15788    15842    15963    16044 
   16144    16213    16223    16225    16144    15959    15857    15984 
   16117    15942    15799    16069    16259    16090    15971    15951 
   15915    16054    16264    16297    16255    16139    15862    15678 
   15724    15834    16005    16244    16318    16232    16240    16260 
   16060    15888    15965    15921    15688    15769    16139    16289 
   16178    16140    16233    16173    15947    15921    16094    16113 
   16005    16027    16129    16170    16097    15834    15534    15584 
   15949    16272    16457    16561    16557    16362    16033    15951 
   15989    15307    14260    14308    15171    15562    16098    17518 
   18450    18180    17940    17668    16114    14516    14825    15661 
   15330    15144    15721    15768    15620    16085    16252    16109 
   16573    16812    15890    14991    15296    15959    16054    16263 
   16740    16417    15754    16073    16831    16857    15919    14584 
   14395    16042    17567    17284    16491    16623    16506    15217 
   14234    14735    16160    17297    17292    16742    16407    15522 
   14272    14385    15530    15935    16017    16857    17543    17149 
   16293    15753    15678    15784    15843    15979    16151    16275 
   16560    16603    15828    15076    15365    16036    16167    16019 
   16025    16127    16302    16553    16598    16282    15979    16092 
   16324    16182    15858    15759    15746    15545    15234    15033 
   15206    15913    16733    16906    16416    16121    16387    16572 
   16464    16603    16741    16135    15286    15196    15566    15753 
   16090    16606    16571    16013    15604    15499    15576    15707 
   15649    15591    15985    16590    16868    16869    16862    16835 
   16542    15866    15199    15006    15218    15614    16040    16235 
   16182    16098    16008    16050    16483    16992    17032    16652 
   16147    15628    15265    15336    15792    16205    16324    16348 
   16401    16332    16062    15520    14757    14343    14771    15637 
   16252    16587    16899    17111    17113    16988    16626    15915 
   15284    15144    15363    15723    16135    16528    16829    16760 
   16216    15736    15769    16056    16310    16573    16740    16560 
   16024    15375    15067    15407    15970    16048    15606    15124 
   15002    15434    16241    16865    17046    17055    16997    16713 
   16255    15804    15512    15431    15441    15543    15862    16175 
   16186    16109    16285    16533    16468    16208    16055    15855 
   15499    15331    15488    15747    16015    16270    16451    16494 
   16380    16262    16264    16256    16146    16054    16009    15893 
   15716    15669    15892    16305    16611    16478    15925    15465 
   15542    16005    16414    16536    16375    16015    15601    15404 
   15627    16128    16546    16680    16544    16193    15792    15565 
   15552    15711    16040    16368    16420    16160    15855    15792 
   15965    16112    16092    16012    16005    16073    16101    16073 
   16086    16060    15913    15927    16254    16518    16426    16201 
   16096    15948    15568    15229    15294    15612    15854    16015 
   16228    16416    16459    16424    16440    16490    16424    16170 
   15901    15817    15857    15877    15912    16008    16117    16220 
   16309    16289    16127    15962    15900    15871    15827    15866 
   16027    16124    16015    15882    15957    16123    16117    15985 
   15932    15943    15903    15871    15924    15992    16025    16093 
   16245    16401    16395    16267    16244    16282    16135    15873 
   15753    15805    15944    16109    16260    16410    16497    16340 
   15952    15665    15685    15854    15948    15924    15800    15627 
   15618    15979    16557    16932    16900    16559    16056    15523 
   15132    15012    15140    15431    15888    16452    16866    16937 
   16786    16633    16525    16355    16011    15568    15287    15292 
   15466    15664    15844    16054    16252    16289    16152    16052 
   16131    16344    16559    16649    16618    16524    16357    16119 
   15889    15747    15745    15862    15952    15882    15681    15469 
   15371    15512    15851    16162    16310    16335    16243    16065 
   15982    16097    16317    16549    16681    16571    16254    15863 
   15527    15437    15673    16015    16205    16231    16166    16013 
   15876    15900    16005    16052    16092    16183    16205    16086 
   15939    15898    15992    16146    16237    16218    16132    16005 
   15884    15870    15978    16071    16023    15839    15681    15695 
   15869    16132    16379    16453    16355    16266    16287    16376 
   16425    16362    16180    15938    15714    15569    15513    15541 
   15637    15754    15836    15917    16098    16359    16534    16538 
   16488    16445    16306    16077    15929    15906    15911    15908 
   15909    15934    16000    16054    16024    15903    15774    15781 
   15943    16121    16240    16318    16340    16312    16271    16182 
   15986    15734    15570    15597    15778    15988    16102    16054 
   15932    15931    16087    16298    16505    16664    16692    16528 
   16217    15925    15747    15665    15680    15776    15855    15863 
   15830    15826    15931    16112    16225    16201    16071    15923 
   15861    15942    16116    16258    16287    16236    16144    16047 
   16015    16070    16174    16287    16339    16263    16081    15878 
   15764    15812    15948    16038    16008    15878    15738    15700 
   15820    16028    16204    16322    16375    16335    16246    16171 
   16104    16058    16054    16050    16019    15985    15900    15749 
   15650    15688    15822    16005    16208    16378    16478    16488 
   16411    16264    16065    15854    15724    15731    15807    15894 
   16009    16128    16213    16289    16335    16286    16127    15890 
   15673    15584    15657    15836    16028    16164    16244    16282 
   16285    16260    16180    16047    15951    15944    15982    16032 
   16085    16124    16135    16119    16090    16035    15927    15799 
   15741    15822    15998    16151    16208    16209    16223    16240 
   16246    16287    16351    16330    16195    16036    15909    15782 
   15642    15542    15527    15588    15682    15804    15971    16132 
   16218    16270    16316    16313    16263    16216    16160    16093 
   16058    16085    16170    16282    16382    16434    16359    16106 
