Origin Time       2015/02/17 08:06:00
Lat.              39.872
Long.             143.192
Depth. (km)       13
Mag.              6.9
Station Code      HKD103
Station Lat.      42.7275
Station Long.     142.2973
Station Height(m) 86
Record Time       2015/02/17 08:08:08
Sampling Freq(Hz) 100Hz
Duration Time(s)  108
Dir.              N-S
Scale Factor      3920(gal)/6182761
Max. Acc. (gal)   2.234
Last Correction   2015/02/17 08:08:08
Memo.             
[...]
    4717     4639     4611     4624     4657     4686     4709     4735 
    4777     4851     4967     5116     5282     5455     5630     5802 
    5968     6126     6276     6415     6544     6647     6703     6713 
    6698     6672     6656     6672     6721     6795     6882     6956 
    7001     7013     6993     6956     6918     6880     6838     6778 
    6689     6563     6401     6221     6046     5888     5754     5659 
    5618     5644     5743     5888     6033     6133     6152     6081 
    5939     5753     5550     5360     5201     5072     4963     4859 
    4761     4701     4718     4835     5055     5350     5678     5995 
    6274     6502     6667     6759     6795     6791     6759     6717 
    6682     6654     6628     6597     6537     6437     6303     6141 
    5970     5818     5709     5666     5703     5815     5977     6152 
    6302     6390     6401     6357     6289     6241     6254     6336 
    6468     6625     6773     6897     7005     7101     7187     7259 
    7303     7307     7254     7134     6954     6736     6514     6329 
    6216     6200     6286     6454     6675     6915     7152     7373 
    7561     7704     7793     7815     7776     7698     7605     7528 
    7486     7474     7476     7459     7396     7285     7131     6939 
    6726     6513     6324     6190     6136     6161     6239     6326 
    6369     6321     6162     5909     5602     5294     5024     4816 
    4667     4558     4481     4432     4404     4393     4403     4437 
    4490     4551     4612     4667     4717     4774     4849     4940 
    5049     5180     5339     5526     5722     5893     6006     6052 
    6037     5972     5871     5744     5594     5430     5262     5110 
    4997     4941     4948     5004     5085     5160     5213     5240 
    5245     5233     5224     5241     5288     5365     5469     5589 
    5704     5795     5840     5828     5756     5636     5497     5369 
    5276     5234     5250     5320     5435     5579     5733     5872 
    5979     6049     6077     6064     6009     5919     5800     5661 
    5523     5422     5401     5490     5691     5981     6318     6661 
    6970     7210     7359     7422     7416     7365     7291     7197 
    7081     6953     6828     6725     6662     6644     6654     6672 
    6687     6697     6718     6767     6851     6956     7043     7081 
    7052     6936     6735     6472     6178     5898     5683     5558 
    5520     5556     5646     5762     5885     5989     6050     6068 
    6053     6013     5965     5926     5891     5852     5799     5725 
    5634     5535     5442     5380     5361     5390     5470     5587 
    5712     5829     5932     6015     6081     6138     6182     6207 
    6205     6171     6101     5998     5870     5723     5565     5416 
    5308     5270     5310     5417     5580     5789     6030     6278 
    6492     6630     6666     6584     6398     6139     5838     5536 
    5266     5055     4915     4841     4831     4879     4961     5043 
    5083     5056     4969     4858     4773     4749     4791     4877 
    4976     5061     5119     5152     5172     5181     5167     5124 
    5063     4995     4937     4893     4860     4846     4878     4988 
    5200     5525     5945     6416     6877     7268     7550     7698 
    7714     7635     7513     7388     7281     7196     7126     7066 
    7007     6945     6881     6813     6745     6684     6634     6594 
    6561     6541     6541     6558     6583     6599     6577     6499 
    6369     6206     6048     5930     5868     5859     5879     5905 
    5926     5938     5935     5914     5870     5799     5702     5588 
    5479     5403     5393     5467     5611     5794     5984     6143 
    6257     6333     6388     6438     6496     6564     6641     6732 
    6835     6944     7053     7141     7184     7169     7090     6943 
    6738     6502     6263     6048     5889     5800     5769     5769 
    5764     5726     5645     5526     5383     5238     5108     5010 
    4961     4976     5062     5221     5446     5717     6006     6274 
    6493     6647     6739     6780     6775     6725     6626     6473 
    6275     6059     5860     5722     5683     5756     5920     6135 
    6354     6544     6694     6808     6901     6982     7048     7097 
    7120     7113     7081     7038     7003     6990     6989     6982 
    6950     6875     6754     6601     6442     6301     6198     6142 
    6130     6159     6222     6305     6384     6436     6450     6431 
    6400     6380     6384     6417     6462     6494     6483     6402 
    6240     6010     5755     5535     5405     5392     5492     5675 
    5879     6049     6159     6203     6202     6184     6174     6188 
    6223     6260     6287     6291     6262     6204     6122     6017 
    5894     5767     5661     5603     5605     5670     5793     5958 
    6150     6369     6604     6835     7044     7205     7292     7290 
    7199     7037     6844     6670     6550     6498     6508     6551 
    6593     6606     6564     6453     6280     6063     5831     5602 
    5377     5148     4915     4686     4479     4325     4253     4274 
    4388     4580     4818     5076     5327     5550     5731     5861 
    5931     5943     5912     5863     5827     5828     5880     5980 
    6101     6214     6297     6328     6298     6206     6065     5896 
    5708     5515     5344     5210     5124     5096     5123     5198 
    5317     5463     5612     5738     5824     5861     5852     5797 
    5706     5586     5457     5349     5286     5281     5336     5435 
    5556     5684     5814     5948     6090     6242     6402     6565 
    6720     6861     6989     7111     7228     7333     7415     7470 
    7490     7464     7388     7272     7129     6974     6824     6702 
    6635     6638     6715     6845     6986     7091     7122     7059 
    6915     6726     6530     6359     6226     6129     6068     6035 
    6015     5990     5938     5848     5727     5594     5475     5392 
    5362     5389     5455     5536     5614     5678     5726     5760 
    5783     5802     5823     5854     5907     5988     6091     6201 
    6306     6396     6458     6480     6463     6415     6351     6271 
    6179     6078     5965     5829     5674     5512     5359     5243 
    5177     5166     5211     5300     5408     5523     5641     5753 
    5856     5949     6030     6089     6119     6119     6076     5978 
    5821     5614     5378     5142     4928     4755     4640     4585 
    4595     4676     4822     5027     5280     5553     5821     6059 
    6247     6384     6485     6551     6587     6596     6573     6528 
    6479     6443     6431     6435     6442     6441     6408     6320 
    6170     5969     5741     5513     5316     5160     5056     5015 
    5035     5092     5153     5181     5155     5073     4944     4783 
    4606     4420     4246     4103     4008     3985     4055     4228 
    4501     4846     5219     5585     5910     6174     6375     6521 
    6630     6719     6796     6861     6915     6963     7006     7044 
    7078     7122     7174     7222     7250     7237     7167     7049 
    6902     6746     6601     6480     6395     6358     6368     6413 
    6483     6575     6685     6792     6864     6871     6787     6612 
    6376     6121     5881     5681     5523     5393     5282     5191 
    5134     5133     5201     5332     5511     5716     5925     6120 
    6291     6431     6539     6612     6649     6652     6629     6596 
    6562     6535     6526     6535     6557     6591     6637     6690 
    6749     6807     6854     6885     6898     6898     6903     6915 
    6934     6965     7012     7072     7151     7247     7352     7455 
    7537     7582     7575     7505     7371     7185     6961     6729 
    6521     6368     6287     6272     6303     6351     6385     6370 
    6295     6163     5991     5808     5646     5517     5421     5351 
    5305     5294     5331     5424     5573     5765     5984     6207 
    6403     6550     6641     6678     6667     6605     6481     6295 
    6059     5783     5483     5192     4944     4765     4676     4680 
    4762     4902     5077     5264     5437     5571     5649     5674 
    5674     5677     5693     5717     5729     5708     5637     5523 
    5395     5286     5225     5221     5268     5351     5453     5565 
    5674     5769     5837     5870     5856     5785     5669     5531 
    5410     5343     5351     5433     5573     5739     5890     6001 
    6061     6069     6028     5949     5861     5792     5753     5745 
    5765     5795     5812     5814     5814     5837     5902     6016 
    6169     6349     6546     6754     6956     7141     7307     7445 
    7543     7606     7630     7597     7506     7377     7226     7069 
    6934     6853     6838     6882     6973     7101     7255     7419 
    7572     7695     7763     7754     7677     7556     7411     7263 
    7126     7011     6907     6803     6689     6551     6379     6179 
    5961     5728     5485     5248     5042     4881     4770     4713 
    4709     4744     4810     4905     5021     5148     5271     5368 
    5420     5415     5362     5287     5213     5167     5171     5224 
    5315     5435     5580     5735     5886     6013     6095     6107 
    6037     5902     5733     5560     5393     5241     5094     4927 
    4739     4536     4335     4164     4045     3992     4008     4079 
    4190     4333     4498     4680     4887     5121     5365     5596 
    5791     5927     5987     5959     5856     5689     5478     5256 
    5045     4860     4707     4580     4484     4421     4391     4400 
    4448     4531     4649     4802     4983     5185     5391     5588 
    5760     5891     5977     6023     6039     6039     6035     6034 
    6052     6101     6195     6338     6522     6732     6948     7148 
    7318     7444     7527     7587     7647     7739     7887     8090 
    8330     8585     8822     8999     9096     9114     9061     8958 
    8831     8690     8527     8325     8069     7767     7447     7156 
    6939     6817     6792     6845     6931     7007     7050     7053 
    7024     6987     6972     6995     7059     7161     7272     7348 
    7358     7291     7147     6940     6693     6423     6139     5847 
    5555     5266     4989     4740     4535     4381     4274     4204 
    4149     4090     4030     3976     3938     3918     3909     3900 
    3875     3828     3769     3719     3699     3737     3856     4059 
    4319     4604     4881     5121     5317     5473     5606     5742 
    5890     6044     6197     6331     6426     6470     6463     6415 
    6353     6297     6268     6282     6334     6409     6504     6600 
    6671     6701     6675     6593     6482     6369     6276     6215 
    6184     6170     6166     6170     6198     6277     6426     6639 
    6895     7164     7413     7619     7773     7880     7957     8032 
    8134     8284     8493     8745     9011     9258     9450     9561 
    9574     9486     9303     9038     8704     8317     7890     7438 
    6970     6512     6086     5707     5388     5133     4933     4778 
    4652     4532     4407     4272     4126     3978     3845     3736 
    3649     3572     3498     3423     3349     3295     3283     3330 
    3430     3558     3691     3815     3931     4054     4201     4379 
    4577     4779     4962     5101     5181     5210     5208     5191 
    5180     5202     5264     5369     5519     5698     5881     6047 
    6186     6299     6388     6459     6519     6573     6616     6633 
    6615     6545     6419     6248     6049     5840     5640     5464 
    5324     5215     5130     5079     5071     5109     5195     5320 
    5456     5575     5664     5720     5752     5769     5780     5790 
    5800     5808     5803     5783     5752     5700     5622     5540 
    5468     5413     5388     5390     5410     5441     5471     5491 
    5493     5482     5465     5445     5423     5399     5362     5296 
    5195     5070     4940     4830     4761     4729     4721     4719 
    4706     4679     4658     4661     4711     4829     5028     5301 
    5622     5959     6274     6545     6768     6936     7044     7104 
    7139     7167     7207     7274     7371     7488     7624     7780 
    7958     8159     8379     8608     8830     9033     9199     9311 
    9358     9336     9260     9151     9029     8906     8781     8646 
    8495     8326     8139     7934     7710     7475     7240     7016 
    6817     6659     6549     6476     6423     6370     6286     6162 
    5998     5801     5581     5355     5140     4952     4804     4705 
    4667     4698     4783     4893     5024     5175     5328     5488 
    5671     5876     6092     6305     6505     6681     6827     6951 
    7065     7174     7277     7365     7423     7430     7368     7227 
    7006     6715     6363     5962     5529     5087     4661     4282 
    3974     3742     3593     3534     3564     3677     3869     4110 
    4360     4585     4755     4857     4895     4888     4857     4817 
    4780     4752     4726     4694     4659     4631     4622     4643 
    4708     4821     4990     5226     5535     5904     6309     6722 
    7115     7471     7787     8066     8324     8571     8812     9036 
    9225     9375     9486     9554     9576     9558     9500     9408 
    9293     9171     9053     8936     8812     8676     8514     8311 
    8074     7818     7567     7346     7176     7059     6984     6933 
    6887     6823     6725     6595     6437     6265     6097     5943 
    5814     5714     5633     5555     5474     5380     5270     5149 
    5012     4854     4676     4476     4261     4054     3889     3785 
    3748     3781     3882     4037     4231     4440     4636     4803 
    4927     5007     5046     5049     5022     4977     4931     4902 
    4910     4969     5085     5259     5481     5732     5987     6224 
    6419     6552     6599     6543     6382     6143     5856     5556 
    5267     4996     4748     4527     4328     4147     3988     3853 
    3753     3700     3702     3768     3901     4092     4325     4575 
    4810     5007     5156     5271     5378     5501     5658     5853 
    6072     6289     6477     6629     6750     6848     6930     6985 
    7000     6964     6885     6787     6693     6620     6582     6592 
    6654     6761     6901     7065     7239     7414     7586     7748 
    7890     7997     8066     8096     8085     8033     7940     7809 
    7646     7457     7253     7047     6850     6674     6528     6414 
    6328     6267     6228     6215     6240     6311     6436     6613 
    6827     7063     7306     7544     7770     7977     8154     8288 
    8370     8397     8373     8309     8219     8115     8000     7869 
    7724     7570     7407     7240     7079     6921     6765     6610 
    6458     6316     6183     6062     5956     5864     5786     5724 
    5676     5629     5578     5532     5493     5459     5426     5392 
    5358     5332     5332     5383     5497     5664     5867     6070 
    6222     6286     6250     6120     5917     5673     5426     5208 
    5037     4916     4839     4789     4748     4698     4626     4517 
    4362     4163     3925     3664     3406     3163     2951     2794 
    2713     2715     2803     2968     3189     3438     3690     3921 
    4106     4228     4284     4277     4214     4122     4030     3963 
    3946     3997     4116     4290     4497     4709     4903     5071 
    5208     5311     5382     5421     5431     5427     5421     5425 
    5455     5520     5615     5737     5891     6066     6251     6446 
    6642     6827     7001     7157     7289     7399     7479     7523 
    7539     7527     7492     7446     7396     7356     7339     7350 
    7391     7462     7562     7688     7837     7994     8135     8236 
    8275     8230     8091     7864     7562     7213     6849     6494 
    6175     5918     5735     5625     5588     5610     5671     5756 
    5850     5937     6006     6054     6089     6118     6156     6220 
    6317     6453     6627     6819     7009     7170     7280     7326 
    7304     7221     7100     6972     6861     6772     6699     6641 
    6599     6565     6536     6499     6432     6327     6193     6044 
    5899     5775     5679     5605     5552     5512     5476     5434 
    5379     5300     5186     5030     4840     4629     4416     4223 
    4067     3952     3868     3809     3777     3766     3772     3798 
    3842     3904     3984     4078     4191     4327     4482     4650 
    4825     5002     5180     5351     5511     5655     5783     5894 
    5981     6035     6053     6047     6038     6046     6077     6131 
    6201     6271     6317     6319     6266     6155     5995     5810 
    5622     5456     5341     5295     5315     5387     5493     5610 
    5718     5809     5877     5920     5938     5926     5883     5816 
    5733     5646     5567     5505     5469     5458     5467     5498 
    5550     5617     5692     5768     5845     5920     5991     6058 
    6122     6189     6263     6348     6457     6594     6761     6971 
    7235     7548     7901     8273     8629     8930     9159     9309 
    9378     9383     9347     9277     9188     9089     8978     8851 
    8697     8504     8268     7991     7689     7378     7083     6820 
    6599     6429     6315     6245     6212     6214     6246     6302 
    6373     6452     6518     6555     6551     6495     6384     6220 
    6010     5765     5508     5258     5042     4880     4781     4742 
    4757     4809     4883     4970     5058     5153     5268     5412 
    5589     5809     6061     6324     6591     6852     7083     7267 
    7396     7467     7482     7444     7361     7239     7084     6907 
    6724     6549     6394     6263     6150     6041     5937     5847 
    5779     5739     5738     5770     5821     5880     5938     5991 
    6034     6074     6114     6150     6178     6194     6203     6219 
    6249     6295     6355     6427     6508     6598     6690     6774 
    6839     6876     6868     6805     6687     6515     6302     6067 
    5835     5609     5378     5138     4893     4651     4423     4229 
    4092     4022     4016     4075     4197     4370     4595     4871 
    5193     5546     5907     6248     6549     6794     6966     7057 
    7065     6995     6855     6655     6414     6162     5929     5732 
    5580     5466     5377     5308     5258     5233     5237     5267 
    5324     5401     5489     5592     5706     5829     5969     6130 
    6307     6489     6654     6780     6852     6862     6804     6688 
    6536     6366     6193     6028     5862     5686     5490     5272 
    5036     4797     4583     4410     4290     4226     4214     4248 
    4325     4436     4571     4711     4844     4965     5076     5189 
    5318     5457     5597     5721     5805     5841     5829     5772 
    5685     5594     5518     5476     5479     5530     5627     5769 
    5940     6118     6293     6452     6584     6688     6764     6820 
