Origin Time       2015/02/17 08:06:00
Lat.              39.872
Long.             143.192
Depth. (km)       13
Mag.              6.9
Station Code      HKD103
Station Lat.      42.7275
Station Long.     142.2973
Station Height(m) 86
Record Time       2015/02/17 08:08:08
Sampling Freq(Hz) 100Hz
Duration Time(s)  108
Dir.              E-W
Scale Factor      3920(gal)/6182761
Max. Acc. (gal)   2.175
Last Correction   2015/02/17 08:08:08
Memo.             
[...]
    1527     1335     1058      718      349      -12     -328     -579 
    -769     -912    -1025    -1120    -1193    -1228    -1217    -1162 
   -1065     -930     -764     -579     -390     -217      -81       16 
      88      141      184      222      246      250      244      244 
     262      312      396      508      655      839     1053     1283 
    1505     1700     1859     1986     2096     2202     2303     2384 
    2428     2410     2314     2137     1884     1570     1217      861 
     532      252       34     -114     -193     -207     -163      -70 
      63      231      422      617      787      900      927      868 
     738      557      345      127      -61     -195     -268     -275 
    -225     -142      -50       36      105      143      140       98 
      24      -70     -166     -251     -320     -366     -375     -355 
    -330     -322     -354     -430     -536     -646     -734     -782 
    -782     -732     -638     -503     -323      -95      167      452 
     752     1056     1347     1604     1807     1937     1969     1887 
    1702     1452     1188      956      794      706      673      669 
     654      602      508      379      230       89      -30     -118 
    -163     -151      -90       -2       95      180      235      269 
     298      336      395      484      599      733      882     1047 
    1234     1444     1670     1895     2090     2230     2295     2277 
    2180     2017     1810     1585     1365     1158      966      790 
     631      496      394      322      281      278      313      376 
     453      525      568      564      506      395      240       60 
    -124     -297     -440     -549     -632     -700     -758     -813 
    -870     -918     -945     -938     -889     -793     -652     -477 
    -284      -97       64      194      299      393      491      603 
     731      871     1001     1093     1126     1080      949      747 
     505      259       51      -87     -136      -92       31      205 
     400      593      776      950     1118     1282     1447     1625 
    1817     2017     2211     2377     2496     2552     2524     2401 
    2188     1898     1559     1205      870      589      386      277 
     269      350      495      679      873     1063     1243     1413 
    1575     1734     1883     2017     2129     2211     2251     2233 
    2141     1978     1760     1508     1252     1023      833      690 
     596      538      498      459      401      316      209       87 
     -38     -139     -202     -238     -261     -287     -338     -427 
    -561     -737     -933    -1119    -1272    -1375    -1437    -1488 
   -1555    -1649    -1771    -1913    -2057    -2184    -2277    -2325 
   -2320    -2259    -2143    -1987    -1804    -1601    -1392    -1184 
    -973     -758     -541     -319      -97      121      326      513 
     674      801      900      983     1056     1134     1229     1340 
    1469     1618     1784     1960     2139     2304     2445     2543 
    2584     2566     2481     2332     2143     1937     1718     1498 
    1284     1069      852      635      431      260      136       66 
      49       61       69       45      -34     -177     -380     -640 
    -930    -1198    -1395    -1482    -1437    -1265     -998     -667 
    -308       53      398      716      991     1205     1341     1391 
    1371     1305     1211     1102      989      877      769      675 
     614      589      596      632      688      763      865     1000 
    1171     1366     1566     1759     1933     2084     2218     2348 
    2479     2606     2724     2821     2882     2906     2890     2829 
    2724     2571     2359     2082     1741     1332      865      369 
    -117     -568     -962    -1278    -1508    -1658    -1730    -1744 
   -1724    -1668    -1549    -1367    -1156     -943     -719     -474 
    -236      -21      206      458      699      908     1095     1235 
    1284     1246     1165     1055      911      780      715      706 
     727      775      840      884      890      899      932      967 
    1000     1063     1170     1299     1435     1587     1727     1798 
    1797     1748     1639     1462     1257     1063      879      699 
     548      432      318      190       65      -72     -248     -450 
    -648     -837    -1020    -1173    -1269    -1320    -1347    -1333 
   -1275    -1201    -1123    -1020     -878     -707     -498     -220 
     113      455      782     1092     1353     1536     1657     1736 
    1757     1718     1652     1579     1489     1387     1315     1288 
    1285     1290     1301     1305     1271     1212     1167     1134 
    1100     1072     1052     1015      946      864      790      718 
     653      613      602      599      597      613      640      646 
     626      576      483      345      194       66      -31      -93 
    -102      -63      -17       14       43       71       79       86 
     123      176      236      310      399      479      514      494 
     417      271       76      -99     -192     -174      -29      251 
     632     1049     1449     1812     2117     2344     2512     2659 
    2791     2898     2983     3039     3035     2947     2777     2529 
    2202     1819     1425     1040      664      299      -40     -346 
    -628     -881    -1089    -1254    -1385    -1484    -1552    -1605 
   -1649    -1666    -1644    -1588    -1497    -1360    -1186    -1005 
    -827     -654     -508     -407     -337     -275     -213     -140 
     -34      115      287      459      620      742      794      771 
     687      553      385      211       55      -66     -155     -216 
    -248     -268     -300     -339     -382     -449     -543     -650 
    -764     -883     -999    -1093    -1166    -1234    -1300    -1344 
   -1361    -1347    -1283    -1167    -1008     -816     -597     -360 
    -117      123      362      603      830     1023     1176     1282 
    1344     1379     1410     1443     1482     1541     1628     1720 
    1805     1888     1957     1994     2002     1984     1933     1838 
    1711     1580     1455     1333     1218     1113     1006      890 
     792      735      724      756      827      907      960      977 
     963      930      891      870      887      946     1040     1156 
    1283     1407     1518     1618     1716     1806     1884     1960 
    2043     2121     2187     2242     2274     2267     2220     2150 
    2069     1982     1907     1858     1821     1777     1729     1685 
    1641     1608     1604     1634     1703     1815     1964     2131 
    2279     2384     2435     2422     2349     2234     2090     1927 
    1757     1593     1447     1315     1198     1094      991      873 
     738      599      461      340      261      225      218      227 
     237      237      211      149       64      -35     -139     -232 
    -294     -313     -288     -222     -122       -3      105      172 
     189      156       71      -36     -133     -211     -259     -265 
    -235     -189     -143     -108      -99     -113     -128     -127 
    -100      -50       18       95      164      216      257      288 
     296      284      263      232      200      187      206      255 
     332      438      560      666      735      760      738      675 
     579      463      334      191       37     -113     -243     -350 
    -433     -496     -555     -614     -670     -715     -742     -758 
    -772     -781     -798     -819     -820     -792     -734     -637 
    -500     -329     -138       56      253      444      619      784 
     933     1053     1138     1185     1192     1155     1083      987 
     873      754      654      587      561      570      613      678 
     744      798      829      825      780      692      576      445 
     314      198      110       47       -2      -50     -102     -156 
    -218     -285     -355     -431     -510     -591     -680     -779 
    -876     -964    -1034    -1059    -1019     -922     -777     -602 
    -421     -250      -91       56      193      322      443      555 
     654      745      836      927     1014     1087     1141     1178 
    1201     1209     1199     1165     1110     1033      931      802 
     649      477      289       94      -89     -247     -369     -436 
    -436     -379     -274     -123       62      263      476      703 
     947     1206     1472     1727     1938     2066     2098     2042 
    1908     1713     1481     1225      944      644      344       62 
    -191     -412     -596     -749     -886    -1007    -1102    -1170 
   -1211    -1222    -1205    -1165    -1103    -1012     -889     -736 
    -555     -355     -152       38      215      387      559      721 
     862      978     1071     1151     1241     1353     1482     1619 
    1748     1846     1897     1892     1826     1699     1523     1311 
    1082      860      663      503      397      346      356      433 
     572      760      981     1214     1445     1659     1847     2008 
    2141     2247     2334     2400     2442     2459     2451     2426 
    2386     2325     2243     2140     2009     1845     1654     1439 
    1220     1020      860      748      684      658      651      643 
     623      581      506      406      303      215      154      128 
     141      174      200      201      165       91        1      -81 
    -130     -131      -78       32      191      386      605      822 
    1016     1175     1285     1323     1279     1153      942      657 
     329       -9     -319     -569     -740     -820     -816     -739 
    -595     -399     -177       48      255      422      545      633 
     697      742      769      783      786      765      716      643 
     553      459      374      304      245      195      146       96 
      43      -15      -67      -99      -97      -42       70      230 
     428      651      874     1077     1245     1372     1465     1539 
    1603     1667     1739     1806     1858     1887     1889     1868 
    1828     1783     1743     1708     1677     1653     1636     1623 
    1612     1591     1545     1472     1372     1248     1112      976 
     850      743      652      577      514      444      356      246 
     111      -45     -209     -368     -507     -612     -685     -733 
    -766     -798     -848     -928    -1038    -1162    -1283    -1387 
   -1467    -1527    -1577    -1629    -1702    -1800    -1912    -2022 
   -2103    -2124    -2073    -1952    -1775    -1564    -1335    -1095 
    -850     -596     -329      -51      237      532      823     1105 
    1382     1650     1903     2133     2333     2494     2605     2664 
    2674     2642     2568     2458     2312     2136     1937     1728 
    1522     1337     1182     1062      984      948      946      979 
    1046     1127     1206     1259     1254     1177     1029      825 
     592      362      161       -2     -136     -256     -371     -484 
    -596     -702     -787     -844     -870     -862     -832     -801 
    -791     -814     -870     -942    -1008    -1049    -1043     -988 
    -894     -760     -580     -367     -130      132      410      694 
     981     1267     1546     1803     2028     2215     2360     2470 
    2548     2591     2597     2570     2515     2432     2325     2197 
    2052     1899     1745     1597     1460     1341     1246     1182 
    1150     1142     1161     1210     1284     1379     1487     1593 
    1684     1742     1750     1704     1609     1474     1318     1167 
    1034      936      894      909      967     1052     1137     1196 
    1216     1199     1151     1081     1004      930      871      834 
     816      810      802      772      713      614      469      288 
      86     -126     -336     -531     -705     -847     -952    -1013 
   -1023     -976     -871     -719     -538     -343     -148       33 
     191      314      394      424      399      320      201       65 
     -71     -187     -257     -273     -241     -169      -72       37 
     157      283      408      524      623      699      746      763 
     755      730      689      638      587      533      474      408 
     332      250      171      104       61       49       57       75 
      93      105      115      121      122      119      118      123 
     142      171      208      251      293      322      330      314 
     273      203      103      -28     -193     -388     -595     -793 
    -957    -1061    -1096    -1058     -946     -765     -520     -228 
      80      382      661      906     1120     1321     1524     1742 
    1980     2221     2440     2611     2718     2754     2729     2663 
    2568     2458     2345     2235     2125     2019     1920     1839 
    1789     1781     1831     1953     2149     2406     2700     3005 
    3294     3550     3753     3888     3946     3919     3804     3609 
    3342     3014     2644     2251     1857     1485     1145      844 
     590      382      216       92        4      -58     -100     -127 
    -145     -164     -185     -198     -194     -161      -84       33 
     181      349      517      663      784      875      938      978 
     987      950      857      703      484      207     -128     -508 
    -913    -1324    -1713    -2050    -2320    -2528    -2680    -2785 
   -2851    -2885    -2883    -2836    -2741    -2606    -2441    -2255 
   -2054    -1842    -1625    -1412    -1210    -1023     -852     -700 
    -567     -449     -349     -267     -199     -145     -110      -91 
     -86      -88      -85      -68      -30       39      142      274 
     423      583      749      927     1123     1331     1540     1750 
    1945     2113     2255     2366     2445     2500     2542     2579 
    2621     2673     2734     2791     2822     2803     2709     2519 
    2227     1842     1387      893      391      -90     -522     -899 
   -1225    -1493    -1704    -1865    -1978    -2041    -2052    -2010 
   -1914    -1768    -1588    -1393    -1196    -1000     -817     -647 
    -483     -323     -166       -1      167      333      492      633 
     744      824      869      885      882      857      806      732 
     627      491      336      175       22     -121     -254     -368 
    -456     -519     -556     -569     -566     -561     -563     -572 
    -590     -620     -652     -683     -714     -748     -782     -813 
    -837     -851     -863     -875     -884     -884     -861     -797 
    -685     -525     -323      -90      159      409      654      889 
    1106     1308     1495     1666     1833     2005     2181     2356 
    2520     2661     2767     2825     2838     2812     2756     2684 
    2608     2538     2481     2439     2405     2362     2305     2237 
    2154     2056     1962     1875     1797     1745     1731     1750 
    1795     1851     1902     1928     1915     1872     1805     1718 
    1627     1543     1468     1398     1333     1276     1230     1200 
    1191     1205     1245     1311     1396     1492     1590     1679 
    1751     1801     1828     1835     1825     1800     1763     1713 
    1641     1549     1446     1344     1248     1159     1081     1018 
     964      919      880      835      776      699      597      475 
     347      235      154      111      109      146      212      302 
     415      547      690      844     1009     1177     1342     1503 
    1647     1763     1849     1907     1941     1955     1956     1950 
    1938     1923     1906     1890     1878     1869     1858     1847 
    1838     1822     1790     1747     1693     1625     1547     1462 
    1365     1250     1113      942      734      494      220      -90 
    -423     -765    -1100    -1408    -1669    -1870    -2006    -2087 
   -2113    -2081    -1995    -1855    -1657    -1417    -1152     -875 
    -601     -341      -99      125      335      520      682      832 
     966     1084     1192     1296     1392     1468     1518     1533 
    1507     1445     1353     1244     1127     1024      954      921 
     926      965     1021     1071     1104     1113     1094     1047 
     976      887      780      658      535      416      298      180 
      51      -99     -263     -436     -610     -779     -937    -1082 
   -1209    -1315    -1399    -1460    -1500    -1521    -1526    -1523 
   -1507    -1469    -1400    -1295    -1148     -970     -769     -555 
    -345     -159       -7      103      178      229      257      260 
     238      191      120       35      -56     -148     -232     -298 
    -341     -360     -363     -360     -352     -332     -298     -249 
    -180      -87       28      159      303      454      596      722 
     824      887      903      870      791      677      537      381 
     229       98       -7      -78     -113     -116      -87      -31 
      46      138      239      348      462      579      699      820 
     954     1103     1267     1445     1624     1786     1920     2010 
    2047     2040     1996     1929     1853     1772     1682     1582 
    1478     1373     1270     1181     1111     1061     1027     1000 
     975      937      869      771      640      482      301      102 
    -102     -308     -515     -719     -915    -1090    -1231    -1328 
   -1382    -1391    -1358    -1304    -1240    -1167    -1095    -1027 
    -954     -877     -796     -705     -600     -487     -373     -268 
    -182     -128     -116     -148     -217     -309     -402     -474 
    -502     -469     -373     -220      -19      207      445      687 
     922     1148     1365     1566     1738     1876     1966     2001 
    1982     1912     1798     1652     1491     1327     1173     1041 
     940      879      869      911      991     1093     1210     1337 
    1467     1606     1764     1940     2130     2329     2531     2726 
    2903     3048     3153     3214     3226     3193     3128     3037 
    2924     2795     2652     2495     2324     2136     1932     1716 
    1491     1257     1020      782      542      304       84     -110 
    -275     -412     -527     -621     -685     -719     -726     -700 
    -641     -555     -446     -324     -205      -98      -11       46 
      66       47       -6      -77     -152     -220     -273     -311 
    -348     -387     -431     -486     -555     -640     -736     -833 
    -929    -1014    -1079    -1123    -1139    -1117    -1056     -956 
    -823     -657     -465     -257      -36      195      429      669 
     914     1152     1375     1570     1727     1840     1906     1921 
    1885     1809     1695     1541     1349     1126      879      626 
     379      137      -91     -294     -461     -587     -659     -670 
    -625     -536     -417     -281     -143      -16       97      197 
     293      394      499      607      722      842      958     1065 
    1151     1207     1227     1206     1146     1049      921      776 
     630      491      371      282      232      222      246      299 
     373      453      536      617      692      768      849      930 
    1007     1080     1146     1206     1262     1310     1351     1379 
