Origin Time       2015/02/17 08:06:00
Lat.              39.872
Long.             143.192
Depth. (km)       13
Mag.              6.9
Station Code      HKD103
Station Lat.      42.7275
Station Long.     142.2973
Station Height(m) 86
Record Time       2015/02/17 08:08:08
Sampling Freq(Hz) 100Hz
Duration Time(s)  108
Dir.              U-D
Scale Factor      3920(gal)/6182761
Max. Acc. (gal)   2.276
Last Correction   2015/02/17 08:08:08
Memo.             
[...]
   -4629    -4584    -4526    -4472    -4418    -4355    -4296    -4262 
   -4241    -4211    -4170    -4128    -4100    -4115    -4193    -4297 
   -4371    -4417    -4472    -4555    -4660    -4788    -4917    -5003 
   -5023    -4997    -4953    -4903    -4860    -4843    -4858    -4887 
   -4908    -4922    -4934    -4955    -4999    -5082    -5198    -5313 
   -5408    -5492    -5565    -5626    -5676    -5708    -5701    -5642 
   -5540    -5403    -5231    -5040    -4860    -4709    -4592    -4514 
   -4483    -4489    -4519    -4576    -4666    -4777    -4880    -4953 
   -5002    -5033    -5056    -5083    -5115    -5139    -5152    -5166 
   -5182    -5193    -5207    -5234    -5265    -5289    -5315    -5360 
   -5417    -5474    -5530    -5578    -5609    -5631    -5656    -5676 
   -5667    -5620    -5552    -5489    -5440    -5407    -5389    -5369 
   -5334    -5303    -5300    -5312    -5312    -5305    -5310    -5316 
   -5296    -5254    -5208    -5162    -5111    -5052    -4969    -4848 
   -4694    -4537    -4415    -4350    -4352    -4413    -4491    -4546 
   -4569    -4578    -4594    -4623    -4659    -4693    -4715    -4727 
   -4745    -4781    -4828    -4882    -4950    -5028    -5097    -5154 
   -5195    -5222    -5233    -5225    -5201    -5157    -5091    -5006 
   -4912    -4809    -4693    -4576    -4470    -4386    -4331    -4302 
   -4289    -4286    -4294    -4329    -4400    -4487    -4573    -4666 
   -4769    -4873    -4962    -5037    -5109    -5191    -5276    -5342 
   -5365    -5346    -5312    -5279    -5250    -5230    -5218    -5215 
   -5225    -5242    -5258    -5271    -5286    -5305    -5317    -5306 
   -5281    -5267    -5263    -5242    -5202    -5153    -5108    -5074 
   -5044    -5005    -4951    -4889    -4826    -4760    -4678    -4575 
   -4474    -4403    -4372    -4379    -4426    -4495    -4559    -4610 
   -4654    -4690    -4711    -4720    -4729    -4748    -4775    -4813 
   -4869    -4940    -5004    -5029    -4993    -4908    -4811    -4742 
   -4719    -4731    -4760    -4807    -4875    -4957    -5043    -5115 
   -5153    -5155    -5132    -5090    -5031    -4959    -4887    -4830 
   -4806    -4812    -4833    -4853    -4858    -4847    -4841    -4865 
   -4918    -4991    -5075    -5155    -5223    -5277    -5317    -5334 
   -5327    -5309    -5292    -5264    -5222    -5176    -5129    -5077 
   -5014    -4935    -4843    -4732    -4607    -4499    -4439    -4424 
   -4431    -4445    -4462    -4481    -4509    -4551    -4595    -4631 
   -4657    -4684    -4723    -4773    -4817    -4847    -4870    -4896 
   -4931    -4971    -5000    -5013    -5012    -5009    -5019    -5036 
   -5050    -5053    -5042    -5025    -5011    -5001    -4987    -4969 
   -4955    -4961    -4999    -5059    -5114    -5147    -5152    -5134 
   -5106    -5087    -5090    -5112    -5132    -5142    -5154    -5180 
   -5218    -5261    -5300    -5326    -5327    -5300    -5254    -5204 
   -5172    -5176    -5224    -5311    -5412    -5496    -5551    -5583 
   -5597    -5606    -5621    -5645    -5676    -5703    -5712    -5700 
   -5686    -5678    -5673    -5656    -5626    -5595    -5573    -5566 
   -5574    -5599    -5629    -5645    -5631    -5588    -5510    -5404 
   -5302    -5227    -5178    -5150    -5126    -5077    -4988    -4868 
   -4733    -4595    -4483    -4415    -4373    -4338    -4310    -4287 
   -4267    -4253    -4260    -4299    -4360    -4429    -4500    -4563 
   -4611    -4650    -4699    -4756    -4804    -4830    -4844    -4857 
   -4871    -4906    -4978    -5087    -5223    -5360    -5479    -5584 
   -5679    -5752    -5801    -5832    -5829    -5780    -5702    -5611 
   -5502    -5382    -5277    -5207    -5165    -5127    -5071    -4982 
   -4878    -4789    -4726    -4685    -4655    -4625    -4589    -4552 
   -4518    -4484    -4442    -4385    -4316    -4247    -4179    -4116 
   -4073    -4061    -4082    -4127    -4179    -4222    -4253    -4278 
   -4314    -4377    -4464    -4568    -4680    -4793    -4889    -4953 
   -4987    -5005    -5016    -5028    -5045    -5062    -5074    -5073 
   -5054    -5017    -4969    -4931    -4919    -4923    -4922    -4910 
   -4893    -4888    -4909    -4952    -5001    -5039    -5068    -5090 
   -5096    -5090    -5086    -5080    -5067    -5049    -5029    -5003 
   -4976    -4957    -4965    -5014    -5100    -5199    -5286    -5350 
   -5391    -5424    -5465    -5509    -5543    -5554    -5531    -5484 
   -5425    -5366    -5319    -5297    -5305    -5329    -5347    -5349 
   -5339    -5326    -5317    -5313    -5308    -5293    -5248    -5162 
   -5043    -4907    -4768    -4629    -4484    -4329    -4174    -4047 
   -3970    -3928    -3891    -3847    -3793    -3723    -3637    -3543 
   -3456    -3394    -3359    -3352    -3373    -3418    -3484    -3573 
   -3688    -3833    -4001    -4186    -4376    -4558    -4731    -4892 
   -5037    -5172    -5313    -5461    -5600    -5724    -5834    -5926 
   -5998    -6072    -6159    -6237    -6288    -6318    -6338    -6361 
   -6392    -6417    -6423    -6414    -6392    -6359    -6316    -6267 
   -6212    -6147    -6070    -5980    -5876    -5761    -5643    -5543 
   -5471    -5432    -5433    -5477    -5551    -5634    -5709    -5765 
   -5807    -5832    -5826    -5778    -5683    -5542    -5372    -5193 
   -5024    -4877    -4750    -4644    -4565    -4506    -4447    -4385 
   -4333    -4301    -4278    -4244    -4188    -4118    -4050    -3997 
   -3963    -3934    -3904    -3882    -3878    -3901    -3945    -3997 
   -4047    -4086    -4102    -4097    -4088    -4086    -4088    -4089 
   -4082    -4064    -4040    -4021    -4005    -3995    -4012    -4057 
   -4118    -4185    -4253    -4320    -4402    -4509    -4638    -4780 
   -4930    -5073    -5194    -5284    -5347    -5396    -5445    -5496 
   -5544    -5585    -5618    -5639    -5643    -5635    -5621    -5596 
   -5573    -5576    -5605    -5643    -5680    -5708    -5717    -5697 
   -5634    -5534    -5410    -5276    -5151    -5054    -4986    -4943 
   -4920    -4902    -4876    -4841    -4805    -4771    -4736    -4701 
   -4668    -4640    -4617    -4591    -4560    -4524    -4489    -4461 
   -4434    -4406    -4385    -4376    -4387    -4427    -4488    -4558 
   -4629    -4697    -4763    -4830    -4893    -4945    -4980    -5000 
   -5014    -5029    -5052    -5079    -5104    -5136    -5180    -5228 
   -5278    -5330    -5377    -5409    -5425    -5435    -5445    -5459 
   -5477    -5485    -5464    -5414    -5338    -5243    -5150    -5068 
   -5002    -4965    -4964    -4986    -5012    -5041    -5092    -5181 
   -5302    -5432    -5548    -5638    -5690    -5705    -5691    -5655 
   -5595    -5519    -5453    -5412    -5378    -5340    -5313    -5309 
   -5326    -5348    -5357    -5349    -5339    -5341    -5351    -5353 
   -5341    -5311    -5259    -5190    -5112    -5038    -4990    -4975 
   -4971    -4968    -4970    -4988    -5020    -5051    -5076    -5089 
   -5085    -5066    -5036    -5004    -4975    -4943    -4904    -4868 
   -4843    -4827    -4808    -4770    -4710    -4636    -4576    -4561 
   -4599    -4675    -4770    -4866    -4955    -5026    -5059    -5054 
   -5024    -4969    -4885    -4781    -4656    -4517    -4381    -4264 
   -4160    -4039    -3902    -3809    -3777    -3729    -3625    -3544 
   -3535    -3532    -3497    -3492    -3538    -3583    -3646    -3782 
   -3938    -4023    -4064    -4136    -4222    -4288    -4395    -4575 
   -4753    -4882    -5012    -5165    -5285    -5375    -5514    -5705 
   -5860    -5957    -6059    -6164    -6202    -6197    -6228    -6257 
   -6226    -6198    -6221    -6228    -6178    -6132    -6115    -6059 
   -5957    -5876    -5827    -5764    -5692    -5650    -5605    -5506 
   -5383    -5277    -5150    -4971    -4793    -4671    -4579    -4485 
   -4419    -4391    -4351    -4286    -4251    -4259    -4260    -4256 
   -4284    -4306    -4269    -4219    -4211    -4209    -4189    -4206 
   -4280    -4342    -4370    -4413    -4465    -4465    -4429    -4430 
   -4460    -4461    -4449    -4472    -4511    -4513    -4498    -4504 
   -4497    -4453    -4422    -4429    -4417    -4355    -4302    -4284 
   -4248    -4184    -4137    -4099    -4024    -3931    -3880    -3864 
   -3849    -3868    -3947    -4046    -4135    -4242    -4365    -4441 
   -4465    -4493    -4527    -4535    -4530    -4542    -4565    -4569 
   -4556    -4548    -4538    -4514    -4504    -4526    -4550    -4561 
   -4592    -4653    -4707    -4748    -4815    -4902    -4950    -4952 
   -4963    -4985    -4990    -5010    -5086    -5184    -5254    -5316 
   -5404    -5486    -5541    -5616    -5733    -5851    -5946    -6044 
   -6132    -6166    -6160    -6158    -6162    -6148    -6127    -6128 
   -6130    -6102    -6065    -6040    -6004    -5948    -5915    -5921 
   -5926    -5913    -5899    -5870    -5797    -5697    -5596    -5479 
   -5326    -5168    -5030    -4893    -4752    -4640    -4570    -4510 
   -4457    -4446    -4478    -4530    -4598    -4693    -4789    -4845 
   -4862    -4875    -4872    -4835    -4780    -4721    -4641    -4530 
   -4423    -4347    -4275    -4197    -4155    -4156    -4158    -4156 
   -4177    -4211    -4229    -4250    -4301    -4363    -4408    -4453 
   -4523    -4593    -4639    -4683    -4729    -4744    -4734    -4730 
   -4736    -4733    -4731    -4767    -4846    -4939    -5043    -5169 
   -5292    -5378    -5438    -5497    -5546    -5575    -5601    -5633 
   -5654    -5663    -5684    -5705    -5701    -5689    -5684    -5667 
   -5624    -5569    -5517    -5449    -5357    -5271    -5198    -5117 
   -5032    -4967    -4918    -4870    -4839    -4850    -4902    -4967 
   -5032    -5099    -5155    -5187    -5219    -5271    -5333    -5399 
   -5493    -5632    -5793    -5956    -6128    -6300    -6440    -6543 
   -6626    -6686    -6705    -6699    -6686    -6637    -6532    -6390 
   -6233    -6065    -5900    -5765    -5654    -5539    -5412    -5284 
   -5156    -5025    -4900    -4796    -4711    -4631    -4559    -4506 
   -4468    -4428    -4387    -4354    -4319    -4281    -4262    -4267 
   -4284    -4318    -4386    -4485    -4587    -4691    -4810    -4934 
   -5047    -5157    -5270    -5367    -5436    -5500    -5563    -5611 
   -5645    -5678    -5706    -5714    -5710    -5717    -5729    -5729 
   -5715    -5695    -5663    -5611    -5550    -5497    -5448    -5400 
   -5363    -5330    -5275    -5191    -5103    -5030    -4963    -4901 
   -4848    -4795    -4729    -4658    -4593    -4537    -4494    -4467 
   -4435    -4374    -4285    -4188    -4101    -4025    -3964    -3925 
   -3901    -3892    -3912    -3965    -4037    -4112    -4187    -4252 
   -4297    -4318    -4330    -4350    -4369    -4368    -4349    -4318 
   -4269    -4204    -4146    -4103    -4068    -4050    -4073    -4119 
   -4162    -4214    -4294    -4399    -4515    -4637    -4757    -4856 
   -4932    -4986    -5014    -5023    -5030    -5037    -5038    -5023 
   -4991    -4950    -4908    -4872    -4847    -4825    -4789    -4736 
   -4685    -4657    -4647    -4637    -4627    -4612    -4577    -4535 
   -4510    -4494    -4467    -4424    -4362    -4277    -4180    -4091 
   -4017    -3947    -3879    -3826    -3788    -3761    -3752    -3766 
   -3790    -3823    -3862    -3900    -3930    -3948    -3961    -3978 
   -3989    -3983    -3977    -3990    -4003    -3998    -4001    -4018 
   -4016    -3998    -4008    -4047    -4087    -4123    -4167    -4213 
   -4257    -4315    -4397    -4488    -4572    -4642    -4694    -4731 
   -4766    -4811    -4856    -4879    -4868    -4828    -4770    -4706 
   -4641    -4569    -4483    -4386    -4291    -4205    -4139    -4112 
   -4137    -4213    -4329    -4463    -4592    -4701    -4789    -4872 
   -4960    -5040    -5102    -5158    -5220    -5275    -5303    -5307 
   -5297    -5273    -5247    -5245    -5275    -5326    -5395    -5478 
   -5568    -5660    -5751    -5840    -5928    -6004    -6055    -6081 
   -6085    -6065    -6029    -5976    -5897    -5792    -5675    -5542 
   -5384    -5214    -5051    -4906    -4783    -4684    -4601    -4523 
   -4446    -4381    -4331    -4277    -4211    -4135    -4052    -3974 
   -3926    -3918    -3941    -3982    -4034    -4085    -4129    -4165 
   -4202    -4250    -4314    -4385    -4457    -4535    -4622    -4711 
   -4805    -4912    -5031    -5163    -5308    -5450    -5579    -5703 
   -5828    -5945    -6044    -6127    -6193    -6240    -6271    -6301 
   -6327    -6332    -6317    -6294    -6271    -6250    -6241    -6248 
   -6263    -6277    -6291    -6304    -6320    -6333    -6334    -6327 
   -6315    -6289    -6252    -6222    -6213    -6225    -6245    -6258 
   -6255    -6238    -6218    -6202    -6191    -6194    -6224    -6273 
   -6327    -6383    -6447    -6510    -6568    -6623    -6679    -6729 
   -6752    -6736    -6685    -6603    -6496    -6373    -6236    -6084 
   -5923    -5764    -5613    -5477    -5372    -5310    -5283    -5282 
   -5299    -5331    -5369    -5413    -5472    -5544    -5609    -5661 
   -5702    -5710    -5678    -5625    -5566    -5498    -5422    -5340 
   -5258    -5181    -5114    -5063    -5031    -5012    -5000    -4983 
   -4952    -4901    -4819    -4709    -4578    -4426    -4244    -4030 
   -3784    -3505    -3204    -2905    -2626    -2367    -2132    -1927 
   -1744    -1592    -1486    -1415    -1370    -1359    -1378    -1414 
   -1466    -1545    -1658    -1810    -2002    -2227    -2477    -2739 
   -3001    -3264    -3534    -3804    -4059    -4294    -4501    -4672 
   -4814    -4946    -5079    -5210    -5335    -5461    -5581    -5688 
   -5787    -5884    -5974    -6058    -6133    -6190    -6220    -6225 
   -6224    -6232    -6249    -6271    -6296    -6321    -6338    -6341 
   -6333    -6316    -6281    -6222    -6146    -6063    -5989    -5928 
   -5882    -5860    -5855    -5853    -5866    -5903    -5953    -5999 
   -6027    -6035    -6023    -5997    -5961    -5917    -5866    -5815 
   -5768    -5724    -5681    -5645    -5629    -5645    -5695    -5774 
   -5868    -5962    -6054    -6134    -6195    -6244    -6284    -6313 
   -6331    -6329    -6299    -6239    -6149    -6033    -5906    -5771 
   -5621    -5459    -5294    -5136    -4989    -4854    -4727    -4606 
   -4492    -4379    -4255    -4124    -3996    -3875    -3768    -3673 
   -3583    -3497    -3423    -3371    -3343    -3338    -3350    -3377 
   -3417    -3475    -3555    -3645    -3727    -3797    -3852    -3888 
   -3913    -3933    -3938    -3915    -3864    -3795    -3716    -3634 
   -3554    -3476    -3396    -3322    -3261    -3214    -3194    -3207 
   -3246    -3310    -3391    -3479    -3569    -3665    -3776    -3895 
   -4013    -4130    -4247    -4364    -4476    -4578    -4678    -4783 
   -4895    -5009    -5118    -5213    -5295    -5361    -5404    -5422 
   -5414    -5382    -5338    -5289    -5234    -5177    -5127    -5098 
   -5100    -5134    -5183    -5234    -5290    -5355    -5429    -5512 
   -5593    -5669    -5745    -5824    -5908    -5993    -6074    -6150 
   -6222    -6285    -6342    -6383    -6398    -6384    -6338    -6261 
   -6151    -6012    -5860    -5711    -5569    -5432    -5295    -5150 
   -4992    -4806    -4595    -4373    -4150    -3921    -3689    -3460 
   -3238    -3030    -2853    -2712    -2602    -2523    -2477    -2460 
   -2459    -2476    -2519    -2583    -2669    -2777    -2888    -2993 
   -3096    -3202    -3315    -3447    -3604    -3777    -3953    -4120 
   -4271    -4404    -4515    -4607    -4681    -4729    -4746    -4734 
   -4690    -4609    -4500    -4378    -4244    -4100    -3956    -3822 
   -3706    -3604    -3509    -3410    -3308    -3221    -3153    -3098 
   -3044    -2994    -2963    -2958    -2986    -3044    -3125    -3229 
   -3362    -3521    -3698    -3892    -4101    -4323    -4555    -4789 
   -5018    -5235    -5438    -5629    -5811    -5983    -6144    -6299 
   -6456    -6614    -6764    -6903    -7032    -7153    -7263    -7360 
   -7449    -7530    -7596    -7643    -7665    -7651    -7607    -7547 
   -7493    -7459    -7442    -7432    -7416    -7396    -7381    -7362 
   -7332    -7294    -7258    -7227    -7198    -7169    -7139    -7101 
   -7055    -7006    -6953    -6902    -6859    -6816    -6759    -6680 
   -6589    -6504    -6433    -6372    -6321    -6279    -6231    -6170 
   -6097    -6010    -5915    -5820    -5729    -5640    -5549    -5449 
   -5338    -5229    -5121    -5009    -4897    -4785    -4671    -4555 
   -4441    -4334    -4243    -4176    -4138    -4126    -4128    -4136 
   -4149    -4168    -4196    -4234    -4273    -4301    -4313    -4312 
   -4306    -4296    -4282    -4272    -4272    -4277    -4292    -4310 
   -4320    -4332    -4357    -4398    -4455    -4524    -4612    -4712 
   -4813    -4908    -5003    -5104    -5210    -5322    -5435    -5533 
   -5615    -5690    -5759    -5822    -5891    -5968    -6044    -6121 
   -6194    -6248    -6273    -6279    -6272    -6249    -6209    -6152 
   -6073    -5966    -5835    -5692    -5548    -5419    -5312    -5228 
   -5169    -5128    -5099    -5083    -5081    -5087    -5099    -5110 
   -5111    -5103    -5090    -5067    -5046    -5033    -5018    -5004 
   -5001    -5007    -5018    -5041    -5075    -5118    -5156    -5183 
   -5193    -5178    -5137    -5082    -5030    -4999    -4994    -5004 
   -5022    -5056    -5101    -5140    -5175    -5204    -5218    -5221 
   -5214    -5202    -5190    -5172    -5146    -5115    -5079    -5033 
   -4983    -4931    -4869    -4795    -4714    -4628    -4531    -4421 
   -4308    -4200    -4102    -4020    -3968    -3948    -3955    -3987 
   -4037    -4095    -4162    -4241    -4321    -4404    -4494    -4586 
   -4664    -4728    -4780    -4815    -4835    -4846    -4851    -4846 
   -4837    -4828    -4807    -4764    -4697    -4611    -4515    -4414 
   -4317    -4231    -4157    -4092    -4037    -3987    -3937    -3890 
   -3846    -3799    -3749    -3708    -3678    -3648    -3618    -3594 
   -3569    -3529    -3493    -3477    -3472    -3478    -3504    -3548 
   -3606    -3683    -3780    -3890    -4006    -4122    -4245    -4378 
   -4522    -4667    -4804    -4930    -5048    -5162    -5265    -5351 
   -5418    -5461    -5474    -5458    -5423    -5383    -5343    -5301 
   -5263    -5220    -5171    -5140    -5127    -5106    -5072    -5026 
   -4972    -4916    -4866    -4825    -4790    -4756    -4726    -4701 
   -4670    -4635    -4599    -4563    -4535    -4520    -4503    -4475 
   -4440    -4396    -4349    -4315    -4302    -4305    -4322    -4358 
   -4403    -4451    -4508    -4574    -4643    -4712    -4780    -4842 
   -4903    -4962    -5010    -5039    -5044    -5022    -4980    -4921 
   -4852    -4777    -4692    -4598    -4501    -4408    -4324    -4251 
   -4193    -4156    -4140    -4151    -4193    -4258    -4336    -4422 
   -4516    -4612    -4704    -4782    -4845    -4899    -4945    -4980 
   -5007    -5024    -5037    -5052    -5065    -5074    -5085    -5098 
   -5107    -5107    -5097    -5080    -5058    -5027    -4997    -4981 
   -4982    -5001    -5035    -5088    -5158    -5232    -5307    -5379 
