Origin Time       2012/08/14 12:01:00
Lat.              49.183
Long.             145.882
Depth. (km)       654
Mag.              7.3
Station Code      TKY016
Station Lat.      35.6485
Station Long.     139.7990
Station Height(m) -9999
Record Time       2012/08/14 12:02:57
Sampling Freq(Hz) 100Hz
Duration Time(s)  61
Dir.              N-S
Scale Factor      3920(gal)/6182761
Max. Acc. (gal)   0.674
Last Correction   2012/08/14 12:02:58
Memo.             
[...]
    1759     1768     1768     1766     1766     1767     1773     1785 
    1795     1799     1795     1786     1769     1750     1736     1724 
    1715     1713     1708     1703     1707     1713     1717     1722 
    1728     1732     1737     1743     1743     1739     1735     1728 
    1718     1720     1727     1731     1735     1736     1735     1744 
    1760     1774     1781     1783     1785     1781     1774     1770 
    1758     1743     1736     1724     1714     1714     1707     1701 
    1698     1692     1686     1678     1670     1665     1655     1644 
    1638     1633     1633     1633     1627     1630     1634     1638 
    1648     1648     1647     1653     1651     1656     1669     1673 
    1687     1698     1693     1697     1697     1685     1687     1692 
    1693     1702     1706     1709     1711     1704     1693     1678 
    1657     1639     1621     1612     1620     1623     1631     1647 
    1652     1655     1657     1653     1658     1668     1676     1686 
    1697     1710     1718     1721     1723     1719     1711     1706 
    1698     1691     1693     1703     1721     1745     1766     1780 
    1786     1794     1809     1828     1851     1867     1860     1845 
    1835     1834     1844     1851     1849     1847     1841     1836 
    1836     1843     1855     1868     1870     1858     1839     1821 
    1807     1797     1789     1784     1778     1773     1774     1778 
    1785     1796     1806     1815     1823     1823     1819     1808 
    1782     1748     1716     1685     1665     1662     1665     1673 
    1672     1655     1644     1640     1638     1646     1654     1652 
    1647     1645     1651     1663     1668     1669     1666     1650 
    1634     1628     1627     1623     1610     1589     1567     1549 
    1529     1506     1488     1472     1446     1416     1390     1368 
    1363     1369     1384     1416     1448     1479     1529     1582 
    1629     1666     1686     1700     1714     1720     1733     1748 
    1755     1765     1769     1764     1764     1766     1768     1767 
    1754     1743     1731     1708     1690     1673     1651     1633 
    1615     1600     1588     1575     1573     1588     1617     1659 
    1701     1737     1774     1802     1823     1849     1868     1881 
    1893     1888     1872     1867     1866     1869     1882     1896 
    1907     1912     1911     1903     1885     1861     1837     1812 
    1786     1763     1741     1721     1704     1691     1684     1682 
    1681     1682     1688     1698     1705     1715     1732     1744 
    1754     1770     1790     1815     1848     1874     1886     1892 
    1893     1885     1875     1870     1869     1861     1851     1841 
    1824     1806     1791     1774     1753     1733     1716     1709 
    1711     1716     1730     1755     1779     1799     1809     1808 
    1805     1806     1813     1818     1825     1836     1840     1833 
    1824     1816     1811     1811     1816     1822     1821     1817 
    1820     1821     1814     1807     1795     1774     1760     1761 
    1771     1795     1828     1851     1866     1878     1881     1872 
    1855     1827     1790     1751     1707     1656     1610     1572 
    1539     1510     1482     1460     1447     1437     1423     1402 
    1372     1343     1322     1300     1288     1287     1287     1292 
    1309     1330     1356     1393     1439     1482     1526     1572 
    1617     1659     1690     1717     1744     1763     1777     1788 
    1789     1782     1773     1760     1746     1737     1731     1721 
    1707     1691     1675     1654     1632     1619     1612     1612 
    1620     1638     1666     1693     1723     1758     1795     1835 
    1878     1908     1922     1924     1915     1901     1886     1871 
    1860     1850     1832     1810     1789     1768     1749     1727 
    1698     1667     1634     1600     1570     1545     1526     1523 
    1537     1557     1589     1628     1659     1687     1717     1748 
    1785     1825     1856     1878     1895     1912     1933     1957 
    1976     1978     1965     1938     1901     1864     1839     1822 
    1809     1794     1772     1745     1714     1676     1641     1616 
    1599     1585     1573     1574     1591     1617     1647     1673 
    1691     1696     1687     1676     1679     1695     1715     1741 
    1763     1779     1789     1793     1791     1788     1788     1790 
    1793     1793     1782     1771     1771     1772     1764     1749 
    1724     1692     1667     1660     1671     1696     1726     1746 
    1758     1769     1780     1792     1802     1802     1799     1801 
    1795     1779     1760     1734     1702     1669     1630     1593 
    1572     1564     1562     1567     1577     1590     1610     1625 
    1629     1626     1617     1603     1590     1580     1574     1567 
    1554     1544     1544     1548     1549     1544     1531     1506 
    1472     1431     1392     1367     1358     1360     1369     1388 
    1415     1446     1470     1484     1498     1513     1523     1537 
    1559     1579     1592     1606     1620     1633     1648     1666 
    1689     1717     1746     1778     1806     1828     1843     1844 
    1836     1823     1802     1776     1747     1709     1674     1660 
    1660     1665     1682     1696     1704     1716     1731     1753 
    1781     1804     1823     1843     1866     1894     1920     1937 
    1946     1947     1937     1925     1920     1923     1933     1954 
    1975     1986     1987     1976     1955     1932     1905     1876 
    1853     1836     1822     1815     1816     1823     1834     1838 
    1835     1831     1821     1804     1797     1796     1787     1777 
    1767     1756     1745     1732     1713     1687     1659     1630 
    1604     1582     1559     1534     1514     1503     1502     1500 
    1506     1523     1536     1548     1567     1586     1606     1626 
    1640     1646     1649     1643     1630     1619     1612     1600 
    1586     1577     1571     1571     1578     1585     1592     1607 
    1620     1623     1616     1604     1600     1614     1635     1660 
    1690     1721     1750     1775     1791     1802     1810     1817 
    1825     1838     1855     1877     1891     1894     1890     1876 
    1855     1833     1816     1811     1818     1838     1863     1883 
    1896     1903     1903     1885     1844     1787     1726     1676 
    1638     1612     1599     1594     1582     1558     1533     1514 
    1507     1517     1541     1575     1615     1662     1706     1734 
    1752     1765     1770     1765     1752     1746     1751     1760 
    1769     1778     1784     1788     1789     1792     1792     1780 
    1756     1718     1672     1631     1607     1602     1610     1616 
    1617     1617     1619     1629     1647     1664     1677     1684 
    1688     1695     1705     1713     1708     1691     1671     1657 
    1654     1654     1660     1675     1685     1682     1673     1665 
    1661     1656     1643     1620     1593     1569     1549     1528 
    1507     1493     1483     1477     1488     1509     1535     1570 
    1604     1636     1671     1704     1726     1736     1740     1745 
    1757     1778     1806     1842     1873     1885     1885     1888 
    1891     1892     1888     1882     1880     1883     1880     1872 
    1860     1854     1857     1866     1875     1879     1883     1886 
    1883     1873     1854     1827     1796     1760     1723     1690 
    1662     1647     1655     1681     1708     1737     1769     1799 
    1831     1865     1892     1911     1933     1952     1956     1948 
    1937     1927     1919     1916     1911     1902     1884     1856 
    1822     1790     1754     1708     1658     1610     1567     1534 
    1507     1483     1468     1463     1469     1480     1494     1511 
    1528     1539     1549     1563     1577     1592     1611     1628 
    1645     1668     1694     1723     1748     1760     1756     1746 
    1731     1710     1688     1668     1652     1640     1628     1620 
    1626     1641     1652     1652     1644     1634     1626     1615 
    1605     1600     1600     1602     1611     1630     1656     1691 
    1734     1774     1805     1821     1819     1813     1811     1810 
    1806     1798     1794     1792     1781     1769     1766     1771 
    1778     1786     1787     1777     1767     1766     1773     1780 
    1780     1772     1756     1733     1708     1677     1650     1638 
    1637     1638     1637     1637     1639     1642     1641     1633 
    1614     1587     1559     1541     1531     1534     1554     1587 
    1622     1661     1714     1771     1820     1853     1860     1850 
    1832     1806     1773     1743     1719     1697     1677     1664 
    1666     1681     1715     1760     1799     1835     1873     1906 
    1933     1948     1952     1943     1921     1897     1877     1860 
    1850     1842     1832     1820     1806     1799     1795     1785 
    1789     1804     1819     1833     1837     1825     1806     1786 
    1774     1776     1779     1782     1782     1771     1760     1749 
    1739     1740     1746     1752     1756     1746     1716     1673 
    1629     1589     1554     1517     1481     1449     1413     1379 
    1344     1309     1292     1293     1309     1344     1385     1428 
    1468     1499     1524     1542     1555     1577     1607     1641 
    1678     1707     1713     1688     1635     1569     1509     1466 
    1447     1452     1465     1487     1515     1539     1561     1581 
    1595     1604     1611     1621     1636     1652     1663     1662 
    1646     1617     1581     1541     1507     1499     1521     1564 
    1621     1674     1714     1745     1772     1789     1802     1817 
    1832     1848     1864     1872     1868     1850     1820     1776 
    1728     1692     1661     1632     1613     1601     1595     1600 
    1615     1637     1662     1697     1748     1803     1857     1909 
    1950     1987     2023     2048     2068     2081     2073     2055 
    2031     2002     1976     1957     1951     1953     1952     1949 
    1951     1960     1966     1962     1955     1943     1929     1917 
    1902     1881     1849     1804     1758     1722     1711     1717 
    1728     1743     1754     1763     1787     1824     1857     1879 
    1889     1883     1865     1840     1815     1796     1777     1756 
    1738     1723     1710     1693     1663     1624     1578     1530 
    1484     1444     1410     1386     1370     1362     1360     1363 
    1364     1365     1382     1415     1458     1518     1599     1683 
    1751     1798     1818     1814     1797     1774     1753     1743 
    1744     1750     1760     1769     1773     1782     1797     1813 
    1827     1835     1829     1803     1762     1713     1661     1619 
    1591     1571     1552     1530     1498     1465     1430     1385 
    1325     1239     1142     1050      972      917      881      855 
     836      819      807      810      822      845      881      929 
     999     1087     1179     1276     1385     1492     1593     1698 
    1807     1921     2032     2138     2243     2341     2423     2488 
    2531     2554     2556     2538     2506     2465     2417     2367 
    2317     2268     2221     2179     2138     2092     2046     2003 
    1964     1925     1879     1832     1792     1758     1729     1701 
    1674     1651     1631     1603     1566     1527     1494     1478 
    1477     1491     1521     1561     1599     1628     1642     1637 
    1618     1598     1581     1571     1581     1616     1670     1734 
    1799     1862     1926     1990     2062     2140     2204     2247 
    2280     2312     2348     2391     2437     2478     2513     2545 
    2576     2605     2622     2623     2607     2569     2504     2416 
    2316     2215     2115     2017     1918     1818     1723     1640 
    1572     1515     1471     1437     1401     1370     1345     1326 
    1314     1307     1298     1280     1248     1210     1188     1180 
    1176     1173     1170     1173     1186     1204     1230     1259 
    1285     1305     1308     1297     1284     1278     1286     1309 
    1342     1382     1434     1488     1534     1569     1589     1592 
    1588     1583     1577     1572     1578     1600     1632     1676 
    1732     1789     1847     1910     1967     2017     2066     2108 
    2140     2167     2179     2178     2167     2137     2084     2023 
    1951     1866     1774     1679     1590     1515     1456     1421 
    1403     1389     1382     1376     1355     1322     1293     1272 
    1259     1250     1245     1242     1246     1262     1293     1332 
    1373     1423     1486     1570     1678     1793     1902     1996 
    2070     2136     2199     2254     2300     2334     2357     2375 
    2391     2401     2413     2422     2418     2405     2387     2373 
    2376     2386     2388     2381     2369     2343     2303     2257 
    2200     2135     2077     2028     1987     1955     1920     1873 
    1820     1768     1717     1658     1595     1548     1527     1521 
    1511     1481     1433     1380     1326     1267     1195     1112 
    1024      937      857      792      739      702      678      661 
     650      646      657      675      689      705      732      775 
     834      901      973     1058     1157     1266     1387     1520 
    1656     1787     1910     2024     2132     2234     2323     2395 
    2457     2514     2574     2630     2667     2691     2698     2683 
    2651     2604     2543     2470     2397     2339     2294     2255 
    2214     2168     2129     2105     2077     2031     1969     1899 
    1826     1754     1685     1617     1544     1469     1407     1356 
    1317     1297     1297     1310     1325     1333     1347     1381 
    1434     1505     1587     1669     1751     1831     1894     1930 
    1942     1940     1944     1963     1976     1973     1965     1951 
    1934     1912     1879     1841     1808     1775     1734     1690 
    1650     1617     1592     1571     1561     1569     1585     1602 
    1628     1664     1713     1776     1833     1868     1883     1878 
    1868     1860     1851     1851     1859     1865     1866     1851 
    1817     1781     1746     1712     1696     1703     1724     1755 
    1784     1805     1821     1835     1845     1857     1855     1836 
    1819     1816     1827     1845     1846     1825     1805     1781 
    1750     1727     1717     1711     1715     1727     1739     1746 
    1744     1726     1705     1683     1654     1618     1583     1559 
    1547     1539     1528     1514     1512     1542     1588     1633 
    1673     1714     1768     1831     1881     1901     1901     1896 
    1888     1871     1844     1818     1795     1772     1745     1703 
    1651     1609     1576     1544     1515     1490     1466     1436 
    1392     1338     1289     1255     1231     1213     1204     1210 
    1220     1223     1233     1251     1267     1280     1300     1324 
    1346     1359     1360     1355     1355     1358     1358     1357 
    1350     1336     1321     1303     1269     1222     1172     1121 
    1081     1053     1028     1009      999      996     1002     1026 
    1064     1101     1135     1173     1216     1263     1321     1392 
    1472     1554     1634     1721     1812     1898     1979     2062 
    2147     2228     2299     2355     2397     2440     2486     2533 
    2575     2609     2626     2616     2583     2540     2493     2441 
    2383     2331     2294     2268     2246     2223     2198     2179 
    2169     2158     2128     2067     1988     1911     1842     1786 
    1750     1736     1728     1709     1672     1623     1579     1544 
    1512     1486     1467     1456     1451     1444     1445     1458 
    1478     1504     1539     1582     1634     1690     1738     1776 
    1819     1868     1916     1955     1983     2003     2020     2035 
    2042     2040     2041     2048     2051     2053     2052     2040 
    2019     1994     1967     1940     1915     1884     1849     1819 
    1785     1745     1697     1643     1584     1517     1451     1390 
    1326     1271     1241     1227     1222     1226     1234     1250 
    1281     1314     1352     1399     1438     1462     1479     1493 
    1502     1505     1516     1542     1576     1617     1667     1714 
    1757     1796     1818     1817     1805     1782     1749     1712 
    1669     1615     1553     1489     1433     1391     1360     1341 
    1339     1350     1372     1406     1448     1492     1535     1581 
    1625     1663     1702     1746     1794     1836     1868     1899 
    1929     1959     1985     2000     2007     2005     1989     1965 
    1936     1900     1858     1813     1763     1708     1658     1622 
    1602     1594     1589     1584     1578     1576     1581     1593 
    1616     1646     1676     1700     1712     1723     1741     1761 
    1782     1801     1811     1811     1813     1824     1845     1875 
    1911     1939     1949     1949     1953     1960     1965     1964 
    1963     1968     1977     1987     2001     2017     2036     2053 
    2067     2080     2095     2108     2108     2091     2061     2018 
    1966     1904     1833     1766     1714     1691     1695     1712 
    1743     1786     1828     1850     1848     1824     1782     1728 
    1663     1597     1530     1458     1384     1315     1245     1178 
    1127     1094     1075     1064     1056     1053     1049     1042 
    1035     1023     1014     1027     1062     1109     1163     1221 
    1288     1367     1450     1529     1593     1644     1701     1771 
    1846     1919     1986     2032     2059     2073     2074     2066 
    2045     2013     1981     1945     1908     1872     1837     1813 
    1802     1801     1807     1811     1796     1773     1750     1719 
    1684     1661     1648     1646     1654     1663     1671     1675 
    1667     1650     1637     1634     1638     1642     1657     1684 
    1710     1739     1771     1799     1824     1838     1829     1802 
    1758     1706     1665     1644     1636     1638     1644     1645 
    1637     1617     1596     1591     1598     1609     1621     1627 
    1632     1641     1654     1669     1684     1695     1704     1714 
    1720     1726     1730     1724     1699     1656     1610     1569 
    1531     1501     1473     1440     1407     1384     1375     1378 
    1390     1416     1451     1494     1549     1615     1684     1749 
    1806     1856     1903     1948     1992     2037     2083     2129 
    2174     2215     2258     2299     2335     2376     2426     2484 
    2540     2577     2595     2612     2637     2664     2687     2702 
    2698     2669     2623     2568     2497     2412     2320     2215 
    2099     1980     1868     1769     1680     1598     1523     1451 
    1386     1338     1301     1275     1260     1248     1241     1239 
    1244     1246     1245     1250     1267     1288     1315     1343 
