Origin Time       2012/08/14 12:01:00
Lat.              49.183
Long.             145.882
Depth. (km)       654
Mag.              7.3
Station Code      TKY016
Station Lat.      35.6485
Station Long.     139.7990
Station Height(m) -9999
Record Time       2012/08/14 12:02:57
Sampling Freq(Hz) 100Hz
Duration Time(s)  61
Dir.              E-W
Scale Factor      3920(gal)/6182761
Max. Acc. (gal)   0.770
Last Correction   2012/08/14 12:02:58
Memo.             
[...]
   -3660    -3623    -3588    -3569    -3550    -3513    -3501    -3522 
   -3528    -3526    -3550    -3576    -3592    -3597    -3576    -3566 
   -3581    -3584    -3577    -3580    -3587    -3587    -3587    -3606 
   -3667    -3759    -3822    -3839    -3848    -3874    -3920    -3964 
   -3974    -3935    -3871    -3820    -3775    -3724    -3694    -3686 
   -3684    -3690    -3697    -3695    -3696    -3692    -3655    -3586 
   -3509    -3440    -3377    -3287    -3163    -3043    -2935    -2849 
   -2780    -2714    -2692    -2721    -2769    -2830    -2908    -3008 
   -3115    -3203    -3271    -3349    -3458    -3575    -3689    -3791 
   -3879    -3980    -4071    -4129    -4183    -4217    -4199    -4162 
   -4122    -4083    -4055    -4021    -3978    -3945    -3922    -3917 
   -3929    -3933    -3929    -3931    -3949    -3979    -3996    -3999 
   -3994    -3973    -3936    -3875    -3792    -3716    -3656    -3599 
   -3548    -3523    -3494    -3439    -3376    -3317    -3280    -3245 
   -3199    -3178    -3160    -3140    -3149    -3173    -3203    -3247 
   -3305    -3364    -3416    -3467    -3514    -3570    -3642    -3697 
   -3741    -3802    -3859    -3904    -3957    -4001    -4015    -4009 
   -4000    -3983    -3951    -3930    -3904    -3853    -3806    -3763 
   -3724    -3706    -3691    -3661    -3624    -3604    -3607    -3604 
   -3586    -3578    -3580    -3583    -3568    -3527    -3494    -3490 
   -3494    -3506    -3541    -3598    -3657    -3717    -3776    -3805 
   -3803    -3783    -3756    -3747    -3763    -3770    -3758    -3746 
   -3745    -3759    -3770    -3782    -3822    -3866    -3902    -3947 
   -3985    -4022    -4058    -4071    -4065    -4036    -3996    -3967 
   -3940    -3902    -3867    -3880    -3928    -3967    -4010    -4051 
   -4073    -4079    -4066    -4046    -4039    -4043    -4031    -3997 
   -3967    -3950    -3913    -3856    -3790    -3695    -3593    -3517 
   -3455    -3403    -3365    -3348    -3352    -3358    -3360    -3360 
   -3366    -3400    -3450    -3486    -3498    -3486    -3458    -3439 
   -3450    -3468    -3469    -3471    -3480    -3509    -3545    -3561 
   -3584    -3625    -3665    -3694    -3705    -3711    -3722    -3714 
   -3700    -3693    -3677    -3655    -3642    -3630    -3605    -3581 
   -3567    -3540    -3505    -3470    -3421    -3383    -3378    -3378 
   -3385    -3411    -3451    -3483    -3496    -3514    -3526    -3517 
   -3521    -3551    -3598    -3653    -3710    -3800    -3902    -3970 
   -4026    -4090    -4150    -4201    -4251    -4284    -4279    -4278 
   -4286    -4278    -4260    -4234    -4223    -4222    -4206    -4205 
   -4224    -4246    -4280    -4315    -4336    -4333    -4300    -4251 
   -4200    -4139    -4058    -3956    -3844    -3743    -3666    -3596 
   -3511    -3405    -3291    -3184    -3098    -3041    -2993    -2934 
   -2874    -2834    -2815    -2807    -2820    -2847    -2874    -2922 
   -2997    -3077    -3169    -3279    -3393    -3517    -3661    -3814 
   -3961    -4094    -4197    -4271    -4325    -4367    -4392    -4386 
   -4367    -4323    -4235    -4150    -4074    -3995    -3904    -3800 
   -3713    -3631    -3549    -3499    -3460    -3422    -3404    -3404 
   -3411    -3408    -3377    -3332    -3290    -3250    -3221    -3208 
   -3192    -3186    -3205    -3231    -3259    -3290    -3327    -3368 
   -3404    -3441    -3483    -3521    -3558    -3618    -3695    -3755 
   -3801    -3846    -3881    -3916    -3967    -4007    -4017    -4026 
   -4032    -4008    -3980    -3976    -3993    -4024    -4073    -4132 
   -4164    -4176    -4185    -4175    -4161    -4139    -4078    -3979 
   -3856    -3730    -3616    -3508    -3405    -3308    -3229    -3169 
   -3132    -3126    -3140    -3155    -3159    -3170    -3201    -3223 
   -3236    -3269    -3324    -3385    -3442    -3497    -3544    -3581 
   -3602    -3601    -3585    -3575    -3580    -3582    -3570    -3553 
   -3541    -3546    -3555    -3559    -3579    -3602    -3601    -3589 
   -3594    -3605    -3600    -3592    -3586    -3577    -3572    -3554 
   -3522    -3520    -3537    -3542    -3560    -3590    -3593    -3565 
   -3546    -3544    -3561    -3581    -3595    -3633    -3682    -3710 
   -3732    -3765    -3804    -3842    -3876    -3896    -3915    -3942 
   -3968    -3996    -4008    -4003    -3988    -3954    -3929    -3912 
   -3902    -3916    -3937    -3967    -3993    -3979    -3962    -3958 
   -3925    -3871    -3841    -3836    -3822    -3801    -3802    -3804 
   -3780    -3753    -3729    -3695    -3673    -3654    -3632    -3638 
   -3654    -3641    -3624    -3628    -3623    -3601    -3594    -3613 
   -3637    -3661    -3686    -3715    -3737    -3735    -3698    -3632 
   -3555    -3479    -3400    -3326    -3287    -3280    -3274    -3277 
   -3285    -3292    -3339    -3420    -3500    -3584    -3669    -3747 
   -3824    -3916    -4004    -4054    -4079    -4088    -4072    -4051 
   -4034    -4021    -4003    -3979    -3968    -3961    -3929    -3866 
   -3798    -3727    -3636    -3553    -3501    -3457    -3416    -3392 
   -3393    -3406    -3444    -3521    -3606    -3678    -3754    -3829 
   -3888    -3944    -3995    -4013    -4010    -4014    -4015    -3997 
   -3968    -3944    -3919    -3875    -3830    -3801    -3788    -3783 
   -3773    -3776    -3792    -3797    -3814    -3844    -3866    -3899 
   -3938    -3943    -3926    -3907    -3893    -3889    -3863    -3797 
   -3728    -3661    -3579    -3496    -3416    -3338    -3277    -3242 
   -3242    -3268    -3294    -3309    -3331    -3360    -3381    -3407 
   -3422    -3393    -3330    -3241    -3134    -3041    -2975    -2920 
   -2873    -2842    -2827    -2825    -2841    -2894    -2985    -3086 
   -3203    -3348    -3478    -3601    -3762    -3917    -4049    -4186 
   -4298    -4360    -4382    -4380    -4350    -4295    -4244    -4207 
   -4174    -4137    -4091    -4052    -4028    -4005    -3979    -3969 
   -3960    -3934    -3911    -3893    -3877    -3865    -3844    -3824 
   -3808    -3788    -3775    -3774    -3770    -3763    -3759    -3753 
   -3747    -3728    -3691    -3651    -3623    -3604    -3565    -3518 
   -3487    -3470    -3456    -3432    -3416    -3423    -3423    -3420 
   -3431    -3467    -3525    -3592    -3683    -3785    -3863    -3936 
   -4020    -4090    -4122    -4139    -4155    -4132    -4099    -4076 
   -4033    -3981    -3916    -3850    -3808    -3779    -3754    -3709 
   -3637    -3557    -3480    -3415    -3361    -3324    -3318    -3335 
   -3361    -3391    -3440    -3506    -3573    -3640    -3685    -3694 
   -3685    -3667    -3648    -3640    -3646    -3657    -3659    -3664 
   -3683    -3703    -3735    -3803    -3878    -3933    -3981    -4017 
   -4020    -4008    -3998    -3987    -3963    -3923    -3892    -3874 
   -3860    -3865    -3876    -3875    -3868    -3847    -3797    -3752 
   -3712    -3656    -3612    -3577    -3539    -3506    -3464    -3421 
   -3401    -3404    -3415    -3441    -3486    -3531    -3576    -3649 
   -3755    -3868    -3971    -4056    -4115    -4167    -4222    -4260 
   -4290    -4305    -4289    -4263    -4233    -4205    -4177    -4134 
   -4077    -3993    -3874    -3738    -3607    -3492    -3388    -3282 
   -3163    -3043    -2961    -2897    -2823    -2770    -2769    -2813 
   -2885    -2982    -3103    -3226    -3344    -3457    -3551    -3632 
   -3704    -3758    -3810    -3860    -3883    -3872    -3838    -3808 
   -3779    -3749    -3731    -3716    -3696    -3669    -3623    -3578 
   -3547    -3510    -3471    -3451    -3449    -3452    -3466    -3509 
   -3575    -3656    -3750    -3834    -3911    -3991    -4061    -4110 
   -4126    -4125    -4127    -4111    -4082    -4039    -3969    -3906 
   -3867    -3831    -3805    -3804    -3807    -3791    -3786    -3806 
   -3822    -3816    -3791    -3763    -3751    -3755    -3764    -3776 
   -3781    -3777    -3782    -3797    -3804    -3802    -3782    -3730 
   -3664    -3598    -3527    -3444    -3360    -3291    -3213    -3112 
   -3040    -3002    -2942    -2889    -2880    -2886    -2899    -2934 
   -2988    -3058    -3146    -3246    -3339    -3421    -3485    -3525 
   -3551    -3580    -3629    -3688    -3740    -3778    -3818    -3867 
   -3904    -3904    -3873    -3844    -3828    -3808    -3780    -3760 
   -3745    -3725    -3709    -3714    -3724    -3713    -3694    -3658 
   -3617    -3613    -3607    -3564    -3522    -3503    -3493    -3499 
   -3516    -3537    -3561    -3582    -3609    -3653    -3703    -3764 
   -3832    -3886    -3944    -4021    -4103    -4162    -4200    -4250 
   -4307    -4355    -4394    -4400    -4390    -4378    -4349    -4299 
   -4223    -4134    -4059    -3979    -3889    -3816    -3782    -3774 
   -3770    -3775    -3775    -3754    -3738    -3726    -3694    -3650 
   -3613    -3592    -3577    -3586    -3621    -3643    -3659    -3682 
   -3691    -3695    -3705    -3716    -3725    -3741    -3752    -3745 
   -3731    -3720    -3712    -3705    -3708    -3715    -3711    -3695 
   -3660    -3613    -3566    -3516    -3472    -3454    -3427    -3382 
   -3365    -3362    -3344    -3326    -3312    -3286    -3255    -3226 
   -3207    -3219    -3248    -3261    -3255    -3254    -3273    -3313 
   -3367    -3422    -3475    -3536    -3604    -3657    -3706    -3768 
   -3799    -3797    -3792    -3770    -3751    -3761    -3787    -3827 
   -3870    -3910    -3954    -3991    -4014    -4038    -4065    -4079 
   -4080    -4105    -4147    -4185    -4249    -4324    -4364    -4384 
   -4388    -4380    -4371    -4307    -4207    -4117    -4000    -3883 
   -3790    -3684    -3591    -3533    -3480    -3419    -3381    -3371 
   -3371    -3393    -3428    -3461    -3511    -3543    -3545    -3534 
   -3499    -3454    -3400    -3334    -3283    -3234    -3189    -3176 
   -3184    -3227    -3296    -3356    -3440    -3547    -3633    -3705 
   -3765    -3798    -3800    -3769    -3717    -3661    -3602    -3536 
   -3450    -3359    -3265    -3163    -3088    -3036    -2988    -2981 
   -3016    -3063    -3138    -3234    -3296    -3340    -3418    -3492 
   -3523    -3554    -3612    -3657    -3673    -3698    -3725    -3735 
   -3760    -3792    -3827    -3897    -3968    -4014    -4073    -4169 
   -4251    -4284    -4308    -4346    -4373    -4377    -4377    -4355 
   -4297    -4239    -4201    -4147    -4081    -4032    -3985    -3939 
   -3903    -3856    -3810    -3791    -3764    -3704    -3649    -3626 
   -3616    -3605    -3608    -3605    -3568    -3530    -3498    -3445 
   -3408    -3408    -3402    -3391    -3397    -3394    -3395    -3430 
   -3476    -3500    -3510    -3522    -3514    -3492    -3478    -3435 
   -3383    -3363    -3326    -3264    -3233    -3232    -3226    -3231 
   -3273    -3318    -3364    -3448    -3543    -3620    -3711    -3813 
   -3881    -3944    -4021    -4069    -4107    -4163    -4202    -4204 
   -4179    -4153    -4141    -4099    -4037    -4001    -3957    -3890 
   -3845    -3814    -3760    -3701    -3679    -3645    -3587    -3577 
   -3586    -3550    -3519    -3513    -3478    -3427    -3387    -3338 
   -3292    -3248    -3200    -3166    -3126    -3065    -3033    -3022 
   -2975    -2944    -2971    -2978    -2977    -3034    -3092    -3133 
   -3220    -3323    -3383    -3439    -3526    -3589    -3639    -3733 
   -3826    -3891    -3951    -4004    -4052    -4097    -4153    -4210 
   -4258    -4313    -4366    -4398    -4430    -4449    -4430    -4390 
   -4356    -4313    -4254    -4214    -4208    -4202    -4169    -4134 
   -4106    -4066    -4033    -4025    -4020    -4002    -3975    -3945 
   -3913    -3886    -3853    -3808    -3756    -3691    -3613    -3538 
   -3475    -3422    -3371    -3309    -3244    -3200    -3162    -3118 
   -3104    -3128    -3153    -3177    -3228    -3280    -3309    -3365 
   -3421    -3439    -3486    -3544    -3586    -3657    -3730    -3799 
   -3883    -3960    -4038    -4108    -4171    -4246    -4305    -4356 
   -4413    -4455    -4467    -4449    -4431    -4422    -4393    -4342 
   -4304    -4265    -4181    -4080    -4000    -3922    -3846    -3774 
   -3700    -3633    -3569    -3510    -3489    -3489    -3480    -3470 
   -3465    -3463    -3468    -3475    -3477    -3464    -3452    -3461 
   -3456    -3447    -3468    -3474    -3451    -3457    -3494    -3504 
   -3511    -3549    -3567    -3565    -3583    -3594    -3593    -3573 
   -3523    -3476    -3427    -3368    -3329    -3293    -3241    -3207 
   -3163    -3084    -3052    -3051    -3003    -2987    -3017    -3017 
   -3017    -3034    -3041    -3044    -3052    -3069    -3086    -3118 
   -3180    -3255    -3323    -3415    -3541    -3661    -3786    -3942 
   -4101    -4253    -4399    -4525    -4636    -4733    -4810    -4844 
   -4827    -4779    -4705    -4605    -4499    -4412    -4342    -4261 
   -4128    -3995    -3950    -3895    -3778    -3737    -3724    -3645 
   -3606    -3605    -3564    -3542    -3550    -3544    -3543    -3552 
   -3556    -3530    -3479    -3448    -3406    -3335    -3293    -3253 
   -3196    -3168    -3148    -3105    -3073    -3044    -3001    -2996 
   -3045    -3113    -3196    -3295    -3394    -3492    -3591    -3692 
   -3783    -3861    -3953    -4049    -4131    -4226    -4321    -4368 
   -4403    -4482    -4566    -4643    -4748    -4830    -4869    -4899 
   -4899    -4863    -4792    -4687    -4571    -4440    -4302    -4165 
   -4009    -3855    -3710    -3569    -3449    -3356    -3281    -3208 
   -3148    -3103    -3058    -3029    -3024    -3042    -3068    -3079 
   -3085    -3104    -3123    -3147    -3193    -3232    -3260    -3316 
   -3400    -3479    -3534    -3606    -3680    -3700    -3727    -3786 
   -3805    -3791    -3780    -3758    -3708    -3656    -3637    -3619 
   -3583    -3558    -3540    -3520    -3504    -3487    -3482    -3498 
   -3514    -3521    -3543    -3586    -3623    -3654    -3683    -3700 
   -3732    -3777    -3788    -3791    -3792    -3761    -3722    -3685 
   -3653    -3636    -3603    -3586    -3611    -3634    -3665    -3720 
   -3762    -3797    -3846    -3881    -3900    -3928    -3942    -3940 
   -3941    -3928    -3910    -3899    -3877    -3863    -3869    -3876 
   -3897    -3937    -3966    -3997    -4037    -4060    -4078    -4093 
   -4078    -4062    -4051    -4024    -4021    -4024    -4008    -3998 
   -3968    -3910    -3858    -3815    -3783    -3753    -3712    -3673 
   -3648    -3641    -3645    -3652    -3672    -3701    -3713    -3709 
   -3702    -3688    -3653    -3606    -3561    -3518    -3479    -3454 
   -3435    -3402    -3363    -3332    -3309    -3293    -3287    -3292 
   -3304    -3306    -3293    -3285    -3283    -3276    -3277    -3278 
   -3265    -3258    -3247    -3209    -3191    -3206    -3214    -3227 
   -3252    -3283    -3325    -3359    -3403    -3470    -3527    -3574 
   -3632    -3685    -3724    -3765    -3794    -3808    -3817    -3838 
   -3871    -3885    -3887    -3895    -3913    -3937    -3948    -3962 
   -3975    -3976    -3985    -3988    -3984    -3979    -3964    -3944 
   -3923    -3901    -3892    -3893    -3888    -3875    -3863    -3854 
   -3851    -3854    -3857    -3853    -3845    -3824    -3797    -3769 
   -3734    -3702    -3683    -3653    -3601    -3562    -3522    -3471 
   -3427    -3381    -3328    -3261    -3196    -3156    -3117    -3070 
   -3039    -3017    -3009    -3023    -3055    -3097    -3132    -3169 
   -3219    -3254    -3281    -3328    -3384    -3442    -3498    -3547 
   -3611    -3669    -3697    -3730    -3783    -3833    -3880    -3949 
   -4034    -4094    -4134    -4172    -4207    -4268    -4348    -4411 
   -4456    -4489    -4492    -4460    -4421    -4399    -4363    -4285 
   -4205    -4148    -4085    -4017    -3945    -3860    -3772    -3678 
   -3583    -3504    -3446    -3416    -3401    -3393    -3396    -3404 
   -3431    -3478    -3518    -3559    -3610    -3669    -3722    -3770 
   -3813    -3837    -3850    -3864    -3885    -3898    -3892    -3891 
   -3882    -3842    -3788    -3745    -3704    -3657    -3615    -3576 
   -3551    -3552    -3560    -3559    -3554    -3548    -3544    -3528 
   -3506    -3483    -3453    -3423    -3400    -3380    -3368    -3365 
   -3368    -3380    -3391    -3394    -3409    -3427    -3445    -3487 
   -3522    -3533    -3536    -3521    -3518    -3541    -3550    -3559 
   -3571    -3567    -3567    -3578    -3590    -3606    -3617    -3607 
   -3609    -3629    -3629    -3622    -3628    -3638    -3669    -3706 
   -3721    -3739    -3758    -3763    -3762    -3753    -3744    -3754 
   -3756    -3737    -3726    -3719    -3702    -3677    -3654    -3642 
   -3625    -3603    -3587    -3565    -3544    -3543    -3552    -3559 
   -3582    -3613    -3619    -3616    -3623    -3619    -3606    -3614 
   -3657    -3703    -3738    -3790    -3853    -3912    -3978    -4034 
   -4069    -4099    -4140    -4179    -4223    -4281    -4322    -4357 
   -4411    -4454    -4472    -4473    -4459    -4436    -4406    -4368 
   -4333    -4289    -4225    -4174    -4144    -4109    -4073    -4028 
   -3976    -3942    -3910    -3870    -3846    -3818    -3760    -3693 
   -3628    -3554    -3480    -3412    -3343    -3271    -3205    -3145 
   -3079    -3008    -2952    -2910    -2851    -2785    -2737    -2684 
   -2642    -2641    -2644    -2661    -2720    -2786    -2851    -2904 
   -2935    -2958    -2973    -2994    -3017    -3039    -3068    -3092 
   -3144    -3200    -3216    -3253    -3303    -3331    -3374    -3430 
   -3493    -3576    -3655    -3731    -3829    -3928    -4029    -4137 
   -4207    -4258    -4312    -4330    -4332    -4336    -4318    -4286 
   -4245    -4180    -4097    -4024    -3965    -3893    -3808    -3718 
   -3632    -3564    -3501    -3443    -3396    -3358    -3337    -3322 
   -3316    -3340    -3388    -3459    -3542    -3635    -3739    -3835 
   -3936    -4027    -4107    -4210    -4283    -4324    -4387    -4436 
   -4468    -4515    -4540    -4548    -4558    -4560    -4565    -4545 
   -4496    -4472    -4424    -4332    -4254    -4170    -4074    -3994 
   -3910    -3809    -3702    -3615    -3544    -3470    -3411    -3354 
   -3287    -3225    -3179    -3144    -3104    -3076    -3061    -3066 
   -3108    -3140    -3163    -3218    -3281    -3346    -3433    -3542 
   -3656    -3755    -3852    -3942    -4016    -4092    -4156    -4191 
   -4222    -4249    -4239    -4206    -4165    -4105    -4035    -3968 
   -3918    -3872    -3805    -3730    -3664    -3615    -3577    -3533 
   -3496    -3462    -3422    -3382    -3340    -3307    -3279    -3257 
   -3248    -3228    -3205    -3196    -3198    -3199    -3206    -3234 
   -3254    -3266    -3287    -3296    -3295    -3288    -3277    -3268 
   -3262    -3273    -3275    -3252    -3239    -3223    -3207    -3209 
   -3219    -3250    -3303    -3354    -3401    -3469    -3551    -3637 
   -3738    -3824    -3908    -4007    -4067    -4120    -4190    -4239 
   -4278    -4296    -4280    -4251    -4202    -4150    -4105    -4069 
   -4045    -4007    -3974    -3962    -3956    -3960    -3958    -3955 
   -3956    -3951    -3943    -3948    -3965    -3967    -3952    -3940 
