Origin Time       2012/08/14 12:01:00
Lat.              49.183
Long.             145.882
Depth. (km)       654
Mag.              7.3
Station Code      TKY016
Station Lat.      35.6485
Station Long.     139.7990
Station Height(m) -9999
Record Time       2012/08/14 12:02:57
Sampling Freq(Hz) 100Hz
Duration Time(s)  61
Dir.              U-D
Scale Factor      3920(gal)/6182761
Max. Acc. (gal)   1.533
Last Correction   2012/08/14 12:02:58
Memo.             
[...]
     139      136      139      142      147      153      150      134 
     114      107      111      115      119      122      121      129 
     147      162      171      174      166      161      164      163 
     164      168      157      137      125      119      116      116 
     114      103       94       89       83       88      105      116 
     119      124      135      143      144      141      138      136 
     134      140      152      162      170      181      195      209 
     213      201      182      160      140      130      126      118 
     111      112      112      105       98       93       92       94 
      94       91       89       91       92       91       91       93 
      92       82       64       51       51       46       27       12 
      17       41       70       91       96       92       92      100 
     116      138      156      166      156      133      127      139 
     149      158      162      164      174      190      201      205 
     199      189      182      176      166      149      135      136 
     134      115       96       83       61       42       39       52 
      71       76       57       37       30       34       43       40 
      23       11       12       24       38       42       42       48 
      48       53       70       79       74       64       65       88 
     118      140      164      185      192      196      196      191 
     191      201      204      200      193      182      169      161 
     163      168      168      168      168      163      162      168 
     171      170      163      157      166      193      222      244 
     259      264      270      287      296      287      266      244 
     232      230      226      231      257      296      331      355 
     364      357      332      287      231      185      150      131 
     128      115       87       63       49       50       70       92 
     114      143      176      205      222      225      228      244 
     275      308      325      322      311      301      297      294 
     284      278      283      273      227      151       69       -3 
     -61      -90      -82      -49        9       87      159      215 
     267      304      310      296      283      284      307      341 
     365      376      380      382      386      382      360      322 
     271      216      163      107       49      -17      -96     -173 
    -239     -289     -311     -313     -312     -296     -251     -175 
     -68       53      176      299      413      513      589      635 
     656      649      617      578      546      519      488      438 
     363      264      147       24      -83     -155     -204     -243 
    -272     -309     -370     -450     -537     -609     -645     -631 
    -568     -471     -362     -256     -160      -75        6       81 
     152      237      339      439      527      589      621      637 
     640      632      632      640      636      606      542      447 
     337      232      143       72       24       -9      -45      -88 
    -125     -145     -142     -109      -48       22       89      148 
     187      213      233      253      285      333      389      449 
     498      515      496      448      385      325      272      218 
     155       87       19      -48     -123     -209     -285     -328 
    -345     -345     -327     -288     -225     -137      -22      106 
     221      314      381      415      420      405      368      323 
     284      247      203      158      110       49      -14      -65 
    -111     -153     -190     -218     -234     -254     -286     -312 
    -325     -318     -276     -214     -153     -106      -73      -44 
     -14       19       64      124      181      219      238      243 
     242      242      246      261      285      293      270      224 
     173      128       92       71       63       57       44       13 
     -31      -81     -125     -147     -141     -112      -68      -19 
      21       44       54       58       69       85      103      129 
     162      186      196      206      225      260      319      395 
     462      513      552      560      549      545      549      547 
     524      483      431      367      310      282      265      253 
     256      253      235      214      194      176      160      149 
     146      150      165      184      187      175      158      139 
     119      102       84       64       45       27       12        2 
      -5      -13      -17       -5       31       82      136      181 
     222      266      317      381      456      531      590      614 
     613      597      562      522      482      435      385      329 
     261      185      101       11      -77     -163     -240     -293 
    -322     -324     -289     -229     -166     -114      -74      -40 
     -17       -3       11       18       10        3        1        4 
      19       49       83      115      136      121       66       -1 
     -65     -123     -161     -183     -195     -198     -198     -178 
    -135      -87      -38       -3        7        5        5       19 
      35       27       -2      -42      -89     -121     -116      -92 
     -72      -59      -56      -51      -20       46      134      229 
     304      330      315      280      250      247      261      280 
     304      323      330      327      315      291      246      194 
     158      147      166      211      269      327      375      416 
     457      489      507      508      486      451      422      399 
     383      381      383      376      352      316      273      227 
     191      177      180      191      206      230      269      311 
     360      413      447      462      462      448      427      392 
     347      312      271      221      181      135       65      -16 
     -91     -146     -172     -167     -142     -114      -96      -81 
     -72      -72      -73      -73      -64      -45      -21       11 
      47       82      121      170      222      267      297      299 
     259      182       88      -15     -112     -180     -215     -215 
    -165      -74       37      150      251      332      393      430 
     447      438      402      354      302      256      221      196 
     177      151      110       70       35       15       15       13 
       6       -9      -46      -88     -117     -138     -142     -120 
     -91      -67      -50      -37      -31      -36      -52      -79 
    -109     -140     -170     -191     -202     -209     -203     -182 
    -145      -95      -50       -9       35       72      103      135 
     165      186      192      195      202      209      219      236 
     255      278      297      305      307      304      293      285 
     279      257      215      163      103       37      -20      -51 
     -58      -50      -25       11       46       83      130      185 
     236      272      282      251      184      110       44      -15 
     -58      -83      -91      -82      -61      -25       29       96 
     178      273      367      452      527      585      618      627 
     615      590      564      540      511      468      419      375 
     342      316      292      261      222      177      126       90 
      80       68       47       26        5      -17      -29      -41 
     -68     -102     -127     -140     -138     -109      -52       21 
     111      215      322      427      536      646      750      843 
     912      942      931      884      812      716      598      471 
     344      216      105       25      -34      -80     -112     -134 
    -153     -177     -206     -227     -233     -221     -195     -156 
     -97      -15       81      182      282      361      402      407 
     372      302      217      136       66       24       22       52 
      96      132      154      171      178      163      134      108 
      94       93      104      116      116      102       78       32 
     -37     -113     -174     -212     -226     -211     -155      -67 
      32      126      205      259      282      263      215      164 
     136      151      206      288      386      471      522      527 
     484      413      346      302      287      295      313      325 
     310      263      200      129       62       16      -12      -24 
     -12       20       58       86       87       57       -3      -72 
    -125     -155     -163     -149     -127     -106      -86      -75 
     -73      -72      -70      -53       -9       54      140      256 
     369      442      471      460      417      349      269      189 
     118       60       21        6       17       51       97      133 
     153      158      143      113       79       48       22        9 
      26       82      166      256      338      387      381      331 
     251      144       33      -53     -110     -138     -149     -156 
    -161     -169     -176     -171     -167     -167     -167     -168 
    -172     -177     -177     -163     -141     -106      -56        0 
      65      146      232      324      439      569      695      805 
     889      928      909      844      758      675      606      550 
     506      469      421      349      252      136       10     -119 
    -228     -297     -336     -353     -340     -312     -282     -252 
    -222     -183     -132      -71       18      143      277      404 
     512      581      604      581      512      414      310      205 
     115       73       74      103      142      170      176      153 
      89      -13     -137     -263     -365     -417     -419     -376 
    -301     -210     -105        7      113      232      364      482 
     564      604      604      572      524      469      410      343 
     272      199      120       31      -64     -173     -293     -415 
    -537     -648     -719     -741     -732     -697     -638     -568 
    -496     -410     -309     -197      -74       47      145      212 
     247      255      247      225      197      190      215      256 
     304      352      380      367      308      222      149      107 
      85       81       95      110      114      102       75       39 
      -2      -38      -57      -58      -26       57      176      316 
     473      632      779      909     1013     1089     1139     1157 
    1136     1072      963      808      622      431      242       61 
    -107     -257     -388     -504     -594     -644     -659     -655 
    -641     -622     -592     -548     -485     -402     -302     -183 
     -44      108      267      422      550      634      674      670 
     641      622      628      652      682      705      701      671 
     639      622      625      644      664      668      647      599 
     535      463      390      316      238      173      138      123 
     121      134      138      129      130      140      146      141 
     125      102       71       42       27       10      -25      -71 
    -115     -158     -204     -254     -300     -342     -375     -384 
    -364     -334     -315     -318     -346     -374     -375     -340 
    -270     -169      -58       55      166      254      313      354 
     374      375      372      370      372      375      372      370 
     380      403      444      499      541      566      588      599 
     595      585      557      505      438      362      289      225 
     162       92       11      -79     -166     -253     -339     -413 
    -472     -518     -540     -542     -539     -529     -508     -476 
    -426     -357     -271     -171      -59       75      229      385 
     531      652      738      808      887      963     1032     1093 
    1136     1156     1162     1168     1174     1161     1104      994 
     830      635      437      253       95      -27     -110     -155 
    -160     -135      -88      -21       57      127      178      199 
     174      100        2      -92     -165     -199     -183     -124 
     -41       60      176      288      373      425      446      432 
     390      346      314      294      291      299      297      280 
     255      224      194      184      188      195      209      228 
     240      241      230      215      211      216      220      216 
     188      136       65      -25     -125     -224     -330     -454 
    -595     -740     -872     -979    -1047    -1069    -1052    -1005 
    -925     -805     -631     -411     -176       52      263      443 
     586      696      760      763      707      606      491      396 
     344      334      340      349      351      340      328      329 
     345      373      404      421      406      357      273      158 
      28     -108     -256     -407     -551     -686     -809     -919 
   -1019    -1109    -1187    -1248    -1295    -1326    -1334    -1322 
   -1286    -1213    -1094     -917     -687     -416     -109      213 
     513      766      976     1167     1365     1585     1819     2042 
    2230     2355     2388     2340     2252     2152     2065     2010 
    1986     1970     1938     1868     1754     1599     1400     1165 
     912      650      389      127     -156     -456     -771    -1090 
   -1376    -1614    -1803    -1934    -2023    -2090    -2153    -2220 
   -2275    -2281    -2207    -2030    -1742    -1357     -911     -457 
     -37      340      689     1025     1355     1677     1972     2210 
    2366     2432     2422     2357     2256     2133     1996     1853 
    1717     1585     1458     1337     1202     1037      839      600 
     329       66     -170     -383     -567     -737     -913    -1101 
   -1300    -1488    -1640    -1751    -1810    -1812    -1769    -1689 
   -1577    -1437    -1273    -1087     -881     -651     -397     -137 
     113      347      563      759      929     1060     1153     1204 
    1207     1174     1111     1009      877      729      581      450 
     346      273      222      164       90       15      -56     -111 
    -146     -192     -265     -354     -456     -556     -634     -697 
    -765     -836     -893     -931     -938     -913     -874     -844 
    -832     -829     -810     -761     -676     -573     -479     -401 
    -330     -247     -141      -20      112      249      368      446 
     493      522      539      545      540      525      508      484 
     444      379      280      157       41      -52     -122     -165 
    -190     -203     -200     -166      -87       27      137      220 
     283      336      385      442      527      640      751      832 
     876      884      859      813      771      748      747      773 
     823      878      932      992     1054     1106     1133     1105 
    1008      843      620      360      104     -124     -317     -476 
    -603     -695     -735     -718     -661     -586     -521     -479 
    -440     -372     -265     -115       60      228      374      492 
     579      644      699      750      788      794      763      698 
     591      451      301      138      -33     -186     -315     -422 
    -504     -560     -580     -561     -513     -451     -390     -330 
    -272     -223     -192     -188     -216     -272     -342     -398 
    -410     -366     -271     -138       13      158      269      320 
     313      273      227      195      203      265      366      468 
     548      594      598      567      519      476      437      387 
     336      303      291      306      351      411      465      512 
     555      599      648      703      762      808      826      825 
     825      830      843      858      854      816      758      695 
     617      516      408      296      171       53      -41     -114 
    -164     -183     -181     -163     -124      -60       27      135 
     250      352      434      501      560      620      691      768 
     833      871      874      837      763      667      556      425 
     271       97      -80     -233     -340     -408     -457     -490 
    -504     -515     -529     -534     -535     -539     -557     -595 
    -649     -702     -748     -778     -788     -785     -774     -754 
    -722     -681     -630     -560     -472     -358     -200       -9 
     183      358      499      604      686      748      789      813 
     817      803      783      759      728      699      680      668 
     663      662      661      647      610      558      486      392 
     296      203       98      -16     -132     -246     -348     -440 
    -528     -615     -708     -798     -864     -904     -921     -908 
    -866     -797     -711     -621     -536     -467     -424     -407 
    -397     -379     -341     -288     -230     -170     -101      -15 
      95      221      355      497      635      745      822      864 
     861      812      716      581      438      313      216      148 
     100       66       40       22       19       30       40       44 
      42       30       -3      -57     -126     -194     -258     -324 
    -391     -453     -497     -512     -515     -519     -516     -491 
    -442     -368     -264     -139        0      150      299      430 
     544      645      725      773      801      814      786      719 
     648      577      488      391      303      224      152       95 
      46      -21     -107     -189     -240     -260     -263     -254 
    -225     -162      -54       89      248      409      545      650 
     744      833      909      976     1047     1123     1193     1250 
    1297     1328     1341     1337     1281     1143      935      706 
     498      329      197      102       42        4      -23      -50 
    -103     -193     -311     -443     -568     -661     -697     -662 
    -582     -502     -444     -400     -357     -313     -262     -180 
     -65       66      200      315      402      475      551      630 
     707      772      807      811      794      759      715      679 
     664      686      738      790      831      861      863      833 
     785      737      696      664      623      550      438      296 
     143       -5     -141     -256     -343     -421     -507     -592 
    -653     -667     -620     -521     -406     -305     -227     -172 
    -137     -108      -79      -57      -45      -43      -49      -59 
     -73      -90     -107     -123     -142     -157     -162     -165 
    -171     -194     -253     -343     -444     -557     -663     -712 
    -695     -635     -532     -398     -250     -100       47      207 
     396      603      818     1027     1210     1361     1472     1534 
    1562     1562     1537     1489     1407     1299     1180     1048 
     904      755      601      456      331      224      124       10 
    -117     -236     -327     -389     -424     -454     -490     -525 
    -562     -611     -667     -712     -738     -750     -763     -788 
    -797     -757     -663     -526     -369     -217      -74       66 
     209      359      504      622      706      762      792      800 
     801      803      808      831      897      998     1112     1211 
