Origin Time       2011/11/19 21:03:00
Lat.              32.870
Long.             130.742
Depth. (km)       9
Mag.              2.7
Station Code      KMM003
Station Lat.      32.9336
Station Long.     130.5477
Station Height(m) 14
Record Time       2011/11/19 21:04:02
Sampling Freq(Hz) 100Hz
Duration Time(s)  60
Dir.              N-S
Scale Factor      3920(gal)/6182761
Max. Acc. (gal)   1.667
Last Correction   2011/11/19 21:04:03
Memo.             
[...]
   -5443    -5445    -5445    -5434    -5429    -5445    -5463    -5457 
   -5435    -5424    -5443    -5470    -5469    -5451    -5438    -5435 
   -5442    -5454    -5460    -5455    -5441    -5436    -5440    -5443 
   -5444    -5441    -5441    -5444    -5444    -5445    -5448    -5443 
   -5442    -5444    -5445    -5447    -5446    -5445    -5449    -5451 
   -5448    -5448    -5447    -5446    -5444    -5444    -5447    -5447 
   -5446    -5447    -5448    -5450    -5451    -5443    -5439    -5445 
   -5451    -5447    -5434    -5427    -5437    -5451    -5457    -5455 
   -5445    -5443    -5449    -5451    -5450    -5446    -5440    -5441 
   -5446    -5446    -5444    -5442    -5443    -5445    -5446    -5446 
   -5445    -5444    -5446    -5447    -5444    -5443    -5446    -5446 
   -5446    -5449    -5449    -5449    -5450    -5449    -5447    -5447 
   -5445    -5443    -5442    -5445    -5450    -5450    -5445    -5440 
   -5439    -5448    -5456    -5451    -5440    -5433    -5437    -5452 
   -5460    -5455    -5444    -5438    -5443    -5449    -5446    -5443 
   -5444    -5447    -5450    -5452    -5450    -5445    -5444    -5449 
   -5450    -5447    -5444    -5442    -5440    -5441    -5441    -5439 
   -5440    -5445    -5450    -5453    -5454    -5453    -5449    -5447 
   -5448    -5447    -5441    -5437    -5439    -5449    -5457    -5448 
   -5436    -5435    -5443    -5453    -5453    -5442    -5439    -5447 
   -5452    -5453    -5456    -5455    -5443    -5433    -5437    -5443 
   -5444    -5446    -5444    -5439    -5439    -5447    -5449    -5443 
   -5438    -5443    -5448    -5444    -5443    -5447    -5448    -5448 
   -5451    -5452    -5450    -5448    -5449    -5446    -5442    -5444 
   -5445    -5447    -5448    -5447    -5448    -5448    -5445    -5443 
   -5442    -5446    -5448    -5450    -5446    -5439    -5438    -5444 
   -5456    -5459    -5444    -5435    -5441    -5447    -5453    -5457 
   -5451    -5436    -5429    -5443    -5455    -5450    -5449    -5449 
   -5444    -5445    -5448    -5447    -5447    -5448    -5448    -5444 
   -5438    -5436    -5440    -5444    -5445    -5446    -5449    -5454 
   -5455    -5451    -5448    -5445    -5444    -5449    -5452    -5447 
   -5445    -5448    -5449    -5450    -5447    -5437    -5439    -5452 
   -5455    -5445    -5434    -5436    -5448    -5454    -5452    -5458 
   -5455    -5433    -5432    -5447    -5444    -5440    -5451    -5455 
   -5450    -5449    -5453    -5453    -5447    -5448    -5452    -5446 
   -5438    -5440    -5444    -5444    -5445    -5445    -5446    -5447 
   -5446    -5446    -5450    -5448    -5444    -5447    -5450    -5450 
   -5448    -5445    -5444    -5444    -5444    -5449    -5449    -5439 
   -5432    -5443    -5459    -5457    -5436    -5426    -5440    -5450 
   -5447    -5449    -5460    -5457    -5439    -5435    -5447    -5451 
   -5443    -5446    -5454    -5449    -5442    -5444    -5444    -5440 
   -5439    -5445    -5451    -5447    -5445    -5449    -5447    -5443 
   -5444    -5447    -5449    -5452    -5448    -5442    -5440    -5441 
   -5446    -5449    -5446    -5443    -5447    -5446    -5442    -5445 
   -5447    -5438    -5438    -5451    -5454    -5444    -5434    -5442 
   -5458    -5453    -5439    -5444    -5458    -5455    -5444    -5440 
   -5439    -5439    -5442    -5447    -5451    -5452    -5448    -5444 
   -5442    -5442    -5445    -5445    -5441    -5440    -5441    -5442 
   -5445    -5448    -5446    -5446    -5447    -5448    -5450    -5448 
   -5446    -5447    -5451    -5452    -5448    -5445    -5444    -5444 
   -5445    -5445    -5442    -5443    -5449    -5451    -5442    -5433 
   -5440    -5458    -5460    -5441    -5431    -5443    -5453    -5450 
   -5453    -5459    -5449    -5434    -5433    -5445    -5451    -5447 
   -5447    -5446    -5440    -5441    -5448    -5448    -5446    -5445 
   -5447    -5452    -5445    -5439    -5446    -5448    -5444    -5446 
   -5448    -5443    -5443    -5449    -5454    -5453    -5446    -5441 
   -5442    -5446    -5448    -5447    -5445    -5447    -5453    -5449 
   -5437    -5444    -5460    -5448    -5428    -5435    -5451    -5445 
   -5437    -5454    -5464    -5450    -5441    -5447    -5450    -5444 
   -5439    -5445    -5446    -5441    -5444    -5451    -5447    -5440 
   -5442    -5446    -5445    -5442    -5445    -5449    -5452    -5454 
   -5456    -5453    -5443    -5437    -5443    -5449    -5445    -5438 
   -5439    -5445    -5451    -5451    -5447    -5441    -5438    -5443 
   -5451    -5455    -5447    -5432    -5434    -5459    -5472    -5452 
   -5430    -5432    -5440    -5439    -5441    -5456    -5460    -5448 
   -5438    -5438    -5444    -5446    -5443    -5448    -5451    -5441 
   -5438    -5450    -5454    -5449    -5444    -5440    -5440    -5444 
   -5451    -5457    -5452    -5446    -5448    -5449    -5449    -5450 
   -5444    -5439    -5442    -5447    -5450    -5450    -5444    -5438 
   -5442    -5449    -5454    -5454    -5442    -5428    -5436    -5458 
   -5457    -5434    -5433    -5450    -5445    -5435    -5451    -5465 
   -5452    -5438    -5442    -5454    -5459    -5458    -5450    -5442 
   -5442    -5443    -5441    -5441    -5444    -5448    -5447    -5442 
   -5439    -5444    -5446    -5443    -5442    -5442    -5442    -5445 
   -5444    -5442    -5446    -5449    -5452    -5456    -5453    -5443 
   -5440    -5444    -5452    -5459    -5454    -5444    -5443    -5445 
   -5439    -5432    -5443    -5461    -5456    -5437    -5438    -5451 
   -5450    -5447    -5450    -5445    -5439    -5442    -5444    -5444 
   -5451    -5453    -5445    -5439    -5442    -5445    -5442    -5440 
   -5443    -5448    -5452    -5449    -5443    -5446    -5456    -5460 
   -5453    -5444    -5440    -5441    -5447    -5454    -5452    -5441 
   -5436    -5438    -5443    -5450    -5454    -5450    -5445    -5444 
   -5448    -5450    -5447    -5449    -5454    -5442    -5427    -5434 
   -5450    -5453    -5448    -5451    -5455    -5454    -5450    -5445 
   -5437    -5434    -5437    -5440    -5445    -5454    -5455    -5448 
   -5444    -5444    -5449    -5450    -5444    -5440    -5437    -5439 
   -5446    -5450    -5452    -5453    -5450    -5441    -5439    -5444 
   -5448    -5454    -5456    -5448    -5437    -5437    -5450    -5459 
   -5450    -5435    -5431    -5441    -5452    -5452    -5450    -5450 
   -5445    -5442    -5445    -5445    -5438    -5438    -5447    -5450 
   -5449    -5456    -5458    -5446    -5439    -5444    -5445    -5440 
   -5444    -5450    -5449    -5446    -5444    -5445    -5448    -5454 
   -5454    -5444    -5433    -5437    -5449    -5453    -5449    -5443 
   -5439    -5445    -5456    -5457    -5452    -5445    -5440    -5440 
   -5448    -5455    -5452    -5442    -5436    -5439    -5450    -5455 
   -5448    -5439    -5439    -5446    -5448    -5441    -5440    -5446 
   -5447    -5451    -5455    -5445    -5438    -5450    -5452    -5443 
   -5451    -5458    -5450    -5445    -5446    -5443    -5445    -5447 
   -5445    -5448    -5445    -5442    -5447    -5441    -5436    -5444 
   -5440    -5436    -5447    -5454    -5453    -5454    -5452    -5450 
   -5449    -5450    -5450    -5443    -5442    -5454    -5453    -5442 
   -5439    -5438    -5443    -5447    -5437    -5436    -5453    -5456 
   -5447    -5442    -5442    -5446    -5449    -5454    -5451    -5437 
   -5443    -5456    -5444    -5435    -5444    -5448    -5447    -5449 
   -5451    -5445    -5439    -5447    -5449    -5441    -5442    -5448 
   -5453    -5453    -5445    -5439    -5441    -5446    -5445    -5440 
   -5446    -5450    -5442    -5440    -5447    -5451    -5454    -5450 
   -5441    -5440    -5442    -5451    -5461    -5446    -5429    -5437 
   -5445    -5448    -5445    -5437    -5446    -5469    -5465    -5429 
   -5417    -5453    -5473    -5441    -5420    -5438    -5459    -5459 
   -5443    -5436    -5446    -5450    -5444    -5443    -5448    -5456 
   -5450    -5436    -5444    -5456    -5447    -5438    -5438    -5443 
   -5446    -5438    -5434    -5448    -5458    -5453    -5443    -5440 
   -5451    -5458    -5447    -5445    -5445    -5435    -5440    -5452 
   -5454    -5455    -5445    -5436    -5451    -5460    -5446    -5437 
   -5439    -5441    -5441    -5442    -5443    -5438    -5435    -5447 
   -5451    -5441    -5441    -5451    -5453    -5451    -5444    -5440 
   -5448    -5459    -5458    -5447    -5441    -5448    -5450    -5448 
   -5446    -5441    -5441    -5441    -5436    -5436    -5444    -5451 
   -5449    -5439    -5439    -5450    -5462    -5462    -5443    -5428 
   -5437    -5445    -5446    -5445    -5444    -5450    -5450    -5445 
   -5447    -5445    -5445    -5446    -5444    -5447    -5444    -5438 
   -5446    -5454    -5451    -5443    -5437    -5442    -5453    -5449 
   -5441    -5442    -5446    -5450    -5449    -5443    -5446    -5451 
   -5455    -5456    -5447    -5438    -5443    -5447    -5446    -5447 
   -5439    -5429    -5440    -5450    -5445    -5442    -5444    -5451 
   -5459    -5447    -5431    -5441    -5459    -5459    -5446    -5436 
   -5441    -5453    -5453    -5449    -5448    -5440    -5440    -5447 
   -5443    -5439    -5444    -5448    -5451    -5450    -5440    -5443 
   -5450    -5446    -5443    -5440    -5438    -5447    -5449    -5442 
   -5445    -5450    -5454    -5457    -5446    -5433    -5438    -5448 
   -5453    -5453    -5443    -5438    -5442    -5442    -5440    -5446 
   -5451    -5454    -5452    -5445    -5446    -5453    -5450    -5445 
   -5448    -5449    -5447    -5442    -5438    -5443    -5446    -5443 
   -5445    -5443    -5436    -5440    -5451    -5453    -5448    -5442 
   -5443    -5456    -5460    -5448    -5436    -5434    -5445    -5455 
   -5450    -5445    -5447    -5448    -5452    -5447    -5437    -5440 
   -5443    -5444    -5449    -5450    -5446    -5447    -5448    -5452 
   -5456    -5447    -5439    -5445    -5448    -5446    -5442    -5436 
   -5440    -5448    -5449    -5451    -5448    -5443    -5448    -5451 
   -5445    -5443    -5441    -5441    -5451    -5455    -5447    -5443 
   -5441    -5441    -5445    -5442    -5437    -5441    -5454    -5461 
   -5449    -5437    -5444    -5449    -5441    -5441    -5450    -5460 
   -5460    -5445    -5437    -5447    -5449    -5443    -5440    -5438 
   -5443    -5452    -5448    -5441    -5441    -5444    -5449    -5447 
   -5442    -5444    -5436    -5425    -5440    -5464    -5464    -5444 
   -5424    -5408    -5390    -5379    -5387    -5424    -5510    -5616 
   -5662    -5631    -5569    -5471    -5309    -5159    -5162    -5370 
   -5622    -5690    -5598    -5482    -5318    -5182    -5275    -5484 
   -5524    -5446    -5450    -5477    -5384    -5311    -5481    -5687 
   -5545    -5250    -5298    -5600    -5703    -5550    -5403    -5421 
   -5536    -5529    -5336    -5152    -5133    -5262    -5409    -5465 
   -5533    -5734    -5868    -5704    -5385    -5154    -5100    -5265 
   -5540    -5687    -5654    -5550    -5475    -5527    -5627    -5497 
   -5151    -4991    -5211    -5497    -5519    -5403    -5418    -5495 
   -5464    -5395    -5424    -5538    -5590    -5494    -5417    -5471 
   -5490    -5450    -5469    -5441    -5303    -5289    -5478    -5615 
   -5553    -5424    -5416    -5557    -5654    -5532    -5309    -5211 
   -5336    -5591    -5654    -5404    -5193    -5311    -5567    -5604 
   -5408    -5248    -5243    -5350    -5480    -5553    -5603    -5637 
   -5541    -5317    -5156    -5256    -5560    -5762    -5664    -5382 
   -5238    -5382    -5568    -5556    -5420    -5318    -5321    -5445 
   -5593    -5606    -5462    -5329    -5326    -5378    -5388    -5381 
   -5419    -5472    -5469    -5450    -5531    -5672    -5665    -5453 
   -5298    -5396    -5575    -5548    -5335    -5228    -5340    -5512 
   -5579    -5471    -5266    -5144    -5153    -5212    -5270    -5373 
   -5585    -5820    -5901    -5814    -5697    -5572    -5408    -5331 
   -5415    -5469    -5414    -5415    -5470    -5403    -5252    -5229 
   -5341    -5373    -5262    -5194    -5315    -5547    -5667    -5593 
   -5530    -5632    -5746    -5648    -5360    -5165    -5236    -5406 
   -5493    -5515    -5486    -5399    -5366    -5422    -5439    -5369 
   -5339    -5459    -5611    -5628    -5600    -5642    -5598    -5389 
   -5239    -5300    -5424    -5411    -5289    -5274    -5393    -5465 
   -5485    -5503    -5441    -5392    -5467    -5495    -5431    -5440 
   -5554    -5668    -5659    -5511    -5370    -5294    -5216    -5204 
   -5334    -5476    -5506    -5478    -5517    -5617    -5619    -5490 
   -5387    -5368    -5361    -5364    -5427    -5493    -5497    -5471 
   -5451    -5421    -5379    -5391    -5473    -5518    -5497    -5453 
   -5429    -5521    -5669    -5645    -5431    -5256    -5295    -5485 
   -5597    -5524    -5377    -5299    -5360    -5492    -5493    -5332 
   -5228    -5292    -5415    -5498    -5529    -5495    -5389    -5297 
   -5303    -5352    -5382    -5404    -5393    -5322    -5274    -5341 
   -5477    -5602    -5711    -5788    -5785    -5725    -5620    -5363 
   -4951    -4713    -4964    -5518    -5957    -6113    -6021    -5766 
   -5510    -5374    -5301    -5185    -5082    -5119    -5305    -5633 
   -6185    -6847    -7149    -6747    -5856    -4879    -3940    -3142 
   -2817    -3211    -4228    -5490    -6458    -6780    -6620    -6338 
   -6050    -5685    -5185    -4725    -4826    -5718    -6793    -7311 
   -7161    -6611    -5944    -5381    -4892    -4290    -3631    -3169 
   -3141    -3742    -4760    -5609    -6096    -6325    -6222    -5969 
   -5876    -5809    -5615    -5502    -5690    -6201    -6776    -6973 
   -6648    -6101    -5608    -5142    -4547    -3892    -3565    -3782 
   -4306    -4881    -5414    -5806    -6095    -6399    -6595    -6455 
   -6053    -5748    -5694    -5645    -5469    -5382    -5462    -5493 
   -5344    -5098    -4860    -4607    -4299    -4084    -4176    -4580 
   -5147    -5746    -6233    -6445    -6387    -6267    -6235    -6252 
   -6201    -5990    -5664    -5396    -5286    -5261    -5176    -5030 
   -5010    -5143    -5223    -5159    -5045    -4987    -5100    -5419 
   -5768    -5960    -6014    -5985    -5810    -5459    -5131    -5126 
   -5473    -5832    -5803    -5392    -5000    -4770    -4481    -4162 
   -4025    -4145    -4604    -5328    -5939    -6250    -6420    -6622 
   -6882    -7076    -7019    -6657    -6137    -5735    -5616    -5644 
   -5539    -5219    -4873    -4672    -4581    -4541    -4611    -4789 
   -4927    -4912    -4827    -4858    -5061    -5290    -5447    -5616 
   -5811    -5879    -5779    -5675    -5676    -5786    -6029    -6308 
   -6402    -6274    -6017    -5638    -5178    -4763    -4438    -4254 
   -4350    -4674    -4996    -5255    -5549    -5888    -6130    -6181 
   -6104    -5932    -5621    -5208    -4897    -4891    -5136    -5417 
   -5602    -5641    -5558    -5448    -5361    -5304    -5314    -5336 
   -5260    -5209    -5364    -5600    -5745    -5847    -5984    -6128 
   -6168    -6014    -5722    -5474    -5351    -5264    -5101    -4885 
   -4762    -4826    -4992    -5082    -5008    -4913    -4965    -5101 
   -5231    -5430    -5775    -6160    -6339    -6192    -5907    -5762 
   -5720    -5543    -5300    -5259    -5405    -5492    -5350    -5053 
   -4893    -5026    -5302    -5560    -5770    -5929    -6048    -6105 
   -5995    -5693    -5362    -5181    -5127    -5065    -4966    -4923 
   -5002    -5189    -5366    -5369    -5277    -5328    -5441    -5451 
   -5457    -5514    -5561    -5588    -5561    -5474    -5369    -5256 
   -5209    -5354    -5646    -5905    -6027    -6062    -6060    -5972 
   -5771    -5526    -5332    -5225    -5194    -5245    -5327    -5309 
   -5144    -4955    -4938    -5090    -5213    -5209    -5143    -5113 
   -5219    -5488    -5790    -5929    -5857    -5726    -5660    -5593 
   -5472    -5420    -5501    -5636    -5740    -5764    -5727    -5638 
   -5419    -5131    -4982    -4961    -4913    -4876    -4950    -5100 
   -5243    -5334    -5448    -5709    -5997    -6064    -5972    -5945 
   -5940    -5818    -5667    -5615    -5578    -5473    -5387    -5355 
   -5261    -5064    -4917    -4938    -5030    -5049    -5035    -5141 
   -5326    -5408    -5448    -5615    -5825    -5919    -5896    -5781 
   -5596    -5452    -5431    -5442    -5381    -5312    -5360    -5522 
   -5675    -5756    -5809    -5802    -5646    -5429    -5283    -5175 
   -5045    -4943    -4977    -5136    -5286    -5368    -5405    -5418 
   -5443    -5482    -5437    -5310    -5297    -5483    -5693    -5772 
   -5763    -5778    -5812    -5743    -5555    -5426    -5483    -5563 
   -5490    -5359    -5292    -5257    -5195    -5107    -5025    -4989 
   -5054    -5238    -5468    -5621    -5686    -5796    -5942    -5905 
   -5643    -5433    -5451    -5531    -5497    -5417    -5400    -5384 
   -5317    -5274    -5251    -5161    -5070    -5160    -5409    -5555 
   -5474    -5424    -5632    -5884    -5908    -5794    -5715    -5666 
   -5611    -5570    -5510    -5366    -5170    -5060    -5114    -5231 
   -5259    -5187    -5161    -5301    -5493    -5556    -5526    -5485 
   -5398    -5312    -5322    -5374    -5367    -5346    -5433    -5612 
   -5720    -5694    -5642    -5624    -5604    -5627    -5728    -5761 
   -5630    -5478    -5462    -5529    -5520    -5399    -5278    -5241 
   -5272    -5286    -5209    -5115    -5126    -5198    -5217    -5221 
   -5324    -5498    -5579    -5526    -5510    -5615    -5667    -5548 
   -5439    -5508    -5631    -5644    -5618    -5683    -5721    -5598 
   -5467    -5431    -5385    -5295    -5235    -5257    -5313    -5298 
   -5237    -5246    -5357    -5492    -5567    -5589    -5548    -5415 
   -5341    -5431    -5574    -5660    -5627    -5529    -5493    -5483 
   -5440    -5387    -5313    -5248    -5220    -5213    -5273    -5414 
   -5515    -5487    -5432    -5501    -5601    -5585    -5538    -5522 
   -5505    -5509    -5515    -5507    -5507    -5453    -5365    -5360 
   -5414    -5400    -5325    -5296    -5313    -5333    -5357    -5344 
   -5295    -5285    -5316    -5373    -5457    -5513    -5531    -5582 
   -5704    -5841    -5884    -5789    -5649    -5566    -5531    -5493 
   -5482    -5539    -5594    -5559    -5466    -5399    -5367    -5344 
   -5334    -5321    -5286    -5208    -5051    -4897    -4893    -5007 
   -5109    -5159    -5167    -5175    -5259    -5402    -5548    -5700 
   -5831    -5900    -5924    -5902    -5836    -5791    -5800    -5827 
   -5834    -5748    -5560    -5422    -5406    -5446    -5494    -5482 
   -5357    -5216    -5184    -5220    -5191    -5102    -5073    -5112 
   -5131    -5118    -5138    -5212    -5295    -5367    -5453    -5570 
   -5705    -5788    -5739    -5601    -5544    -5681    -5866    -5848 
   -5662    -5529    -5469    -5429    -5433    -5452    -5462    -5441 
   -5379    -5354    -5340    -5254    -5205    -5272    -5304    -5235 
   -5204    -5255    -5289    -5272    -5278    -5386    -5519    -5541 
   -5513    -5560    -5666    -5766    -5837    -5834    -5703    -5507 
