Origin Time       2011/11/19 21:03:00
Lat.              32.870
Long.             130.742
Depth. (km)       9
Mag.              2.7
Station Code      KMM003
Station Lat.      32.9336
Station Long.     130.5477
Station Height(m) 14
Record Time       2011/11/19 21:04:02
Sampling Freq(Hz) 100Hz
Duration Time(s)  60
Dir.              U-D
Scale Factor      3920(gal)/6182761
Max. Acc. (gal)   1.308
Last Correction   2011/11/19 21:04:03
Memo.             
[...]
   18949    18958    18952    18933    18914    18912    18921    18932 
   18936    18930    18925    18927    18930    18935    18940    18939 
   18931    18924    18926    18930    18931    18931    18930    18926 
   18926    18931    18935    18933    18928    18926    18930    18935 
   18936    18934    18929    18926    18928    18934    18934    18930 
   18928    18924    18919    18922    18938    18952    18943    18919 
   18905    18914    18933    18947    18947    18933    18923    18927 
   18930    18927    18924    18923    18925    18931    18936    18934 
   18931    18929    18928    18932    18933    18928    18925    18926 
   18929    18932    18932    18929    18925    18924    18925    18931 
   18936    18937    18934    18930    18925    18921    18925    18933 
   18938    18935    18931    18928    18920    18918    18939    18957 
   18943    18913    18902    18912    18922    18933    18945    18944 
   18933    18930    18930    18926    18923    18924    18926    18930 
   18934    18930    18927    18928    18929    18930    18929    18927 
   18928    18929    18929    18928    18929    18929    18928    18927 
   18928    18929    18931    18931    18929    18928    18928    18924 
   18923    18929    18934    18934    18932    18927    18917    18916 
   18940    18959    18941    18913    18908    18914    18919    18931 
   18946    18944    18934    18929    18927    18927    18926    18926 
   18927    18928    18929    18930    18931    18932    18931    18929 
   18927    18926    18930    18932    18931    18930    18929    18928 
   18926    18926    18925    18928    18930    18931    18933    18932 
   18929    18929    18928    18923    18922    18929    18942    18946 
   18931    18916    18918    18922    18920    18932    18953    18947 
   18916    18906    18924    18937    18939    18939    18932    18922 
   18926    18935    18934    18929    18927    18928    18930    18931 
   18929    18932    18935    18933    18930    18926    18924    18928 
   18930    18930    18932    18931    18929    18929    18928    18928 
   18931    18934    18934    18931    18927    18930    18937    18936 
   18926    18919    18923    18928    18930    18945    18961    18944 
   18915    18908    18910    18909    18920    18939    18943    18938 
   18940    18941    18932    18926    18927    18927    18927    18926 
   18928    18933    18936    18934    18934    18934    18931    18931 
   18931    18932    18931    18928    18926    18928    18928    18928 
   18929    18928    18929    18933    18934    18928    18923    18925 
   18935    18943    18932    18915    18917    18929    18929    18931 
   18949    18957    18937    18910    18905    18920    18930    18932 
   18939    18938    18926    18923    18930    18932    18933    18931 
   18927    18926    18927    18929    18931    18935    18936    18931 
   18927    18928    18930    18933    18935    18933    18931    18929 
   18926    18924    18924    18927    18933    18936    18935    18930 
   18925    18929    18940    18940    18926    18919    18929    18936 
   18928    18925    18941    18952    18937    18916    18916    18924 
   18923    18926    18935    18943    18946    18941    18929    18922 
   18924    18927    18926    18927    18929    18930    18931    18932 
   18931    18930    18931    18931    18932    18933    18932    18930 
   18928    18928    18928    18928    18926    18926    18928    18929 
   18928    18928    18931    18934    18931    18926    18925    18933 
   18941    18937    18926    18921    18926    18931    18930    18933 
   18939    18936    18923    18913    18914    18923    18936    18949 
   18950    18937    18923    18919    18922    18925    18930    18935 
   18933    18930    18931    18929    18927    18932    18936    18935 
   18933    18932    18928    18926    18930    18931    18924    18922 
   18924    18926    18931    18936    18935    18931    18926    18925 
   18935    18938    18923    18917    18927    18936    18931    18926 
   18933    18946    18946    18930    18918    18919    18919    18921 
   18933    18941    18939    18932    18928    18926    18926    18928 
   18927    18925    18927    18931    18931    18931    18932    18932 
   18931    18933    18932    18927    18924    18926    18929    18928 
   18927    18927    18929    18930    18932    18932    18934    18934 
   18930    18924    18924    18928    18934    18935    18927    18919 
   18924    18933    18933    18929    18934    18941    18935    18921 
   18911    18913    18918    18925    18939    18950    18945    18932 
   18923    18924    18930    18930    18925    18925    18928    18927 
   18926    18928    18931    18930    18928    18928    18934    18937 
   18930    18924    18927    18930    18927    18923    18925    18928 
   18931    18935    18935    18926    18922    18932    18939    18930 
   18922    18928    18935    18932    18925    18925    18935    18942 
   18932    18917    18915    18920    18924    18931    18943    18946 
   18939    18928    18920    18919    18921    18926    18929    18931 
   18932    18932    18930    18928    18928    18930    18930    18928 
   18928    18930    18930    18928    18931    18934    18927    18924 
   18927    18928    18929    18931    18932    18933    18930    18925 
   18930    18942    18942    18928    18916    18921    18936    18945 
   18937    18920    18918    18933    18936    18922    18917    18924 
   18930    18943    18950    18939    18921    18915    18922    18931 
   18935    18935    18928    18922    18928    18935    18936    18933 
   18926    18922    18924    18927    18930    18934    18934    18932 
   18930    18929    18930    18929    18926    18925    18927    18928 
   18931    18931    18932    18933    18926    18919    18925    18937 
   18944    18938    18922    18919    18935    18944    18928    18917 
   18926    18931    18930    18936    18941    18933    18923    18920 
   18924    18925    18929    18935    18934    18929    18933    18938 
   18937    18935    18934    18930    18926    18925    18925    18925 
   18928    18931    18932    18931    18929    18927    18930    18936 
   18935    18928    18922    18921    18929    18941    18942    18931 
   18924    18926    18933    18942    18939    18922    18913    18926 
   18939    18931    18917    18923    18933    18931    18936    18943 
   18936    18926    18927    18929    18924    18923    18932    18935 
   18930    18926    18924    18928    18935    18936    18934    18931 
   18930    18932    18932    18930    18927    18923    18923    18928 
   18933    18935    18932    18926    18922    18926    18929    18932 
   18938    18943    18936    18922    18917    18924    18934    18939 
   18930    18919    18925    18945    18948    18925    18910    18919 
   18933    18940    18941    18934    18924    18921    18929    18937 
   18937    18936    18931    18928    18930    18930    18923    18924 
   18930    18933    18932    18929    18925    18922    18926    18938 
   18942    18933    18925    18925    18928    18932    18932    18926 
   18925    18931    18934    18935    18938    18936    18927    18917 
   18918    18932    18946    18944    18926    18914    18926    18949 
   18948    18915    18899    18917    18933    18944    18952    18938 
   18916    18920    18935    18935    18931    18930    18926    18924 
   18928    18928    18926    18931    18937    18939    18934    18929 
   18926    18928    18929    18925    18924    18929    18934    18931 
   18926    18925    18929    18937    18940    18933    18926    18926 
   18927    18926    18922    18928    18942    18940    18927    18933 
   18947    18928    18903    18912    18927    18933    18943    18945 
   18931    18925    18933    18936    18926    18920    18922    18926 
   18933    18940    18937    18931    18927    18927    18933    18938 
   18935    18932    18932    18928    18917    18911    18917    18929 
   18938    18936    18931    18931    18934    18933    18929    18926 
   18925    18928    18930    18930    18929    18927    18926    18929 
   18936    18937    18933    18927    18928    18936    18937    18919 
   18905    18913    18925    18934    18943    18939    18926    18924 
   18931    18933    18930    18930    18928    18925    18927    18929 
   18930    18936    18940    18933    18924    18921    18927    18932 
   18930    18925    18924    18927    18931    18931    18929    18932 
   18937    18936    18930    18924    18922    18924    18924    18922 
   18928    18938    18940    18932    18919    18915    18929    18945 
   18942    18925    18916    18920    18928    18937    18938    18926 
   18920    18924    18929    18933    18933    18927    18924    18927 
   18928    18928    18930    18932    18934    18933    18926    18923 
   18928    18934    18933    18927    18920    18922    18930    18930 
   18924    18924    18929    18934    18938    18935    18927    18924 
   18927    18930    18928    18926    18930    18937    18938    18927 
   18918    18924    18933    18932    18924    18922    18928    18935 
   18937    18932    18928    18927    18929    18932    18930    18928 
   18930    18929    18926    18926    18928    18929    18933    18931 
   18927    18927    18931    18933    18930    18927    18926    18926 
   18927    18928    18925    18925    18929    18934    18936    18937 
   18936    18936    18933    18926    18924    18927    18929    18929 
   18928    18927    18929    18931    18927    18922    18920    18924 
   18934    18942    18941    18934    18929    18930    18933    18933 
   18925    18921    18926    18931    18933    18933    18927    18925 
   18929    18930    18929    18931    18932    18931    18932    18932 
   18930    18927    18926    18928    18932    18929    18925    18927 
   18936    18940    18936    18930    18927    18926    18926    18928 
   18928    18928    18929    18931    18936    18941    18938    18929 
   18921    18920    18925    18928    18928    18933    18942    18939 
   18928    18925    18932    18936    18927    18919    18925    18931 
   18929    18931    18935    18938    18938    18932    18923    18927 
   18950    18988    19030    19050    19024    18971    18950    18955 
   18875    18604    18260    18243    18808    19534    19746    19398 
   18912    18545    18449    18761    19288    19481    19124    18762 
   18824    18924    18753    18721    18998    18945    18522    18724 
   19357    19138    18556    18940    19665    19457    18647    18413 
   18868    18995    18685    18764    18963    18775    18881    19411 
   19417    18916    18714    18777    18785    18873    19033    19024 
   18848    18844    19159    19273    18804    18361    18553    18948 
   19057    19128    19269    19241    19001    18723    18719    18924 
   18908    18798    18819    18778    18783    19043    19309    19293 
   19076    18835    18766    18978    19024    18660    18432    18723 
   19189    19217    18928    18921    18962    18814    18990    19262 
   18997    18650    18762    19055    19121    18881    18721    18948 
   19098    18747    18486    18964    19604    19470    18779    18474 
   18743    18993    18999    18854    18627    18717    19206    19394 
   19039    18750    18832    18923    18814    18789    18882    18809 
   18793    19093    19349    19294    19088    18952    18891    18695 
   18537    18785    19124    19106    18788    18615    18987    19281 
   18897    18592    18846    19156    19142    18964    18988    19001 
   18740    18708    18959    18958    18856    19011    19288    19306 
   18889    18510    18562    18721    18849    19024    19072    19090 
   19183    19127    18899    18710    18774    19017    19037    18797 
   18691    18860    19018    18972    18946    19014    19021    19136 
   19222    18842    18481    18701    18951    18809    18762    19117 
   19408    19202    18839    18795    18863    18758    18732    18933 
   18979    18806    18971    19298    19071    18688    18750    18896 
   18892    18933    19057    19152    19042    18846    18863    18899 
   18807    18873    19044    18944    18677    18780    19208    19257 
   18914    18839    18983    18782    18542    18956    19416    19161 
   18822    18890    18928    18699    18542    18773    19079    19057 
   19007    19215    19320    19102    18861    18735    18647    18617 
   18656    18829    19085    19129    18998    19022    19170    19116 
   18883    18782    18765    18702    18796    19028    19079    18909 
   18816    18966    19125    19046    18872    18867    18966    18972 
   18943    18937    18888    18862    18842    18727    18723    18865 
   18809    18632    18629    18762    19024    19331    19482    19490 
   19427    19370    19261    19010    18833    18730    18497    18377 
   18545    18698    18663    18682    19001    19254    19064    18917 
   19141    19309    19289    19243    18995    18590    18520    18814 
   18927    18765    18814    19091    19046    18758    18836    19141 
   19023    18515    18312    18728    19229    19303    19094    18831 
   18777    19265    19829    19840    19617    19350    18778    18161 
   17821    17722    17869    18201    18563    19047    19664    19988 
   19990    20022    19721    18768    17785    17324    17320    17728 
   18614    19713    20606    20992    20617    19792    19166    18629 
   17925    17372    17106    17296    18197    19087    19473    20065 
   20807    20852    20165    19142    18148    17467    17215    17554 
   18268    18900    19589    20342    20418    19683    18941    18524 
   18212    18047    18145    18414    18791    19321    19801    19804 
   19449    19222    19056    18734    18396    18130    17970    18062 
   18502    19238    19873    19975    19685    19354    19041    18694 
   18365    18383    18830    19154    19078    18856    18656    18564 
   18610    18717    18829    18883    18973    19228    19420    19498 
   19707    19851    19664    19222    18584    18020    17922    18180 
   18377    18423    18639    19123    19414    19307    19128    18976 
   18843    18761    18546    18433    18805    19265    19516    19828 
   19986    19580    18939    18628    18654    18610    18343    18190 
   18467    18975    19187    18958    18772    18904    18890    18571 
   18580    19005    19233    19292    19492    19591    19426    19174 
   18889    18521    18190    18068    18158    18485    18951    19279 
   19518    19621    19360    19074    19047    19061    19045    19034 
   18969    18895    18938    19012    18921    18697    18514    18531 
   18699    18764    18704    18717    18850    18976    19116    19384 
   19491    19212    18909    18824    18847    18814    18577    18456 
   18813    19185    19153    18975    18855    18869    19021    19060 
   18964    18958    19070    19240    19346    19214    18972    18896 
   18875    18575    18108    18000    18431    19000    19321    19424 
   19514    19637    19659    19335    18663    18093    17966    18186 
   18492    18718    18940    19274    19569    19642    19556    19431 
   19225    18859    18441    18252    18441    18812    19016    18960 
   18892    18963    19034    19019    18971    18877    18807    18901 
   18983    18935    19059    19355    19366    19079    18896    18817 
   18659    18532    18517    18653    18866    18832    18629    18712 
   19041    19250    19309    19372    19416    19283    19003    18883 
   19017    19081    18874    18588    18407    18394    18537    18625 
   18668    18982    19393    19447    19216    18994    18888    18883 
   18891    18917    19062    19216    19164    18973    18868    18881 
   18771    18503    18464    18678    18808    18895    19033    19097 
   19136    19198    19168    19114    19105    18997    18863    18888 
   18979    19005    18957    18905    18901    18836    18658    18548 
   18658    18791    18762    18817    19055    19119    18929    18894 
   19153    19318    19196    19091    19142    19081    18871    18772 
   18781    18751    18757    18861    18965    18966    18847    18770 
   18851    18910    18874    18905    18954    18899    18853    18929 
   19064    19118    19075    19035    19016    19004    18999    18895 
   18690    18665    18889    19088    19150    19115    19051    19005 
   18904    18836    18843    18816    18822    18762    18554    18589 
   18969    19183    19048    18943    18975    18926    18858    18947 
   19052    19014    19012    19101    19043    18872    18805    18861 
   18985    19051    18968    18927    19040    19073    18986    19002 
   19006    18784    18604    18745    18922    18776    18566    18735 
   19037    19022    18917    19046    19182    19121    19004    18927 
   18882    18898    18899    18833    18891    19074    19081    18903 
   18803    18843    18886    18913    19002    19066    18972    18813 
   18810    18960    18966    18822    18903    19132    19108    18998 
   19069    19073    18898    18760    18684    18609    18619    18768 
   18920    18919    18885    18977    19069    19058    19067    19130 
   19134    19076    19053    19064    19040    19009    18966    18809 
   18632    18633    18807    18889    18732    18703    19008    19173 
   19002    18884    18952    19022    18999    18918    18861    18861 
   18847    18803    18859    19055    19182    19091    18928    18894 
   18935    18885    18804    18847    18936    18977    19020    19048 
   19027    18986    18899    18817    18841    18895    18879    18852 
   18903    18973    18944    18901    18994    19066    18943    18801 
   18815    18879    18892    18925    19002    19034    18998    18962 
   18969    18963    18859    18784    18884    18953    18865    18890 
   19051    19070    19024    19074    19050    18940    18872    18782 
   18730    18787    18790    18802    18973    19112    19106    19059 
   18969    18873    18854    18822    18754    18788    18938    19065 
   19067    19001    18972    18968    18929    18866    18851    18959 
   19120    19159    19084    19044    19003    18860    18695    18646 
   18740    18869    18882    18792    18813    19009    19103    19000 
   18948    18980    18983    18941    18832    18763    18833    18920 
   18982    19045    19051    19060    19104    19059    18955    18934 
   18951    18929    18927    18971    18974    18867    18753    18822 
   18942    18818    18647    18761    18934    18923    18928    19046 
   19067    18932    18884    18995    19013    18928    18994    19133 
   19072    18889    18846    18933    18923    18828    18875    18981 
   18910    18813    18862    18878    18814    18887    19059    19093 
   19009    18926    18889    18969    19046    18937    18811    18841 
   18927    19000    19022    18986    19008    19029    18950    18884 
   18823    18731    18748    18850    18939    19029    19045    19003 
   18962    18860    18792    18870    18962    18991    18994    18966 
   18927    18950    19012    19018    18998    19025    18997    18886 
   18852    18864    18829    18831    18876    18909    18941    18969 
