Origin Time       2011/11/19 21:03:00
Lat.              32.870
Long.             130.742
Depth. (km)       9
Mag.              2.7
Station Code      KMM003
Station Lat.      32.9336
Station Long.     130.5477
Station Height(m) 14
Record Time       2011/11/19 21:04:02
Sampling Freq(Hz) 100Hz
Duration Time(s)  60
Dir.              E-W
Scale Factor      3920(gal)/6182761
Max. Acc. (gal)   2.271
Last Correction   2011/11/19 21:04:03
Memo.             
[...]
     670      664      654      655      653      648      653      666 
     674      669      661      658      660      661      659      658 
     658      660      667      668      663      661      659      656 
     659      659      655      659      662      658      658      659 
     655      655      658      660      661      656      653      661 
     665      653      651      668      674      662      661      668 
     663      653      652      655      669      679      661      641 
     642      649      661      674      669      655      647      646 
     657      667      665      663      663      661      660      662 
     659      657      658      655      654      660      664      664 
     662      659      656      660      666      666      663      661 
     654      652      660      658      650      654      659      655 
     657      664      665      655      645      648      664      675 
     665      650      646      648      660      676      675      664 
     660      658      655      654      653      650      655      665 
     666      666      663      655      653      655      656      659 
     660      661      665      662      657      658      661      658 
     657      658      656      657      665      666      655      654 
     663      659      654      666      670      657      649      653 
     661      666      664      655      646      641      649      665 
     671      669      668      663      657      655      655      656 
     660      666      666      661      659      658      653      651 
     656      658      656      655      654      655      660      661 
     657      655      657      660      667      673      669      660 
     654      656      660      660      658      662      663      651 
     640      647      659      664      662      655      649      650 
     659      672      676      665      655      654      655      656 
     660      661      658      658      657      659      661      658 
     655      655      658      662      661      662      664      661 
     659      660      662      661      659      658      658      656 
     651      649      654      666      671      660      655      667 
     666      657      663      665      649      641      655      672 
     674      663      656      656      652      655      667      665 
     652      649      653      654      659      666      667      665 
     663      658      658      663      661      654      654      660 
     663      664      663      658      654      656      660      658 
     655      657      662      667      666      658      655      659 
     660      662      670      667      650      645      660      671 
     670      665      661      652      644      649      660      663 
     658      660      664      661      661      663      660      658 
     658      660      664      665      662      660      660      662 
     660      657      658      660      658      656      658      661 
     661      657      653      651      652      659      670      673 
     661      656      663      661      659      670      670      654 
     645      652      666      670      665      659      656      652 
     653      663      669      663      657      661      663      661 
     660      660      658      657      657      660      661      659 
     659      663      666      664      658      657      661      664 
     663      658      658      657      651      652      662      666 
     664      665      662      657      657      659      659      660 
     662      660      654      659      669      667      657      659 
     661      652      647      653      661      665      669      667 
     660      657      659      660      661      662      661      660 
     661      660      659      661      662      659      658      660 
     661      660      659      662      665      661      656      658 
     657      654      658      656      650      657      669      669 
     663      664      663      656      656      663      662      656 
     656      662      668      669      662      653      648      650 
     657      664      665      657      652      658      658      653 
     656      660      661      660      662      663      657      657 
     665      666      665      667      661      655      658      659 
     657      657      656      656      657      658      661      661 
     652      649      656      653      647      662      677      669 
     652      648      658      671      671      661      658      654 
     646      650      662      665      661      659      658      652 
     654      662      663      663      665      660      653      655 
     659      655      654      658      656      655      659      661 
     661      661      657      658      661      658      653      654 
     655      659      664      664      658      656      657      655 
     649      650      662      668      659      654      666      673 
     660      648      648      648      646      656      672      673 
     660      658      659      655      657      661      658      656 
     661      664      660      656      652      650      651      654 
     661      666      665      663      659      659      659      652 
     649      653      655      661      665      659      658      663 
     656      647      656      669      670      659      647      652 
     667      667      658      655      654      647      642      652 
     664      668      664      658      655      654      655      657 
     658      662      671      669      659      658      658      655 
     657      657      654      656      659      660      660      657 
     656      657      654      650      654      660      664      660 
     653      653      658      668      676      664      651      653 
     657      663      663      653      655      664      659      654 
     653      651      657      668      667      660      662      663 
     656      654      657      658      658      662      665      659 
     650      648      653      662      666      662      660      660 
     660      662      664      662      655      653      659      663 
     664      665      660      656      660      662      653      652 
     663      668      662      652      649      661      674      670 
     658      655      659      662      664      665      660      647 
     644      656      663      664      670      670      662      657 
     655      655      660      664      662      657      655      657 
     662      666      664      658      657      663      664      660 
     655      654      662      665      658      657      663      667 
     669      667      660      659      666      669      661      646 
     638      656      674      665      655      654      650      655 
     665      662      655      655      658      663      668      669 
     665      662      665      664      658      656      660      663 
     660      657      655      651      655      665      668      666 
     666      666      663      657      657      659      656      658 
     665      666      667      666      656      650      653      654 
     660      669      661      648      659      679      676      661 
     652      652      659      664      664      663      656      649 
     660      663      654      664      672      660      657      662 
     663      662      659      659      662      661      660      660 
     662      662      657      660      666      658      649      646 
     650      662      664      661      667      670      667      667 
     663      658      652      649      659      666      655      648 
     661      670      654      644      656      662      658      667 
     671      662      658      657      654      660      668      666 
     656      654      664      668      664      661      655      649 
     653      664      669      660      650      652      660      661 
     655      645      648      664      673      670      661      655 
     659      662      660      658      659      668      668      648 
     641      655      659      663      674      670      649      641 
     660      675      661      646      651      660      666      668 
     654      644      651      659      658      650      646      656 
     672      675      660      647      651      663      669      664 
     654      649      656      662      657      650      651      658 
     663      659      657      660      662      665      662      648 
     644      658      669      668      652      641      656      671 
     662      650      650      660      671      674      670      663 
     656      657      659      657      653      647      649      658 
     660      657      651      649      657      664      664      665 
     662      661      661      658      656      652      651      654 
     657      657      657      661      669      670      667      661 
     652      650      652      658      662      661      660      660 
     658      657      654      650      651      654      661      675 
     677      664      658      656      653      653      650      651 
     659      659      657      658      654      651      650      649 
     660      666      661      665      672      672      667      655 
     648      655      656      650      654      658      656      662 
     666      660      659      658      657      660      660      660 
     666      667      662      658      651      650      657      655 
     650      657      667      668      662      653      653      661 
     664      660      655      652      658      662      657      657 
     665      665      659      658      660      661      664      664 
     660      663      664      655      650      655      662      661 
     656      659      660      651      652      660      660      659 
     657      660      668      664      656      660      666      668 
     663      652      649      653      657      662      660      654 
     658      663      661      663      659      651      653      658 
     658      659      662      668      672      667      663      661 
     659      660      655      649      655      655      649      655 
     661      662      663      665      670      669      660      655 
     653      653      662      664      661      663      660      655 
     658      660      669      679      662      644      656      664 
     664      666      655      649      655      652      649      655 
     663      669      663      651      649      650      654      663 
     668      668      669      664      667      677      657      631 
     647      686      692      619      513      534      700      787 
     673      527      487      501      582      823     1080     1074 
     847      663      557      461      491      758     1026      871 
     456      381      528      443      435      820     1069      722 
     237      255      541      609      718     1049     1114      791 
     553      567      595      597      685      747      664      535 
     425      367      495      801      981      785      420      403 
     841     1156      972      662      564      521      423      481 
     805     1081      965      583      320      352      521      688 
     847      860      711      562      459      464      581      668 
     656      638      680      738      865      980      872      766 
     782      507       34       20      541      993      983      781 
     741      785      728      545      427      632      893      731 
     433      563      909     1031      928      633      294      258 
     441      500      435      465      666      904     1047     1085 
     952      673      523      566      548      420      440      694 
     904      859      749      774      827      682      300      148 
     550      903      787      603      600      621      511      457 
     654      796      843     1022      979      606      457      622 
     695      504      312      460      764      835      727      647 
     646      656      633      660      677      663      781      912 
     869      709      512      477      672      824      767      528 
     352      465      537      415      545      869      852      557 
     544      881      994      716      565      679      704      669 
     808      944      780      472      373      417      420      498 
     627      650      632      686      793      785      657      700 
     889      918      767      605      591      670      609      557 
     654      607      474      545      604      508      630      952 
     926      601      483      610      706      637      620      787 
     823      645      563      647      680      582      592      806 
     912      723      479      440      521      509      469      598 
     786      786      725      801      872      871      928      924 
     693      446      471      622      550      336      367      612 
     704      602      519      545      703      924      989      863 
     783      858      921      812      576      417      485      648 
     638      407      250      272       55     -455     -716     -612 
    -328      196     1014     2050     3114     3953     4241     3564 
    2082      567     -624    -1511    -1837    -1439     -679      139 
    1070     1869     2018     1580     1047      488     -371    -1451 
   -2273    -2416    -1748     -358     1495     3189     3920     3619 
    2971     2304     1414      270     -849    -1584    -1736    -1311 
    -344      901     1860     2227     2202     2062     1777     1281 
     631     -267    -1106    -1070     -202      574      959     1366 
    1997     2633     2690     1641       18     -964     -902     -339 
      14     -104     -118      526     1377     1779     1670     1271 
     968      955      783      135     -459     -334      285      642 
     703      980     1483     1773     1441      467     -498     -780 
    -514     -306     -356     -221      557     1709     2590     2941 
    2704     1946     1138      466     -333    -1048    -1245     -950 
    -298      622     1505     1902     1604      989      701      870 
    1048      886      523      288      251      356      650     1047 
    1283     1173      830      540      366      339      650     1051 
     965      516      230      106      -23      -89      -46      193 
     721     1236     1310     1167     1300     1434     1044      363 
    -182     -553     -672     -461      -24      644     1370     1746 
    1862     2067     2217     1968     1390      795      259     -157 
    -147      227      549      731      781      541      101     -294 
    -579     -604     -160      509     1013     1374     1696     1897 
    1928     1777     1427      946      537      258      -35     -221 
    -145       53      266      345      198       66      141      360 
     539      623      805     1122     1375     1465     1366     1104 
     943     1076     1110      662      106       34      460      898 
    1025      930      837      887      901      655      429      417 
     382      356      504      666      796     1024     1265     1246 
     870      383       44     -101     -134     -231     -421     -480 
    -238      224      663      873     1011     1391     1864     2072 
    2028     1850     1505     1081      719      388      140       94 
     138      144      118       82      131      294      405      425 
     499      676      877     1042     1159     1266     1415     1549 
    1572     1441     1137      745      450      329      301      230 
      93      -41     -195     -285      -79      246      257       40 
       3      225      492      609      686      999     1405     1517 
    1381     1339     1447     1413     1119      850      770      730 
     768      997     1131      926      635      488      384      285 
     239      183      163      313      480      450      358      448 
     659      780      759      637      506      496      569      624 
     690      727      656      639      783      851      715      556 
     491      488      522      590      668      775      988     1248 
    1347     1252     1166     1137      985      677      385      259 
     242      170       65        3       31      299      690      857 
     831      900     1050      941      523      234      317      594 
     833      912      859      804      800      801      711      483 
     248      193      284      391      627     1063     1406     1421 
    1254     1124     1022      805      512      371      435      515 
     497      436      449      580      663      570      405      280 
     279      362      376      398      569      830      977      866 
     681      651      683      679      683      680      613      551 
     655      892     1041     1094     1219     1290     1076      795 
     773      930      980      778      463      316      356      328 
     155       37       62      119      168      227      261      319 
     537      853     1015      984      955      969      966      985 
     996      893      776      802      788      612      506      543 
     588      654      718      657      569      658      805      770 
     633      583      634      659      548      426      454      547 
     610      658      656      620      651      742      790      807 
     937     1118     1067      846      780      826      730      506 
     357      392      461      364      170       83      174      380 
     551      612      643      729      854      910      861      834 
     840      806      799      842      888      937      946      871 
     765      717      712      641      549      549      529      408 
     409      616      743      634      495      482      512      489 
     414      385      494      628      648      641      738      894 
     967      952      964      997     1021     1108     1136      877 
     503      339      353      406      513      619      582      384 
     177       96      149      309      503      599      606      646 
     744      875      975      951      862      816      818      850 
     873      846      831      847      869      942     1028      969 
     736      520      474      506      493      454      416      383 
     408      495      544      516      512      620      741      719 
     665      756      851      769      634      615      657      643 
     560      480      467      507      566      636      692      695 
     656      639      670      699      712      719      717      750 
     838      939     1018     1033     1021     1050     1035      884 
     705      617      559      442      326      304      342      374 
     369      263       66       -1      242      589      710      639 
     668      849      938      857      796      818      848      896 
     901      800      758      884     1014      963      754      612 
