Origin Time       2015/01/14 21:02:00
Lat.              35.027
Long.             135.532
Depth. (km)       15
Mag.              3.9
Station Code      OSK003
Station Lat.      34.7668
Station Long.     135.4683
Station Height(m) 5
Record Time       2015/01/14 21:02:33
Sampling Freq(Hz) 100Hz
Duration Time(s)  60
Dir.              U-D
Scale Factor      7845(gal)/8223790
Max. Acc. (gal)   1.548
Last Correction   2015/01/14 21:02:33
Memo.             
   -7089    -7078    -7079    -7109    -7129    -7132    -7137    -7123 
   -7087    -7076    -7096    -7111    -7118    -7130    -7125    -7102 
   -7107    -7125    -7103    -7071    -7074    -7103    -7132    -7134 
   -7094    -7071    -7092    -7115    -7118    -7129    -7134    -7121 
   -7110    -7105    -7094    -7089    -7105    -7126    -7122    -7099 
   -7094    -7101    -7109    -7117    -7111    -7106    -7118    -7117 
   -7101    -7101    -7111    -7106    -7105    -7110    -7094    -7087 
   -7106    -7121    -7127    -7132    -7127    -7106    -7086    -7079 
   -7069    -7074    -7107    -7121    -7103    -7110    -7125    -7117 
   -7113    -7118    -7109    -7102    -7113    -7130    -7132    -7123 
   -7111    -7098    -7089    -7098    -7105    -7107    -7117    -7114 
   -7107    -7121    -7132    -7115    -7096    -7088    -7087    -7087 
   -7096    -7114    -7132    -7137    -7111    -7068    -7051    -7076 
   -7123    -7155    -7159    -7132    -7080    -7056    -7088    -7121 
   -7129    -7129    -7121    -7115    -7118    -7119    -7114    -7106 
   -7101    -7102    -7109    -7113    -7103    -7089    -7086    -7106 
   -7144    -7148    -7109    -7083    -7088    -7094    -7088    -7094 
   -7130    -7165    -7148    -7094    -7056    -7064    -7103    -7134 
   -7132    -7106    -7084    -7084    -7096    -7111    -7132    -7138 
   -7121    -7109    -7111    -7107    -7096    -7089    -7094    -7109 
   -7121    -7126    -7123    -7111    -7101    -7103    -7114    -7118 
   -7109    -7096    -7096    -7107    -7115    -7115    -7118    -7118 
   -7111    -7118    -7134    -7138    -7127    -7105    -7079    -7068 
   -7087    -7121    -7132    -7122    -7109    -7103    -7105    -7105 
   -7098    -7101    -7109    -7109    -7115    -7122    -7106    -7087 
   -7083    -7088    -7099    -7106    -7113    -7111    -7098    -7091 
   -7096    -7107    -7122    -7136    -7134    -7127    -7115    -7096 
   -7096    -7117    -7127    -7123    -7115    -7103    -7098    -7099 
   -7099    -7107    -7121    -7122    -7114    -7106    -7102    -7105 
   -7114    -7125    -7121    -7103    -7094    -7098    -7094    -7094 
   -7101    -7101    -7103    -7111    -7109    -7102    -7096    -7094 
   -7106    -7115    -7115    -7113    -7102    -7099    -7111    -7115 
   -7109    -7110    -7111    -7103    -7110    -7127    -7125    -7114 
   -7114    -7114    -7113    -7115    -7114    -7109    -7113    -7107 
   -7096    -7101    -7107    -7105    -7102    -7099    -7106    -7118 
   -7117    -7107    -7106    -7099    -7094    -7105    -7109    -7099 
   -7092    -7094    -7110    -7126    -7125    -7115    -7110    -7114 
   -7119    -7119    -7115    -7106    -7106    -7113    -7107    -7105 
   -7110    -7102    -7099    -7114    -7114    -7102    -7105    -7098 
   -7082    -7086    -7092    -7096    -7114    -7129    -7125    -7119 
   -7118    -7111    -7101    -7099    -7105    -7118    -7134    -7132 
   -7119    -7114    -7110    -7106    -7109    -7096    -7082    -7084 
   -7091    -7096    -7103    -7102    -7088    -7087    -7109    -7137 
   -7142    -7122    -7102    -7103    -7118    -7125    -7127    -7132 
   -7126    -7113    -7102    -7087    -7084    -7088    -7092    -7102 
   -7107    -7106    -7099    -7092    -7092    -7094    -7102    -7113 
   -7107    -7094    -7101    -7121    -7134    -7132    -7126    -7118 
   -7109    -7115    -7132    -7141    -7132    -7109    -7096    -7098 
   -7106    -7115    -7109    -7088    -7076    -7068    -7074    -7089 
   -7096    -7106    -7122    -7125    -7113    -7101    -7092    -7089 
   -7099    -7115    -7123    -7127    -7127    -7115    -7109    -7117 
   -7117    -7111    -7118    -7119    -7110    -7113    -7117    -7113 
   -7115    -7119    -7114    -7115    -7114    -7101    -7091    -7087 
   -7084    -7088    -7094    -7102    -7115    -7126    -7126    -7118 
   -7096    -7068    -7064    -7096    -7140    -7167    -7160    -7126 
   -7080    -7056    -7064    -7086    -7110    -7126    -7134    -7141 
   -7141    -7127    -7102    -7079    -7078    -7096    -7111    -7106 
   -7098    -7106    -7119    -7119    -7105    -7099    -7103    -7106 
   -7113    -7122    -7126    -7119    -7101    -7079    -7080    -7101 
   -7118    -7125    -7122    -7109    -7088    -7076    -7091    -7126 
   -7145    -7145    -7137    -7127    -7114    -7099    -7089    -7092 
   -7099    -7103    -7103    -7105    -7110    -7109    -7105    -7103 
   -7099    -7096    -7096    -7102    -7107    -7115    -7118    -7109 
   -7101    -7094    -7088    -7094    -7107    -7119    -7132    -7132 
   -7125    -7130    -7126    -7110    -7105    -7102    -7098    -7099 
   -7103    -7103    -7106    -7101    -7091    -7092    -7089    -7088 
   -7105    -7114    -7114    -7118    -7117    -7114    -7117    -7118 
   -7121    -7125    -7115    -7101    -7106    -7118    -7119    -7118 
   -7115    -7106    -7096    -7089    -7091    -7115    -7125    -7092 
   -7076    -7087    -7087    -7089    -7115    -7157    -7172    -7127 
   -7072    -7063    -7091    -7125    -7138    -7123    -7109    -7114 
   -7122    -7103    -7087    -7102    -7106    -7080    -7087    -7134 
   -7160    -7134    -7088    -7056    -7064    -7099    -7145    -7168 
   -7132    -7067    -7042    -7068    -7113    -7146    -7146    -7122 
   -7114    -7115    -7096    -7109    -7176    -7196    -7130    -7064 
   -7040    -7048    -7079    -7107    -7127    -7152    -7137    -7087 
   -7080    -7102    -7084    -7067    -7086    -7110    -7123    -7136 
   -7144    -7127    -7091    -7078    -7094    -7119    -7130    -7134 
   -7142    -7130    -7103    -7096    -7091    -7086    -7105    -7121 
   -7126    -7134    -7115    -7079    -7082    -7106    -7117    -7115 
   -7092    -7071    -7083    -7110    -7119    -7110    -7102    -7094 
   -7096    -7111    -7115    -7125    -7140    -7123    -7089    -7084 
   -7103    -7129    -7144    -7136    -7117    -7101    -7089    -7086 
   -7094    -7096    -7087    -7091    -7105    -7113    -7118    -7114 
   -7105    -7105    -7103    -7096    -7102    -7119    -7119    -7105 
   -7109    -7123    -7130    -7132    -7126    -7106    -7098    -7103 
   -7110    -7110    -7103    -7096    -7098    -7101    -7109    -7123 
   -7126    -7115    -7109    -7102    -7099    -7115    -7121    -7105 
   -7088    -7072    -7069    -7101    -7132    -7127    -7107    -7099 
   -7098    -7107    -7125    -7127    -7117    -7109    -7099    -7094 
   -7109    -7125    -7123    -7117    -7110    -7094    -7080    -7087 
   -7109    -7117    -7115    -7113    -7096    -7092    -7110    -7121 
   -7125    -7132    -7122    -7110    -7109    -7113    -7118    -7117 
   -7110    -7111    -7114    -7109    -7111    -7117    -7110    -7096 
   -7088    -7096    -7110    -7110    -7111    -7115    -7102    -7084 
   -7086    -7098    -7107    -7110    -7113    -7113    -7110    -7107 
   -7102    -7094    -7105    -7127    -7134    -7115    -7106    -7113 
   -7115    -7113    -7111    -7109    -7114    -7126    -7123    -7111 
   -7110    -7111    -7101    -7092    -7096    -7096    -7094    -7106 
   -7111    -7102    -7099    -7101    -7099    -7107    -7115    -7110 
   -7107    -7103    -7079    -7071    -7102    -7132    -7132    -7121 
   -7113    -7102    -7098    -7105    -7109    -7113    -7125    -7130 
   -7121    -7111    -7113    -7113    -7109    -7105    -7110    -7117 
   -7115    -7109    -7096    -7086    -7088    -7103    -7115    -7119 
   -7114    -7102    -7098    -7102    -7105    -7107    -7114    -7122 
   -7126    -7121    -7114    -7110    -7107    -7106    -7102    -7105 
   -7109    -7101    -7091    -7096    -7102    -7103    -7109    -7110 
   -7107    -7102    -7092    -7096    -7107    -7110    -7113    -7110 
   -7111    -7126    -7130    -7118    -7113    -7110    -7101    -7102 
   -7114    -7109    -7098    -7102    -7105    -7107    -7111    -7102 
   -7096    -7110    -7121    -7111    -7103    -7109    -7110    -7102 
   -7103    -7109    -7110    -7122    -7132    -7122    -7111    -7106 
   -7099    -7094    -7098    -7105    -7106    -7101    -7098    -7094 
   -7091    -7099    -7111    -7110    -7107    -7114    -7121    -7121 
   -7119    -7123    -7122    -7125    -7125    -7113    -7102    -7105 
   -7109    -7114    -7121    -7119    -7110    -7102    -7094    -7088 
   -7091    -7098    -7106    -7111    -7111    -7106    -7102    -7103 
   -7098    -7086    -7092    -7110    -7114    -7111    -7118    -7123 
   -7118    -7115    -7109    -7096    -7098    -7102    -7101    -7109 
   -7122    -7123    -7113    -7111    -7113    -7105    -7103    -7110 
   -7109    -7109    -7119    -7126    -7122    -7113    -7106    -7105 
   -7102    -7099    -7094    -7101    -7114    -7117    -7099    -7067 
   -7010    -6952    -6997    -7155    -7256    -7213    -7132    -7136 
   -7267    -7318    -7105    -6917    -6912    -7123    -7404    -6932 
   -6443    -7342    -7942    -7149    -6733    -6885    -7079    -7438 
   -6951    -6567    -7574    -7652    -6802    -6867    -6894    -7263 
   -7740    -7032    -6848    -6694    -6131    -7522    -8418    -6891 
   -6470    -7472    -7539    -7113    -6905    -6723    -6836    -7049 
   -6847    -7155    -7859    -7038    -6335    -7287    -7515    -7298 
   -7422    -6762    -6546    -7325    -7657    -7418    -7385    -7196 
   -6529    -6868    -7619    -6845    -6412    -7534    -7574    -6276 
   -6782    -8559    -7820    -5753    -6208    -7766    -7500    -6691 
   -6895    -7059    -6987    -7499    -7711    -6659    -5979    -6979 
   -7794    -7622    -7337    -6878    -6885    -7377    -7337    -6843 
   -6924    -7719    -7425    -6590    -6944    -7226    -7196    -7148 
   -6528    -6602    -7381    -7214    -6844    -7418    -7960    -7256 
   -6228    -6947    -7595    -6442    -6894    -8225    -7264    -6848 
   -7858    -7372    -5968    -6079    -7555    -7796    -6820    -7052 
   -7142    -6632    -7650    -8094    -7029    -6702    -6724    -6790 
   -7092    -6979    -7113    -7574    -7207    -6605    -6990    -7438 
   -7065    -7146    -7751    -7056    -6301    -7356    -7723    -6331 
   -6210    -7646    -7827    -6983    -6929    -7028    -7017    -7241 
   -6993    -6879    -7669    -7738    -6542    -6600    -7851    -7750 
   -7017    -7109    -7184    -6566    -6451    -7418    -7538    -6867 
   -6903    -6566    -6389    -7771    -7938    -6642    -7169    -7699 
   -6943    -7169    -7047    -6404    -7144    -7616    -7180    -7252 
   -7304    -6548    -6239    -7137    -7630    -7391    -7198    -6847 
   -7036    -7619    -7709    -7335    -6460    -6388    -7331    -7361 
   -6704    -6714    -7353    -7608    -6918    -6416    -7257    -8052 
   -7315    -6729    -7306    -7469    -7111    -6907    -6673    -7040 
   -7609    -7195    -6700    -6822    -6916    -6930    -7069    -7153 
   -7284    -7501    -7458    -7246    -6879    -6739    -7198    -7190 
   -6724    -6583    -6844    -7614    -7813    -7096    -6790    -7183 
   -7557    -7244    -6755    -6941    -7384    -7272    -6763    -6966 
   -7446    -7060    -6594    -6858    -7392    -7404    -7098    -7110 
   -7191    -7253    -7051    -6764    -7109    -7121    -6833    -7399 
   -7499    -6883    -7257    -7608    -6731    -6299    -6959    -7437 
   -7482    -7182    -6771    -7348    -7935    -6993    -6323    -7140 
   -7732    -7298    -6763    -6837    -7036    -6909    -7113    -7150 
   -6355    -6629    -7969    -7817    -7094    -7277    -7041    -6802 
   -7173    -7089    -7121    -7290    -6893    -6828    -7018    -6955 
   -6984    -7223    -7476    -7198    -6852    -7264    -7589    -6967 
   -6459    -7003    -7414    -7383    -7458    -6960    -6635    -7258 
   -7415    -6886    -6766    -7168    -7596    -7217    -6555    -7065 
   -7345    -6929    -7550    -7565    -6404    -6685    -7592    -7215 
   -6905    -7365    -7082    -6505    -7044    -7557    -7381    -7123 
   -6647    -6606    -7254    -7431    -7290    -7150    -6782    -7044 
   -7496    -7252    -7427    -7614    -6993    -6741    -6732    -6660 
   -7159    -7395    -7164    -7257    -7318    -7240    -7021    -6763 
   -7083    -6893    -6438    -7430    -7947    -6826    -6389    -7192 
   -7542    -7194    -7329    -7157    -6304    -6918    -7985    -7192 
   -6743    -7481    -6988    -6257    -6824    -7153    -6768    -6646 
   -7339    -8016    -7761    -7723    -8017    -7507    -6848    -6732 
   -6434    -6130    -6582    -6664    -6963    -8301    -7434    -5649 
   -6775    -8274    -7931    -6881    -6489    -6974    -7548    -7938 
   -7153    -6589    -7388    -6716    -6254    -7562    -7368    -6787 
   -7766    -8001    -6763    -6488    -7155    -6673    -6919    -8214 
   -7561    -6597    -7165    -7493    -7105    -6944    -6610    -5738 
   -6706    -8731    -7676    -5958    -6721    -7338    -7157    -7317 
   -7292    -7326    -7649    -7623    -7489    -7344    -6660    -6146 
   -6112    -6196    -6878    -7476    -7321    -7300    -7600    -7739 
   -7534    -7067    -6922    -7393    -7711    -7425    -6886    -6524 
   -6974    -7234    -6205    -5948    -6874    -6974    -7105    -8135 
   -8337    -7373    -6806    -7202    -7574    -7198    -6627    -6366 
   -6633    -7250    -6940    -6516    -7323    -7314    -7130    -8129 
   -7443    -6370    -7034    -7207    -7300    -7514    -6762    -6469 
   -7153    -7755    -7203    -6605    -7340    -7281    -6540    -6988 
   -7477    -7472    -7260    -7067    -7258    -7244    -7040    -7107 
   -6894    -6432    -7149    -8032    -6952    -6282    -7092    -6944 
   -6592    -6966    -7258    -7574    -7622    -7453    -7132    -6619 
   -6917    -7477    -7372    -7284    -7267    -7186    -7132    -6646 
   -6196    -6727    -7520    -7557    -7377    -7317    -7127    -7053 
   -6999    -7103    -7480    -7345    -7138    -7446    -7164    -6493 
   -6566    -6826    -6724    -6635    -6837    -7023    -6886    -7248 
   -8226    -8077    -7037    -6913    -7042    -7195    -7948    -7665 
   -6482    -6457    -7118    -7206    -6748    -6312    -6489    -7123 
   -7376    -7152    -7225    -7632    -7700    -7638    -7423    -6474 
   -6129    -7086    -7722    -7750    -7327    -6606    -6866    -7203 
   -6496    -6369    -6795    -6889    -7493    -7983    -7676    -7215 
   -6711    -6903    -7665    -7727    -7312    -7146    -7385    -7344 
   -6642    -6208    -6242    -6453    -6928    -7358    -7468    -7369 
   -7171    -7153    -7539    -7388    -6666    -6860    -7373    -7371 
   -7319    -6922    -6673    -6744    -6489    -6795    -7472    -7064 
   -6520    -7462    -8319    -7500    -6883    -7240    -7642    -7672 
   -6836    -6592    -7381    -7113    -6467    -6824    -7206    -7144 
   -7454    -7966    -7464    -6725    -6909    -6957    -6442    -6318 
   -6863    -7194    -7113    -7508    -7677    -7122    -7101    -7383 
   -7145    -6885    -7044    -7431    -7456    -6952    -6624    -6785 
   -6903    -6739    -6609    -6810    -7291    -7566    -7433    -7252 
   -7118    -7111    -7533    -7878    -7566    -7063    -6763    -6764 
   -6936    -6693    -6281    -6588    -7464    -7628    -6968    -6917 
   -7234    -7096    -7144    -7391    -7630    -7793    -7406    -6868 
   -6771    -6901    -6851    -6875    -7213    -7041    -6701    -7402 
   -7954    -7215    -6484    -6467    -6872    -7446    -7464    -7418 
   -7996    -7892    -6961    -6588    -6723    -6829    -6756    -6646 
   -7014    -7414    -7125    -6670    -6779    -7109    -6979    -6909 
   -7307    -7406    -7302    -7562    -7746    -7491    -6901    -6238 
   -6367    -7307    -7581    -7167    -7163    -7165    -6835    -6701 
   -7113    -7769    -7618    -6975    -7092    -7444    -7277    -7146 
   -7179    -6952    -6751    -6627    -6482    -6922    -7425    -7125 
   -6893    -7059    -6945    -7032    -7731    -8002    -7576    -7317 
   -7092    -6805    -6659    -6474    -6821    -7438    -7272    -6886 
   -6947    -7169    -7261    -7200    -7317    -7371    -7021    -6974 
   -7218    -7082    -7096    -7302    -7115    -7045    -7007    -6721 
   -6936    -7067    -6573    -6771    -7402    -7196    -6998    -7395 
   -7426    -7056    -7121    -7452    -7302    -7030    -7342    -7466 
   -6998    -6964    -7371    -7425    -7115    -6890    -6917    -6805 
   -6725    -7113    -7137    -6581    -6683    -7548    -7860    -7132 
   -6485    -6720    -7140    -7229    -7252    -7215    -7118    -7256 
   -7431    -7141    -6756    -6926    -7222    -7102    -6993    -7165 
   -7322    -7322    -7184    -7132    -7345    -7442    -7213    -7028 
   -7048    -7172    -7125    -6605    -6289    -6760    -7083    -6956 
   -7119    -7335    -7254    -7365    -7689    -7472    -6922    -7018 
   -7067    -6507    -6588    -7121    -7102    -7099    -7388    -7555 
   -7315    -6766    -6867    -7533    -7519    -7140    -7339    -7595 
   -7312    -7080    -7159    -6961    -6586    -6548    -6609    -6577 
   -6876    -7393    -7357    -7038    -7361    -7717    -7373    -7183 
   -7337    -7159    -6930    -6939    -6886    -6812    -6913    -6916 
   -6624    -6642    -7122    -7329    -7298    -7378    -7354    -7327 
   -7414    -7340    -7223    -7311    -7288    -7069    -7098    -7094 
   -6736    -6579    -6777    -7042    -7256    -7323    -7236    -7110 
   -7118    -7202    -7219    -7292    -7411    -7402    -7268    -7125 
   -6980    -6917    -6928    -6855    -6832    -6810    -6832    -7227 
   -7299    -6909    -7146    -7431    -6831    -6535    -7023    -7067 
   -7028    -7659    -7865    -7527    -7376    -7078    -6848    -7078 
   -7242    -7119    -7056    -7198    -7257    -7107    -7003    -6944 
   -6883    -7033    -7182    -6985    -6889    -7198    -7252    -6895 
   -6951    -7268    -7113    -7014    -7126    -6868    -6902    -7284 
   -7079    -6782    -6949    -7026    -6893    -6894    -7013    -7236 
   -7548    -7572    -7268    -7079    -7230    -7406    -7202    -6957 
   -7007    -7118    -7173    -7130    -6995    -6926    -7072    -7184 
   -7013    -7072    -7383    -7389    -7331    -7335    -7226    -7214 
   -7148    -6858    -6616    -6600    -6901    -7209    -7137    -6990 
   -7020    -7169    -7264    -7044    -6852    -7036    -7213    -7211 
   -7182    -7177    -7402    -7584    -7188    -6825    -6994    -7029 
   -6910    -7094    -7285    -7389    -7398    -6930    -6610    -6988 
   -6993    -6608    -7003    -7472    -7246    -7236    -7488    -7346 
   -7142    -7190    -7226    -7069    -6835    -6747    -6885    -7141 
   -7321    -7318    -7242    -7334    -7372    -7011    -6814    -7032 
   -7080    -6984    -7065    -7268    -7207    -6798    -6759    -7088 
   -7065    -6983    -7198    -7130    -6804    -6903    -7213    -7362 
   -7495    -7402    -7129    -7165    -7365    -7298    -7152    -7276 
   -7317    -7048    -7026    -7167    -6876    -6743    -7179    -7295 
   -6949    -6782    -6818    -6943    -7188    -7369    -7227    -7044 
   -7198    -7198    -6851    -6852    -7125    -7078    -6994    -7236 
   -7330    -6903    -6563    -6820    -7084    -6964    -6919    -7119 
   -7244    -7182    -7304    -7604    -7461    -7110    -7148    -7307 
