Origin Time       2015/01/14 21:02:00
Lat.              35.027
Long.             135.532
Depth. (km)       15
Mag.              3.9
Station Code      OSK003
Station Lat.      34.7668
Station Long.     135.4683
Station Height(m) 5
Record Time       2015/01/14 21:02:33
Sampling Freq(Hz) 100Hz
Duration Time(s)  60
Dir.              N-S
Scale Factor      7845(gal)/8223790
Max. Acc. (gal)   1.470
Last Correction   2015/01/14 21:02:33
Memo.             
[...]
    1418     1412     1426     1435     1431     1433     1435     1421 
    1425     1448     1448     1431     1417     1402     1405     1422 
    1428     1435     1452     1464     1455     1426     1409     1429 
    1455     1449     1431     1418     1417     1441     1455     1440 
    1421     1398     1381     1399     1429     1433     1426     1424 
    1421     1431     1448     1451     1435     1422     1420     1436 
    1474     1478     1436     1417     1435     1453     1460     1447 
    1429     1433     1433     1410     1398     1410     1431     1447 
    1429     1405     1421     1441     1440     1447     1449     1424 
    1404     1414     1417     1410     1420     1440     1449     1449 
    1443     1431     1429     1437     1433     1431     1441     1433 
    1414     1409     1417     1443     1466     1447     1410     1401 
    1414     1431     1437     1424     1416     1429     1433     1433 
    1444     1439     1417     1424     1436     1418     1414     1435 
    1448     1448     1431     1418     1431     1440     1429     1422 
    1416     1413     1429     1444     1440     1441     1452     1453 
    1451     1441     1422     1416     1422     1426     1435     1443 
    1437     1444     1455     1441     1425     1418     1405     1404 
    1414     1417     1424     1435     1425     1412     1416     1414 
    1409     1420     1431     1440     1448     1436     1422     1435 
    1448     1441     1425     1417     1428     1441     1439     1424 
    1426     1436     1431     1431     1436     1433     1437     1437 
    1428     1439     1447     1439     1439     1439     1417     1405 
    1421     1424     1414     1416     1414     1416     1429     1422 
    1404     1410     1431     1444     1447     1441     1428     1429 
    1444     1435     1425     1440     1448     1447     1440     1422 
    1425     1445     1443     1428     1412     1399     1416     1445 
    1443     1424     1417     1420     1431     1445     1429     1408 
    1409     1416     1417     1421     1417     1412     1421     1439 
    1448     1440     1437     1455     1459     1433     1413     1425 
    1452     1456     1435     1421     1428     1445     1456     1439 
    1412     1409     1416     1421     1429     1412     1398     1422 
    1435     1424     1422     1417     1421     1445     1447     1435 
    1443     1435     1416     1436     1462     1447     1435     1440 
    1433     1424     1424     1429     1441     1451     1443     1433 
    1431     1422     1405     1399     1399     1410     1429     1431 
    1420     1425     1435     1440     1439     1414     1397     1420 
    1437     1436     1445     1440     1421     1431     1448     1452 
    1460     1445     1414     1417     1420     1408     1426     1448 
    1440     1440     1443     1425     1412     1414     1413     1414 
    1420     1426     1448     1462     1448     1439     1440     1431 
    1422     1425     1424     1424     1431     1428     1420     1420 
    1414     1414     1424     1424     1417     1412     1405     1416 
    1435     1445     1452     1462     1457     1448     1451     1445 
    1428     1424     1431     1449     1474     1459     1417     1397 
    1389     1390     1426     1448     1428     1422     1433     1428 
    1421     1412     1399     1421     1455     1456     1444     1435 
    1422     1424     1435     1429     1418     1414     1418     1435 
    1444     1433     1431     1436     1425     1417     1426     1431 
    1429     1429     1414     1399     1413     1443     1462     1467 
    1453     1429     1416     1410     1412     1431     1448     1451 
    1448     1436     1424     1428     1433     1436     1444     1440 
    1431     1436     1439     1426     1422     1426     1429     1435 
    1435     1422     1426     1437     1425     1422     1435     1422 
    1410     1417     1420     1424     1429     1417     1412     1428 
    1433     1437     1455     1451     1435     1429     1421     1424 
    1447     1447     1429     1428     1422     1412     1421     1429 
    1424     1428     1433     1439     1459     1456     1431     1422 
    1420     1426     1451     1463     1457     1449     1421     1381 
    1387     1435     1449     1436     1445     1444     1397     1355 
    1366     1418     1472     1479     1435     1405     1429     1447 
    1428     1413     1428     1443     1443     1445     1475     1491 
    1439     1372     1374     1417     1459     1494     1493     1443 
    1390     1381     1405     1439     1448     1431     1418     1435 
    1444     1429     1428     1453     1457     1413     1367     1377 
    1426     1462     1467     1453     1435     1404     1372     1390 
    1449     1470     1441     1431     1441     1435     1422     1428 
    1428     1413     1413     1431     1444     1445     1439     1435 
    1425     1410     1416     1426     1417     1417     1444     1459 
    1447     1429     1422     1431     1441     1441     1425     1405 
    1408     1428     1462     1478     1447     1410     1405     1408 
    1417     1441     1453     1451     1431     1399     1393     1426 
    1455     1456     1445     1426     1412     1416     1431     1448 
    1447     1429     1417     1418     1426     1428     1418     1416 
    1422     1436     1441     1428     1421     1424     1410     1408 
    1433     1451     1443     1435     1439     1445     1453     1455 
    1443     1439     1439     1431     1443     1460     1453     1436 
    1408     1381     1390     1425     1441     1440     1431     1405 
    1395     1413     1440     1448     1431     1410     1410     1426 
    1443     1460     1471     1452     1416     1397     1410     1436 
    1455     1456     1440     1422     1409     1402     1414     1435 
    1435     1428     1422     1414     1422     1444     1447     1436 
    1426     1413     1405     1413     1425     1437     1437     1431 
    1440     1448     1445     1447     1444     1431     1429     1433 
    1431     1441     1451     1441     1431     1422     1416     1425 
    1431     1428     1431     1441     1439     1426     1421     1420 
    1413     1416     1424     1418     1418     1440     1443     1425 
    1418     1420     1426     1437     1433     1422     1431     1444 
    1443     1440     1436     1431     1426     1426     1433     1444 
    1443     1440     1435     1413     1399     1410     1421     1424 
    1431     1439     1435     1431     1433     1428     1426     1445 
    1444     1429     1439     1448     1436     1431     1426     1413 
    1414     1416     1409     1412     1409     1409     1428     1431 
    1416     1422     1433     1426     1431     1441     1426     1426 
    1449     1455     1445     1443     1439     1436     1439     1439 
    1435     1440     1445     1447     1451     1440     1422     1426 
    1433     1435     1435     1429     1422     1422     1417     1402 
    1398     1410     1421     1433     1440     1431     1417     1417 
    1424     1436     1447     1443     1440     1444     1435     1420 
    1422     1426     1425     1428     1428     1426     1433     1433 
    1422     1428     1439     1437     1437     1437     1435     1437 
    1435     1431     1441     1441     1428     1428     1435     1433 
    1429     1428     1422     1422     1424     1421     1431     1443 
    1441     1437     1436     1426     1426     1431     1416     1405 
    1421     1431     1433     1439     1433     1420     1413     1417 
    1426     1435     1437     1443     1437     1422     1418     1428 
    1440     1448     1453     1453     1444     1431     1426     1425 
    1421     1422     1425     1429     1428     1424     1429     1431 
    1416     1414     1424     1422     1424     1431     1433     1436 
    1436     1421     1425     1447     1445     1431     1431     1426 
    1426     1431     1429     1431     1448     1456     1445     1435 
    1426     1420     1422     1421     1420     1431     1436     1425 
    1418     1422     1429     1433     1428     1417     1426     1445 
    1455     1445     1428     1431     1452     1470     1449     1377 
    1375     1478     1474     1354     1367     1501     1525     1421 
    1355     1420     1486     1413     1359     1410     1445     1482 
    1475     1429     1452     1422     1377     1449     1437     1304 
    1395     1629     1528     1247     1287     1539     1574     1379 
    1304     1420     1404     1316     1502     1636     1447     1328 
    1378     1471     1554     1495     1329     1278     1486     1664 
    1553     1417     1344     1306     1457     1606     1412     1107 
    1282     1715     1629     1308     1410     1509     1256     1185 
    1475     1642     1443     1263     1409     1528     1535     1628 
    1475     1117     1159     1586     1687     1308     1201     1501 
    1714     1738     1491     1071      980     1336     1574     1475 
    1502     1554     1364     1293     1426     1509     1485     1366 
    1269     1463     1719     1613     1443     1495     1444     1243 
    1344     1495     1189     1166     1732     1779     1273     1325 
    1714     1486     1085     1343     1692     1517     1445     1620 
    1410     1170     1402     1522     1194     1107     1445     1557 
    1499     1660     1706     1437     1212     1194     1320     1549 
    1671     1485     1155     1102     1425     1682     1503     1166 
    1281     1653     1548     1173     1290     1831     2007     1628 
    1204     1048     1255     1563     1584     1447     1405     1420 
    1436     1535     1521     1318     1305     1420     1358     1340 
    1521     1530     1360     1395     1436     1351     1452     1455 
    1085     1084     1709     1838     1397     1475     1671     1354 
    1190     1374     1448     1498     1713     1699     1293     1069 
    1202     1418     1614     1475     1050     1128     1740     1890 
    1528     1405     1285      973     1239     1894     1953     1647 
    1463     1198     1035     1258     1495     1363     1198     1439 
    1772     1721     1447     1358     1474     1553     1478     1410 
    1420     1343     1347     1471     1395     1306     1399     1418 
    1310     1351     1561     1580     1439     1443     1483     1487 
    1539     1478     1220     1147     1351     1358     1258     1431 
    1580     1420     1344     1684     1929     1553     1059     1026 
    1246     1554     1895     1729     1170     1154     1552     1540 
    1294     1305     1528     1728     1649     1441     1518     1651 
    1374      978     1013     1282     1316     1316     1563     1714 
    1590     1540     1560     1348     1151     1296     1501     1514 
    1436     1381     1476     1606     1487     1263     1198     1196 
    1263     1576     1859     1803     1606     1467     1390     1367 
    1363     1277     1151     1200     1306     1339     1524     1721 
    1580     1355     1417     1571     1544     1385     1358     1521 
    1486     1414     1715     1715     1138      942     1225     1132 
     908     1287     1777     1802     1742     1817     1622     1116 
    1055     1522     1570     1210     1331     1786     1881     1630 
    1302     1084     1136     1374     1598     1618     1487     1533 
    1614     1402     1200     1270     1279     1107     1116     1387 
    1584     1561     1622     1784     1618     1260     1239     1366 
    1259     1323     1669     1634     1374     1521     1651     1294 
    1159     1621     1811     1495     1354     1366     1107      940 
    1297     1553     1305     1232     1530     1593     1439     1610 
    1767     1462     1340     1671     1746     1337     1100     1347 
    1549     1622     1560     1085      953     1431     1541     1266 
    1354     1742     1799     1622     1593     1358      981     1047 
    1399     1414     1166     1368     1821     1771     1405     1267 
    1420     1483     1374     1441     1421     1136     1260     1826 
    1948     1352     1026     1528     1777     1316     1105     1260 
    1286     1474     1819     1671     1316     1402     1437     1264 
    1613     2154     1975     1304      900     1020     1410     1539 
    1381     1520     1845     1656     1057      796     1058     1552 
    1966     1826     1308     1263     1509     1278      939     1070 
    1196     1080     1329     1822     1790     1351     1171     1381 
    1656     1588     1327     1537     1975     1973     1958     2176 
    2143     2001     1868     1254      406      298      926     1329 
    1333     1308     1147      858      810     1039     1256     1516 
    2030     2230     1796     1462     1516     1586     1428     1115 
     846      760      859      693      486     1239     2191     2004 
    1439     1548     1985     2219     2363     2448     2123     1505 
    1260     1389     1023      211      163      916     1464     1583 
    1457     1251     1248     1472     1728     1946     2308     2727 
    2602     1777     1039     1031     1204      796      255      232 
     565     1124     1826     2292     2245     1588     1031     1471 
    2185     2228     2089     2041     1576     1048     1024      877 
     406      376      550      409      704     1629     2188     2188 
    1966     1274      488      880     2280     2971     2555     2106 
    1948     1715     1275      641       90      155      955     1914 
    2378     2322     2128     1934     1590     1158      994     1067 
     981      901     1169     1429     1554     1910     1975     1294 
     881     1062     1107     1453     2412     2679     1817     1236 
    1408     1368     1227     1586     1688     1015      631     1129 
    1471     1107      804      889      970     1065     1537     2157 
    2286     1962     1713     1661     1503     1318     1460     1482 
    1062      885     1188     1480     1495     1425     1451     1285 
     947     1035     1516     1649     1333     1327     1877     2354 
    2301     1821     1351     1189     1181     1240     1359     1278 
     990     1020     1647     2228     2128     1744     1513     1167 
     855     1193     1715     1483      992     1142     1498     1422 
    1192     1175     1258     1185      967      805      862     1152 
    1472     1688     2008     2442     2504     1975     1337     1003 
    1000     1443     2041     2037     1463     1089     1116     1169 
    1116      976      766      905     1435     1723     1919     2471 
    2606     1791     1119     1351     1669     1453     1340     1729 
    1814     1119      493      525      735      884     1216     1560 
    1629     1652     1900     2220     2208     1696     1119     1007 
    1217     1306     1263     1362     1609     1702     1505     1270 
    1282     1352     1139     1003     1337     1634     1609     1826 
    2191     1748      760      561     1007      862      336      492 
    1097     1408     1694     2141     2141     1658     1543     2006 
    2374     2382     2203     1829     1437     1296     1281     1065 
     592      303      603     1193     1433     1244     1224     1675 
    2135     2278     2322     2231     1864     1644     1798     1823 
    1451      982      604      307      236      444      760     1161 
    1606     1838     1890     2096     2312     2066     1517     1216 
    1273     1474     1606     1634     1725     1781     1470      958 
     708      657      565      656     1101     1626     1989     2242 
    2301     1977     1507     1274     1278     1235     1036     1062 
    1501     1836     1728     1379     1026      951     1273     1582 
    1578     1509     1598     1763     1906     1927     1734     1451 
    1358     1521     1725     1764     1657     1632     1699     1613 
    1389     1227     1159     1220     1387     1436     1317     1158 
     818      368      251      383      436      679     1318     1898 
    2173     2346     2245     1813     1490     1340     1252     1486 
    1933     2087     1938     1780     1606     1431     1451     1570 
    1551     1448     1394     1490     1746     1890     1714     1408 
    1181     1030      954      982      899      591      487      803 
    1142     1328     1491     1715     1991     1944     1497     1362 
    1702     1864     1732     1598     1336     1000     1074     1498 
    1748     1722     1615     1443     1278     1334     1476     1314 
     890      660      905     1501     2022     2158     1989     1761 
    1557     1362     1210     1107     1120     1333     1509     1436 
    1340     1374     1321     1159     1102     1236     1571     1907 
    1890     1648     1660     1953     2115     2050     1973     1819 
    1468     1125      996      989      916      892     1060     1190 
    1220     1358     1409     1123      881     1090     1485     1725 
    1864     2056     2293     2251     1665      986      722      681 
     724     1035     1395     1460     1372     1374     1379     1271 
    1264     1547     1965     2231     2177     1969     1948     1987 
    1588      868      475      514      702     1047     1448     1588 
    1583     1717     1764     1645     1736     1869     1677     1571 
    1817     1837     1431     1060      819      630      700     1030 
    1413     1702     1799     1831     1930     1833     1433     1138 
    1081      997      993     1264     1475     1441     1452     1505 
    1467     1606     1891     1815     1416     1233     1233     1127 
    1123     1240     1128      953     1096     1382     1557     1721 
    1923     2073     2098     1877     1452     1171     1158     1142 
    1043     1015     1073     1177     1452     1923     2245     2199 
    2052     2058     2097     1991     1795     1625     1398     1063 
     859      822      685      476      403      491      631      728 
     832     1057     1436     1759     1790     1687     1652     1572 
    1451     1480     1595     1602     1664     1910     2023     1819 
    1567     1506     1587     1748     1995     2288     2477     2438 
    2273     2088     1760     1279      992     1067     1121      909 
     772      919     1107     1212     1308     1355     1306     1273 
    1341     1486     1537     1331      993      774      727      831 
    1036     1210     1317     1381     1478     1780     2199     2393 
    2295     2058     1721     1399     1291     1260     1142     1074 
    1034      857      741      886     1053     1102     1240     1425 
    1420     1371     1532     1783     1895     1878     1784     1618 
    1549     1664     1692     1503     1317     1286     1359     1414 
    1294     1065     1038     1264     1482     1579     1568     1378 
    1070      909      999     1155     1348     1641     1775     1647 
    1593     1683     1665     1586     1656     1734     1656     1647 
    1817     1869     1732     1675     1615     1282      974     1129 
    1499     1638     1582     1479     1345     1282     1313     1264 
    1152     1224     1459     1629     1699     1718     1641     1494 
