Origin Time       2015/01/14 21:02:00
Lat.              35.027
Long.             135.532
Depth. (km)       15
Mag.              3.9
Station Code      OSK003
Station Lat.      34.7668
Station Long.     135.4683
Station Height(m) 5
Record Time       2015/01/14 21:02:33
Sampling Freq(Hz) 100Hz
Duration Time(s)  60
Dir.              E-W
Scale Factor      7845(gal)/8223790
Max. Acc. (gal)   1.558
Last Correction   2015/01/14 21:02:33
Memo.             
[...]
   -1290    -1320    -1358    -1358    -1344    -1343    -1340    -1336 
   -1325    -1308    -1310    -1329    -1343    -1343    -1310    -1281 
   -1306    -1333    -1320    -1316    -1323    -1313    -1331    -1358 
   -1350    -1334    -1332    -1327    -1329    -1339    -1332    -1327 
   -1340    -1345    -1345    -1350    -1339    -1318    -1317    -1317 
   -1318    -1339    -1350    -1340    -1341    -1343    -1327    -1317 
   -1317    -1317    -1331    -1343    -1334    -1331    -1341    -1351 
   -1356    -1339    -1305    -1302    -1336    -1350    -1324    -1298 
   -1296    -1318    -1340    -1324    -1298    -1308    -1332    -1345 
   -1363    -1368    -1347    -1320    -1310    -1325    -1358    -1370 
   -1341    -1310    -1308    -1317    -1325    -1332    -1336    -1345 
   -1345    -1328    -1317    -1318    -1316    -1314    -1324    -1336 
   -1334    -1324    -1336    -1366    -1354    -1304    -1291    -1336 
   -1366    -1345    -1320    -1331    -1360    -1356    -1313    -1313 
   -1356    -1340    -1281    -1286    -1343    -1375    -1356    -1308 
   -1286    -1310    -1334    -1337    -1340    -1350    -1350    -1332 
   -1310    -1308    -1340    -1367    -1354    -1340    -1347    -1328 
   -1302    -1310    -1321    -1328    -1343    -1339    -1321    -1320 
   -1318    -1321    -1333    -1318    -1297    -1320    -1356    -1363 
   -1359    -1355    -1345    -1334    -1317    -1294    -1305    -1329 
   -1339    -1354    -1355    -1323    -1308    -1323    -1313    -1301 
   -1313    -1324    -1334    -1358    -1352    -1327    -1323    -1336 
   -1348    -1355    -1350    -1343    -1343    -1331    -1320    -1327 
   -1332    -1325    -1323    -1313    -1310    -1324    -1327    -1318 
   -1325    -1328    -1317    -1317    -1317    -1321    -1351    -1370 
   -1351    -1339    -1331    -1314    -1324    -1344    -1337    -1331 
   -1339    -1336    -1329    -1325    -1316    -1321    -1337    -1334 
   -1321    -1321    -1324    -1332    -1345    -1343    -1343    -1356 
   -1334    -1301    -1312    -1332    -1336    -1348    -1351    -1345 
   -1345    -1328    -1302    -1305    -1318    -1324    -1332    -1334 
   -1324    -1329    -1341    -1333    -1327    -1334    -1329    -1320 
   -1333    -1337    -1324    -1325    -1329    -1332    -1347    -1343 
   -1339    -1354    -1348    -1340    -1345    -1323    -1304    -1320 
   -1333    -1331    -1337    -1344    -1337    -1336    -1337    -1329 
   -1325    -1323    -1318    -1320    -1328    -1327    -1332    -1347 
   -1334    -1308    -1320    -1336    -1332    -1327    -1316    -1314 
   -1334    -1348    -1345    -1341    -1325    -1318    -1334    -1339 
   -1328    -1337    -1343    -1332    -1341    -1354    -1336    -1324 
   -1329    -1324    -1321    -1327    -1324    -1333    -1345    -1341 
   -1345    -1348    -1320    -1305    -1325    -1327    -1316    -1320 
   -1312    -1306    -1334    -1350    -1347    -1362    -1355    -1323 
   -1325    -1340    -1329    -1327    -1339    -1331    -1324    -1337 
   -1341    -1333    -1327    -1324    -1337    -1351    -1344    -1334 
   -1331    -1317    -1321    -1339    -1334    -1320    -1313    -1310 
   -1318    -1329    -1320    -1323    -1345    -1352    -1350    -1352 
   -1350    -1336    -1318    -1305    -1314    -1334    -1340    -1331 
   -1325    -1329    -1340    -1344    -1327    -1304    -1313    -1333 
   -1344    -1359    -1358    -1337    -1337    -1336    -1318    -1313 
   -1313    -1312    -1327    -1339    -1336    -1337    -1332    -1313 
   -1316    -1331    -1328    -1329    -1344    -1344    -1337    -1348 
   -1354    -1340    -1333    -1331    -1336    -1356    -1358    -1333 
   -1321    -1316    -1321    -1348    -1352    -1331    -1321    -1308 
   -1297    -1308    -1316    -1310    -1321    -1329    -1323    -1329 
   -1333    -1321    -1320    -1331    -1336    -1337    -1333    -1327 
   -1331    -1340    -1348    -1360    -1360    -1332    -1310    -1324 
   -1347    -1359    -1351    -1321    -1306    -1318    -1332    -1340 
   -1348    -1344    -1340    -1340    -1324    -1314    -1331    -1333 
   -1320    -1321    -1323    -1323    -1332    -1329    -1324    -1331 
   -1325    -1321    -1333    -1339    -1336    -1337    -1327    -1318 
   -1328    -1332    -1329    -1340    -1350    -1345    -1347    -1343 
   -1329    -1331    -1329    -1317    -1328    -1341    -1331    -1324 
   -1321    -1308    -1308    -1321    -1325    -1339    -1345    -1332 
   -1332    -1336    -1329    -1332    -1339    -1334    -1340    -1344 
   -1329    -1327    -1339    -1333    -1324    -1327    -1324    -1320 
   -1331    -1334    -1327    -1324    -1318    -1312    -1336    -1363 
   -1354    -1344    -1341    -1328    -1323    -1323    -1331    -1351 
   -1350    -1329    -1339    -1340    -1306    -1302    -1320    -1318 
   -1325    -1328    -1305    -1304    -1323    -1324    -1323    -1327 
   -1329    -1340    -1350    -1343    -1341    -1347    -1323    -1289 
   -1313    -1367    -1375    -1352    -1331    -1305    -1300    -1331 
   -1350    -1355    -1358    -1332    -1320    -1345    -1343    -1327 
   -1327    -1323    -1325    -1314    -1289    -1310    -1358    -1355 
   -1332    -1327    -1332    -1336    -1333    -1325    -1332    -1345 
   -1334    -1316    -1331    -1348    -1331    -1320    -1327    -1321 
   -1323    -1337    -1339    -1336    -1334    -1327    -1329    -1340 
   -1334    -1325    -1331    -1337    -1343    -1351    -1340    -1317 
   -1314    -1321    -1323    -1328    -1327    -1318    -1328    -1341 
   -1340    -1345    -1344    -1325    -1327    -1345    -1341    -1339 
   -1345    -1333    -1320    -1321    -1317    -1321    -1331    -1323 
   -1321    -1332    -1324    -1323    -1339    -1331    -1310    -1316 
   -1323    -1327    -1347    -1354    -1331    -1323    -1325    -1317 
   -1320    -1329    -1318    -1321    -1344    -1345    -1345    -1356 
   -1341    -1323    -1328    -1333    -1343    -1356    -1333    -1305 
   -1317    -1325    -1321    -1333    -1337    -1331    -1331    -1325 
   -1324    -1334    -1334    -1329    -1336    -1323    -1302    -1318 
   -1340    -1334    -1331    -1329    -1324    -1339    -1351    -1331 
   -1316    -1328    -1327    -1323    -1333    -1334    -1328    -1333 
   -1334    -1334    -1336    -1323    -1313    -1331    -1347    -1348 
   -1350    -1343    -1328    -1336    -1347    -1332    -1323    -1327 
   -1321    -1318    -1317    -1316    -1327    -1339    -1334    -1334 
   -1340    -1325    -1313    -1331    -1336    -1327    -1334    -1343 
   -1341    -1347    -1339    -1329    -1341    -1341    -1323    -1320 
   -1323    -1316    -1331    -1344    -1331    -1324    -1332    -1334 
   -1336    -1333    -1325    -1331    -1340    -1329    -1317    -1317 
   -1316    -1324    -1336    -1334    -1333    -1334    -1331    -1333 
   -1339    -1333    -1334    -1343    -1332    -1314    -1321    -1329 
   -1324    -1325    -1337    -1343    -1351    -1344    -1329    -1334 
   -1340    -1327    -1324    -1324    -1320    -1336    -1345    -1331 
   -1324    -1320    -1308    -1317    -1332    -1334    -1341    -1345 
   -1331    -1331    -1341    -1333    -1328    -1337    -1333    -1328 
   -1337    -1340    -1344    -1354    -1345    -1332    -1333    -1332 
   -1325    -1328    -1329    -1318    -1316    -1323    -1328    -1347 
   -1351    -1325    -1320    -1329    -1323    -1324    -1333    -1328 
   -1324    -1336    -1339    -1340    -1355    -1354    -1337    -1337 
   -1333    -1317    -1325    -1345    -1341    -1340    -1341    -1328 
   -1329    -1333    -1317    -1321    -1339    -1332    -1332    -1340 
   -1324    -1318    -1334    -1331    -1325    -1336    -1328    -1313 
   -1327    -1332    -1320    -1324    -1323    -1320    -1341    -1341 
   -1325    -1331    -1334    -1325    -1337    -1354    -1345    -1337 
   -1337    -1331    -1323    -1328    -1334    -1333    -1328    -1318 
   -1316    -1325    -1327    -1329    -1336    -1339    -1345    -1348 
   -1340    -1336    -1333    -1321    -1321    -1336    -1340    -1337 
   -1345    -1345    -1332    -1328    -1324    -1316    -1320    -1324 
   -1327    -1334    -1333    -1324    -1327    -1324    -1314    -1323 
   -1334    -1333    -1336    -1340    -1337    -1336    -1333    -1329 
   -1336    -1332    -1321    -1334    -1344    -1332    -1331    -1334 
   -1328    -1328    -1327    -1320    -1323    -1329    -1336    -1347 
   -1337    -1318    -1321    -1332    -1327    -1323    -1333    -1347 
   -1348    -1347    -1340    -1336    -1336    -1324    -1313    -1321 
   -1321    -1324    -1350    -1360    -1355    -1347    -1318    -1293 
   -1301    -1321    -1339    -1355    -1345    -1324    -1329    -1321 
   -1308    -1331    -1329    -1305    -1320    -1317    -1291    -1334 
   -1395    -1356    -1312    -1341    -1356    -1308    -1277    -1324 
   -1377    -1377    -1340    -1294    -1347    -1391    -1318    -1313 
   -1340    -1306    -1263    -1247    -1355    -1451    -1337    -1282 
   -1343    -1289    -1310    -1433    -1391    -1275    -1227    -1290 
   -1420    -1452    -1352    -1296    -1333    -1286    -1305    -1445 
   -1325    -1138    -1237    -1398    -1453    -1435    -1320    -1198 
   -1251    -1393    -1382    -1320    -1317    -1239    -1248    -1486 
   -1557    -1302    -1202    -1325    -1271    -1189    -1364    -1521 
   -1367    -1202    -1291    -1393    -1404    -1348    -1229    -1185 
   -1286    -1443    -1439    -1318    -1264    -1262    -1364    -1439 
   -1336    -1239    -1287    -1336    -1301    -1377    -1482    -1344 
   -1181    -1320    -1447    -1356    -1387    -1382    -1225    -1294 
   -1405    -1282    -1236    -1425    -1424    -1181    -1282    -1541 
   -1370    -1188    -1286    -1239    -1206    -1436    -1514    -1281 
   -1178    -1390    -1482    -1367    -1271    -1078    -1063    -1528 
   -1790    -1409    -1081    -1174    -1318    -1414    -1509    -1426 
   -1102     -965    -1282    -1676    -1718    -1378    -1113    -1159 
   -1264    -1386    -1478    -1422    -1267    -1169    -1252    -1387 
   -1435    -1371    -1254    -1248    -1364    -1363    -1270    -1377 
   -1405    -1188    -1270    -1554    -1387    -1077    -1291    -1552 
   -1328    -1201    -1399    -1358    -1086    -1225    -1599    -1520 
   -1310    -1367    -1385    -1287    -1181    -1242    -1466    -1445 
   -1266    -1262    -1358    -1455    -1439    -1198     -961    -1111 
   -1479    -1543    -1368    -1251    -1230    -1363    -1557    -1551 
   -1412    -1355    -1163     -982    -1305    -1641    -1436    -1258 
   -1409    -1352    -1208    -1480    -1690    -1300     -888     -950 
   -1209    -1457    -1521    -1275    -1090    -1298    -1520    -1275 
   -1020    -1236    -1516    -1530    -1426    -1360    -1391    -1539 
   -1547    -1240    -1059    -1173    -1256    -1277    -1305    -1343 
   -1364    -1381    -1501    -1540    -1320    -1243    -1566    -1706 
   -1359    -1128    -1196    -1274    -1362    -1348    -1212    -1105 
   -1035    -1209    -1574    -1490    -1112    -1275    -1645    -1509 
   -1355    -1462    -1232     -892    -1100    -1416    -1274    -1104 
   -1325    -1516    -1433    -1485    -1628    -1537    -1347    -1216 
   -1282    -1598    -1723    -1331     -869     -955    -1345    -1358 
   -1166    -1219    -1263    -1237    -1418    -1476    -1318    -1480 
   -1728    -1535    -1217    -1115    -1150    -1189    -1271    -1401 
   -1395    -1271    -1219    -1359    -1537    -1517    -1391    -1344 
   -1371    -1347    -1279    -1321    -1395    -1324    -1198    -1181 
   -1171    -1165    -1291    -1393    -1289    -1167    -1359    -1682 
   -1717    -1563    -1296    -1060    -1256    -1468    -1239    -1136 
   -1287    -1173    -1188    -1615    -1656    -1256    -1185    -1351 
   -1263    -1182    -1412    -1549    -1327    -1104    -1175    -1391 
   -1436    -1370    -1390    -1367    -1291    -1382    -1579    -1591 
   -1410    -1332    -1435    -1378    -1104    -1081    -1267    -1216 
   -1098    -1248    -1472    -1355    -1111    -1267    -1453    -1232 
   -1217    -1591    -1615    -1340    -1377    -1457    -1247    -1181 
   -1374    -1372    -1282    -1435    -1474    -1246    -1165    -1325 
   -1393    -1230    -1152    -1240    -1312    -1358    -1286    -1248 
   -1448    -1567    -1421    -1341    -1478    -1383    -1197    -1512 
   -1644    -1185    -1019    -1237    -1314    -1278    -1402    -1579 
   -1499    -1267    -1100    -1158    -1405    -1483    -1441    -1318 
    -953     -850    -1344    -1746    -1485    -1165    -1282    -1252 
   -1111    -1374    -1629    -1609    -1539    -1316    -1021    -1094 
   -1425    -1582    -1567    -1348     -922     -788    -1125    -1462 
   -1530    -1524    -1525    -1464    -1358    -1198    -1182    -1448 
   -1624    -1447    -1185    -1246    -1501    -1448    -1254    -1375 
   -1452    -1023     -603     -823    -1374    -1719    -1710    -1445 
   -1215    -1124     -978     -718     -525     -657    -1104    -1522 
   -1887    -2270    -2228    -1842    -1790    -1826    -1455    -1005 
    -976    -1287    -1367    -1362    -1822    -2076    -1402     -405 
    -244     -959    -1316    -1449    -2230    -2652    -2039    -1451 
   -1367    -1289    -1181    -1150     -728     -133      -98     -492 
   -1188    -2034    -2309    -1891    -1339    -1063    -1185    -1649 
   -2115    -2236    -2234    -2120    -1398     -291      302      118 
     -86       32     -162     -765    -1304    -1655    -1826    -2016 
   -2427    -2786    -2778    -2420    -1829    -1318    -1296    -1426 
   -1237     -987     -639      -13      286     -182     -977    -1447 
   -1630    -2153    -2739    -2583    -2157    -2098    -2074    -1877 
   -1503    -1044     -760     -352       -4     -523    -1000     -444 
    -194     -907    -1479    -1856    -2569    -2875    -2079    -1152 
   -1065    -1383    -1703    -1945    -1613     -822     -340     -271 
    -519    -1124    -1433    -1119    -1015    -1379    -1544    -1709 
   -2349    -2697    -2062    -1070     -622     -672     -805    -1138 
   -1485    -1313    -1202    -1836    -2219    -1599     -876     -631 
    -676     -901    -1296    -1780    -1863    -1421    -1340    -1723 
   -1564     -912     -700     -935    -1093    -1227    -1594    -1995 
   -1908    -1417    -1395    -1786    -1397     -382     -279    -1220 
   -1877    -1917    -1729    -1213     -797     -924    -1021     -947 
   -1165    -1420    -1509    -1908    -2218    -1719    -1101     -953 
    -864     -815    -1155    -1907    -2550    -2389    -1520     -791 
    -778    -1124    -1260    -1279    -1318    -1235    -1017     -931 
   -1250    -1629    -1587    -1317    -1112    -1007    -1179    -1798 
   -2492    -2478    -1518     -661     -722     -828     -430     -480 
   -1144    -1291     -870     -942    -1397    -1466    -1440    -1729 
   -1981    -1945    -1764    -1677    -1885    -2096    -1691     -837 
    -373     -607    -1011    -1124    -1212    -1387    -1256     -974 
   -1089    -1528    -1814    -1911    -2062    -2074    -1667    -1155 
   -1098    -1270    -1081     -943    -1332    -1528    -1193    -1035 
   -1136    -1105    -1173    -1495    -1783    -1798    -1485    -1093 
    -928     -953    -1039    -1120    -1235    -1526    -1642    -1230 
    -942    -1270    -1507    -1216    -1003    -1197    -1468    -1587 
   -1506    -1289    -1225    -1366    -1348    -1148    -1143    -1242 
   -1150    -1102    -1314    -1541    -1572    -1516    -1482    -1468 
   -1688    -2149    -2292    -1838    -1340    -1302    -1355    -1044 
    -660     -566     -625     -681     -949    -1379    -1593    -1632 
   -1723    -1763    -1590    -1352    -1318    -1412    -1425    -1404 
   -1366    -1119     -761     -822    -1250    -1467    -1543    -1687 
   -1610    -1316    -1208    -1359    -1498    -1428    -1275    -1135 
    -905     -754     -907    -1169    -1296    -1233    -1035     -913 
   -1058    -1455    -2042    -2538    -2488    -1995    -1518    -1071 
    -720     -823     -996     -707     -626    -1337    -1953    -1763 
   -1501    -1707    -1937    -2053    -2207    -2121    -1617     -969 
    -656     -804     -919     -660     -486     -855    -1382    -1512 
   -1493    -1760    -2089    -2166    -2033    -1718    -1300     -976 
    -872     -970     -992     -692     -286     -186     -633    -1514 
   -2245    -2239    -1760    -1574    -1773    -1861    -1674    -1532 
   -1636    -1672    -1433    -1208     -940     -288      234       20 
    -378     -540     -929    -1561    -1933    -1930    -1761    -1470 
   -1021     -696     -892    -1516    -2106    -2394    -2389    -2070 
   -1509    -1107    -1039     -974     -869    -1057    -1460    -1740 
   -1883    -2027    -2029    -1729    -1405    -1258    -1081     -918 
   -1177    -1821    -2153    -1742    -1046     -619     -373     -149 
    -172     -604    -1266    -1852    -2076    -1900    -1713    -1761 
   -1742    -1394     -905     -626     -668     -873    -1189    -1582 
   -1769    -1622    -1383    -1179     -997    -1058    -1453    -1872 
   -2092    -2123    -2046    -1933    -1750    -1455    -1088     -788 
    -796    -1073    -1084     -687     -579     -940    -1123    -1062 
   -1169    -1320    -1282    -1225    -1267    -1328    -1393    -1401 
   -1386    -1521    -1614    -1572    -1710    -1900    -1813    -1664 
   -1648    -1566    -1417    -1271     -962     -666     -746    -1019 
   -1190    -1366    -1544    -1444    -1113     -965    -1158    -1435 
   -1528    -1412    -1202    -1140    -1327    -1464    -1404    -1436 
   -1671    -1894    -1935    -1741    -1375    -1111    -1158    -1317 
   -1325    -1212    -1032     -872     -965    -1250    -1363    -1286 
   -1181    -1090    -1123    -1302    -1470    -1505    -1437    -1378 
   -1297    -1101     -913     -922    -1030    -1081    -1177    -1344 
   -1397    -1333    -1409    -1671    -1764    -1543    -1337    -1277 
   -1179    -1139    -1286    -1456    -1528    -1601    -1760    -1817 
   -1625    -1498    -1665    -1863    -1845    -1761    -1755    -1709 
   -1566    -1387    -1142     -855     -637     -488     -487     -787 
   -1188    -1313    -1212    -1185    -1258    -1294    -1314    -1391 
   -1509    -1559    -1506    -1499    -1545    -1433    -1198    -1069 
   -1051    -1016    -1021    -1225    -1497    -1622    -1706    -1786 
   -1738    -1620    -1482    -1320    -1179    -1119    -1111    -1067 
   -1057    -1167    -1258    -1215    -1143    -1210    -1391    -1486 
   -1528    -1638    -1626    -1444    -1464    -1684    -1645    -1399 
   -1386    -1601    -1734    -1679    -1505    -1289    -1020     -745 
    -642     -687     -697     -684     -753     -950    -1239    -1493 
   -1549    -1385    -1197    -1156    -1285    -1505    -1636    -1661 
   -1692    -1632    -1464    -1386    -1343    -1206    -1139    -1192 
   -1209    -1232    -1410    -1610    -1637    -1579    -1557    -1551 
   -1534    -1503    -1428    -1302    -1291    -1472    -1561    -1441 
   -1418    -1532    -1498    -1390    -1457    -1579    -1530    -1281 
    -907     -600     -529     -626     -807    -1127    -1426    -1426 
