Origin Time       2014/11/22 22:08:00
Lat.              36.692
Long.             137.890
Depth. (km)       5
Mag.              6.7
Station Code      TCGH09
Station Lat.      36.8625
Station Long.     139.8364
Station Height(m) 564
Record Time       2014/11/22 22:08:47
Sampling Freq(Hz) 100Hz
Duration Time(s)  141
Dir.              6
Scale Factor      3920(gal)/6170801
Max. Acc. (gal)   0.849
Last Correction   2014/11/22 22:08:32
Memo.             
[...]
  -18681   -18669   -18673   -18679   -18673   -18672   -18680   -18677 
  -18671   -18674   -18673   -18669   -18680   -18682   -18668   -18672 
  -18681   -18671   -18670   -18683   -18682   -18673   -18668   -18671 
  -18678   -18677   -18675   -18674   -18678   -18680   -18669   -18670 
  -18683   -18678   -18671   -18676   -18675   -18673   -18674   -18675 
  -18679   -18681   -18674   -18672   -18678   -18677   -18671   -18675 
  -18683   -18677   -18671   -18677   -18675   -18668   -18677   -18683 
  -18673   -18672   -18677   -18673   -18674   -18677   -18673   -18675 
  -18679   -18672   -18673   -18680   -18675   -18672   -18681   -18676 
  -18664   -18674   -18684   -18673   -18671   -18684   -18675   -18659 
  -18678   -18692   -18669   -18665   -18681   -18673   -18667   -18681 
  -18682   -18671   -18672   -18674   -18673   -18680   -18681   -18670 
  -18670   -18679   -18673   -18669   -18679   -18679   -18670   -18677 
  -18680   -18669   -18669   -18677   -18680   -18678   -18674   -18675 
  -18676   -18670   -18674   -18683   -18677   -18669   -18670   -18679 
  -18679   -18669   -18672   -18681   -18674   -18669   -18677   -18675 
  -18669   -18678   -18679   -18674   -18677   -18673   -18673   -18679 
  -18674   -18670   -18676   -18678   -18674   -18673   -18676   -18673 
  -18670   -18681   -18683   -18674   -18678   -18678   -18668   -18674 
  -18681   -18675   -18677   -18683   -18678   -18668   -18674   -18679 
  -18673   -18675   -18681   -18673   -18671   -18677   -18673   -18671 
  -18678   -18678   -18673   -18676   -18678   -18676   -18675   -18675 
  -18678   -18680   -18673   -18672   -18682   -18677   -18667   -18676 
  -18680   -18673   -18673   -18680   -18676   -18671   -18677   -18682 
  -18674   -18673   -18680   -18676   -18673   -18680   -18675   -18668 
  -18679   -18679   -18668   -18673   -18682   -18676   -18669   -18675 
  -18681   -18672   -18670   -18681   -18678   -18669   -18674   -18677 
  -18675   -18677   -18673   -18669   -18677   -18682   -18675   -18676 
  -18679   -18673   -18671   -18675   -18678   -18679   -18676   -18675 
  -18675   -18674   -18674   -18674   -18680   -18682   -18676   -18671 
  -18672   -18675   -18676   -18674   -18679   -18683   -18675   -18668 
  -18671   -18676   -18676   -18674   -18674   -18677   -18676   -18669 
  -18671   -18676   -18680   -18678   -18668   -18670   -18683   -18678 
  -18668   -18678   -18680   -18671   -18673   -18677   -18677   -18676 
  -18674   -18678   -18680   -18674   -18672   -18678   -18681   -18676 
  -18674   -18679   -18681   -18671   -18671   -18684   -18676   -18665 
  -18679   -18685   -18671   -18670   -18681   -18680   -18672   -18674 
  -18682   -18675   -18669   -18678   -18678   -18669   -18675   -18681 
  -18676   -18675   -18676   -18676   -18673   -18672   -18679   -18680 
  -18672   -18672   -18676   -18675   -18673   -18676   -18678   -18678 
  -18675   -18675   -18677   -18676   -18674   -18678   -18678   -18674 
  -18676   -18675   -18671   -18676   -18678   -18673   -18676   -18681 
  -18677   -18671   -18672   -18678   -18676   -18673   -18676   -18677 
  -18673   -18672   -18679   -18682   -18673   -18672   -18683   -18676 
  -18665   -18679   -18684   -18672   -18674   -18679   -18673   -18671 
  -18678   -18679   -18673   -18675   -18678   -18675   -18674   -18673 
  -18671   -18673   -18680   -18677   -18670   -18674   -18676   -18670 
  -18675   -18685   -18681   -18670   -18670   -18677   -18676   -18673 
  -18679   -18682   -18672   -18670   -18679   -18677   -18673   -18677 
  -18678   -18676   -18675   -18677   -18676   -18674   -18676   -18677 
  -18675   -18676   -18679   -18673   -18671   -18675   -18676   -18676 
  -18676   -18674   -18672   -18673   -18677   -18681   -18677   -18675 
  -18676   -18671   -18671   -18676   -18676   -18676   -18678   -18677 
  -18674   -18673   -18677   -18677   -18676   -18677   -18673   -18672 
  -18674   -18674   -18675   -18678   -18675   -18670   -18675   -18681 
  -18676   -18675   -18677   -18673   -18673   -18677   -18678   -18674 
  -18672   -18677   -18677   -18673   -18678   -18679   -18669   -18672 
  -18680   -18677   -18674   -18676   -18675   -18671   -18667   -18679 
  -18686   -18670   -18670   -18683   -18671   -18664   -18681   -18684 
  -18671   -18673   -18676   -18672   -18671   -18678   -18677   -18671 
  -18677   -18679   -18667   -18671   -18684   -18675   -18669   -18681 
  -18681   -18672   -18673   -18678   -18680   -18674   -18667   -18675 
  -18680   -18669   -18671   -18681   -18679   -18669   -18667   -18678 
  -18681   -18665   -18670   -18687   -18674   -18665   -18679   -18675 
  -18665   -18674   -18680   -18675   -18677   -18676   -18665   -18669 
  -18683   -18677   -18666   -18680   -18683   -18659   -18665   -18688 
  -18677   -18667   -18682   -18681   -18664   -18669   -18683   -18676 
  -18672   -18683   -18679   -18665   -18674   -18682   -18671   -18673 
  -18684   -18677   -18669   -18674   -18679   -18677   -18672   -18675 
  -18681   -18674   -18669   -18680   -18679   -18669   -18676   -18681 
  -18674   -18676   -18678   -18672   -18671   -18677   -18678   -18672 
  -18676   -18680   -18669   -18667   -18679   -18679   -18671   -18675 
  -18679   -18676   -18674   -18675   -18675   -18675   -18678   -18676 
  -18671   -18672   -18678   -18678   -18673   -18673   -18676   -18676 
  -18674   -18674   -18677   -18679   -18673   -18671   -18678   -18675 
  -18671   -18677   -18678   -18673   -18673   -18675   -18675   -18674 
  -18674   -18677   -18677   -18676   -18674   -18668   -18674   -18679 
  -18673   -18678   -18681   -18668   -18666   -18679   -18680   -18677 
  -18679   -18675   -18669   -18669   -18673   -18681   -18682   -18674 
  -18671   -18675   -18675   -18669   -18672   -18679   -18677   -18672 
  -18676   -18676   -18674   -18676   -18676   -18674   -18677   -18677 
  -18674   -18675   -18678   -18677   -18674   -18675   -18675   -18671 
  -18673   -18679   -18677   -18671   -18673   -18676   -18675   -18674 
  -18676   -18679   -18673   -18667   -18679   -18684   -18669   -18667 
  -18680   -18680   -18670   -18673   -18682   -18675   -18667   -18675 
  -18681   -18672   -18671   -18679   -18674   -18674   -18680   -18673 
  -18669   -18677   -18679   -18673   -18674   -18678   -18673   -18670 
  -18676   -18676   -18674   -18680   -18676   -18667   -18673   -18680 
  -18676   -18676   -18679   -18674   -18666   -18669   -18679   -18683 
  -18673   -18669   -18679   -18673   -18664   -18681   -18684   -18665 
  -18668   -18681   -18675   -18673   -18677   -18675   -18672   -18675 
  -18675   -18670   -18673   -18680   -18673   -18673   -18684   -18676 
  -18665   -18678   -18682   -18670   -18675   -18681   -18672   -18668 
  -18678   -18683   -18678   -18674   -18674   -18674   -18676   -18674 
  -18673   -18680   -18676   -18668   -18678   -18684   -18673   -18672 
  -18679   -18672   -18672   -18683   -18677   -18668   -18676   -18679 
  -18671   -18673   -18682   -18677   -18668   -18676   -18680   -18671 
  -18677   -18684   -18672   -18672   -18682   -18676   -18674   -18681 
  -18675   -18666   -18676   -18684   -18676   -18671   -18682   -18676 
  -18664   -18676   -18685   -18677   -18673   -18671   -18671   -18681 
  -18680   -18670   -18679   -18684   -18669   -18671   -18683   -18672 
  -18665   -18678   -18682   -18672   -18671   -18678   -18676   -18669 
  -18675   -18680   -18674   -18674   -18674   -18669   -18674   -18678 
  -18674   -18675   -18676   -18671   -18675   -18678   -18675   -18675 
  -18672   -18671   -18677   -18676   -18670   -18677   -18682   -18673 
  -18666   -18675   -18684   -18675   -18671   -18678   -18673   -18671 
  -18678   -18676   -18674   -18676   -18671   -18670   -18676   -18676 
  -18672   -18675   -18681   -18675   -18672   -18681   -18678   -18668 
  -18675   -18681   -18675   -18674   -18675   -18674   -18677   -18675 
  -18671   -18676   -18680   -18675   -18673   -18674   -18674   -18672 
  -18674   -18680   -18679   -18672   -18673   -18676   -18675   -18676 
  -18677   -18675   -18676   -18676   -18675   -18677   -18674   -18672 
  -18678   -18679   -18672   -18672   -18678   -18678   -18673   -18673 
  -18681   -18677   -18670   -18679   -18683   -18674   -18669   -18674 
  -18682   -18675   -18667   -18677   -18684   -18671   -18668   -18683 
  -18679   -18669   -18676   -18677   -18672   -18678   -18677   -18673 
  -18678   -18676   -18669   -18677   -18683   -18674   -18672   -18682 
  -18678   -18669   -18678   -18682   -18669   -18670   -18678   -18674 
  -18675   -18677   -18671   -18672   -18676   -18676   -18675   -18675 
  -18679   -18676   -18670   -18677   -18677   -18669   -18676   -18681 
  -18670   -18672   -18678   -18671   -18672   -18681   -18675   -18673 
  -18681   -18675   -18667   -18675   -18680   -18673   -18673   -18679 
  -18675   -18671   -18676   -18676   -18674   -18676   -18674   -18676 
  -18682   -18676   -18670   -18674   -18674   -18672   -18676   -18677 
  -18676   -18675   -18675   -18673   -18669   -18676   -18682   -18672 
  -18672   -18683   -18676   -18665   -18670   -18680   -18680   -18671 
  -18672   -18680   -18673   -18669   -18679   -18681   -18673   -18671 
  -18674   -18677   -18676   -18672   -18672   -18678   -18679   -18669 
  -18669   -18678   -18679   -18673   -18676   -18682   -18675   -18664 
  -18674   -18683   -18672   -18669   -18681   -18678   -18665   -18669 
  -18679   -18681   -18675   -18674   -18674   -18671   -18676   -18679 
  -18674   -18676   -18676   -18670   -18673   -18677   -18675   -18676 
  -18676   -18672   -18675   -18675   -18672   -18679   -18682   -18673 
  -18669   -18672   -18675   -18676   -18676   -18677   -18676   -18670 
  -18670   -18677   -18678   -18677   -18676   -18673   -18674   -18676 
  -18674   -18672   -18674   -18679   -18678   -18672   -18675   -18680 
  -18673   -18668   -18675   -18682   -18678   -18667   -18672   -18681 
  -18669   -18668   -18683   -18675   -18665   -18675   -18679   -18677 
  -18673   -18672   -18677   -18678   -18672   -18672   -18677   -18677 
  -18672   -18671   -18676   -18676   -18676   -18680   -18673   -18672 
  -18677   -18673   -18673   -18682   -18679   -18673   -18677   -18675 
  -18669   -18675   -18678   -18676   -18676   -18672   -18671   -18676 
  -18676   -18676   -18679   -18678   -18675   -18672   -18673   -18673 
  -18671   -18677   -18681   -18673   -18672   -18674   -18672   -18678 
  -18677   -18672   -18681   -18679   -18670   -18676   -18676   -18667 
  -18672   -18680   -18677   -18674   -18671   -18672   -18673   -18671 
  -18676   -18678   -18674   -18675   -18675   -18672   -18675   -18679 
  -18677   -18677   -18676   -18674   -18676   -18677   -18674   -18676 
  -18680   -18676   -18673   -18675   -18679   -18679   -18673   -18673 
  -18679   -18674   -18669   -18676   -18680   -18673   -18670   -18681 
  -18684   -18669   -18665   -18678   -18682   -18675   -18671   -18678 
  -18679   -18666   -18668   -18685   -18680   -18666   -18676   -18684 
  -18675   -18671   -18674   -18677   -18676   -18672   -18674   -18677 
  -18676   -18675   -18675   -18677   -18677   -18676   -18674   -18673 
  -18676   -18676   -18672   -18673   -18678   -18673   -18671   -18679 
  -18678   -18671   -18675   -18674   -18669   -18678   -18680   -18673 
  -18675   -18673   -18670   -18681   -18681   -18670   -18674   -18679 
  -18674   -18676   -18678   -18674   -18677   -18678   -18675   -18677 
  -18677   -18675   -18677   -18677   -18675   -18674   -18675   -18673 
  -18672   -18679   -18678   -18670   -18674   -18682   -18676   -18668 
  -18675   -18679   -18670   -18669   -18678   -18675   -18668   -18676 
  -18684   -18674   -18673   -18677   -18668   -18669   -18681   -18676 
  -18671   -18681   -18676   -18665   -18674   -18681   -18675   -18675 
  -18682   -18678   -18666   -18672   -18681   -18676   -18678   -18682 
  -18680   -18681   -18682   -18679   -18681   -18686   -18687   -18690 
  -18694   -18692   -18691   -18693   -18696   -18701   -18707   -18707 
  -18705   -18715   -18724   -18721   -18727   -18742   -18737   -18728 
  -18739   -18753   -18751   -18746   -18750   -18757   -18755   -18748 
  -18753   -18755   -18747   -18747   -18743   -18731   -18731   -18723 
  -18707   -18703   -18696   -18679   -18669   -18660   -18645   -18629 
  -18612   -18597   -18587   -18576   -18564   -18552   -18538   -18523 
  -18520   -18521   -18517   -18522   -18535   -18543   -18547   -18568 
  -18595   -18606   -18621   -18648   -18666   -18674   -18687   -18701 
  -18712   -18719   -18730   -18740   -18738   -18734   -18733   -18730 
  -18727   -18721   -18718   -18718   -18710   -18700   -18693   -18690 
  -18694   -18700   -18704   -18714   -18729   -18730   -18733   -18754 
  -18761   -18751   -18760   -18772   -18762   -18751   -18754   -18755 
  -18750   -18754   -18769   -18783   -18801   -18822   -18834   -18852 
  -18877   -18883   -18893   -18917   -18924   -18925   -18939   -18945 
  -18943   -18949   -18960   -18970   -18985   -19002   -19020   -19045 
  -19074   -19094   -19106   -19120   -19134   -19138   -19139   -19141 
  -19136   -19132   -19134   -19137   -19141   -19142   -19135   -19130 
  -19121   -19097   -19074   -19050   -19012   -18977   -18945   -18903 
  -18871   -18855   -18825   -18787   -18756   -18714   -18641   -18565 
  -18498   -18411   -18322   -18261   -18199   -18128   -18078   -18041 
  -17991   -17943   -17905   -17857   -17799   -17744   -17679   -17604 
  -17542   -17485   -17425   -17382   -17356   -17338   -17343   -17378 
  -17438   -17537   -17671   -17824   -17998   -18188   -18368   -18529 
  -18668   -18756   -18790   -18794   -18763   -18689   -18599   -18516 
  -18433   -18360   -18332   -18340   -18363   -18422   -18510   -18596 
  -18690   -18806   -18909   -18983   -19048   -19089   -19085   -19053 
  -19010   -18945   -18848   -18754   -18686   -18628   -18590   -18591 
  -18608   -18641   -18697   -18754   -18806   -18861   -18914   -18961 
  -19000   -19035   -19054   -19046   -19020   -18975   -18897   -18806 
  -18728   -18673   -18646   -18650   -18687   -18740   -18799   -18873 
  -18960   -19019   -19052   -19097   -19133   -19146   -19165   -19192 
  -19214   -19225   -19210   -19171   -19122   -19041   -18941   -18862 
  -18807   -18775   -18778   -18823   -18898   -18973   -19038   -19096 
  -19126   -19105   -19047   -18967   -18853   -18709   -18574   -18465 
  -18370   -18288   -18233   -18202   -18190   -18190   -18204   -18223 
  -18230   -18226   -18211   -18173   -18122   -18077   -18025   -17965 
  -17910   -17852   -17789   -17751   -17739   -17756   -17823   -17937 
  -18108   -18354   -18647   -18955   -19254   -19498   -19651   -19716 
  -19713   -19654   -19549   -19425   -19300   -19164   -19023   -18907 
  -18819   -18752   -18707   -18669   -18625   -18580   -18548   -18540 
  -18567   -18640   -18763   -18900   -19008   -19093   -19167   -19210 
  -19229   -19261   -19303   -19340   -19389   -19454   -19492   -19479 
  -19444   -19388   -19282   -19145   -19025   -18931   -18887   -18927 
  -19002   -19057   -19085   -19043   -18900   -18699   -18491   -18293 
  -18121   -17997   -17933   -17944   -18035   -18158   -18256   -18328 
  -18379   -18407   -18446   -18516   -18604   -18708   -18822   -18912 
  -18944   -18916   -18829   -18675   -18474   -18274   -18094   -17950 
  -17870   -17840   -17852   -17911   -17984   -18048   -18097   -18096 
  -18053   -18004   -17976   -18009   -18124   -18273   -18390   -18455 
  -18473   -18433   -18315   -18141   -17975   -17845   -17752   -17720 
  -17746   -17808   -17899   -17985   -18017   -18017   -18042   -18111 
  -18208   -18320   -18447   -18587   -18734   -18889   -19023   -19101 
  -19138   -19129   -19080   -19033   -19004   -18996   -19015   -19044 
  -19088   -19166   -19258   -19326   -19352   -19357   -19362   -19348 
  -19315   -19284   -19232   -19161   -19115   -19077   -19006   -18930 
  -18890   -18864   -18833   -18828   -18861   -18894   -18906   -18915 
  -18906   -18867   -18836   -18811   -18774   -18746   -18712   -18642 
  -18564   -18492   -18404   -18324   -18273   -18214   -18135   -18080 
  -18050   -18000   -17947   -17937   -17947   -17972   -18040   -18134 
  -18239   -18358   -18471   -18555   -18613   -18661   -18682   -18663 
  -18616   -18548   -18462   -18386   -18352   -18356   -18371   -18395 
  -18438   -18505   -18600   -18722   -18883   -19075   -19248   -19370 
  -19447   -19475   -19461   -19425   -19372   -19295   -19209   -19172 
  -19202   -19242   -19277   -19312   -19300   -19241   -19179   -19117 
  -19044   -18969   -18896   -18828   -18765   -18679   -18559   -18434 
  -18329   -18237   -18163   -18133   -18159   -18226   -18309   -18386 
  -18436   -18453   -18458   -18474   -18517   -18587   -18666   -18739 
  -18789   -18827   -18870   -18892   -18894   -18915   -18940   -18946 
  -18940   -18910   -18863   -18848   -18880   -18939   -19009   -19077 
  -19133   -19176   -19210   -19247   -19290   -19338   -19373   -19370 
  -19353   -19333   -19287   -19229   -19171   -19091   -18995   -18910 
  -18850   -18823   -18818   -18832   -18864   -18874   -18820   -18723 
  -18612   -18494   -18398   -18368   -18368   -18318   -18226   -18139 
  -18055   -17981   -17978   -18047   -18116   -18150   -18179   -18215 
  -18225   -18210   -18233   -18302   -18363   -18408   -18443   -18438 
  -18386   -18319   -18264   -18243   -18250   -18267   -18289   -18317 
  -18346   -18367   -18391   -18446   -18530   -18618   -18698   -18751 
  -18761   -18777   -18844   -18937   -19031   -19131   -19218   -19256 
  -19237   -19195   -19149   -19090   -19016   -18953   -18921   -18900 
  -18856   -18835   -18877   -18928   -18962   -19010   -19023   -18965 
  -18920   -18927   -18945   -18986   -19054   -19107   -19130   -19112 
  -19036   -18934   -18868   -18857   -18877   -18919   -18990   -19054 
  -19078   -19086   -19084   -19031   -18940   -18870   -18817   -18749 
  -18710   -18736   -18770   -18765   -18744   -18728   -18692   -18632 
  -18573   -18521   -18477   -18459   -18480   -18528   -18584   -18643 
  -18703   -18728   -18705   -18681   -18703   -18765   -18835   -18890 
  -18930   -18940   -18910   -18859   -18791   -18699   -18581   -18439 
  -18297   -18179   -18076   -17976   -17881   -17807   -17760   -17729 
  -17729   -17771   -17828   -17904   -18016   -18107   -18134   -18120 
  -18093   -18068   -18052   -18049   -18069   -18102   -18121   -18123 
  -18126   -18146   -18202   -18282   -18355   -18428   -18524   -18636 
  -18761   -18925   -19126   -19292   -19354   -19330   -19260   -19151 
  -19032   -18956   -18930   -18944   -18977   -18982   -18959   -18933 
  -18883   -18821   -18795   -18788   -18753   -18692   -18642   -18618 
  -18618   -18655   -18725   -18780   -18797   -18778   -18730   -18692 
  -18682   -18682   -18704   -18733   -18733   -18731   -18759   -18783 
  -18770   -18769   -18814   -18864   -18895   -18937   -18986   -19028 
  -19077   -19125   -19161   -19190   -19207   -19218   -19259   -19324 
  -19372   -19392   -19398   -19395   -19399   -19407   -19395   -19355 
  -19292   -19211   -19124   -19031   -18931   -18820   -18715   -18650 
  -18613   -18575   -18539   -18513   -18507   -18515   -18503   -18479 
  -18452   -18405   -18362   -18363   -18394   -18438   -18491   -18531 
