Origin Time       2014/11/22 22:08:00
Lat.              36.692
Long.             137.890
Depth. (km)       5
Mag.              6.7
Station Code      TCGH09
Station Lat.      36.8625
Station Long.     139.8364
Station Height(m) 564
Record Time       2014/11/22 22:08:47
Sampling Freq(Hz) 100Hz
Duration Time(s)  141
Dir.              5
Scale Factor      3920(gal)/6170801
Max. Acc. (gal)   1.494
Last Correction   2014/11/22 22:08:32
Memo.             
[...]
   -9042    -9081    -9117    -9097    -9017    -8927    -8873    -8871 
   -8920    -8995    -9064    -9106    -9109    -9091    -9090    -9103 
   -9119    -9140    -9146    -9126    -9111    -9123    -9158    -9214 
   -9277    -9337    -9392    -9436    -9477    -9530    -9592    -9641 
   -9651    -9622    -9582    -9543    -9511    -9488    -9472    -9466 
   -9456    -9426    -9402    -9402    -9411    -9434    -9477    -9527 
   -9578    -9628    -9669    -9691    -9689    -9669    -9635    -9587 
   -9538    -9493    -9449    -9409    -9389    -9393    -9414    -9445 
   -9474    -9484    -9464    -9430    -9399    -9374    -9357    -9342 
   -9318    -9289    -9266    -9255    -9262    -9264    -9234    -9183 
   -9108    -8999    -8895    -8823    -8771    -8733    -8689    -8610 
   -8511    -8425    -8378    -8394    -8464    -8541    -8597    -8629 
   -8633    -8625    -8640    -8687    -8733    -8753    -8744    -8719 
   -8712    -8753    -8821    -8889    -8941    -8956    -8940    -8939 
   -8970    -9030    -9119    -9214    -9268    -9280    -9289    -9317 
   -9352    -9380    -9399    -9400    -9372    -9332    -9324    -9366 
   -9427    -9480    -9537    -9580    -9572    -9552    -9564    -9586 
   -9587    -9566    -9528    -9471    -9410    -9371    -9347    -9312 
   -9255    -9186    -9114    -9053    -9019    -9014    -9018    -9009 
   -8991    -8969    -8946    -8941    -8960    -8990    -9013    -9038 
   -9082    -9136    -9190    -9255    -9329    -9391    -9432    -9457 
   -9463    -9451    -9422    -9380    -9341    -9318    -9304    -9310 
   -9345    -9376    -9378    -9366    -9350    -9341    -9354    -9392 
   -9444    -9495    -9530    -9547    -9551    -9548    -9540    -9530 
   -9531    -9534    -9532    -9549    -9587    -9607    -9613    -9627 
   -9629    -9606    -9566    -9506    -9429    -9348    -9268    -9211 
   -9191    -9183    -9169    -9160    -9153    -9137    -9118    -9106 
   -9090    -9053    -9008    -8967    -8924    -8895    -8880    -8865 
   -8855    -8849    -8839    -8851    -8902    -8971    -9036    -9089 
   -9124    -9132    -9120    -9119    -9142    -9192    -9255    -9303 
   -9347    -9395    -9425    -9448    -9495    -9553    -9593    -9602 
   -9571    -9515    -9471    -9459    -9477    -9513    -9548    -9569 
   -9568    -9553    -9536    -9509    -9463    -9409    -9353    -9295 
   -9240    -9205    -9204    -9216    -9209    -9184    -9159    -9149 
   -9170    -9207    -9234    -9240    -9217    -9170    -9125    -9111 
   -9122    -9142    -9162    -9170    -9138    -9072    -9017    -8982 
   -8951    -8931    -8928    -8916    -8888    -8866    -8865    -8876 
   -8894    -8930    -8980    -9020    -9042    -9058    -9057    -9030 
   -8988    -8945    -8905    -8872    -8864    -8885    -8927    -8987 
   -9053    -9096    -9114    -9115    -9089    -9047    -9016    -8996 
   -8980    -8975    -8985    -9006    -9035    -9072    -9128    -9196 
   -9248    -9282    -9316    -9344    -9356    -9355    -9353    -9351 
   -9335    -9312    -9293    -9273    -9250    -9232    -9221    -9216 
   -9207    -9193    -9175    -9140    -9079    -9001    -8919    -8855 
   -8815    -8789    -8782    -8785    -8779    -8776    -8786    -8815 
   -8863    -8917    -8968    -9016    -9055    -9075    -9091    -9114 
   -9125    -9120    -9127    -9155    -9194    -9253    -9346    -9442 
   -9509    -9547    -9581    -9621    -9655    -9684    -9725    -9764 
   -9777    -9768    -9763    -9767    -9776    -9799    -9836    -9862 
   -9854    -9829    -9807    -9785    -9770    -9772    -9781    -9772 
   -9739    -9702    -9670    -9647    -9624    -9601    -9568    -9508 
   -9428    -9352    -9286    -9228    -9184    -9160    -9160    -9168 
   -9178    -9204    -9234    -9239    -9226    -9209    -9185    -9159 
   -9139    -9135    -9131    -9115    -9099    -9087    -9067    -9048 
   -9045    -9068    -9105    -9135    -9160    -9186    -9203    -9210 
   -9219    -9229    -9238    -9241    -9240    -9257    -9283    -9298 
   -9306    -9303    -9274    -9222    -9166    -9118    -9086    -9064 
   -9048    -9030    -9016    -9025    -9053    -9092    -9135    -9154 
   -9144    -9125    -9122    -9166    -9258    -9373    -9476    -9540 
   -9557    -9535    -9508    -9504    -9525    -9557    -9589    -9624 
   -9666    -9711    -9761    -9816    -9857    -9859    -9824    -9775 
   -9725    -9676    -9638    -9598    -9536    -9464    -9399    -9352 
   -9342    -9355    -9363    -9358    -9334    -9292    -9250    -9220 
   -9204    -9204    -9216    -9224    -9209    -9174    -9133    -9098 
   -9082    -9084    -9067    -9022    -8967    -8906    -8842    -8801 
   -8796    -8814    -8838    -8863    -8896    -8944    -9004    -9071 
   -9139    -9189    -9229    -9276    -9322    -9358    -9388    -9402 
   -9387    -9349    -9309    -9297    -9319    -9365    -9429    -9480 
   -9497    -9483    -9456    -9443    -9451    -9469    -9496    -9513 
   -9488    -9432    -9367    -9300    -9259    -9261    -9288    -9321 
   -9349    -9364    -9386    -9419    -9450    -9467    -9468    -9458 
   -9446    -9441    -9443    -9453    -9465    -9474    -9482    -9493 
   -9517    -9559    -9623    -9701    -9762    -9798    -9810    -9791 
   -9748    -9719    -9724    -9741    -9744    -9728    -9684    -9614 
   -9563    -9569    -9619    -9682    -9734    -9731    -9659    -9542 
   -9418    -9337    -9308    -9298    -9288    -9274    -9251    -9230 
   -9221    -9232    -9251    -9242    -9195    -9124    -9044    -8986 
   -8976    -9014    -9084    -9168    -9244    -9298    -9325    -9339 
   -9362    -9376    -9369    -9359    -9344    -9306    -9259    -9233 
   -9246    -9276    -9299    -9327    -9348    -9329    -9290    -9262 
   -9233    -9203    -9191    -9205    -9238    -9263    -9271    -9285 
   -9306    -9324    -9362    -9429    -9490    -9506    -9480    -9446 
   -9417    -9402    -9430    -9495    -9549    -9568    -9557    -9547 
   -9558    -9560    -9549    -9547    -9540    -9519    -9519    -9560 
   -9613    -9655    -9671    -9647    -9591    -9522    -9461    -9423 
   -9390    -9331    -9262    -9213    -9184    -9162    -9161    -9182 
   -9198    -9197    -9187    -9163    -9124    -9083    -9029    -8974 
   -8940    -8917    -8906    -8932    -8989    -9049    -9109    -9167 
   -9204    -9204    -9181    -9153    -9131    -9126    -9133    -9138 
   -9137    -9109    -9050    -8992    -8962    -8976    -9028    -9093 
   -9155    -9197    -9197    -9161    -9110    -9067    -9041    -9025 
   -9023    -9034    -9036    -9027    -9032    -9053    -9081    -9114 
   -9153    -9193    -9226    -9250    -9256    -9238    -9194    -9140 
   -9106    -9100    -9104    -9105    -9103    -9103    -9108    -9135 
   -9196    -9268    -9322    -9340    -9323    -9306    -9300    -9291 
   -9277    -9250    -9193    -9130    -9103    -9120    -9163    -9205 
   -9232    -9229    -9187    -9134    -9089    -9052    -9031    -9010 
   -8985    -8981    -8986    -8987    -9008    -9044    -9064    -9083 
   -9107    -9116    -9097    -9051    -8995    -8941    -8892    -8845 
   -8806    -8797    -8811    -8830    -8876    -8952    -9012    -9043 
   -9074    -9094    -9096    -9115    -9145    -9154    -9144    -9119 
   -9077    -9019    -8956    -8905    -8895    -8925    -8984    -9068 
   -9152    -9182    -9134    -9043    -8938    -8833    -8773    -8777 
   -8804    -8828    -8849    -8869    -8896    -8951    -9050    -9180 
   -9303    -9397    -9444    -9446    -9432    -9427    -9450    -9518 
   -9597    -9655    -9693    -9703    -9679    -9648    -9633    -9627 
   -9625    -9642    -9669    -9688    -9686    -9668    -9641    -9602 
   -9557    -9516    -9490    -9486    -9488    -9494    -9505    -9511 
   -9518    -9540    -9548    -9522    -9488    -9465    -9449    -9442 
   -9450    -9462    -9456    -9418    -9365    -9314    -9273    -9242 
   -9224    -9215    -9204    -9191    -9202    -9238    -9269    -9285 
   -9280    -9265    -9267    -9282    -9285    -9283    -9273    -9243 
   -9211    -9210    -9239    -9285    -9339    -9380    -9399    -9392 
   -9370    -9362    -9387    -9433    -9474    -9508    -9540    -9555 
   -9553    -9556    -9562    -9554    -9543    -9543    -9541    -9535 
   -9534    -9543    -9559    -9571    -9572    -9565    -9547    -9506 
   -9444    -9375    -9314    -9258    -9216    -9196    -9178    -9153 
   -9118    -9064    -9000    -8946    -8911    -8906    -8940    -8991 
   -9042    -9097    -9153    -9193    -9222    -9253    -9280    -9293 
   -9297    -9298    -9301    -9314    -9342    -9380    -9409    -9410 
   -9379    -9341    -9307    -9277    -9266    -9271    -9267    -9250 
   -9243    -9252    -9282    -9324    -9358    -9371    -9347    -9293 
   -9232    -9168    -9114    -9085    -9074    -9089    -9128    -9185 
   -9273    -9379    -9456    -9471    -9417    -9307    -9178    -9065 
   -8984    -8928    -8873    -8798    -8703    -8625    -8609    -8666 
   -8780    -8922    -9036    -9100    -9135    -9155    -9178    -9234 
   -9312    -9388    -9445    -9463    -9450    -9439    -9439    -9454 
   -9481    -9503    -9508    -9499    -9489    -9483    -9463    -9409 
   -9324    -9214    -9114    -9071    -9096    -9174    -9265    -9313 
   -9305    -9264    -9213    -9204    -9279    -9421    -9572    -9680 
   -9705    -9639    -9508    -9357    -9229    -9151    -9117    -9112 
   -9135    -9175    -9187    -9177    -9179    -9174    -9137    -9085 
   -9040    -9007    -8987    -8987    -9008    -9043    -9075    -9079 
   -9048    -8996    -8928    -8842    -8748    -8677    -8645    -8648 
   -8685    -8747    -8804    -8825    -8783    -8693    -8603    -8539 
   -8522    -8570    -8657    -8725    -8740    -8699    -8612    -8513 
   -8433    -8393    -8394    -8418    -8446    -8468    -8500    -8551 
   -8616    -8694    -8756    -8757    -8687    -8548    -8354    -8171 
   -8062    -8055    -8173    -8407    -8701    -8993    -9228    -9371 
   -9408    -9337    -9189    -9016    -8862    -8765    -8735    -8758 
   -8824    -8903    -8964    -9014    -9064    -9119    -9200    -9312 
   -9436    -9550    -9622    -9637    -9609    -9548    -9473    -9415 
   -9390    -9400    -9423    -9439    -9455    -9487    -9542    -9604 
   -9657    -9685    -9675    -9633    -9589    -9577    -9614    -9691 
   -9799    -9922   -10012   -10046   -10047   -10022    -9961    -9894 
   -9879    -9945   -10066   -10189   -10262   -10267   -10208   -10112 
  -10024    -9974    -9962    -9993   -10054   -10112   -10146   -10168 
  -10186   -10180   -10136   -10071   -10022   -10010   -10014   -10005 
   -9996   -10012   -10031   -10028   -10014    -9969    -9861    -9719 
   -9596    -9512    -9477    -9490    -9538    -9619    -9729    -9852 
   -9960   -10011    -9969    -9840    -9679    -9555    -9504    -9518 
   -9570    -9618    -9617    -9569    -9518    -9496    -9515    -9575 
   -9674    -9786    -9830    -9758    -9603    -9424    -9267    -9173 
   -9179    -9283    -9417    -9495    -9483    -9412    -9328    -9264 
   -9236    -9238    -9230    -9180    -9128    -9118    -9137    -9189 
   -9278    -9356    -9385    -9370    -9339    -9319    -9327    -9366 
   -9436    -9512    -9566    -9600    -9608    -9575    -9494    -9382 
   -9260    -9140    -9041    -8996    -9013    -9087    -9217    -9366 
   -9469    -9504    -9490    -9456    -9427    -9409    -9395    -9376 
   -9347    -9319    -9318    -9348    -9388    -9421    -9419    -9360 
   -9251    -9128    -9039    -9013    -9046    -9128    -9230    -9313 
   -9358    -9362    -9343    -9335    -9343    -9382    -9467    -9557 
   -9600    -9584    -9532    -9477    -9441    -9442    -9496    -9586 
   -9672    -9737    -9793    -9841    -9864    -9864    -9865    -9865 
   -9859    -9864    -9886    -9917    -9942    -9946    -9941    -9934 
   -9910    -9864    -9807    -9736    -9651    -9567    -9502    -9450 
   -9377    -9267    -9138    -9013    -8905    -8830    -8791    -8788 
   -8826    -8890    -8967    -9059    -9144    -9202    -9231    -9228 
   -9203    -9184    -9197    -9248    -9313    -9354    -9355    -9319 
   -9254    -9173    -9101    -9085    -9143    -9238    -9339    -9437 
   -9514    -9566    -9609    -9650    -9665    -9643    -9598    -9565 
   -9571    -9621    -9707    -9802    -9859    -9855    -9807    -9738 
   -9677    -9645    -9652    -9688    -9725    -9762    -9822    -9887 
   -9918    -9907    -9859    -9792    -9741    -9725    -9738    -9748 
   -9726    -9657    -9561    -9468    -9401    -9380    -9411    -9458 
   -9491    -9518    -9534    -9527    -9522    -9530    -9529    -9506 
   -9463    -9420    -9391    -9373    -9354    -9352    -9378    -9410 
   -9440    -9490    -9556    -9608    -9648    -9660    -9614    -9518 
   -9392    -9260    -9173    -9143    -9128    -9108    -9073    -9005 
   -8914    -8855    -8846    -8850    -8834    -8776    -8655    -8472 
   -8266    -8101    -8030    -8048    -8113    -8200    -8298    -8380 
   -8435    -8484    -8527    -8531    -8479    -8380    -8264    -8171 
   -8120    -8106    -8138    -8210    -8289    -8353    -8405    -8443 
   -8448    -8422    -8390    -8357    -8316    -8279    -8258    -8231 
   -8170    -8063    -7928    -7797    -7681    -7583    -7518    -7468 
   -7399    -7317    -7255    -7224    -7211    -7194    -7154    -7097 
   -7029    -6961    -6921    -6920    -6929    -6924    -6923    -6944 
   -6991    -7081    -7221    -7373    -7490    -7564    -7588    -7575 
   -7573    -7608    -7665    -7725    -7773    -7800    -7823    -7863 
   -7914    -7954    -7979    -7996    -8009    -8045    -8131    -8270 
   -8467    -8714    -8957    -9147    -9285    -9361    -9360    -9295 
   -9203    -9125    -9115    -9199    -9354    -9555    -9765    -9927 
  -10016   -10042   -10022    -9985    -9969    -9989   -10049   -10152 
  -10278   -10402   -10525   -10654   -10781   -10880   -10936   -10950 
  -10910   -10819   -10707   -10601   -10530   -10526   -10591   -10709 
  -10829   -10873   -10843   -10769   -10636   -10475   -10359   -10303 
  -10279   -10284   -10329   -10422   -10545   -10661   -10745   -10776 
  -10737   -10638   -10520   -10443   -10434   -10498   -10633   -10798 
  -10945   -11060   -11133   -11151   -11115   -11035   -10925   -10809 
  -10708   -10633   -10598   -10593   -10583   -10554   -10488   -10353 
  -10160    -9974    -9853    -9804    -9803    -9814    -9794    -9716 
   -9594    -9469    -9391    -9376    -9373    -9357    -9362    -9371 
   -9339    -9297    -9280    -9270    -9231    -9152    -9054    -8973 
   -8918    -8878    -8853    -8823    -8754    -8647    -8548    -8493 
   -8485    -8515    -8566    -8605    -8619    -8610    -8592    -8586 
   -8595    -8590    -8556    -8488    -8380    -8251    -8146    -8111 
   -8147    -8215    -8274    -8274    -8176    -7992    -7756    -7524 
   -7379    -7362    -7431    -7525    -7603    -7638    -7637    -7632 
   -7650    -7682    -7707    -7735    -7778    -7831    -7901    -7976 
   -8024    -8028    -7984    -7923    -7923    -8011    -8148    -8302 
   -8428    -8475    -8462    -8450    -8477    -8546    -8643    -8756 
   -8857    -8883    -8803    -8661    -8534    -8485    -8557    -8757 
   -9037    -9300    -9468    -9539    -9554    -9538    -9520    -9531 
   -9566    -9593    -9591    -9572    -9580    -9621    -9661    -9697 
   -9739    -9761    -9743    -9695    -9627    -9536    -9446    -9395 
   -9408    -9475    -9553    -9613    -9665    -9705    -9710    -9699 
   -9700    -9709    -9738    -9810    -9939   -10116   -10309   -10484 
  -10616   -10699   -10739   -10744   -10722   -10681   -10622   -10558 
  -10512   -10487   -10473   -10464   -10442   -10405   -10381   -10410 
  -10496   -10601   -10678   -10696   -10643   -10551   -10483   -10484 
  -10540   -10600   -10614   -10571   -10484   -10370   -10275   -10248 
  -10270   -10299   -10318   -10308   -10248   -10163   -10090   -10038 
   -9993    -9937    -9865    -9780    -9673    -9563    -9501    -9503 
   -9548    -9612    -9677    -9705    -9665    -9580    -9487    -9395 
   -9332    -9321    -9354    -9431    -9533    -9603    -9621    -9597 
   -9534    -9452    -9385    -9356    -9372    -9414    -9471    -9551 
   -9645    -9709    -9715    -9682    -9615    -9515    -9427    -9414 
   -9470    -9526    -9540    -9500    -9405    -9284    -9194    -9173 
   -9212    -9283    -9372    -9466    -9555    -9624    -9662    -9681 
   -9687    -9660    -9620    -9621    -9669    -9731    -9779    -9789 
   -9753    -9679    -9575    -9475    -9416    -9394    -9388    -9401 
   -9419    -9407    -9356    -9267    -9153    -9036    -8928    -8822 
   -8725    -8651    -8601    -8584    -8629    -8733    -8844    -8910 
   -8926    -8898    -8817    -8695    -8571    -8476    -8414    -8383 
   -8421    -8548    -8715    -8861    -8957    -8982    -8917    -8791 
   -8666    -8573    -8513    -8497    -8526    -8582    -8642    -8671 
   -8660    -8617    -8531    -8426    -8347    -8305    -8300    -8332 
   -8388    -8437    -8448    -8395    -8278    -8127    -7985    -7900 
   -7888    -7942    -8047    -8172    -8297    -8422    -8540    -8632 
   -8678    -8663    -8602    -8541    -8520    -8560    -8651    -8735 
   -8769    -8766    -8760    -8782    -8858    -8985    -9117    -9193 
   -9179    -9098    -9012    -8973    -9005    -9098    -9205    -9271 
   -9271    -9222    -9148    -9073    -9020    -9001    -9020    -9062 
   -9108    -9162    -9219    -9268    -9315    -9361    -9402    -9453 
   -9515    -9576    -9637    -9697    -9743    -9779    -9802    -9804 
   -9796    -9800    -9839    -9918   -10028   -10153   -10250   -10278 
  -10230   -10130   -10012    -9918    -9874    -9877    -9904    -9919 
   -9921    -9937    -9968   -10001   -10029   -10024    -9951    -9815 
   -9653    -9513    -9436    -9423    -9451    -9498    -9541    -9558 
   -9558    -9570    -9583    -9570    -9536    -9475    -9381    -9302 
   -9290    -9346    -9444    -9544    -9610    -9632    -9604    -9546 
   -9502    -9479    -9458    -9444    -9439    -9428    -9399    -9364 
   -9349    -9356    -9376    -9402    -9426    -9433    -9408    -9351 
   -9298    -9283    -9306    -9359    -9425    -9477    -9505    -9525 
   -9568    -9645    -9730    -9782    -9783    -9726    -9597    -9430 
   -9285    -9203    -9204    -9255    -9315    -9369    -9407    -9430 
   -9466    -9543    -9656    -9774    -9875    -9955    -9993    -9981 
   -9964    -9983   -10035   -10106   -10185   -10276   -10370   -10443 
  -10492   -10512   -10501   -10469   -10429   -10402   -10402   -10414 
  -10432   -10462   -10496   -10521   -10533   -10538   -10554   -10577 
  -10599   -10622   -10656   -10678   -10651   -10574   -10469   -10335 
  -10189   -10075   -10009    -9978    -9970    -9965    -9947    -9918 
   -9865    -9776    -9673    -9560    -9427    -9304    -9226    -9203 
   -9228    -9272    -9295    -9277    -9214    -9113    -9015    -8938 
   -8878    -8853    -8873    -8916    -8963    -9001    -9032    -9062 
   -9088    -9117    -9157    -9207    -9262    -9314    -9354    -9391 
   -9431    -9467    -9489    -9478    -9426    -9345    -9265    -9220 
