Origin Time       2014/11/22 22:08:00
Lat.              36.692
Long.             137.890
Depth. (km)       5
Mag.              6.7
Station Code      TCGH09
Station Lat.      36.8625
Station Long.     139.8364
Station Height(m) 461
Record Time       2014/11/22 22:08:47
Sampling Freq(Hz) 100Hz
Duration Time(s)  141
Dir.              3
Scale Factor      2940(gal)/6170270
Max. Acc. (gal)   0.655
Last Correction   2014/11/22 22:08:32
Memo.             
[...]
  -93512   -93512   -93512   -93511   -93511   -93511   -93510   -93510 
  -93513   -93512   -93510   -93511   -93511   -93512   -93512   -93511 
  -93510   -93509   -93511   -93512   -93512   -93511   -93512   -93511 
  -93509   -93510   -93512   -93512   -93511   -93512   -93511   -93511 
  -93511   -93511   -93512   -93511   -93511   -93511   -93510   -93510 
  -93511   -93512   -93511   -93509   -93509   -93509   -93509   -93510 
  -93509   -93508   -93511   -93512   -93511   -93512   -93513   -93511 
  -93510   -93510   -93511   -93511   -93510   -93511   -93512   -93512 
  -93511   -93509   -93509   -93512   -93511   -93509   -93510   -93511 
  -93511   -93510   -93510   -93511   -93512   -93510   -93509   -93511 
  -93512   -93511   -93510   -93511   -93512   -93511   -93510   -93512 
  -93514   -93513   -93511   -93512   -93513   -93512   -93512   -93512 
  -93510   -93510   -93512   -93511   -93511   -93510   -93509   -93509 
  -93510   -93509   -93510   -93510   -93509   -93510   -93511   -93511 
  -93511   -93512   -93512   -93510   -93510   -93512   -93513   -93512 
  -93511   -93511   -93511   -93512   -93511   -93510   -93511   -93511 
  -93511   -93511   -93514   -93514   -93512   -93512   -93512   -93511 
  -93511   -93510   -93510   -93511   -93512   -93511   -93510   -93511 
  -93511   -93510   -93509   -93510   -93512   -93511   -93511   -93513 
  -93511   -93509   -93511   -93510   -93507   -93510   -93512   -93510 
  -93509   -93510   -93511   -93510   -93509   -93511   -93513   -93511 
  -93509   -93512   -93512   -93512   -93512   -93512   -93511   -93511 
  -93511   -93511   -93510   -93510   -93512   -93511   -93510   -93511 
  -93510   -93510   -93510   -93511   -93510   -93510   -93512   -93513 
  -93511   -93512   -93512   -93512   -93513   -93512   -93512   -93511 
  -93510   -93512   -93512   -93510   -93511   -93513   -93511   -93512 
  -93514   -93512   -93511   -93513   -93513   -93511   -93510   -93510 
  -93512   -93514   -93513   -93511   -93513   -93513   -93512   -93513 
  -93511   -93510   -93512   -93513   -93511   -93510   -93511   -93512 
  -93511   -93510   -93512   -93511   -93510   -93511   -93513   -93511 
  -93510   -93511   -93512   -93513   -93513   -93511   -93511   -93511 
  -93509   -93511   -93513   -93512   -93512   -93512   -93512   -93513 
  -93512   -93512   -93512   -93511   -93510   -93510   -93511   -93512 
  -93513   -93513   -93513   -93512   -93512   -93511   -93510   -93510 
  -93511   -93512   -93513   -93512   -93510   -93510   -93511   -93511 
  -93511   -93512   -93513   -93512   -93512   -93511   -93511   -93512 
  -93512   -93510   -93510   -93512   -93511   -93510   -93512   -93512 
  -93510   -93512   -93513   -93512   -93512   -93512   -93512   -93514 
  -93513   -93512   -93510   -93510   -93513   -93513   -93511   -93512 
  -93510   -93508   -93511   -93511   -93511   -93512   -93513   -93513 
  -93511   -93510   -93511   -93511   -93510   -93510   -93511   -93512 
  -93513   -93513   -93511   -93510   -93510   -93511   -93512   -93511 
  -93511   -93512   -93512   -93510   -93511   -93512   -93510   -93510 
  -93511   -93511   -93510   -93512   -93512   -93510   -93511   -93514 
  -93511   -93509   -93511   -93512   -93512   -93511   -93511   -93511 
  -93513   -93513   -93512   -93510   -93510   -93513   -93514   -93512 
  -93510   -93511   -93512   -93513   -93512   -93511   -93511   -93510 
  -93509   -93511   -93511   -93509   -93510   -93513   -93513   -93511 
  -93511   -93511   -93511   -93512   -93512   -93511   -93510   -93513 
  -93514   -93512   -93512   -93512   -93511   -93511   -93511   -93511 
  -93512   -93511   -93511   -93512   -93511   -93510   -93512   -93512 
  -93511   -93511   -93510   -93511   -93512   -93511   -93510   -93512 
  -93512   -93510   -93510   -93511   -93509   -93510   -93512   -93511 
  -93510   -93511   -93511   -93511   -93511   -93511   -93512   -93513 
  -93511   -93510   -93510   -93509   -93511   -93512   -93510   -93510 
  -93512   -93512   -93511   -93509   -93508   -93510   -93512   -93513 
  -93511   -93509   -93511   -93512   -93512   -93512   -93510   -93510 
  -93511   -93510   -93510   -93510   -93512   -93512   -93511   -93511 
  -93513   -93512   -93511   -93511   -93510   -93510   -93512   -93512 
  -93511   -93511   -93510   -93510   -93512   -93511   -93509   -93510 
  -93512   -93513   -93513   -93512   -93510   -93511   -93512   -93511 
  -93511   -93511   -93511   -93511   -93511   -93511   -93512   -93512 
  -93512   -93512   -93512   -93511   -93511   -93513   -93513   -93511 
  -93511   -93511   -93510   -93511   -93513   -93512   -93511   -93510 
  -93511   -93512   -93511   -93509   -93510   -93511   -93511   -93511 
  -93510   -93510   -93511   -93511   -93512   -93510   -93509   -93510 
  -93510   -93510   -93512   -93512   -93510   -93512   -93512   -93510 
  -93512   -93512   -93510   -93510   -93513   -93514   -93514   -93514 
  -93512   -93511   -93512   -93512   -93511   -93509   -93510   -93512 
  -93512   -93513   -93513   -93512   -93512   -93511   -93511   -93512 
  -93512   -93511   -93510   -93510   -93512   -93512   -93511   -93511 
  -93512   -93511   -93511   -93511   -93511   -93512   -93512   -93512 
  -93511   -93510   -93511   -93512   -93512   -93511   -93510   -93511 
  -93511   -93509   -93511   -93511   -93511   -93511   -93511   -93511 
  -93512   -93513   -93512   -93511   -93512   -93512   -93510   -93511 
  -93512   -93511   -93512   -93512   -93511   -93512   -93511   -93511 
  -93512   -93511   -93510   -93512   -93512   -93511   -93511   -93512 
  -93512   -93511   -93510   -93511   -93513   -93512   -93511   -93513 
  -93511   -93510   -93512   -93512   -93511   -93511   -93512   -93513 
  -93511   -93510   -93513   -93513   -93510   -93510   -93512   -93513 
  -93513   -93514   -93513   -93511   -93512   -93513   -93512   -93511 
  -93511   -93512   -93512   -93512   -93511   -93512   -93513   -93512 
  -93510   -93510   -93512   -93513   -93512   -93513   -93513   -93511 
  -93510   -93511   -93512   -93513   -93514   -93511   -93511   -93513 
  -93512   -93511   -93511   -93511   -93509   -93510   -93511   -93511 
  -93511   -93510   -93511   -93511   -93510   -93509   -93510   -93511 
  -93512   -93511   -93511   -93512   -93512   -93511   -93513   -93512 
  -93510   -93510   -93512   -93511   -93510   -93511   -93509   -93508 
  -93512   -93514   -93513   -93511   -93510   -93510   -93511   -93510 
  -93508   -93509   -93510   -93511   -93511   -93510   -93510   -93511 
  -93512   -93511   -93511   -93512   -93511   -93511   -93511   -93510 
  -93511   -93512   -93512   -93513   -93513   -93510   -93510   -93513 
  -93511   -93510   -93512   -93511   -93510   -93513   -93512   -93511 
  -93512   -93513   -93512   -93509   -93511   -93512   -93509   -93510 
  -93513   -93512   -93510   -93510   -93510   -93510   -93511   -93510 
  -93509   -93510   -93512   -93512   -93510   -93509   -93511   -93511 
  -93509   -93508   -93510   -93512   -93512   -93512   -93512   -93512 
  -93510   -93510   -93512   -93512   -93511   -93511   -93511   -93511 
  -93511   -93511   -93511   -93511   -93510   -93510   -93511   -93512 
  -93512   -93511   -93510   -93510   -93510   -93511   -93511   -93512 
  -93513   -93511   -93511   -93512   -93511   -93511   -93513   -93513 
  -93512   -93511   -93510   -93512   -93513   -93510   -93510   -93512 
  -93511   -93510   -93512   -93512   -93510   -93513   -93513   -93510 
  -93511   -93513   -93511   -93510   -93511   -93511   -93510   -93512 
  -93513   -93511   -93510   -93511   -93513   -93512   -93510   -93511 
  -93512   -93511   -93510   -93512   -93513   -93512   -93510   -93510 
  -93513   -93512   -93510   -93510   -93512   -93513   -93511   -93510 
  -93511   -93513   -93512   -93512   -93512   -93511   -93512   -93511 
  -93511   -93512   -93510   -93510   -93511   -93512   -93512   -93511 
  -93511   -93511   -93511   -93512   -93513   -93511   -93510   -93512 
  -93511   -93513   -93513   -93511   -93511   -93512   -93512   -93511 
  -93510   -93510   -93510   -93509   -93510   -93512   -93512   -93510 
  -93510   -93511   -93512   -93511   -93511   -93511   -93512   -93512 
  -93511   -93511   -93511   -93511   -93510   -93510   -93510   -93509 
  -93510   -93512   -93512   -93511   -93510   -93511   -93513   -93514 
  -93513   -93511   -93512   -93512   -93512   -93511   -93509   -93510 
  -93512   -93511   -93510   -93512   -93514   -93511   -93510   -93513 
  -93512   -93510   -93510   -93511   -93512   -93513   -93511   -93509 
  -93511   -93512   -93510   -93511   -93511   -93510   -93510   -93511 
  -93510   -93511   -93511   -93512   -93513   -93510   -93509   -93512 
  -93512   -93512   -93512   -93510   -93509   -93512   -93511   -93511 
  -93512   -93512   -93511   -93512   -93512   -93511   -93510   -93511 
  -93512   -93511   -93511   -93512   -93512   -93512   -93511   -93511 
  -93512   -93511   -93509   -93511   -93512   -93511   -93511   -93513 
  -93513   -93512   -93509   -93510   -93511   -93511   -93512   -93513 
  -93512   -93510   -93510   -93512   -93512   -93511   -93511   -93511 
  -93512   -93511   -93510   -93510   -93511   -93512   -93511   -93510 
  -93510   -93510   -93510   -93511   -93512   -93512   -93511   -93509 
  -93510   -93511   -93512   -93512   -93512   -93511   -93511   -93513 
  -93514   -93513   -93512   -93512   -93512   -93514   -93512   -93511 
  -93514   -93513   -93509   -93511   -93513   -93512   -93512   -93511 
  -93509   -93510   -93511   -93510   -93512   -93513   -93510   -93509 
  -93510   -93509   -93509   -93512   -93511   -93510   -93512   -93513 
  -93512   -93511   -93511   -93512   -93512   -93512   -93511   -93511 
  -93513   -93513   -93510   -93509   -93511   -93511   -93510   -93511 
  -93511   -93512   -93513   -93511   -93510   -93511   -93512   -93512 
  -93511   -93511   -93511   -93511   -93511   -93511   -93511   -93513 
  -93512   -93510   -93512   -93513   -93510   -93511   -93513   -93511 
  -93511   -93512   -93512   -93512   -93512   -93512   -93511   -93511 
  -93512   -93511   -93509   -93510   -93510   -93509   -93510   -93511 
  -93511   -93511   -93512   -93512   -93511   -93510   -93510   -93512 
  -93512   -93511   -93510   -93511   -93513   -93513   -93511   -93511 
  -93512   -93511   -93511   -93512   -93512   -93510   -93510   -93512 
  -93514   -93511   -93511   -93513   -93511   -93510   -93511   -93511 
  -93512   -93514   -93512   -93510   -93509   -93510   -93511   -93511 
  -93511   -93512   -93513   -93513   -93512   -93511   -93510   -93511 
  -93511   -93511   -93512   -93512   -93512   -93512   -93511   -93511 
  -93510   -93510   -93509   -93508   -93511   -93513   -93512   -93512 
  -93511   -93509   -93512   -93512   -93509   -93511   -93513   -93514 
  -93513   -93511   -93510   -93510   -93510   -93511   -93511   -93509 
  -93511   -93512   -93511   -93512   -93513   -93511   -93511   -93513 
  -93512   -93510   -93508   -93510   -93511   -93511   -93510   -93510 
  -93511   -93510   -93510   -93510   -93510   -93509   -93511   -93514 
  -93512   -93510   -93511   -93512   -93510   -93510   -93512   -93511 
  -93510   -93511   -93512   -93511   -93510   -93512   -93512   -93512 
  -93513   -93513   -93512   -93511   -93511   -93510   -93512   -93512 
  -93509   -93509   -93512   -93512   -93511   -93511   -93512   -93510 
  -93509   -93513   -93513   -93510   -93512   -93512   -93509   -93510 
  -93511   -93510   -93510   -93511   -93512   -93511   -93511   -93514 
  -93514   -93511   -93510   -93512   -93511   -93510   -93511   -93511 
  -93509   -93510   -93512   -93511   -93510   -93511   -93511   -93512 
  -93512   -93510   -93510   -93511   -93512   -93513   -93512   -93511 
  -93511   -93511   -93510   -93511   -93512   -93512   -93514   -93515 
  -93515   -93516   -93515   -93514   -93516   -93517   -93518   -93519 
  -93518   -93521   -93524   -93524   -93525   -93527   -93530   -93533 
  -93534   -93537   -93541   -93544   -93548   -93553   -93558   -93559 
  -93563   -93567   -93571   -93574   -93578   -93580   -93584   -93589 
  -93590   -93591   -93594   -93596   -93595   -93595   -93594   -93592 
  -93588   -93584   -93581   -93576   -93569   -93562   -93554   -93545 
  -93535   -93525   -93513   -93501   -93488   -93474   -93461   -93447 
  -93434   -93424   -93413   -93401   -93393   -93389   -93385   -93384 
  -93387   -93389   -93393   -93398   -93401   -93407   -93414   -93420 
  -93429   -93441   -93450   -93458   -93470   -93482   -93489   -93498 
  -93508   -93515   -93520   -93526   -93534   -93536   -93537   -93541 
  -93543   -93546   -93552   -93557   -93561   -93567   -93575   -93580 
  -93584   -93589   -93592   -93591   -93590   -93592   -93593   -93592 
  -93592   -93595   -93603   -93612   -93621   -93633   -93649   -93664 
  -93674   -93686   -93699   -93707   -93714   -93723   -93730   -93737 
  -93745   -93752   -93762   -93775   -93790   -93808   -93830   -93852 
  -93875   -93897   -93917   -93935   -93952   -93967   -93978   -93984 
  -93993   -94004   -94013   -94027   -94043   -94055   -94068   -94081 
  -94088   -94089   -94087   -94080   -94063   -94045   -94027   -94003 
  -93980   -93959   -93937   -93915   -93892   -93864   -93830   -93787 
  -93734   -93673   -93607   -93537   -93465   -93394   -93326   -93262 
  -93205   -93153   -93098   -93043   -92987   -92925   -92852   -92772 
  -92684   -92593   -92502   -92414   -92332   -92259   -92202   -92161 
  -92137   -92136   -92154   -92190   -92242   -92307   -92379   -92456 
  -92534   -92604   -92663   -92709   -92745   -92772   -92792   -92807 
  -92823   -92845   -92878   -92925   -92987   -93063   -93151   -93243 
  -93335   -93419   -93491   -93550   -93596   -93625   -93639   -93639 
  -93630   -93615   -93594   -93573   -93559   -93554   -93561   -93580 
  -93607   -93639   -93674   -93708   -93738   -93765   -93787   -93803 
  -93811   -93815   -93816   -93811   -93800   -93785   -93763   -93732 
  -93696   -93662   -93636   -93623   -93623   -93637   -93667   -93709 
  -93754   -93798   -93839   -93871   -93892   -93904   -93906   -93902 
  -93898   -93896   -93898   -93908   -93920   -93926   -93927   -93924 
  -93919   -93916   -93916   -93928   -93948   -93969   -93994   -94015 
  -94025   -94027   -94015   -93980   -93923   -93847   -93756   -93661 
  -93570   -93486   -93419   -93374   -93350   -93342   -93346   -93349 
  -93347   -93337   -93314   -93274   -93223   -93160   -93085   -93003 
  -92918   -92834   -92760   -92699   -92651   -92621   -92612   -92625 
  -92665   -92735   -92834   -92960   -93102   -93245   -93378   -93486 
  -93563   -93614   -93642   -93652   -93651   -93647   -93644   -93643 
  -93652   -93680   -93730   -93793   -93858   -93917   -93959   -93984 
  -94001   -94013   -94019   -94021   -94010   -93986   -93956   -93928 
  -93909   -93902   -93905   -93922   -93955   -93998   -94044   -94088 
  -94122   -94142   -94147   -94138   -94116   -94089   -94069   -94063 
  -94071   -94092   -94111   -94109   -94082   -94029   -93942   -93826 
  -93694   -93557   -93428   -93321   -93252   -93228   -93236   -93257 
  -93283   -93308   -93328   -93348   -93365   -93377   -93389   -93390 
  -93379   -93368   -93357   -93343   -93319   -93276   -93218   -93160 
  -93115   -93092   -93087   -93089   -93086   -93077   -93057   -93022 
  -92976   -92917   -92844   -92772   -92720   -92699   -92705   -92732 
  -92771   -92804   -92820   -92814   -92779   -92722   -92660   -92608 
  -92578   -92579   -92609   -92657   -92705   -92739   -92765   -92790 
  -92817   -92850   -92882   -92907   -92935   -92975   -93029   -93100 
  -93182   -93266   -93342   -93400   -93449   -93502   -93564   -93635 
  -93710   -93790   -93879   -93975   -94065   -94137   -94188   -94226 
  -94254   -94268   -94265   -94248   -94225   -94202   -94172   -94136 
  -94101   -94062   -94018   -93980   -93959   -93957   -93965   -93967 
  -93950   -93916   -93881   -93855   -93831   -93800   -93760   -93717 
  -93669   -93607   -93537   -93471   -93405   -93332   -93256   -93187 
  -93130   -93084   -93047   -93017   -92994   -92972   -92957   -92950 
  -92948   -92950   -92958   -92969   -92979   -92996   -93020   -93044 
  -93060   -93064   -93068   -93082   -93111   -93153   -93199   -93235 
  -93258   -93274   -93301   -93356   -93435   -93526   -93620   -93701 
  -93765   -93812   -93846   -93873   -93895   -93903   -93900   -93905 
  -93927   -93963   -94014   -94076   -94138   -94201   -94256   -94289 
  -94295   -94275   -94232   -94171   -94097   -94020   -93936   -93842 
  -93744   -93653   -93574   -93512   -93466   -93443   -93436   -93432 
  -93419   -93401   -93380   -93362   -93351   -93346   -93339   -93334 
  -93337   -93346   -93367   -93399   -93433   -93465   -93497   -93524 
  -93546   -93568   -93591   -93620   -93665   -93720   -93782   -93849 
  -93914   -93968   -94006   -94027   -94031   -94023   -94007   -93985 
  -93967   -93964   -93975   -93992   -94007   -94011   -94002   -93988 
  -93979   -93968   -93958   -93960   -93968   -93971   -93967   -93945 
  -93900   -93838   -93762   -93681   -93614   -93555   -93488   -93416 
  -93340   -93263   -93200   -93161   -93142   -93138   -93133   -93118 
  -93096   -93078   -93066   -93060   -93058   -93055   -93046   -93033 
  -93020   -93007   -92987   -92964   -92951   -92953   -92968   -92992 
  -93019   -93049   -93079   -93105   -93134   -93164   -93191   -93220 
  -93251   -93284   -93329   -93392   -93461   -93531   -93594   -93638 
  -93660   -93670   -93673   -93668   -93662   -93664   -93673   -93687 
  -93706   -93728   -93753   -93783   -93821   -93864   -93897   -93914 
  -93916   -93911   -93908   -93914   -93927   -93942   -93957   -93961 
  -93954   -93939   -93928   -93924   -93929   -93940   -93953   -93962 
  -93968   -93974   -93981   -93984   -93981   -93965   -93938   -93907 
  -93877   -93857   -93849   -93844   -93831   -93808   -93778   -93741 
  -93692   -93631   -93564   -93501   -93455   -93428   -93418   -93423 
  -93444   -93468   -93482   -93483   -93478   -93484   -93499   -93513 
  -93529   -93553   -93575   -93593   -93613   -93630   -93635   -93625 
  -93593   -93535   -93458   -93371   -93279   -93189   -93099   -93011 
  -92933   -92878   -92842   -92821   -92815   -92818   -92810   -92787 
  -92756   -92727   -92698   -92669   -92643   -92623   -92605   -92600 
  -92616   -92655   -92712   -92778   -92844   -92908   -92973   -93040 
  -93106   -93177   -93252   -93330   -93409   -93482   -93539   -93577 
  -93607   -93639   -93674   -93712   -93753   -93792   -93826   -93856 
  -93885   -93907   -93915   -93905   -93877   -93835   -93788   -93742 
  -93701   -93671   -93649   -93631   -93613   -93594   -93570   -93548 
  -93527   -93511   -93503   -93498   -93500   -93513   -93529   -93546 
  -93564   -93581   -93593   -93601   -93618   -93643   -93665   -93685 
  -93704   -93723   -93743   -93763   -93789   -93824   -93863   -93906 
  -93954   -94004   -94055   -94113   -94179   -94246   -94304   -94344 
  -94360   -94351   -94322   -94285   -94248   -94211   -94166   -94116 
  -94062   -94005   -93949   -93899   -93854   -93814   -93774   -93734 
  -93690   -93642   -93599   -93565   -93531   -93492   -93452   -93411 
  -93363   -93304   -93232   -93151   -93064   -92974   -92892   -92826 
