Origin Time       2014/11/22 22:08:00
Lat.              36.692
Long.             137.890
Depth. (km)       5
Mag.              6.7
Station Code      TCGH09
Station Lat.      36.8625
Station Long.     139.8364
Station Height(m) 461
Record Time       2014/11/22 22:08:47
Sampling Freq(Hz) 100Hz
Duration Time(s)  141
Dir.              2
Scale Factor      2940(gal)/6170270
Max. Acc. (gal)   1.200
Last Correction   2014/11/22 22:08:32
Memo.             
[...]
 -156827  -156822  -156821  -156814  -156796  -156775  -156759  -156749 
 -156746  -156747  -156744  -156731  -156711  -156687  -156670  -156664 
 -156674  -156700  -156729  -156755  -156777  -156787  -156788  -156791 
 -156801  -156804  -156796  -156784  -156776  -156776  -156781  -156793 
 -156812  -156836  -156859  -156877  -156886  -156890  -156892  -156891 
 -156891  -156901  -156914  -156923  -156924  -156924  -156927  -156929 
 -156931  -156929  -156922  -156918  -156911  -156903  -156900  -156901 
 -156910  -156926  -156940  -156952  -156964  -156969  -156967  -156964 
 -156958  -156942  -156917  -156889  -156855  -156817  -156780  -156738 
 -156689  -156638  -156592  -156558  -156529  -156501  -156471  -156435 
 -156393  -156356  -156326  -156298  -156275  -156253  -156232  -156213 
 -156191  -156163  -156133  -156105  -156083  -156070  -156064  -156067 
 -156080  -156096  -156116  -156142  -156168  -156201  -156240  -156279 
 -156318  -156356  -156383  -156400  -156415  -156430  -156445  -156466 
 -156491  -156512  -156530  -156548  -156564  -156579  -156593  -156609 
 -156627  -156645  -156662  -156684  -156709  -156735  -156760  -156784 
 -156802  -156811  -156813  -156817  -156819  -156819  -156821  -156823 
 -156823  -156820  -156814  -156804  -156789  -156773  -156765  -156758 
 -156756  -156758  -156754  -156741  -156727  -156714  -156700  -156685 
 -156674  -156666  -156667  -156665  -156656  -156646  -156634  -156618 
 -156606  -156601  -156606  -156614  -156610  -156601  -156597  -156597 
 -156606  -156622  -156636  -156654  -156682  -156706  -156723  -156735 
 -156746  -156760  -156775  -156787  -156797  -156807  -156817  -156828 
 -156835  -156840  -156842  -156843  -156846  -156852  -156863  -156870 
 -156872  -156869  -156857  -156839  -156818  -156793  -156776  -156763 
 -156750  -156740  -156731  -156725  -156727  -156732  -156740  -156746 
 -156750  -156762  -156775  -156778  -156778  -156780  -156778  -156780 
 -156780  -156772  -156761  -156744  -156719  -156692  -156672  -156664 
 -156663  -156664  -156668  -156677  -156683  -156688  -156694  -156703 
 -156707  -156707  -156704  -156694  -156683  -156676  -156671  -156668 
 -156666  -156665  -156672  -156685  -156696  -156701  -156707  -156714 
 -156715  -156716  -156725  -156737  -156750  -156763  -156775  -156790 
 -156813  -156835  -156849  -156858  -156861  -156857  -156852  -156846 
 -156837  -156826  -156811  -156799  -156788  -156771  -156753  -156733 
 -156703  -156668  -156638  -156611  -156586  -156573  -156569  -156567 
 -156560  -156546  -156530  -156510  -156489  -156476  -156468  -156457 
 -156444  -156430  -156412  -156392  -156374  -156360  -156349  -156346 
 -156348  -156357  -156371  -156378  -156380  -156386  -156389  -156386 
 -156383  -156385  -156390  -156392  -156394  -156398  -156402  -156406 
 -156408  -156411  -156413  -156416  -156427  -156443  -156463  -156486 
 -156502  -156512  -156523  -156530  -156532  -156538  -156544  -156541 
 -156536  -156532  -156525  -156516  -156512  -156509  -156510  -156510 
 -156505  -156509  -156520  -156531  -156545  -156553  -156548  -156547 
 -156553  -156556  -156557  -156559  -156558  -156559  -156561  -156554 
 -156543  -156533  -156517  -156503  -156495  -156479  -156466  -156461 
 -156451  -156441  -156445  -156458  -156478  -156507  -156539  -156572 
 -156598  -156623  -156654  -156686  -156716  -156747  -156775  -156799 
 -156828  -156856  -156875  -156893  -156910  -156927  -156951  -156979 
 -156999  -157019  -157042  -157065  -157090  -157114  -157132  -157146 
 -157155  -157160  -157161  -157158  -157146  -157125  -157101  -157072 
 -157046  -157036  -157034  -157034  -157038  -157042  -157041  -157036 
 -157031  -157026  -157021  -157020  -157016  -157002  -156983  -156957 
 -156925  -156893  -156862  -156832  -156809  -156794  -156786  -156778 
 -156767  -156755  -156746  -156735  -156718  -156701  -156693  -156685 
 -156675  -156668  -156663  -156663  -156659  -156645  -156634  -156626 
 -156612  -156593  -156573  -156558  -156549  -156541  -156533  -156522 
 -156511  -156503  -156499  -156501  -156513  -156523  -156532  -156545 
 -156561  -156580  -156604  -156627  -156652  -156681  -156713  -156746 
 -156773  -156802  -156832  -156852  -156870  -156894  -156915  -156934 
 -156952  -156965  -156969  -156971  -156976  -156977  -156974  -156978 
 -156982  -156983  -156982  -156971  -156956  -156944  -156925  -156904 
 -156891  -156883  -156881  -156882  -156880  -156885  -156895  -156896 
 -156895  -156894  -156882  -156860  -156829  -156794  -156761  -156739 
 -156730  -156726  -156725  -156720  -156707  -156693  -156676  -156656 
 -156639  -156622  -156605  -156597  -156597  -156603  -156617  -156628 
 -156630  -156638  -156650  -156661  -156680  -156703  -156713  -156714 
 -156715  -156714  -156710  -156717  -156733  -156746  -156759  -156776 
 -156789  -156801  -156817  -156835  -156858  -156879  -156892  -156902 
 -156909  -156909  -156906  -156898  -156885  -156869  -156857  -156849 
 -156840  -156831  -156826  -156820  -156813  -156811  -156809  -156806 
 -156801  -156794  -156789  -156787  -156788  -156797  -156814  -156832 
 -156853  -156875  -156893  -156913  -156942  -156968  -156994  -157018 
 -157031  -157045  -157066  -157083  -157097  -157114  -157132  -157144 
 -157154  -157160  -157156  -157149  -157141  -157131  -157119  -157106 
 -157101  -157102  -157099  -157094  -157091  -157088  -157084  -157067 
 -157039  -157011  -156981  -156948  -156923  -156908  -156899  -156897 
 -156896  -156884  -156867  -156850  -156823  -156797  -156779  -156755 
 -156733  -156719  -156707  -156694  -156690  -156688  -156678  -156669 
 -156664  -156653  -156646  -156651  -156661  -156670  -156678  -156692 
 -156709  -156721  -156731  -156743  -156756  -156770  -156784  -156788 
 -156784  -156779  -156775  -156772  -156774  -156781  -156787  -156795 
 -156808  -156818  -156823  -156828  -156835  -156845  -156854  -156866 
 -156876  -156886  -156903  -156923  -156945  -156973  -157000  -157027 
 -157057  -157078  -157086  -157090  -157085  -157071  -157055  -157042 
 -157030  -157018  -156998  -156970  -156934  -156892  -156849  -156807 
 -156773  -156741  -156713  -156695  -156681  -156672  -156675  -156681 
 -156687  -156684  -156671  -156655  -156642  -156631  -156619  -156610 
 -156602  -156588  -156569  -156546  -156520  -156501  -156488  -156474 
 -156462  -156450  -156433  -156411  -156388  -156374  -156369  -156375 
 -156402  -156440  -156478  -156513  -156537  -156551  -156562  -156572 
 -156579  -156578  -156576  -156579  -156580  -156578  -156577  -156577 
 -156578  -156585  -156599  -156610  -156606  -156596  -156589  -156575 
 -156564  -156567  -156577  -156592  -156610  -156628  -156643  -156654 
 -156653  -156640  -156616  -156588  -156565  -156545  -156528  -156520 
 -156511  -156499  -156484  -156467  -156455  -156450  -156457  -156475 
 -156497  -156526  -156558  -156585  -156608  -156631  -156647  -156655 
 -156662  -156665  -156658  -156648  -156638  -156620  -156598  -156579 
 -156558  -156539  -156521  -156503  -156486  -156472  -156456  -156440 
 -156419  -156398  -156387  -156375  -156366  -156363  -156359  -156357 
 -156358  -156360  -156358  -156347  -156334  -156323  -156313  -156310 
 -156313  -156313  -156310  -156308  -156303  -156296  -156293  -156289 
 -156283  -156283  -156287  -156295  -156305  -156314  -156318  -156324 
 -156333  -156347  -156372  -156402  -156434  -156467  -156498  -156529 
 -156562  -156595  -156629  -156666  -156703  -156730  -156754  -156777 
 -156792  -156804  -156822  -156844  -156866  -156892  -156923  -156948 
 -156967  -156981  -156990  -156999  -157009  -157010  -157006  -157003 
 -156994  -156981  -156983  -156995  -156998  -156999  -157008  -157020 
 -157037  -157064  -157095  -157122  -157141  -157150  -157147  -157137 
 -157120  -157093  -157060  -157025  -156987  -156953  -156927  -156909 
 -156887  -156863  -156846  -156836  -156831  -156831  -156831  -156822 
 -156808  -156794  -156780  -156769  -156765  -156764  -156760  -156754 
 -156754  -156757  -156755  -156757  -156769  -156787  -156800  -156803 
 -156800  -156797  -156795  -156796  -156804  -156815  -156825  -156840 
 -156858  -156874  -156891  -156905  -156918  -156933  -156948  -156958 
 -156959  -156949  -156933  -156917  -156901  -156885  -156871  -156859 
 -156846  -156837  -156826  -156813  -156805  -156801  -156799  -156808 
 -156821  -156833  -156845  -156849  -156849  -156850  -156846  -156841 
 -156838  -156831  -156825  -156822  -156814  -156801  -156791  -156788 
 -156785  -156782  -156783  -156782  -156779  -156778  -156774  -156766 
 -156754  -156739  -156723  -156702  -156673  -156643  -156619  -156597 
 -156578  -156566  -156558  -156550  -156549  -156559  -156573  -156591 
 -156615  -156641  -156670  -156704  -156734  -156754  -156762  -156755 
 -156733  -156695  -156652  -156608  -156558  -156511  -156470  -156433 
 -156402  -156376  -156356  -156347  -156352  -156368  -156390  -156414 
 -156436  -156465  -156505  -156548  -156596  -156644  -156682  -156717 
 -156747  -156770  -156793  -156810  -156816  -156829  -156847  -156862 
 -156875  -156880  -156874  -156868  -156859  -156847  -156837  -156828 
 -156823  -156822  -156822  -156823  -156825  -156828  -156831  -156836 
 -156843  -156854  -156863  -156864  -156851  -156826  -156795  -156765 
 -156739  -156725  -156724  -156729  -156735  -156741  -156749  -156749 
 -156740  -156727  -156712  -156699  -156694  -156689  -156676  -156660 
 -156641  -156614  -156580  -156553  -156545  -156548  -156553  -156554 
 -156547  -156532  -156503  -156467  -156440  -156417  -156398  -156384 
 -156361  -156325  -156283  -156233  -156178  -156128  -156086  -156051 
 -156022  -155993  -155962  -155925  -155881  -155840  -155811  -155788 
 -155772  -155772  -155781  -155792  -155805  -155809  -155795  -155765 
 -155722  -155681  -155650  -155630  -155634  -155662  -155710  -155782 
 -155864  -155940  -156007  -156057  -156085  -156093  -156079  -156052 
 -156021  -155991  -155968  -155956  -155957  -155964  -155977  -155994 
 -156018  -156053  -156092  -156133  -156185  -156239  -156284  -156321 
 -156346  -156361  -156382  -156412  -156446  -156486  -156527  -156573 
 -156627  -156683  -156728  -156760  -156789  -156823  -156862  -156904 
 -156958  -157022  -157085  -157139  -157187  -157228  -157263  -157294 
 -157317  -157334  -157353  -157376  -157406  -157443  -157474  -157496 
 -157512  -157534  -157567  -157601  -157639  -157678  -157707  -157732 
 -157758  -157786  -157822  -157858  -157884  -157900  -157899  -157885 
 -157861  -157826  -157795  -157777  -157773  -157780  -157786  -157776 
 -157751  -157718  -157677  -157633  -157588  -157544  -157511  -157495 
 -157493  -157496  -157498  -157498  -157497  -157494  -157484  -157462 
 -157434  -157398  -157360  -157321  -157275  -157224  -157177  -157130 
 -157081  -157042  -157020  -157005  -156987  -156970  -156951  -156933 
 -156926  -156938  -156959  -156975  -156979  -156970  -156954  -156938 
 -156928  -156924  -156924  -156927  -156934  -156935  -156937  -156948 
 -156965  -156987  -157011  -157032  -157047  -157050  -157032  -157009 
 -157001  -157002  -157005  -157013  -157012  -156992  -156967  -156945 
 -156923  -156900  -156872  -156839  -156797  -156749  -156706  -156671 
 -156643  -156629  -156627  -156630  -156646  -156681  -156725  -156761 
 -156783  -156793  -156796  -156790  -156781  -156774  -156771  -156772 
 -156769  -156761  -156746  -156720  -156698  -156695  -156695  -156689 
 -156694  -156711  -156724  -156736  -156749  -156747  -156738  -156744 
 -156756  -156764  -156770  -156772  -156773  -156778  -156793  -156819 
 -156843  -156861  -156889  -156924  -156949  -156970  -157001  -157036 
 -157066  -157100  -157128  -157146  -157166  -157191  -157221  -157258 
 -157286  -157306  -157323  -157330  -157329  -157328  -157320  -157303 
 -157284  -157258  -157220  -157180  -157143  -157107  -157072  -157035 
 -156985  -156925  -156864  -156816  -156781  -156749  -156720  -156695 
 -156665  -156635  -156614  -156593  -156566  -156545  -156548  -156566 
 -156593  -156621  -156635  -156627  -156617  -156618  -156627  -156647 
 -156677  -156711  -156755  -156813  -156871  -156919  -156949  -156973 
 -157000  -157031  -157063  -157087  -157099  -157107  -157113  -157113 
 -157102  -157079  -157053  -157026  -156999  -156977  -156968  -156975 
 -156990  -157011  -157034  -157054  -157080  -157112  -157148  -157188 
 -157228  -157264  -157295  -157317  -157324  -157318  -157306  -157294 
 -157296  -157316  -157340  -157358  -157370  -157373  -157377  -157382 
 -157386  -157388  -157386  -157378  -157366  -157352  -157345  -157341 
 -157321  -157287  -157262  -157246  -157233  -157228  -157216  -157183 
 -157139  -157099  -157071  -157052  -157038  -157021  -156986  -156936 
 -156887  -156842  -156805  -156774  -156738  -156687  -156626  -156563 
 -156502  -156443  -156383  -156319  -156255  -156191  -156127  -156075 
 -156045  -156026  -156013  -156009  -156009  -155996  -155969  -155928 
 -155869  -155797  -155719  -155639  -155572  -155535  -155522  -155524 
 -155529  -155525  -155518  -155506  -155487  -155473  -155465  -155455 
 -155442  -155420  -155386  -155350  -155309  -155257  -155201  -155146 
 -155098  -155067  -155051  -155036  -155013  -154976  -154928  -154877 
 -154822  -154768  -154719  -154671  -154629  -154596  -154566  -154535 
 -154499  -154468  -154439  -154411  -154391  -154377  -154361  -154334 
 -154292  -154250  -154224  -154211  -154206  -154211  -154225  -154245 
 -154265  -154284  -154305  -154330  -154362  -154399  -154445  -154509 
 -154590  -154674  -154764  -154858  -154951  -155049  -155154  -155256 
 -155353  -155443  -155520  -155588  -155653  -155717  -155783  -155857 
 -155947  -156050  -156149  -156238  -156321  -156395  -156466  -156544 
 -156630  -156725  -156826  -156935  -157050  -157168  -157292  -157411 
 -157511  -157597  -157685  -157770  -157846  -157914  -157974  -158034 
 -158095  -158153  -158211  -158265  -158304  -158328  -158344  -158360 
 -158384  -158418  -158451  -158472  -158489  -158521  -158559  -158597 
 -158635  -158659  -158663  -158648  -158619  -158589  -158571  -158567 
 -158573  -158582  -158595  -158606  -158613  -158616  -158615  -158598 
 -158563  -158526  -158493  -158459  -158428  -158399  -158367  -158334 
 -158298  -158255  -158210  -158163  -158118  -158080  -158050  -158024 
 -157998  -157970  -157933  -157890  -157846  -157798  -157744  -157690 
 -157634  -157573  -157505  -157438  -157382  -157333  -157289  -157250 
 -157208  -157171  -157146  -157121  -157096  -157072  -157035  -156975 
 -156891  -156792  -156699  -156625  -156564  -156508  -156452  -156393 
 -156340  -156297  -156254  -156203  -156141  -156069  -155999  -155936 
 -155877  -155821  -155775  -155737  -155705  -155671  -155623  -155561 
 -155497  -155434  -155373  -155323  -155289  -155264  -155242  -155225 
 -155212  -155195  -155180  -155172  -155161  -155147  -155129  -155114 
 -155106  -155105  -155116  -155126  -155123  -155118  -155122  -155128 
 -155133  -155136  -155142  -155148  -155159  -155186  -155224  -155261 
 -155295  -155333  -155373  -155408  -155426  -155426  -155418  -155411 
 -155415  -155435  -155466  -155507  -155554  -155599  -155637  -155674 
 -155715  -155766  -155830  -155905  -155989  -156075  -156152  -156218 
 -156277  -156332  -156390  -156446  -156496  -156541  -156580  -156618 
 -156659  -156710  -156772  -156842  -156921  -157000  -157071  -157135 
 -157194  -157242  -157280  -157317  -157359  -157407  -157455  -157503 
 -157555  -157607  -157654  -157706  -157760  -157806  -157848  -157881 
 -157896  -157910  -157926  -157934  -157938  -157940  -157941  -157942 
 -157945  -157953  -157968  -157994  -158021  -158042  -158067  -158089 
 -158095  -158103  -158123  -158148  -158182  -158220  -158238  -158239 
 -158233  -158221  -158207  -158192  -158171  -158145  -158116  -158087 
 -158069  -158060  -158052  -158046  -158032  -158006  -157977  -157940 
 -157891  -157847  -157817  -157792  -157771  -157751  -157729  -157705 
 -157674  -157631  -157588  -157555  -157526  -157504  -157498  -157490 
 -157465  -157429  -157384  -157334  -157285  -157237  -157193  -157153 
 -157119  -157099  -157091  -157085  -157084  -157082  -157074  -157069 
 -157075  -157088  -157101  -157117  -157123  -157103  -157070  -157047 
 -157032  -157016  -156999  -156986  -156975  -156971  -156981  -156998 
 -157017  -157038  -157061  -157084  -157102  -157117  -157126  -157124 
 -157106  -157074  -157035  -156989  -156939  -156885  -156829  -156789 
 -156767  -156751  -156739  -156718  -156680  -156635  -156593  -156555 
 -156524  -156502  -156484  -156462  -156443  -156432  -156428  -156437 
 -156456  -156468  -156477  -156484  -156481  -156465  -156442  -156413 
 -156377  -156343  -156318  -156298  -156285  -156276  -156268  -156260 
 -156250  -156231  -156204  -156170  -156126  -156084  -156042  -155999 
 -155961  -155926  -155887  -155845  -155804  -155767  -155735  -155714 
 -155712  -155733  -155771  -155813  -155846  -155867  -155877  -155869 
 -155852  -155843  -155842  -155842  -155843  -155852  -155869  -155889 
 -155911  -155933  -155944  -155944  -155942  -155944  -155947  -155949 
 -155954  -155958  -155958  -155961  -155963  -155964  -155964  -155965 
 -155968  -155972  -155977  -155988  -155999  -156013  -156041  -156078 
 -156112  -156140  -156158  -156170  -156182  -156197  -156212  -156227 
 -156253  -156285  -156320  -156365  -156422  -156482  -156541  -156594 
 -156642  -156685  -156718  -156746  -156767  -156778  -156782  -156784 
 -156778  -156765  -156762  -156773  -156794  -156824  -156856  -156887 
 -156925  -156963  -156993  -157014  -157025  -157025  -157028  -157046 
 -157081  -157132  -157193  -157254  -157308  -157355  -157390  -157409 
 -157415  -157412  -157407  -157403  -157399  -157400  -157405  -157407 
 -157404  -157396  -157389  -157385  -157386  -157393  -157393  -157372 
 -157344  -157321  -157306  -157300  -157304  -157313  -157323  -157324 
 -157312  -157286  -157253  -157222  -157199  -157193  -157200  -157208 
 -157207  -157201  -157191  -157177  -157161  -157135  -157096  -157061 
 -157033  -156997  -156960  -156932  -156906  -156880  -156861  -156854 
 -156860  -156874  -156896  -156926  -156956  -156976  -156980  -156965 
 -156939  -156908  -156876  -156851  -156844  -156848  -156855  -156866 
 -156881  -156899  -156930  -156972  -157021  -157074  -157128  -157177 
 -157218  -157250  -157274  -157294  -157323  -157357  -157393  -157432 
 -157466  -157492  -157519  -157553  -157586  -157626  -157670  -157709 
 -157759  -157815  -157858  -157897  -157936  -157962  -157985  -158012 
 -158041  -158070  -158105  -158147  -158181  -158204  -158224  -158237 
 -158234  -158223  -158208  -158192  -158181  -158168  -158148  -158121 
 -158093  -158061  -158016  -157960  -157906  -157853  -157799  -157756 
 -157722  -157687  -157656  -157630  -157597  -157551  -157494  -157427 
 -157350  -157269  -157190  -157120  -157064  -157021  -156989  -156965 
 -156946  -156925  -156895  -156864  -156835  -156805  -156784  -156770 
 -156756  -156744  -156734  -156723  -156711  -156691  -156659  -156625 
 -156591  -156551  -156522  -156509  -156497  -156487  -156484  -156484 
 -156482  -156484  -156490  -156494  -156500  -156503  -156509  -156517 
