Origin Time       2014/11/22 22:08:00
Lat.              36.692
Long.             137.890
Depth. (km)       5
Mag.              6.7
Station Code      TCGH09
Station Lat.      36.8625
Station Long.     139.8364
Station Height(m) 461
Record Time       2014/11/22 22:08:47
Sampling Freq(Hz) 100Hz
Duration Time(s)  141
Dir.              1
Scale Factor      2940(gal)/6170270
Max. Acc. (gal)   0.698
Last Correction   2014/11/22 22:08:32
Memo.             
[...]
   36717    36720    36728    36737    36747    36760    36769    36769 
   36766    36763    36762    36769    36785    36806    36829    36850 
   36866    36879    36887    36890    36891    36887    36877    36864 
   36849    36833    36816    36798    36779    36761    36746    36735 
   36726    36719    36712    36703    36691    36682    36681    36682 
   36685    36690    36690    36686    36682    36672    36655    36634 
   36611    36594    36585    36579    36576    36575    36573    36569 
   36563    36558    36554    36550    36547    36545    36540    36532 
   36523    36513    36505    36502    36499    36490    36473    36448 
   36415    36380    36346    36317    36291    36270    36250    36226 
   36205    36191    36179    36167    36161    36158    36161    36173 
   36188    36200    36214    36235    36263    36296    36326    36351 
   36371    36385    36393    36396    36395    36393    36390    36386 
   36387    36394    36402    36412    36422    36433    36440    36441 
   36444    36450    36455    36458    36457    36449    36444    36443 
   36443    36445    36450    36458    36467    36473    36474    36473 
   36474    36479    36491    36511    36538    36571    36603    36628 
   36645    36652    36651    36649    36647    36644    36646    36653 
   36657    36662    36671    36679    36684    36688    36694    36702 
   36711    36725    36743    36758    36768    36771    36767    36764 
   36766    36772    36781    36792    36805    36822    36839    36853 
   36863    36872    36879    36884    36885    36880    36868    36850 
   36823    36790    36752    36719    36697    36683    36678    36687 
   36702    36719    36734    36747    36760    36775    36786    36792 
   36798    36806    36814    36819    36821    36822    36823    36826 
   36831    36827    36809    36781    36750    36722    36693    36662 
   36632    36602    36576    36556    36541    36530    36521    36507 
   36482    36448    36412    36379    36357    36347    36346    36356 
   36378    36411    36458    36507    36552    36594    36622    36628 
   36619    36599    36574    36550    36525    36497    36472    36455 
   36449    36458    36479    36512    36552    36590    36622    36651 
   36677    36704    36734    36766    36794    36808    36812    36811 
   36806    36799    36795    36795    36801    36804    36795    36774 
   36737    36692    36654    36623    36607    36610    36624    36643 
   36666    36687    36707    36735    36775    36827    36892    36969 
   37053    37140    37223    37302    37379    37449    37504    37539 
   37558    37562    37551    37533    37505    37469    37430    37388 
   37342    37290    37239    37195    37155    37111    37065    37029 
   37008    36999    36998    37001    37002    37008    37028    37060 
   37100    37142    37175    37193    37196    37179    37146    37102 
   37048    36978    36892    36796    36695    36594    36499    36415 
   36333    36253    36180    36119    36073    36043    36031    36034 
   36051    36078    36109    36139    36163    36177    36180    36172 
   36154    36130    36105    36085    36072    36062    36056    36050 
   36035    36003    35946    35867    35780    35704    35659    35652 
   35674    35721    35784    35845    35889    35911    35917    35914 
   35906    35898    35903    35934    35980    36023    36057    36079 
   36094    36106    36118    36138    36170    36208    36248    36278 
   36295    36301    36299    36300    36309    36325    36343    36359 
   36371    36379    36385    36394    36408    36425    36443    36467 
   36498    36530    36564    36599    36634    36676    36724    36774 
   36819    36853    36868    36868    36857    36846    36841    36842 
   36845    36842    36818    36766    36693    36612    36533    36467 
   36425    36409    36419    36456    36506    36553    36591    36617 
   36625    36616    36595    36565    36534    36509    36493    36478 
   36453    36418    36375    36328    36280    36235    36197    36168 
   36139    36109    36076    36036    35986    35927    35859    35785 
   35706    35624    35542    35469    35406    35355    35311    35274 
   35247    35231    35222    35225    35236    35244    35250    35261 
   35283    35311    35342    35378    35425    35479    35527    35564 
   35590    35601    35596    35575    35547    35521    35503    35493 
   35492    35509    35543    35583    35628    35683    35742    35800 
   35847    35872    35885    35904    35931    35971    36027    36089 
   36140    36174    36191    36198    36203    36206    36208    36215 
   36226    36234    36230    36220    36205    36185    36162    36135 
   36102    36068    36036    36011    36001    36010    36031    36055 
   36076    36092    36101    36105    36114    36133    36162    36197 
   36234    36273    36321    36373    36420    36466    36508    36540 
   36555    36563    36579    36601    36621    36641    36660    36674 
   36683    36686    36684    36676    36671    36674    36690    36722 
   36764    36806    36848    36885    36904    36899    36876    36845 
   36819    36792    36757    36716    36665    36605    36547    36496 
   36449    36403    36371    36357    36353    36355    36356    36347 
   36327    36310    36304    36298    36285    36263    36238    36213 
   36187    36160    36130    36094    36062    36046    36050    36071 
   36106    36145    36185    36220    36252    36285    36313    36335 
   36361    36394    36429    36464    36494    36522    36547    36572 
   36606    36646    36693    36754    36821    36887    36951    37010 
   37062    37106    37141    37167    37186    37207    37239    37275 
   37313    37349    37373    37386    37389    37380    37368    37356 
   37341    37328    37321    37316    37312    37305    37289    37263 
   37232    37203    37180    37156    37134    37122    37119    37118 
   37117    37114    37112    37113    37113    37104    37089    37074 
   37060    37051    37053    37063    37066    37061    37054    37047 
   37041    37036    37025    37006    36981    36944    36896    36853 
   36820    36792    36768    36750    36740    36733    36722    36710 
   36704    36705    36707    36704    36696    36684    36666    36642 
   36616    36591    36567    36549    36540    36533    36525    36514 
   36496    36474    36448    36423    36401    36379    36347    36312 
   36278    36253    36242    36242    36252    36272    36297    36322 
   36355    36395    36441    36484    36506    36504    36480    36443 
   36409    36386    36369    36346    36320    36298    36278    36253 
   36228    36209    36203    36208    36215    36216    36210    36201 
   36187    36176    36174    36183    36202    36223    36242    36266 
   36299    36339    36380    36416    36444    36470    36494    36518 
   36541    36565    36587    36612    36641    36673    36707    36741 
   36780    36826    36874    36915    36943    36962    36975    36992 
   37016    37044    37074    37113    37155    37190    37214    37228 
   37234    37243    37252    37256    37255    37255    37261    37273 
   37285    37290    37286    37272    37248    37218    37184    37148 
   37114    37084    37048    37002    36955    36912    36873    36839 
   36809    36776    36730    36675    36624    36590    36577    36578 
   36584    36589    36593    36597    36600    36603    36607    36611 
   36610    36600    36588    36575    36556    36535    36514    36492 
   36467    36442    36430    36432    36439    36450    36464    36483 
   36500    36503    36490    36462    36434    36423    36435    36467 
   36504    36527    36527    36513    36502    36501    36500    36493 
   36484    36477    36473    36473    36478    36485    36482    36461 
   36429    36403    36390    36390    36398    36407    36408    36401 
   36388    36370    36345    36321    36297    36269    36237    36206 
   36179    36159    36142    36128    36122    36125    36130    36132 
   36130    36127    36133    36157    36199    36251    36308    36366 
   36417    36448    36459    36459    36460    36472    36497    36532 
   36571    36606    36627    36636    36635    36627    36621    36618 
   36623    36635    36650    36666    36672    36664    36646    36620 
   36593    36571    36557    36555    36559    36561    36560    36557 
   36554    36557    36571    36590    36612    36632    36638    36638 
   36646    36654    36661    36678    36702    36720    36730    36734 
   36735    36732    36730    36735    36746    36764    36788    36805 
   36804    36784    36754    36725    36706    36702    36717    36741 
   36757    36750    36716    36668    36617    36568    36528    36506 
   36499    36501    36508    36509    36494    36464    36429    36398 
   36372    36346    36320    36294    36268    36249    36238    36233 
   36233    36237    36237    36232    36224    36211    36186    36151 
   36109    36066    36033    36017    36013    36012    36003    35979 
   35947    35912    35885    35869    35860    35855    35845    35828 
   35807    35782    35755    35736    35731    35742    35770    35810 
   35858    35906    35947    35977    35994    36001    36005    36009 
   36011    36005    35990    35972    35959    35958    35969    35979 
   35976    35962    35946    35935    35930    35935    35953    35982 
   36013    36036    36048    36053    36053    36051    36055    36065 
   36077    36089    36104    36121    36136    36151    36173    36198 
   36218    36236    36262    36290    36310    36316    36304    36278 
   36238    36191    36142    36096    36053    36018    35995    35981 
   35963    35933    35893    35843    35785    35738    35713    35710 
   35729    35767    35812    35846    35864    35868    35862    35857 
   35860    35867    35882    35910    35947    35999    36061    36122 
   36175    36217    36243    36261    36283    36314    36355    36400 
   36440    36473    36500    36527    36562    36599    36633    36664 
   36689    36702    36709    36718    36739    36779    36840    36912 
   36981    37046    37105    37155    37203    37248    37288    37330 
   37379    37432    37487    37534    37570    37602    37627    37641 
   37650    37661    37678    37704    37736    37766    37785    37790 
   37778    37756    37737    37727    37720    37711    37702    37695 
   37690    37681    37668    37653    37647    37655    37673    37692 
   37704    37702    37682    37652    37621    37591    37564    37543 
   37526    37513    37506    37504    37500    37490    37470    37443 
   37413    37379    37339    37299    37264    37236    37220    37216 
   37214    37207    37196    37185    37172    37157    37140    37122 
   37097    37062    37024    36990    36957    36926    36891    36850 
   36802    36749    36694    36635    36575    36517    36459    36408 
   36371    36347    36333    36320    36296    36267    36244    36225 
   36211    36205    36204    36204    36202    36204    36206    36208 
   36204    36190    36171    36149    36130    36123    36122    36125 
   36130    36129    36125    36122    36116    36112    36118    36132 
   36155    36183    36206    36217    36216    36201    36176    36147 
   36122    36101    36087    36083    36079    36072    36061    36049 
   36037    36027    36019    36012    36009    36011    36013    36017 
   36029    36046    36059    36062    36061    36064    36085    36122 
   36164    36198    36219    36234    36253    36281    36324    36384 
   36455    36532    36607    36667    36713    36753    36788    36812 
   36825    36835    36851    36876    36910    36948    36984    37018 
   37048    37074    37099    37124    37147    37166    37182    37196 
   37214    37237    37270    37307    37336    37351    37354    37338 
   37308    37269    37227    37187    37152    37118    37082    37046 
   37014    36984    36956    36929    36895    36848    36793    36739 
   36689    36652    36635    36633    36637    36632    36613    36581 
   36536    36485    36438    36393    36347    36302    36256    36212 
   36175    36141    36106    36075    36046    36017    35989    35968 
   35955    35954    35967    35988    36016    36046    36074    36099 
   36122    36147    36172    36192    36209    36226    36245    36262 
   36268    36265    36252    36237    36228    36225    36222    36213 
   36192    36168    36154    36155    36166    36182    36200    36215 
   36219    36214    36210    36209    36207    36209    36214    36219 
   36220    36220    36219    36218    36220    36225    36227    36226 
   36218    36207    36201    36198    36192    36185    36186    36205 
   36238    36276    36309    36330    36333    36318    36290    36260 
   36244    36244    36254    36267    36276    36281    36284    36292 
   36312    36341    36375    36411    36452    36496    36541    36586 
   36629    36664    36693    36714    36725    36740    36762    36792 
   36828    36863    36892    36915    36930    36941    36953    36963 
   36978    37003    37037    37086    37143    37200    37263    37329 
   37391    37446    37495    37536    37565    37586    37609    37640 
   37673    37701    37719    37731    37736    37731    37716    37691 
   37666    37653    37655    37677    37711    37743    37769    37787 
   37796    37802    37808    37816    37825    37833    37844    37861 
   37878    37895    37911    37924    37942    37967    37992    38007 
   38006    37986    37955    37922    37892    37873    37861    37844 
   37819    37787    37751    37718    37691    37666    37642    37622 
   37600    37573    37542    37498    37442    37384    37332    37283 
   37236    37196    37157    37119    37084    37049    37011    36978 
   36950    36921    36895    36870    36839    36808    36777    36745 
   36711    36672    36633    36606    36587    36575    36571    36570 
   36565    36556    36549    36547    36549    36552    36558    36565 
   36573    36588    36616    36655    36696    36732    36765    36799 
   36829    36853    36875    36897    36921    36944    36965    36982 
   36998    37011    37018    37014    37002    36984    36965    36948 
   36929    36912    36906    36907    36906    36893    36872    36848 
   36826    36809    36795    36783    36771    36755    36729    36689 
   36645    36604    36562    36517    36472    36418    36357    36292 
   36221    36150    36091    36039    35993    35950    35902    35851 
   35808    35773    35740    35701    35648    35580    35504    35433 
   35376    35337    35312    35293    35272    35247    35216    35182 
   35152    35128    35115    35116    35125    35135    35142    35143 
   35142    35137    35126    35120    35122    35131    35142    35156 
   35175    35200    35231    35273    35328    35385    35437    35480 
   35512    35534    35553    35575    35601    35637    35681    35723 
   35767    35812    35851    35883    35910    35937    35964    35993 
   36020    36044    36058    36060    36058    36058    36058    36063 
   36070    36076    36083    36089    36091    36090    36089    36089 
   36090    36092    36092    36091    36092    36103    36128    36165 
   36204    36245    36289    36331    36370    36407    36439    36466 
   36492    36520    36553    36587    36617    36649    36681    36711 
   36739    36764    36789    36816    36845    36876    36912    36948 
   36980    37003    37019    37032    37037    37036    37037    37043 
   37058    37081    37107    37130    37153    37177    37198    37220 
   37242    37263    37277    37289    37304    37320    37333    37347 
   37364    37381    37404    37427    37444    37455    37456    37448 
   37440    37436    37431    37426    37416    37398    37376    37352 
   37330    37312    37293    37271    37248    37222    37194    37163 
   37128    37092    37053    37011    36972    36940    36913    36884 
   36852    36815    36770    36719    36669    36626    36587    36549 
   36508    36463    36414    36364    36320    36281    36242    36202 
   36165    36135    36108    36085    36071    36065    36057    36051 
   36045    36037    36029    36016    35999    35983    35964    35940 
   35918    35899    35877    35855    35838    35827    35819    35811 
   35802    35794    35791    35796    35808    35827    35846    35860 
   35871    35879    35883    35886    35890    35896    35904    35915 
   35930    35950    35983    36025    36068    36111    36153    36190 
   36225    36258    36294    36331    36368    36400    36425    36443 
   36462    36485    36511    36540    36570    36600    36630    36655 
   36673    36684    36690    36693    36701    36716    36735    36752 
   36765    36775    36786    36795    36801    36805    36804    36798 
   36792    36782    36764    36746    36731    36714    36696    36679 
   36663    36648    36634    36622    36611    36602    36591    36570 
   36541    36511    36486    36468    36458    36459    36467    36478 
   36498    36522    36548    36580    36609    36630    36650    36669 
   36679    36686    36693    36692    36684    36669    36644    36618 
   36600    36588    36579    36564    36543    36514    36478    36441 
   36407    36374    36340    36305    36273    36245    36222    36203 
   36183    36155    36122    36083    36039    35997    35960    35926 
   35895    35867    35844    35825    35801    35766    35728    35690 
   35649    35607    35568    35530    35492    35460    35436    35416 
   35397    35378    35359    35341    35319    35298    35284    35277 
   35276    35285    35304    35331    35358    35387    35414    35434 
   35442    35444    35445    35450    35462    35480    35496    35507 
   35513    35516    35520    35530    35546    35562    35577    35588 
   35594    35597    35603    35616    35636    35665    35702    35742 
   35783    35824    35865    35904    35940    35975    36005    36030 
   36053    36071    36083    36092    36097    36100    36103    36106 
   36108    36107    36100    36092    36091    36101    36118    36139 
   36164    36194    36229    36266    36305    36345    36383    36419 
   36453    36485    36519    36554    36590    36629    36667    36698 
   36723    36738    36748    36756    36764    36777    36794    36812 
   36832    36851    36866    36883    36899    36913    36929    36946 
   36963    36980    36995    37005    37012    37017    37016    37016 
   37018    37022    37032    37048    37070    37099    37128    37156 
   37186    37213    37238    37262    37279    37291    37304    37313 
   37320    37329    37341    37352    37360    37368    37375    37376 
   37376    37376    37376    37372    37365    37356    37346    37339 
   37335    37329    37324    37321    37316    37316    37317    37317 
   37316    37313    37307    37293    37273    37260    37249    37232 
   37216    37203    37185    37167    37155    37142    37130    37121 
   37112    37097    37083    37071    37062    37061    37063    37063 
   37059    37053    37046    37036    37026    37017    36998    36976 
   36950    36913    36876    36846    36819    36795    36776    36758 
   36740    36726    36719    36715    36717    36729    36745    36759 
