Origin Time       2014/11/22 22:08:00
Lat.              36.692
Long.             137.890
Depth. (km)       5
Mag.              6.7
Station Code      TCGH09
Station Lat.      36.8625
Station Long.     139.8364
Station Height(m) 564
Record Time       2014/11/22 22:08:47
Sampling Freq(Hz) 100Hz
Duration Time(s)  141
Dir.              4
Scale Factor      3920(gal)/6170801
Max. Acc. (gal)   0.882
Last Correction   2014/11/22 22:08:32
Memo.             
[...]
   -6449    -6528    -6612    -6694    -6793    -6886    -6942    -6962 
   -6964    -6962    -6956    -6962    -7005    -7070    -7136    -7201 
   -7255    -7290    -7306    -7292    -7261    -7238    -7215    -7191 
   -7186    -7199    -7208    -7209    -7221    -7230    -7222    -7212 
   -7201    -7170    -7117    -7075    -7055    -7062    -7094    -7126 
   -7128    -7094    -7035    -6959    -6861    -6770    -6721    -6696 
   -6669    -6655    -6668    -6687    -6709    -6755    -6824    -6884 
   -6905    -6903    -6896    -6869    -6810    -6744    -6713    -6710 
   -6707    -6727    -6790    -6855    -6885    -6898    -6901    -6885 
   -6854    -6830    -6829    -6839    -6845    -6858    -6878    -6880 
   -6869    -6884    -6928    -6957    -6961    -6952    -6923    -6893 
   -6902    -6957    -7023    -7068    -7082    -7064    -7022    -6979 
   -6950    -6937    -6931    -6915    -6875    -6800    -6693    -6595 
   -6553    -6561    -6604    -6674    -6751    -6823    -6895    -6965 
   -7032    -7087    -7109    -7096    -7057    -6988    -6920    -6909 
   -6960    -7071    -7249    -7441    -7572    -7626    -7612    -7539 
   -7453    -7401    -7399    -7447    -7521    -7585    -7622    -7640 
   -7649    -7642    -7607    -7553    -7498    -7434    -7372    -7333 
   -7302    -7266    -7218    -7146    -7054    -6936    -6786    -6640 
   -6527    -6451    -6424    -6424    -6426    -6425    -6398    -6347 
   -6310    -6282    -6261    -6251    -6249    -6251    -6236    -6205 
   -6180    -6149    -6110    -6101    -6123    -6143    -6144    -6139 
   -6152    -6184    -6228    -6297    -6378    -6432    -6452    -6464 
   -6478    -6481    -6487    -6504    -6504    -6474    -6433    -6401 
   -6359    -6297    -6263    -6275    -6299    -6329    -6375    -6421 
   -6458    -6493    -6547    -6614    -6653    -6680    -6730    -6774 
   -6802    -6855    -6940    -7002    -6998    -6963    -6931    -6887 
   -6863    -6887    -6925    -6950    -6958    -6960    -6958    -6942 
   -6911    -6894    -6909    -6946    -6994    -7051    -7106    -7144 
   -7185    -7252    -7329    -7393    -7449    -7496    -7512    -7521 
   -7550    -7562    -7553    -7541    -7530    -7521    -7500    -7478 
   -7485    -7487    -7455    -7428    -7414    -7365    -7277    -7197 
   -7142    -7065    -6955    -6887    -6893    -6931    -7003    -7117 
   -7237    -7309    -7302    -7259    -7225    -7177    -7119    -7093 
   -7099    -7090    -7046    -7008    -6994    -6973    -6952    -6954 
   -6949    -6895    -6796    -6685    -6599    -6546    -6536    -6577 
   -6629    -6651    -6645    -6621    -6588    -6569    -6572    -6593 
   -6625    -6649    -6656    -6652    -6644    -6648    -6661    -6669 
   -6687    -6720    -6751    -6778    -6797    -6812    -6819    -6808 
   -6787    -6768    -6748    -6738    -6752    -6784    -6834    -6891 
   -6936    -6957    -6953    -6941    -6926    -6892    -6849    -6814 
   -6785    -6763    -6752    -6748    -6756    -6781    -6813    -6841 
   -6869    -6898    -6916    -6922    -6937    -6962    -6987    -7011 
   -7032    -7034    -7012    -6978    -6933    -6896    -6884    -6882 
   -6886    -6886    -6870    -6848    -6827    -6816    -6827    -6847 
   -6848    -6844    -6850    -6845    -6837    -6857    -6877    -6852 
   -6800    -6767    -6730    -6658    -6589    -6539    -6478    -6420 
   -6387    -6375    -6352    -6292    -6223    -6182    -6153    -6139 
   -6184    -6267    -6311    -6306    -6294    -6295    -6309    -6358 
   -6473    -6617    -6718    -6763    -6768    -6727    -6645    -6576 
   -6568    -6599    -6623    -6652    -6694    -6715    -6720    -6770 
   -6858    -6920    -6949    -6970    -6956    -6889    -6825    -6809 
   -6808    -6812    -6866    -6958    -7038    -7095    -7134    -7151 
   -7116    -7044    -7007    -7013    -7020    -7033    -7083    -7167 
   -7253    -7317    -7366    -7405    -7414    -7412    -7430    -7457 
   -7479    -7496    -7523    -7569    -7611    -7628    -7626    -7609 
   -7581    -7570    -7594    -7630    -7665    -7697    -7708    -7682 
   -7629    -7574    -7518    -7456    -7414    -7398    -7389    -7371 
   -7336    -7289    -7250    -7220    -7188    -7161    -7120    -7048 
   -6969    -6893    -6816    -6753    -6709    -6686    -6675    -6648 
   -6599    -6534    -6452    -6365    -6292    -6247    -6243    -6263 
   -6294    -6344    -6395    -6429    -6442    -6423    -6399    -6396 
   -6413    -6463    -6551    -6645    -6713    -6749    -6769    -6774 
   -6753    -6733    -6738    -6743    -6731    -6701    -6674    -6679 
   -6718    -6788    -6900    -7011    -7072    -7099    -7110    -7097 
   -7077    -7075    -7083    -7073    -7030    -6962    -6881    -6802 
   -6744    -6712    -6707    -6720    -6723    -6696    -6654    -6609 
   -6570    -6563    -6577    -6577    -6559    -6524    -6496    -6499 
   -6525    -6582    -6656    -6707    -6721    -6707    -6678    -6663 
   -6688    -6751    -6830    -6897    -6943    -6969    -6965    -6938 
   -6908    -6875    -6825    -6776    -6757    -6763    -6774    -6801 
   -6849    -6881    -6883    -6887    -6897    -6886    -6851    -6814 
   -6776    -6723    -6658    -6599    -6563    -6548    -6551    -6577 
   -6615    -6643    -6656    -6654    -6652    -6639    -6607    -6589 
   -6592    -6609    -6639    -6694    -6787    -6885    -6953    -7000 
   -7031    -7029    -6993    -6939    -6892    -6862    -6839    -6828 
   -6841    -6860    -6868    -6871    -6876    -6881    -6880    -6883 
   -6898    -6909    -6905    -6884    -6872    -6883    -6887    -6871 
   -6865    -6889    -6912    -6924    -6948    -6971    -6972    -6971 
   -6988    -7019    -7036    -7031    -7034    -7069    -7112    -7159 
   -7231    -7311    -7347    -7349    -7381    -7416    -7391    -7343 
   -7320    -7298    -7252    -7220    -7242    -7286    -7302    -7287 
   -7270    -7241    -7176    -7106    -7069    -7047    -7015    -6984 
   -6964    -6939    -6883    -6822    -6792    -6777    -6769    -6784 
   -6797    -6788    -6767    -6751    -6750    -6756    -6768    -6795 
   -6817    -6833    -6864    -6900    -6920    -6913    -6879    -6842 
   -6802    -6759    -6745    -6769    -6792    -6811    -6836    -6840 
   -6813    -6765    -6721    -6702    -6707    -6724    -6734    -6734 
   -6724    -6691    -6648    -6615    -6592    -6571    -6570    -6595 
   -6629    -6657    -6681    -6711    -6730    -6728    -6720    -6702 
   -6662    -6625    -6623    -6646    -6670    -6697    -6732    -6750 
   -6741    -6716    -6686    -6651    -6617    -6592    -6586    -6588 
   -6581    -6578    -6598    -6623    -6637    -6663    -6696    -6712 
   -6745    -6819    -6910    -6997    -7067    -7112    -7130    -7125 
   -7108    -7090    -7082    -7087    -7102    -7118    -7121    -7111 
   -7094    -7074    -7046    -7015    -6994    -6973    -6947    -6934 
   -6943    -6968    -6999    -7019    -7017    -6999    -6965    -6917 
   -6871    -6818    -6759    -6718    -6692    -6689    -6710    -6740 
   -6781    -6819    -6835    -6839    -6835    -6820    -6812    -6825 
   -6863    -6913    -6948    -6970    -6996    -7027    -7052    -7056 
   -7043    -7012    -6955    -6894    -6857    -6842    -6826    -6787 
   -6729    -6671    -6616    -6566    -6547    -6562    -6578    -6577 
   -6554    -6513    -6456    -6388    -6356    -6374    -6394    -6403 
   -6422    -6444    -6471    -6527    -6614    -6714    -6800    -6855 
   -6880    -6875    -6851    -6839    -6849    -6879    -6929    -6992 
   -7061    -7126    -7180    -7228    -7270    -7301    -7332    -7374 
   -7425    -7474    -7501    -7515    -7517    -7484    -7420    -7368 
   -7342    -7335    -7347    -7377    -7414    -7429    -7415    -7394 
   -7359    -7301    -7250    -7207    -7151    -7088    -7049    -7038 
   -7022    -6996    -6982    -6956    -6898    -6834    -6786    -6759 
   -6750    -6758    -6782    -6808    -6808    -6791    -6790    -6790 
   -6762    -6735    -6736    -6747    -6756    -6794    -6873    -6950 
   -6989    -7014    -7031    -7015    -6967    -6926    -6918    -6936 
   -6960    -7006    -7065    -7089    -7083    -7089    -7099    -7077 
   -7035    -6998    -6951    -6875    -6797    -6762    -6748    -6712 
   -6679    -6684    -6710    -6722    -6732    -6772    -6803    -6780 
   -6746    -6737    -6722    -6692    -6685    -6700    -6711    -6704 
   -6684    -6674    -6659    -6611    -6565    -6554    -6557    -6554 
   -6555    -6567    -6571    -6544    -6527    -6555    -6584    -6594 
   -6623    -6675    -6714    -6720    -6730    -6759    -6765    -6754 
   -6765    -6779    -6772    -6770    -6776    -6771    -6770    -6792 
   -6832    -6870    -6897    -6931    -6964    -6979    -6994    -7014 
   -7021    -7023    -7035    -7052    -7051    -7031    -7006    -6973 
   -6925    -6877    -6848    -6838    -6836    -6833    -6842    -6871 
   -6885    -6866    -6832    -6784    -6710    -6624    -6565    -6561 
   -6599    -6657    -6725    -6784    -6799    -6777    -6742    -6713 
   -6697    -6684    -6670    -6662    -6635    -6582    -6532    -6503 
   -6487    -6487    -6514    -6553    -6567    -6553    -6545    -6550 
   -6569    -6608    -6658    -6707    -6734    -6735    -6747    -6768 
   -6758    -6720    -6705    -6722    -6736    -6766    -6846    -6927 
   -6940    -6900    -6852    -6783    -6693    -6639    -6641    -6669 
   -6702    -6735    -6791    -6864    -6917    -6964    -7012    -7015 
   -6962    -6883    -6806    -6743    -6685    -6646    -6639    -6646 
   -6655    -6657    -6656    -6670    -6686    -6690    -6706    -6724 
   -6716    -6712    -6750    -6808    -6857    -6904    -6963    -6997 
   -6988    -6973    -6987    -7012    -7027    -7055    -7108    -7143 
   -7139    -7127    -7119    -7090    -7050    -7030    -7006    -6958 
   -6911    -6892    -6888    -6887    -6929    -7001    -7055    -7091 
   -7133    -7185    -7222    -7236    -7255    -7267    -7243    -7193 
   -7153    -7135    -7118    -7098    -7099    -7105    -7090    -7071 
   -7051    -7006    -6945    -6892    -6848    -6799    -6759    -6751 
   -6765    -6794    -6849    -6927    -7004    -7041    -7034    -7001 
   -6939    -6860    -6800    -6776    -6775    -6791    -6823    -6870 
   -6921    -6970    -7017    -7050    -7070    -7083    -7074    -7044 
   -7013    -6984    -6952    -6915    -6901    -6913    -6894    -6831 
   -6764    -6699    -6616    -6545    -6546    -6588    -6619    -6646 
   -6666    -6663    -6647    -6630    -6612    -6598    -6578    -6546 
   -6514    -6490    -6480    -6492    -6538    -6599    -6644    -6674 
   -6699    -6698    -6678    -6677    -6685    -6679    -6672    -6671 
   -6663    -6645    -6626    -6612    -6612    -6625    -6635    -6652 
   -6673    -6677    -6666    -6670    -6699    -6730    -6749    -6770 
   -6783    -6770    -6748    -6725    -6695    -6661    -6630    -6617 
   -6610    -6587    -6559    -6545    -6545    -6560    -6597    -6652 
   -6712    -6759    -6792    -6812    -6806    -6785    -6776    -6796 
   -6835    -6888    -6976    -7089    -7176    -7226    -7258    -7261 
   -7227    -7168    -7108    -7055    -7003    -6983    -7020    -7082 
   -7140    -7180    -7175    -7126    -7042    -6933    -6823    -6712 
   -6611    -6558    -6568    -6634    -6750    -6890    -7016    -7110 
   -7159    -7159    -7106    -6992    -6844    -6696    -6569    -6474 
   -6416    -6382    -6376    -6413    -6495    -6603    -6702    -6754 
   -6745    -6663    -6533    -6417    -6340    -6299    -6299    -6340 
   -6413    -6494    -6577    -6671    -6763    -6848    -6922    -6944 
   -6885    -6766    -6612    -6455    -6346    -6315    -6368    -6474 
   -6585    -6676    -6733    -6722    -6618    -6433    -6203    -5971 
   -5791    -5694    -5668    -5697    -5764    -5844    -5945    -6079 
   -6215    -6338    -6442    -6501    -6502    -6449    -6368    -6291 
   -6259    -6302    -6404    -6534    -6667    -6766    -6816    -6843 
   -6865    -6876    -6875    -6865    -6829    -6758    -6674    -6600 
   -6547    -6531    -6550    -6616    -6751    -6925    -7092    -7250 
   -7372    -7418    -7389    -7318    -7231    -7151    -7129    -7212 
   -7379    -7557    -7702    -7789    -7793    -7716    -7580    -7416 
   -7266    -7168    -7157    -7234    -7358    -7512    -7692    -7847 
   -7943    -7967    -7908    -7778    -7604    -7438    -7357    -7397 
   -7527    -7705    -7881    -7995    -7994    -7862    -7637    -7368 
   -7093    -6872    -6765    -6784    -6902    -7068    -7196    -7234 
   -7180    -7053    -6908    -6796    -6734    -6717    -6735    -6779 
   -6826    -6863    -6883    -6883    -6864    -6849    -6872    -6915 
   -6928    -6911    -6876    -6822    -6745    -6651    -6572    -6535 
   -6514    -6501    -6533    -6596    -6642    -6665    -6684    -6683 
   -6632    -6554    -6467    -6364    -6275    -6238    -6277    -6412 
   -6626    -6855    -7025    -7074    -6984    -6789    -6565    -6391 
   -6339    -6432    -6639    -6875    -7056    -7156    -7160    -7051 
   -6865    -6670    -6514    -6419    -6412    -6521    -6730    -6989 
   -7249    -7461    -7574    -7575    -7485    -7336    -7205    -7184 
   -7284    -7446    -7622    -7786    -7916    -7980    -7991    -8003 
   -8016    -8023    -8041    -8079    -8132    -8181    -8215    -8246 
   -8255    -8225    -8185    -8149    -8101    -8042    -8008    -8014 
   -8019    -7988    -7939    -7878    -7778    -7664    -7593    -7560 
   -7528    -7469    -7383    -7269    -7102    -6927    -6823    -6798 
   -6825    -6895    -6988    -7062    -7092    -7105    -7124    -7126 
   -7083    -7021    -6965    -6913    -6879    -6900    -7005    -7180 
   -7380    -7554    -7644    -7611    -7481    -7327    -7211    -7166 
   -7183    -7220    -7261    -7296    -7296    -7261    -7201    -7142 
   -7130    -7158    -7199    -7266    -7350    -7420    -7462    -7469 
   -7451    -7400    -7296    -7182    -7101    -7049    -7031    -7042 
   -7059    -7069    -7024    -6925    -6837    -6771    -6692    -6595 
   -6509    -6449    -6393    -6338    -6329    -6356    -6361    -6342 
   -6320    -6286    -6236    -6208    -6249    -6349    -6454    -6531 
   -6580    -6589    -6551    -6504    -6480    -6496    -6554    -6633 
   -6732    -6843    -6939    -7023    -7106    -7170    -7204    -7217 
   -7221    -7232    -7254    -7287    -7335    -7392    -7450    -7499 
   -7512    -7486    -7450    -7420    -7402    -7388    -7372    -7352 
   -7337    -7322    -7322    -7344    -7359    -7356    -7343    -7322 
   -7301    -7284    -7249    -7189    -7115    -7027    -6897    -6720 
   -6551    -6432    -6352    -6307    -6304    -6323    -6326    -6289 
   -6229    -6152    -6044    -5950    -5921    -5937    -5969    -5992 
   -5993    -5979    -5950    -5931    -5955    -6014    -6102    -6234 
   -6378    -6474    -6510    -6503    -6459    -6383    -6312    -6271 
   -6246    -6225    -6216    -6250    -6337    -6446    -6544    -6611 
   -6617    -6538    -6424    -6338    -6289    -6293    -6379    -6511 
   -6614    -6639    -6585    -6466    -6327    -6222    -6174    -6181 
   -6215    -6254    -6315    -6412    -6533    -6645    -6715    -6719 
   -6659    -6570    -6504    -6486    -6522    -6592    -6651    -6700 
   -6754    -6793    -6818    -6848    -6888    -6928    -6949    -6976 
   -7031    -7066    -7060    -7053    -7055    -7045    -7014    -6992 
   -7010    -7036    -7043    -7068    -7115    -7159    -7206    -7237 
   -7226    -7155    -7038    -6936    -6902    -6956    -7084    -7254 
   -7429    -7555    -7593    -7568    -7518    -7450    -7380    -7320 
   -7265    -7208    -7146    -7086    -7052    -7029    -7014    -7031 
   -7073    -7108    -7121    -7121    -7116    -7109    -7088    -7045 
   -6978    -6878    -6783    -6745    -6768    -6828    -6914    -7038 
   -7197    -7324    -7376    -7398    -7412    -7396    -7385    -7437 
   -7520    -7556    -7533    -7492    -7444    -7383    -7330    -7288 
   -7242    -7183    -7084    -6939    -6779    -6619    -6478    -6382 
   -6333    -6309    -6301    -6293    -6267    -6212    -6131    -6038 
   -5962    -5940    -5972    -6011    -6020    -5992    -5939    -5883 
   -5862    -5902    -5988    -6089    -6191    -6291    -6358    -6357 
   -6310    -6262    -6216    -6179    -6193    -6254    -6306    -6335 
   -6372    -6444    -6532    -6596    -6636    -6663    -6664    -6639 
   -6626    -6652    -6691    -6722    -6765    -6822    -6877    -6942 
   -7028    -7090    -7080    -7015    -6931    -6857    -6821    -6858 
   -6952    -7028    -7047    -7047    -7054    -7049    -7022    -7006 
   -7027    -7055    -7062    -7055    -7041    -7010    -6961    -6921 
   -6919    -6936    -6919    -6866    -6820    -6794    -6774    -6770 
   -6794    -6806    -6751    -6624    -6462    -6330    -6280    -6313 
   -6412    -6544    -6640    -6665    -6655    -6640    -6635    -6667 
   -6730    -6785    -6825    -6888    -6995    -7112    -7207    -7259 
   -7245    -7161    -7054    -7007    -7062    -7197    -7364    -7518 
   -7624    -7664    -7651    -7613    -7553    -7472    -7415    -7412 
   -7424    -7402    -7334    -7246    -7173    -7138    -7145    -7157 
   -7126    -7056    -6959    -6853    -6780    -6750    -6748    -6773 
   -6807    -6822    -6799    -6725    -6618    -6524    -6469    -6449 
   -6461    -6526    -6631    -6723    -6782    -6803    -6790    -6782 
   -6806    -6866    -6963    -7058    -7121    -7164    -7208    -7233 
   -7216    -7176    -7128    -7066    -7001    -6953    -6914    -6858 
   -6791    -6757    -6769    -6790    -6805    -6812    -6801    -6793 
   -6819    -6886    -6964    -7002    -6994    -6966    -6930    -6888 
   -6848    -6809    -6775    -6745    -6716    -6707    -6736    -6799 
   -6870    -6921    -6930    -6871    -6762    -6663    -6590    -6557 
   -6588    -6670    -6769    -6852    -6874    -6824    -6749    -6686 
   -6659    -6692    -6782    -6900    -7014    -7120    -7231    -7306 
   -7318    -7295    -7252    -7195    -7142    -7120    -7117    -7101 
   -7088    -7111    -7163    -7204    -7228    -7269    -7301    -7296 
   -7274    -7246    -7214    -7200    -7239    -7339    -7452    -7532 
   -7567    -7553    -7498    -7435    -7404    -7436    -7518    -7615 
   -7724    -7794    -7748    -7607    -7437    -7261    -7098    -6990 
   -6963    -6998    -7043    -7083    -7140    -7198    -7228    -7232 
   -7219    -7187    -7124    -7066    -7064    -7111    -7202    -7327 
   -7416    -7420    -7363    -7278    -7181    -7112    -7094    -7097 
   -7098    -7099    -7109    -7105    -7060    -7013    -6994    -6976 
   -6956    -6966    -6997    -7004    -6988    -6992    -7030    -7062 
   -7091    -7160    -7246    -7297    -7322    -7358    -7397    -7414 
   -7418    -7417    -7391    -7323    -7241    -7204    -7227    -7290 
   -7384    -7500    -7590    -7609    -7575    -7518    -7453    -7412 
   -7413    -7452    -7496    -7511    -7496    -7467    -7431    -7391 
   -7356    -7298    -7174    -6993    -6803    -6655    -6580    -6606 
   -6732    -6873    -6943    -6931    -6828    -6628    -6433    -6339 
