Origin Time       2015/01/14 21:02:00
Lat.              35.027
Long.             135.532
Depth. (km)       15
Mag.              3.9
Station Code      SIGH03
Station Lat.      34.853
Station Long.     136.0316
Station Height(m) 360
Record Time       2015/01/14 21:02:36
Sampling Freq(Hz) 100Hz
Duration Time(s)  120
Dir.              4
Scale Factor      7845(gal)/8223790
Max. Acc. (gal)   3.705
Last Correction   1970/01/31 00:00:00
Memo.             
[...]
   -5328    -5329    -5331    -5327    -5325    -5327    -5327    -5328 
   -5328    -5328    -5328    -5329    -5327    -5325    -5328    -5329 
   -5328    -5328    -5331    -5329    -5328    -5328    -5327    -5327 
   -5328    -5328    -5328    -5331    -5329    -5328    -5325    -5325 
   -5328    -5328    -5327    -5325    -5328    -5328    -5328    -5327 
   -5325    -5325    -5327    -5328    -5328    -5327    -5325    -5327 
   -5327    -5328    -5328    -5327    -5328    -5328    -5328    -5328 
   -5329    -5328    -5327    -5327    -5325    -5324    -5327    -5327 
   -5327    -5328    -5328    -5328    -5328    -5327    -5327    -5328 
   -5327    -5324    -5327    -5329    -5329    -5328    -5328    -5328 
   -5325    -5325    -5328    -5327    -5328    -5329    -5325    -5323 
   -5327    -5328    -5328    -5329    -5328    -5328    -5329    -5328 
   -5325    -5327    -5328    -5329    -5329    -5329    -5328    -5328 
   -5325    -5324    -5327    -5329    -5329    -5328    -5327    -5327 
   -5327    -5327    -5327    -5327    -5329    -5331    -5328    -5325 
   -5325    -5325    -5325    -5327    -5329    -5329    -5327    -5325 
   -5325    -5328    -5328    -5327    -5327    -5328    -5327    -5325 
   -5328    -5327    -5324    -5325    -5325    -5328    -5329    -5328 
   -5327    -5328    -5325    -5325    -5328    -5331    -5329    -5329 
   -5327    -5324    -5325    -5328    -5327    -5327    -5331    -5332 
   -5328    -5327    -5327    -5328    -5328    -5328    -5329    -5329 
   -5327    -5328    -5327    -5327    -5328    -5328    -5324    -5324 
   -5328    -5328    -5327    -5329    -5329    -5328    -5327    -5325 
   -5324    -5327    -5329    -5331    -5329    -5327    -5327    -5329 
   -5329    -5327    -5327    -5325    -5325    -5327    -5327    -5327 
   -5328    -5328    -5327    -5328    -5328    -5327    -5328    -5327 
   -5327    -5329    -5329    -5327    -5328    -5329    -5328    -5325 
   -5325    -5328    -5329    -5327    -5328    -5328    -5327    -5327 
   -5329    -5329    -5327    -5325    -5328    -5328    -5328    -5329 
   -5328    -5328    -5329    -5328    -5327    -5325    -5327    -5327 
   -5327    -5328    -5328    -5327    -5328    -5328    -5325    -5325 
   -5328    -5327    -5325    -5328    -5327    -5327    -5329    -5328 
   -5327    -5329    -5329    -5328    -5329    -5327    -5324    -5327 
   -5328    -5328    -5328    -5328    -5327    -5327    -5325    -5327 
   -5325    -5325    -5327    -5328    -5327    -5327    -5328    -5329 
   -5328    -5328    -5328    -5328    -5327    -5327    -5328    -5327 
   -5327    -5329    -5328    -5328    -5327    -5328    -5329    -5329 
   -5328    -5328    -5328    -5327    -5327    -5328    -5331    -5329 
   -5328    -5328    -5328    -5328    -5327    -5325    -5329    -5329 
   -5325    -5327    -5328    -5327    -5328    -5328    -5327    -5325 
   -5327    -5327    -5325    -5327    -5329    -5329    -5328    -5328 
   -5328    -5328    -5327    -5325    -5327    -5327    -5327    -5328 
   -5327    -5324    -5327    -5329    -5327    -5327    -5328    -5327 
   -5327    -5331    -5331    -5328    -5329    -5328    -5325    -5328 
   -5329    -5328    -5329    -5329    -5327    -5327    -5328    -5328 
   -5327    -5327    -5329    -5328    -5327    -5329    -5328    -5325 
   -5328    -5328    -5325    -5327    -5325    -5327    -5328    -5328 
   -5328    -5327    -5325    -5328    -5331    -5328    -5325    -5327 
   -5328    -5328    -5328    -5329    -5329    -5328    -5327    -5327 
   -5328    -5328    -5327    -5329    -5329    -5327    -5327    -5329 
   -5328    -5328    -5328    -5327    -5328    -5329    -5327    -5328 
   -5329    -5329    -5329    -5327    -5327    -5329    -5328    -5327 
   -5329    -5329    -5325    -5327    -5328    -5328    -5328    -5329 
   -5328    -5328    -5329    -5327    -5328    -5329    -5329    -5331 
   -5329    -5327    -5327    -5327    -5327    -5329    -5331    -5329 
   -5329    -5331    -5328    -5327    -5331    -5329    -5328    -5328 
   -5327    -5328    -5329    -5327    -5324    -5327    -5327    -5325 
   -5328    -5329    -5331    -5331    -5327    -5325    -5325    -5327 
   -5329    -5331    -5328    -5328    -5327    -5328    -5328    -5327 
   -5325    -5327    -5325    -5325    -5329    -5331    -5329    -5328 
   -5325    -5325    -5328    -5327    -5328    -5329    -5331    -5329 
   -5328    -5327    -5327    -5325    -5324    -5325    -5328    -5327 
   -5328    -5331    -5329    -5327    -5327    -5328    -5327    -5328 
   -5329    -5329    -5329    -5329    -5329    -5327    -5328    -5328 
   -5327    -5327    -5328    -5328    -5329    -5331    -5328    -5327 
   -5331    -5329    -5328    -5328    -5328    -5328    -5328    -5328 
   -5327    -5327    -5328    -5328    -5324    -5325    -5327    -5327 
   -5327    -5328    -5327    -5328    -5328    -5329    -5331    -5328 
   -5327    -5328    -5328    -5327    -5325    -5327    -5328    -5329 
   -5329    -5328    -5327    -5328    -5327    -5325    -5327    -5327 
   -5327    -5328    -5329    -5328    -5329    -5328    -5327    -5325 
   -5325    -5327    -5325    -5325    -5327    -5328    -5327    -5328 
   -5329    -5328    -5328    -5331    -5328    -5325    -5328    -5329 
   -5327    -5327    -5328    -5329    -5329    -5328    -5328    -5327 
   -5327    -5328    -5328    -5327    -5327    -5329    -5329    -5327 
   -5328    -5331    -5329    -5325    -5325    -5328    -5329    -5329 
   -5328    -5327    -5328    -5328    -5327    -5327    -5327    -5325 
   -5327    -5329    -5328    -5327    -5329    -5331    -5328    -5327 
   -5327    -5327    -5325    -5327    -5328    -5329    -5325    -5327 
   -5329    -5327    -5327    -5328    -5328    -5328    -5329    -5328 
   -5328    -5327    -5325    -5325    -5327    -5327    -5327    -5328 
   -5327    -5327    -5327    -5328    -5329    -5328    -5327    -5329 
   -5331    -5328    -5327    -5329    -5329    -5328    -5328    -5329 
   -5329    -5328    -5328    -5328    -5329    -5329    -5328    -5327 
   -5325    -5327    -5329    -5328    -5328    -5328    -5329    -5328 
   -5328    -5328    -5328    -5329    -5329    -5327    -5325    -5328 
   -5327    -5327    -5329    -5329    -5327    -5327    -5328    -5327 
   -5327    -5327    -5324    -5325    -5329    -5328    -5327    -5328 
   -5327    -5325    -5328    -5328    -5327    -5328    -5329    -5328 
   -5329    -5329    -5328    -5329    -5329    -5327    -5328    -5329 
   -5327    -5324    -5325    -5327    -5327    -5327    -5328    -5327 
   -5328    -5331    -5329    -5327    -5328    -5329    -5327    -5327 
   -5328    -5328    -5328    -5327    -5327    -5328    -5327    -5327 
   -5325    -5325    -5329    -5331    -5329    -5327    -5325    -5327 
   -5328    -5327    -5325    -5327    -5327    -5327    -5327    -5327 
   -5328    -5328    -5328    -5327    -5328    -5329    -5329    -5328 
   -5327    -5327    -5327    -5327    -5327    -5327    -5327    -5328 
   -5327    -5325    -5325    -5327    -5328    -5328    -5328    -5328 
   -5328    -5328    -5328    -5327    -5327    -5327    -5327    -5327 
   -5328    -5328    -5329    -5329    -5328    -5327    -5327    -5328 
   -5328    -5325    -5325    -5328    -5328    -5327    -5327    -5327 
   -5327    -5328    -5327    -5327    -5328    -5328    -5328    -5328 
   -5327    -5327    -5327    -5325    -5328    -5328    -5327    -5328 
   -5329    -5327    -5327    -5331    -5328    -5325    -5325    -5324 
   -5325    -5327    -5324    -5324    -5327    -5328    -5329    -5332 
   -5336    -5340    -5341    -5343    -5340    -5328    -5314    -5297 
   -5274    -5252    -5220    -5179    -5154    -5130    -5089    -5070 
   -5119    -5208    -5293    -5404    -5556    -5687    -5796    -5906 
   -5911    -5876    -5976    -5933    -5516    -5171    -5065    -4839 
   -4652    -4691    -4669    -4777    -5157    -5277    -5216    -5418 
   -5579    -5544    -5625    -5617    -5324    -5316    -5721    -5724 
   -5252    -5146    -5486    -5644    -5452    -5146    -4947    -4939 
   -4880    -4553    -4436    -4915    -5320    -5242    -5355    -5917 
   -6296    -6181    -6052    -6205    -6135    -5557    -5086    -5061 
   -5017    -4708    -4290    -4109    -4552    -5015    -4723    -4492 
   -5283    -6384    -6550    -5999    -5956    -6184    -5688    -5131 
   -5260    -5294    -4962    -5026    -5309    -5193    -5219    -5865 
   -6372    -5987    -5179    -4739    -4648    -4685    -4882    -5119 
   -5309    -5611    -5895    -5724    -5314    -5247    -5391    -5216 
   -4585    -4082    -4224    -4544    -4700    -5108    -5952    -6825 
   -7007    -6509    -6187    -5902    -5109    -4619    -4884    -5020 
   -4963    -5312    -5586    -5382    -5236    -5297    -5101    -4658 
   -4673    -5071    -4978    -4878    -5617    -6330    -6288    -6022 
   -5927    -6106    -6286    -5778    -4816    -4351    -4315    -4214 
   -4297    -4675    -5042    -5314    -5359    -5296    -5579    -5953 
   -5849    -5452    -5324    -5568    -5788    -5751    -5705    -5857 
   -5857    -5464    -5217    -5277    -4968    -4317    -3979    -4137 
   -4727    -5383    -5525    -5293    -5243    -5395    -5609    -5998 
   -6482    -6538    -5904    -5232    -4926    -4627    -4384    -4379 
   -4656    -5447    -6274    -6444    -6232    -6037    -5584    -4864 
   -4733    -5285    -5529    -5356    -5142    -4870    -4756    -4830 
   -4982    -5452    -5853    -5657    -5560    -5906    -5890    -5576 
   -5601    -5540    -5125    -4916    -4757    -4322    -4136    -4365 
   -4718    -5109    -5502    -5864    -5998    -5961    -5972    -5778 
   -5640    -5877    -5759    -5259    -5065    -5022    -4923    -4793 
   -4789    -5233    -5661    -5508    -5271    -5335    -5443    -5726 
   -6042    -5682    -5130    -5177    -5150    -4799    -4942    -5255 
   -5127    -5255    -5682    -5597    -5134    -4803    -4876    -5287 
   -5548    -5676    -5894    -5821    -5454    -5204    -5150    -5319 
   -5517    -5485    -5319    -4988    -4672    -4783    -5023    -5034 
   -5227    -5760    -6114    -6049    -5742    -5536    -5611    -5559 
   -5143    -4860    -4872    -4855    -5026    -5522    -5815    -5895 
   -6012    -5819    -5344    -4997    -4622    -4147    -4178    -4769 
   -5104    -4984    -4968    -5293    -5819    -6313    -6505    -6447 
   -6385    -6122    -5428    -4592    -4010    -3886    -4207    -4900 
   -5817    -6485    -6388    -5709    -5204    -4878    -4483    -4565 
   -5039    -5333    -5599    -5725    -5443    -5302    -5653    -5887 
   -5548    -5215    -5520    -5845    -5458    -5036    -5235    -5547 
   -5725    -5948    -5894    -5405    -4864    -4392    -4116    -4345 
   -4845    -5202    -5440    -5651    -5907    -6037    -5617    -5074 
   -5065    -5071    -4835    -4892    -5085    -5070    -4947    -4999 
   -5490    -6021    -6065    -5755    -5344    -5073    -5113    -5389 
   -5811    -6177    -6204    -6087    -6123    -5926    -5213    -4523 
   -4286    -4444    -4845    -5260    -5485    -5422    -5036    -4696 
   -4988    -5640    -5913    -5748    -5329    -4880    -4750    -4897 
   -5255    -5836    -6178    -6043    -5674    -5175    -4654    -4232 
   -4004    -4360    -5250    -5886    -6002    -6030    -6158    -6050 
   -5566    -5360    -5760    -6060    -5799    -5313    -4970    -4814 
   -4835    -4887    -4816    -4943    -5476    -5865    -5549    -5027 
   -4909    -4861    -4783    -4872    -4922    -5017    -5260    -5414 
   -5530    -5753    -6025    -6156    -5896    -5408    -5158    -5201 
   -5293    -5263    -5158    -5285    -5622    -5796    -5786    -5617 
   -5105    -4669    -4958    -5584    -5756    -5485    -5027    -4629 
   -4849    -5435    -5566    -5537    -5599    -5157    -4563    -4730 
   -5298    -5458    -5292    -5323    -5691    -6035    -6030    -5736 
   -5377    -5085    -4820    -4756    -5162    -5656    -5745    -5482 
   -5184    -5225    -5428    -5221    -4866    -4868    -5030    -5186 
   -5454    -5641    -5497    -5229    -5150    -5247    -5368    -5468 
   -5589    -5576    -5256    -4988    -5190    -5665    -6018    -5972 
   -5568    -5283    -5244    -5096    -4849    -4837    -5054    -5263 
   -5414    -5487    -5381    -5198    -5120    -5103    -4970    -4853 
   -5193    -5791    -6106    -6297    -6340    -5778    -4920    -4453 
   -4579    -5069    -5405    -5422    -5412    -5368    -5356    -5517 
   -5494    -5449    -5697    -5513    -4803    -4569    -4973    -5391 
   -5478    -5138    -4729    -4781    -5096    -5331    -5671    -6038 
   -5985    -5636    -5449    -5391    -5277    -5119    -5039    -5324 
   -5907    -6114    -5726    -5258    -4959    -4711    -4552    -4826 
   -5499    -5726    -5271    -5124    -5499    -5485    -5089    -5003 
   -5127    -5283    -5533    -5611    -5687    -6056    -6053    -5525 
   -5341    -5352    -4953    -4603    -4603    -4665    -4833    -5116 
   -5259    -5308    -5580    -5861    -5641    -5323    -5451    -5636 
   -5529    -5382    -5429    -5547    -5560    -5549    -5556    -5495 
   -5394    -5220    -4997    -4897    -4741    -4359    -4120    -4344 
   -4885    -5410    -5872    -6408    -6698    -6529    -6440    -6795 
   -7123    -6926    -6340    -5611    -4868    -4342    -3913    -3246 
   -2562    -2326    -2790    -3682    -4047    -3771    -4222    -5832 
   -7554    -8803    -9211    -8492    -7620    -7322    -6550    -4787 
   -3420    -2964    -2466    -2268    -2945    -3370    -3474    -4603 
   -6224    -6713    -6238    -6293    -7261    -8120    -8478    -8598 
   -8012    -6648    -5463    -4891    -4594    -4252    -3721    -2895 
   -2065    -2261    -3649    -4918    -5726    -6772    -7744    -7992 
   -7642    -6928    -5884    -4681    -3586    -3156    -3755    -4560 
   -5074    -5953    -6612    -6006    -5319    -5575    -5652    -5136 
   -4495    -3434    -2610    -3153    -4459    -5536    -6050    -5840 
   -5244    -4989    -5401    -6112    -6628    -6732    -6351    -5972 
   -6230    -6733    -6615    -5802    -5132    -5015    -4779    -4267 
   -3979    -3609    -3279    -3771    -4588    -5135    -5690    -6154 
   -6517    -7103    -7632    -7538    -6979    -6477    -5850    -5062 
   -4680    -4492    -4051    -4064    -4779    -4985    -4340    -3916 
   -4179    -4793    -5645    -6311    -5996    -5112    -4711    -4928 
   -5518    -6199    -6498    -6191    -5597    -5320    -5306    -5223 
   -5421    -5759    -5449    -4916    -4938    -5190    -5348    -5279 
   -4901    -4785    -4864    -4561    -4774    -5849    -6345    -6126 
   -5830    -4985    -3847    -3511    -4117    -4877    -5363    -5892 
   -6604    -7338    -7738    -7375    -6351    -5039    -4020    -3844 
   -4222    -4730    -5138    -5043    -4510    -4349    -5080    -5887 
   -6048    -6366    -7148    -7501    -7121    -6181    -4861    -3859 
   -3682    -3807    -3607    -3369    -3680    -4318    -4561    -4372 
   -4428    -5181    -6390    -7581    -8523    -8738    -7851    -6741 
   -6151    -5501    -4553    -3816    -3481    -3285    -2844    -2617 
   -3441    -4569    -4826    -4926    -5749    -6520    -6797    -7133 
   -7144    -6566    -6556    -7215    -7152    -5957    -4441    -3638 
   -3912    -4634    -5305    -5628    -5265    -4830    -4870    -4772 
   -4340    -4126    -4380    -4959    -5660    -6497    -7342    -7634 
   -7020    -5734    -4461    -3931    -4259    -4645    -4459    -4293 
   -4878    -6042    -7123    -7614    -7379    -6392    -4935    -3677 
   -3173    -3694    -4703    -5356    -5699    -5865    -5535    -4877 
   -4349    -3936    -3800    -4360    -5190    -5850    -6619    -6998 
   -6385    -5648    -5441    -5251    -5026    -4939    -4764    -4946 
   -5715    -6162    -6018    -5832    -5607    -5359    -5526    -5803 
   -5428    -4781    -4793    -5165    -5217    -5316    -5474    -5004 
   -4410    -4560    -5125    -5710    -6123    -5832    -4963    -4201 
   -3815    -3996    -4882    -6207    -7407    -7977    -7847    -7234 
   -6378    -5358    -4268    -3628    -3696    -4077    -4471    -4784 
   -5035    -5177    -5057    -5088    -5728    -6455    -6613    -6235 
   -5487    -4591    -3986    -3713    -3484    -3580    -4388    -5354 
   -5877    -6172    -6301    -6018    -5510    -5144    -5150    -5616 
   -6336    -7045    -7389    -6943    -5979    -5324    -5354    -5879 
   -6401    -6477    -5967    -4853    -3597    -2991    -3060    -3485 
   -4276    -5030    -5313    -5466    -5522    -5235    -5108    -5398 
   -5593    -5559    -5660    -5764    -5333    -4587    -4253    -4444 
   -4900    -5351    -5582    -5764    -6026    -6183    -6180    -5965 
   -5485    -5008    -4818    -4958    -5266    -5570    -6015    -6559 
   -6652    -6141    -5609    -5536    -5703    -5682    -5509    -5221 
   -4764    -4568    -4824    -5030    -4932    -4711    -4407    -4009 
   -3780    -3987    -4402    -4700    -5000    -5352    -5568    -5663 
   -5745    -5837    -5946    -6170    -6548    -6852    -6963    -6836 
   -6408    -6031    -5857    -5509    -5093    -4923    -4819    -4738 
   -4749    -4615    -4465    -4573    -4644    -4575    -4571    -4611 
   -4812    -5111    -5223    -5431    -5937    -6335    -6370    -6061 
   -5545    -5090    -4808    -4958    -5686    -6250    -6197    -5988 
   -5686    -5193    -4772    -4357    -3933    -3831    -4032    -4270 
   -4549    -5001    -5622    -6193    -6440    -6435    -6447    -6407 
   -6089    -5468    -4708    -4202    -4275    -4806    -5381    -5670 
   -5715    -5593    -5177    -4765    -4781    -5123    -5694    -6367 
   -6655    -6525    -6392    -6241    -5887    -5371    -4834    -4538 
   -4625    -4950    -5319    -5547    -5522    -5297    -4970    -4680 
   -4617    -4878    -5413    -5891    -5849    -5408    -5070    -4857 
   -4626    -4507    -4371    -4070    -4012    -4421    -4970    -5476 
   -5886    -6129    -6400    -6729    -6817    -6521    -5861    -5073 
   -4585    -4379    -4220    -4364    -5005    -5819    -6534    -7042 
   -7064    -6392    -5406    -4770    -4617    -4689    -4889    -5046 
   -5000    -4923    -4970    -5080    -5250    -5491    -5674    -5695 
   -5539    -5308    -5333    -5597    -5601    -5332    -5238    -5263 
   -5140    -5073    -5155    -5097    -5059    -5341    -5680    -5888 
   -6031    -5980    -5676    -5189    -4633    -4348    -4437    -4631 
   -4914    -5308    -5518    -5428    -5194    -5019    -5050    -5138 
   -5135    -5140    -5150    -5189    -5452    -5857    -6062    -5989 
   -5880    -5830    -5732    -5547    -5252    -4864    -4619    -4780 
   -5201    -5545    -5767    -5857    -5668    -5387    -5327    -5455 
   -5705    -5968    -5945    -5707    -5560    -5362    -5015    -4868 
   -5031    -5173    -5144    -5036    -4868    -4679    -4606    -4761 
   -5082    -5350    -5539    -5657    -5617    -5491    -5221    -4765 
   -4433    -4309    -4333    -4714    -5373    -5848    -5895    -5738 
   -5660    -5610    -5572    -5753    -6077    -6246    -6242    -6189 
   -6146    -6118    -5938    -5506    -5123    -5054    -5053    -4833 
   -4534    -4332    -4229    -4384    -4872    -5368    -5559    -5443 
