Origin Time       2015/01/14 21:02:00
Lat.              35.027
Long.             135.532
Depth. (km)       15
Mag.              3.9
Station Code      SIGH03
Station Lat.      34.853
Station Long.     136.0316
Station Height(m) 160
Record Time       2015/01/14 21:02:36
Sampling Freq(Hz) 100Hz
Duration Time(s)  120
Dir.              2
Scale Factor      3923(gal)/8224838
Max. Acc. (gal)   0.580
Last Correction   1970/01/31 00:00:00
Memo.             
[...]
  -40813   -40814   -40814   -40813   -40813   -40815   -40815   -40814 
  -40815   -40815   -40814   -40814   -40814   -40813   -40815   -40817 
  -40814   -40813   -40815   -40817   -40815   -40814   -40813   -40813 
  -40815   -40814   -40813   -40813   -40815   -40815   -40815   -40814 
  -40814   -40817   -40815   -40815   -40814   -40813   -40811   -40813 
  -40814   -40815   -40814   -40813   -40814   -40815   -40814   -40815 
  -40815   -40814   -40814   -40815   -40814   -40814   -40814   -40813 
  -40813   -40814   -40814   -40814   -40814   -40815   -40815   -40814 
  -40814   -40811   -40811   -40814   -40815   -40814   -40813   -40813 
  -40815   -40815   -40814   -40814   -40813   -40814   -40814   -40814 
  -40815   -40814   -40811   -40815   -40817   -40811   -40811   -40814 
  -40813   -40813   -40817   -40817   -40814   -40814   -40814   -40813 
  -40813   -40814   -40814   -40813   -40813   -40815   -40814   -40815 
  -40814   -40813   -40814   -40815   -40814   -40814   -40815   -40815 
  -40815   -40817   -40817   -40815   -40813   -40814   -40815   -40814 
  -40814   -40817   -40817   -40813   -40813   -40817   -40817   -40814 
  -40814   -40815   -40817   -40815   -40814   -40815   -40814   -40813 
  -40817   -40817   -40813   -40813   -40813   -40811   -40813   -40815 
  -40814   -40813   -40815   -40815   -40814   -40815   -40815   -40814 
  -40814   -40813   -40811   -40814   -40813   -40814   -40817   -40815 
  -40814   -40815   -40815   -40815   -40815   -40817   -40817   -40814 
  -40814   -40817   -40813   -40811   -40815   -40815   -40813   -40813 
  -40814   -40817   -40817   -40815   -40817   -40815   -40814   -40814 
  -40814   -40815   -40817   -40814   -40814   -40814   -40814   -40814 
  -40814   -40814   -40813   -40814   -40814   -40814   -40815   -40815 
  -40817   -40814   -40811   -40813   -40815   -40814   -40815   -40815 
  -40814   -40813   -40814   -40815   -40813   -40813   -40814   -40813 
  -40811   -40814   -40817   -40814   -40813   -40815   -40815   -40815 
  -40815   -40813   -40813   -40815   -40814   -40814   -40814   -40813 
  -40813   -40813   -40814   -40817   -40814   -40811   -40817   -40817 
  -40813   -40811   -40814   -40814   -40815   -40817   -40815   -40811 
  -40813   -40814   -40814   -40814   -40815   -40814   -40813   -40814 
  -40815   -40815   -40817   -40814   -40811   -40814   -40817   -40815 
  -40814   -40815   -40815   -40815   -40814   -40815   -40813   -40813 
  -40815   -40815   -40814   -40815   -40815   -40814   -40810   -40810 
  -40814   -40815   -40814   -40815   -40815   -40815   -40815   -40815 
  -40815   -40815   -40815   -40814   -40813   -40814   -40815   -40815 
  -40814   -40813   -40814   -40814   -40813   -40814   -40814   -40811 
  -40813   -40815   -40814   -40814   -40815   -40815   -40815   -40814 
  -40815   -40818   -40817   -40814   -40814   -40815   -40813   -40811 
  -40815   -40815   -40813   -40813   -40814   -40814   -40814   -40815 
  -40815   -40815   -40814   -40814   -40815   -40815   -40813   -40814 
  -40815   -40814   -40815   -40814   -40810   -40815   -40819   -40814 
  -40810   -40814   -40817   -40815   -40815   -40817   -40817   -40815 
  -40814   -40813   -40813   -40815   -40815   -40814   -40814   -40814 
  -40817   -40817   -40814   -40814   -40815   -40814   -40814   -40815 
  -40818   -40815   -40811   -40811   -40815   -40814   -40814   -40815 
  -40814   -40813   -40814   -40814   -40814   -40814   -40813   -40814 
  -40813   -40810   -40811   -40814   -40815   -40813   -40811   -40814 
  -40818   -40817   -40813   -40811   -40813   -40814   -40815   -40814 
  -40813   -40815   -40815   -40813   -40813   -40814   -40813   -40814 
  -40817   -40815   -40815   -40815   -40813   -40811   -40813   -40815 
  -40815   -40815   -40815   -40813   -40814   -40817   -40817   -40814 
  -40813   -40815   -40817   -40814   -40813   -40814   -40815   -40814 
  -40813   -40813   -40814   -40813   -40814   -40815   -40814   -40814 
  -40814   -40814   -40813   -40814   -40814   -40814   -40813   -40813 
  -40813   -40814   -40813   -40811   -40814   -40815   -40813   -40813 
  -40817   -40815   -40814   -40815   -40814   -40814   -40815   -40814 
  -40813   -40814   -40814   -40814   -40814   -40813   -40814   -40815 
  -40817   -40815   -40814   -40815   -40814   -40811   -40813   -40817 
  -40817   -40814   -40814   -40814   -40813   -40813   -40814   -40815 
  -40815   -40817   -40815   -40815   -40815   -40817   -40815   -40813 
  -40813   -40815   -40817   -40813   -40811   -40814   -40815   -40815 
  -40814   -40813   -40813   -40815   -40817   -40815   -40814   -40817 
  -40817   -40814   -40815   -40814   -40813   -40815   -40814   -40811 
  -40814   -40814   -40813   -40815   -40814   -40814   -40815   -40814 
  -40811   -40813   -40813   -40815   -40817   -40813   -40811   -40813 
  -40815   -40815   -40814   -40813   -40815   -40815   -40814   -40815 
  -40814   -40811   -40813   -40813   -40815   -40818   -40815   -40817 
  -40817   -40813   -40815   -40817   -40813   -40815   -40817   -40813 
  -40814   -40817   -40815   -40814   -40817   -40815   -40813   -40814 
  -40817   -40814   -40813   -40813   -40814   -40815   -40817   -40814 
  -40814   -40814   -40813   -40813   -40815   -40814   -40814   -40817 
  -40815   -40814   -40814   -40815   -40815   -40813   -40813   -40815 
  -40814   -40813   -40813   -40815   -40815   -40814   -40813   -40815 
  -40815   -40813   -40814   -40817   -40813   -40813   -40817   -40817 
  -40813   -40811   -40814   -40815   -40815   -40815   -40814   -40814 
  -40813   -40813   -40814   -40813   -40813   -40817   -40815   -40814 
  -40817   -40815   -40813   -40813   -40814   -40815   -40815   -40814 
  -40814   -40815   -40814   -40814   -40815   -40815   -40815   -40815 
  -40814   -40814   -40817   -40814   -40814   -40817   -40817   -40815 
  -40817   -40817   -40814   -40811   -40813   -40817   -40817   -40813 
  -40814   -40817   -40815   -40814   -40814   -40815   -40818   -40815 
  -40810   -40810   -40815   -40815   -40814   -40815   -40817   -40814 
  -40815   -40814   -40814   -40814   -40814   -40815   -40818   -40814 
  -40811   -40813   -40814   -40813   -40814   -40817   -40814   -40813 
  -40814   -40815   -40818   -40819   -40825   -40836   -40845   -40857 
  -40869   -40879   -40890   -40905   -40918   -40927   -40922   -40903 
  -40878   -40841   -40795   -40747   -40694   -40659   -40656   -40636 
  -40556   -40506   -40586   -40703   -40706   -40697   -40880   -41089 
  -41003   -40826   -40865   -40934   -41035   -41210   -41011   -40620 
  -40667   -40864   -40890   -40913   -40741   -40536   -40784   -40950 
  -40571   -40402   -40768   -40995   -40860   -40815   -40911   -40845 
  -40855   -41035   -40950   -40771   -40813   -40768   -40608   -40560 
  -40589   -40689   -40775   -40775   -40864   -40867   -40648   -40749 
  -41102   -41100   -40971   -40957   -40825   -40749   -40886   -40900 
  -40779   -40967   -41208   -40795   -40347   -40680   -40994   -40803 
  -40736   -40805   -40672   -40543   -40690   -40934   -40895   -40725 
  -40855   -41083   -41057   -40909   -40801   -40745   -40703   -40655 
  -40656   -40703   -40849   -40996   -40803   -40595   -40871   -41083 
  -40814   -40549   -40610   -40902   -41018   -40713   -40672   -41130 
  -41204   -40830   -40686   -40768   -40923   -41058   -40822   -40423 
  -40439   -40683   -40771   -40845   -40882   -40765   -40830   -41006 
  -40834   -40680   -40913   -40983   -40784   -40780   -40799   -40752 
  -40844   -40768   -40668   -40910   -40930   -40707   -40878   -41030 
  -40801   -40713   -40824   -40803   -40794   -40940   -40927   -40678 
  -40639   -40890   -40980   -40869   -40803   -40728   -40706   -40813 
  -40830   -40783   -40880   -40991   -40833   -40629   -40760   -40868 
  -40768   -40844   -40896   -40748   -40718   -40774   -40774   -40757 
  -40788   -40867   -40832   -40855   -41072   -41045   -40771   -40699 
  -40803   -40780   -40552   -40516   -40883   -40961   -40567   -40666 
  -41215   -41053   -40539   -40710   -40983   -40914   -41030   -41017 
  -40591   -40508   -40918   -41031   -40703   -40671   -40983   -40903 
  -40626   -40818   -41007   -40821   -40801   -40903   -40738   -40581 
  -40745   -40972   -40817   -40582   -40706   -40775   -40738   -40948 
  -40976   -40767   -40864   -40934   -40730   -40832   -40992   -40747 
  -40649   -40869   -40976   -40879   -40691   -40738   -41018   -40915 
  -40610   -40747   -40899   -40829   -40959   -40969   -40697   -40599 
  -40567   -40533   -40749   -40880   -40794   -40895   -40957   -40763 
  -40783   -40853   -40606   -40676   -41169   -41206   -40726   -40529 
  -40892   -41168   -40879   -40679   -40886   -40803   -40608   -40818 
  -40880   -40693   -40822   -40987   -40770   -40601   -40757   -40849 
  -40819   -40967   -41031   -40792   -40657   -40647   -40562   -40659 
  -40860   -40852   -40784   -40848   -40975   -40980   -40846   -40838 
  -40940   -40845   -40694   -40857   -40998   -40792   -40787   -41041 
  -40949   -40737   -40765   -40701   -40614   -40821   -40907   -40663 
  -40645   -40895   -40965   -40903   -40829   -40818   -40923   -40784 
  -40575   -40807   -41011   -40783   -40594   -40671   -40763   -40788 
  -40810   -40783   -40751   -40776   -40872   -41015   -40956   -40753 
  -40817   -40888   -40676   -40686   -40998   -41017   -40791   -40728 
  -40778   -40751   -40699   -40829   -41007   -40915   -40745   -40836 
  -40926   -40738   -40629   -40779   -40868   -40873   -40909   -40848 
  -40728   -40736   -40846   -40938   -40921   -40807   -40802   -40869 
  -40810   -40730   -40706   -40784   -40969   -40911   -40598   -40513 
  -40705   -40832   -40909   -41004   -40957   -40954   -41098   -40971 
  -40684   -40717   -40826   -40676   -40614   -40811   -40880   -40763 
  -40717   -40725   -40792   -40907   -40878   -40879   -41008   -40886 
  -40636   -40643   -40725   -40787   -40841   -40798   -40871   -40938 
  -40767   -40718   -40782   -40775   -40918   -40934   -40663   -40644 
  -40819   -40797   -40795   -40865   -40844   -40851   -40859   -40787 
  -40730   -40738   -40828   -40900   -40826   -40725   -40790   -40909 
  -40807   -40605   -40689   -40940   -40983   -40946   -40957   -40918 
  -40936   -40905   -40749   -40775   -40895   -40855   -40817   -40826 
  -40740   -40740   -40802   -40622   -40566   -40861   -40918   -40782 
  -40834   -40809   -40794   -40864   -40663   -40564   -40817   -40959 
  -40950   -40882   -40751   -40721   -40757   -40865   -40998   -40888 
  -40763   -40875   -40895   -40803   -40838   -40846   -40730   -40663 
  -40790   -40983   -40923   -40761   -40819   -40900   -40801   -40647 
  -40606   -40760   -40875   -40745   -40748   -41035   -41056   -40798 
  -40784   -40838   -40725   -40768   -40852   -40690   -40629   -40825 
  -40934   -40795   -40624   -40721   -40941   -40882   -40664   -40726 
  -40937   -40902   -40822   -40915   -40930   -40867   -40892   -40845 
  -40648   -40655   -40967   -41044   -40744   -40637   -40851   -40952 
  -40894   -40878   -40794   -40678   -40744   -40828   -40817   -40845 
  -40810   -40662   -40660   -40840   -40910   -40826   -40784   -40792 
  -40779   -40748   -40776   -40844   -40817   -40779   -40826   -40810 
  -40721   -40702   -40778   -40842   -40821   -40837   -40944   -40964 
  -40869   -40791   -40771   -40807   -40896   -41033   -41021   -40807 
  -40738   -40821   -40725   -40606   -40729   -40859   -40767   -40668 
  -40711   -40757   -40801   -40865   -40784   -40702   -40914   -41060 
  -40810   -40691   -40952   -41040   -40803   -40645   -40660   -40707 
  -40726   -40779   -40909   -41013   -41087   -41156   -41122   -41062 
  -41130   -41280   -41289   -41111   -41029   -41050   -40864   -40621 
  -40560   -40425   -40197   -40126   -40158   -40383   -40649   -40439 
  -40188   -40559   -41069   -41130   -40851   -40656   -40969   -41503 
  -41396   -40803   -40710   -41042   -41018   -40683   -40432   -40293 
  -40286   -40408   -40559   -40772   -41030   -41160   -41100   -41195 
  -41642   -41755   -41233   -40842   -40721   -40556   -40682   -40933 
  -40583   -39901   -39951   -40790   -41162   -40657   -40289   -40498 
  -40894   -41060   -40929   -41064   -41314   -40927   -40555   -40813 
  -41137   -41341   -41324   -40999   -40797   -40628   -40416   -40424 
  -40398   -40514   -40875   -40728   -40558   -41226   -41605   -41021 
  -40640   -40830   -40872   -40625   -40497   -40764   -40944   -40512 
  -40224   -40560   -40755   -40852   -41361   -41534   -40991   -40753 
  -41025   -40902   -40614   -40953   -41223   -40797   -40518   -40666 
  -40717   -40794   -40906   -40814   -40744   -40548   -40292   -40663 
  -41165   -41143   -41103   -41007   -40709   -40612   -40630   -40682 
  -40601   -40234   -40321   -40797   -40794   -40749   -40867   -40621 
  -40659   -41272   -41521   -41362   -41181   -40782   -40468   -40633 
  -40760   -40551   -40547   -40807   -40869   -40986   -41211   -40834 
  -40324   -40645   -41141   -41050   -40869   -40925   -40921   -40988 
  -41305   -41273   -40845   -40770   -40830   -40576   -40373   -40374 
  -40624   -41069   -41054   -40633   -40624   -40859   -40714   -40543 
  -40836   -41130   -40919   -40613   -40678   -40879   -40972   -41018 
  -40927   -40653   -40501   -40674   -40867   -40801   -40701   -40706 
  -40892   -41362   -41482   -41017   -40771   -40784   -40603   -40436 
  -40630   -41150   -41104   -40088   -39598   -40421   -41204   -41056 
  -40795   -41180   -41445   -40868   -40278   -40405   -40748   -40830 
  -40952   -41283   -41230   -40744   -40713   -41073   -41056   -40788 
  -40544   -40366   -40505   -40705   -40678   -40780   -41108   -41318 
  -41200   -40882   -40697   -40678   -40697   -40842   -41019   -40875 
  -40536   -40521   -40776   -40787   -40560   -40568   -40848   -40963 
  -40963   -41322   -41640   -41208   -40493   -40240   -40335   -40676 
  -41270   -41428   -40960   -40718   -40811   -40722   -40410   -40084 
  -40262   -40906   -41098   -41053   -41424   -41473   -40834   -40413 
  -40508   -40641   -40605   -40612   -40960   -41296   -41071   -40655 
  -40598   -40737   -40618   -40443   -40725   -40987   -40934   -41089 
  -41150   -40813   -40606   -40676   -40873   -40957   -40710   -40663 
  -40948   -40806   -40486   -40763   -41164   -41173   -41067   -40834 
  -40597   -40747   -40915   -40871   -40976   -40999   -40682   -40365 
  -40230   -40493   -41111   -41338   -41048   -40738   -40500   -40432 
  -40562   -40652   -40798   -40949   -40953   -41088   -41218   -40934 
  -40622   -40730   -40888   -40740   -40637   -40841   -41029   -40968 
  -40852   -40795   -40716   -40717   -40792   -40763   -40747   -40798 
  -40802   -40717   -40606   -40883   -41358   -41160   -40640   -40567 
  -40652   -40761   -40911   -40906   -40848   -40645   -40394   -40541 
  -40779   -40824   -40969   -40956   -40620   -40590   -40865   -40922 
  -40938   -40995   -40711   -40355   -40446   -40760   -40946   -41058 
  -41122   -41211   -41359   -41208   -40817   -40697   -40720   -40671 
  -40775   -40882   -40791   -40848   -41123   -41179   -40929   -40832 
  -41021   -40992   -40716   -40686   -40705   -40551   -40687   -40923 
  -40695   -40402   -40414   -40394   -40393   -40720   -41075   -41081 
  -40864   -40748   -40779   -40745   -40693   -40798   -40910   -40903 
  -40954   -41044   -40919   -40774   -40886   -40890   -40763   -40950 
  -40980   -40539   -40514   -41029   -41179   -40892   -40722   -40756 
  -40778   -40747   -40809   -40809   -40614   -40618   -40887   -40984 
  -40805   -40629   -40703   -40879   -40922   -40860   -40765   -40764 
  -40868   -40865   -40817   -40940   -41037   -40824   -40552   -40602 
  -40825   -40805   -40529   -40506   -40888   -41114   -41006   -40941 
  -40892   -40730   -40691   -40822   -40969   -41094   -41089   -40925 
  -40838   -40836   -40718   -40686   -40884   -40945   -40757   -40720 
  -40890   -40865   -40610   -40532   -40663   -40709   -40705   -40819 
  -40976   -40950   -40772   -40803   -40984   -40946   -40784   -40682 
  -40633   -40655   -40728   -40836   -40873   -40783   -40756   -40795 
  -40776   -40745   -40699   -40668   -40776   -40979   -41071   -40952 
  -40772   -40713   -40833   -40975   -40867   -40721   -40905   -41049 
  -40799   -40644   -40855   -40991   -40938   -40949   -40944   -40852 
  -40797   -40751   -40755   -40828   -40788   -40737   -40807   -40757 
  -40621   -40721   -40898   -40832   -40701   -40755   -40815   -40683 
  -40562   -40710   -40899   -40840   -40771   -40826   -40809   -40829 
  -40949   -40937   -40911   -41022   -41029   -40876   -40760   -40734 
  -40783   -40898   -40952   -40868   -40806   -40805   -40767   -40826 
  -40882   -40695   -40670   -40932   -40963   -40825   -40782   -40678 
  -40630   -40733   -40755   -40689   -40684   -40807   -40945   -40852 
  -40617   -40614   -40814   -40849   -40724   -40738   -40905   -40960 
  -40811   -40730   -40830   -40819   -40670   -40699   -40921   -41035 
  -40944   -40861   -40919   -41022   -41052   -40922   -40797   -40859 
  -40865   -40751   -40778   -40841   -40830   -40867   -40824   -40703 
  -40718   -40710   -40585   -40626   -40848   -40977   -40915   -40757 
  -40711   -40788   -40755   -40749   -40938   -40922   -40720   -40772 
  -40819   -40645   -40647   -40797   -40767   -40671   -40718   -40884 
  -41026   -41042   -40992   -40896   -40709   -40629   -40795   -40929 
  -40857   -40748   -40730   -40810   -40913   -40959   -40981   -40986 
  -40944   -40899   -40851   -40761   -40697   -40760   -40894   -40909 
  -40738   -40595   -40629   -40622   -40535   -40643   -40838   -40903 
  -40956   -40976   -40896   -40815   -40755   -40764   -40822   -40737 
  -40636   -40771   -40937   -40923   -40887   -40922   -40981   -40959 
  -40834   -40845   -40937   -40792   -40671   -40860   -40930   -40768 
  -40803   -40937   -40876   -40825   -40918   -40900   -40672   -40563 
  -40725   -40815   -40717   -40687   -40786   -40886   -40903   -40848 
  -40832   -40878   -40884   -40822   -40728   -40655   -40679   -40756 
  -40743   -40682   -40752   -40879   -40878   -40842   -40890   -40914 
  -40869   -40814   -40782   -40784   -40792   -40814   -40899   -40878 
  -40705   -40717   -40898   -40917   -40856   -40902   -40990   -41010 
  -40880   -40716   -40666   -40587   -40522   -40664   -40765   -40698 
  -40720   -40836   -40915   -40945   -40887   -40780   -40730   -40784 
  -40891   -40933   -40878   -40764   -40709   -40828   -40929   -40844 
  -40786   -40860   -40898   -40878   -40932   -41010   -40910   -40736 
  -40757   -40859   -40821   -40726   -40714   -40791   -40838   -40802 
  -40792   -40806   -40790   -40795   -40819   -40851   -40883   -40844 
  -40698   -40539   -40543   -40697   -40825   -40945   -41053   -40953 
  -40747   -40695   -40701   -40674   -40772   -40940   -41000   -41023 
  -41011   -40890   -40813   -40829   -40770   -40687   -40711   -40799 
  -40863   -40865   -40830   -40768   -40716   -40740   -40747   -40717 
  -40770   -40855   -40884   -40876   -40819   -40771   -40832   -40953 
  -41027   -40984   -40832   -40745   -40822   -40921   -40868   -40714 
  -40682   -40782   -40824   -40805   -40788   -40728   -40697   -40795 
