Origin Time       2015/01/14 21:02:00
Lat.              35.027
Long.             135.532
Depth. (km)       15
Mag.              3.9
Station Code      SIGH03
Station Lat.      34.853
Station Long.     136.0316
Station Height(m) 160
Record Time       2015/01/14 21:02:36
Sampling Freq(Hz) 100Hz
Duration Time(s)  120
Dir.              1
Scale Factor      3923(gal)/8224838
Max. Acc. (gal)   0.556
Last Correction   1970/01/31 00:00:00
Memo.             
[...]
  -53285   -53284   -53287   -53285   -53283   -53285   -53287   -53281 
  -53281   -53285   -53285   -53284   -53287   -53285   -53284   -53284 
  -53285   -53285   -53284   -53283   -53284   -53284   -53283   -53284 
  -53285   -53283   -53284   -53285   -53281   -53284   -53289   -53287 
  -53283   -53283   -53284   -53287   -53287   -53284   -53284   -53287 
  -53285   -53285   -53287   -53285   -53283   -53283   -53285   -53288 
  -53285   -53283   -53284   -53285   -53284   -53284   -53285   -53285 
  -53287   -53284   -53281   -53285   -53288   -53284   -53284   -53287 
  -53284   -53284   -53288   -53285   -53284   -53285   -53284   -53287 
  -53287   -53284   -53283   -53284   -53284   -53283   -53284   -53285 
  -53284   -53287   -53288   -53287   -53285   -53285   -53285   -53287 
  -53287   -53287   -53285   -53285   -53287   -53285   -53284   -53284 
  -53285   -53287   -53287   -53287   -53287   -53284   -53285   -53287 
  -53285   -53285   -53284   -53283   -53283   -53284   -53281   -53283 
  -53284   -53284   -53284   -53287   -53285   -53283   -53284   -53287 
  -53284   -53284   -53287   -53287   -53284   -53284   -53287   -53284 
  -53283   -53287   -53288   -53284   -53281   -53285   -53287   -53284 
  -53284   -53285   -53285   -53284   -53281   -53283   -53285   -53288 
  -53287   -53285   -53285   -53285   -53284   -53284   -53284   -53283 
  -53283   -53285   -53285   -53285   -53285   -53284   -53285   -53287 
  -53287   -53287   -53285   -53283   -53284   -53284   -53284   -53285 
  -53285   -53287   -53287   -53283   -53283   -53283   -53283   -53284 
  -53284   -53285   -53285   -53284   -53284   -53285   -53287   -53288 
  -53288   -53288   -53285   -53283   -53285   -53287   -53285   -53287 
  -53285   -53283   -53285   -53287   -53285   -53287   -53287   -53287 
  -53287   -53287   -53287   -53287   -53285   -53285   -53285   -53284 
  -53285   -53285   -53283   -53283   -53285   -53285   -53285   -53284 
  -53287   -53287   -53285   -53285   -53287   -53288   -53287   -53285 
  -53287   -53288   -53284   -53284   -53287   -53284   -53284   -53287 
  -53284   -53285   -53287   -53285   -53283   -53283   -53284   -53287 
  -53285   -53284   -53285   -53285   -53284   -53283   -53283   -53285 
  -53287   -53284   -53284   -53285   -53285   -53285   -53285   -53285 
  -53285   -53285   -53287   -53284   -53283   -53284   -53287   -53285 
  -53284   -53285   -53284   -53284   -53285   -53284   -53284   -53287 
  -53287   -53288   -53285   -53283   -53285   -53285   -53283   -53285 
  -53285   -53283   -53283   -53285   -53287   -53284   -53283   -53285 
  -53285   -53284   -53285   -53285   -53283   -53285   -53287   -53285 
  -53285   -53285   -53285   -53285   -53285   -53284   -53285   -53287 
  -53285   -53284   -53285   -53284   -53284   -53285   -53285   -53285 
  -53287   -53285   -53285   -53287   -53287   -53285   -53284   -53285 
  -53285   -53284   -53285   -53283   -53281   -53287   -53287   -53281 
  -53281   -53287   -53288   -53287   -53284   -53284   -53285   -53285 
  -53285   -53284   -53281   -53283   -53288   -53287   -53283   -53284 
  -53285   -53285   -53285   -53284   -53283   -53284   -53285   -53287 
  -53285   -53283   -53284   -53285   -53284   -53284   -53287   -53287 
  -53283   -53284   -53287   -53285   -53285   -53284   -53284   -53285 
  -53287   -53287   -53287   -53287   -53284   -53284   -53284   -53284 
  -53285   -53287   -53283   -53281   -53285   -53285   -53284   -53285 
  -53284   -53284   -53287   -53287   -53285   -53283   -53284   -53285 
  -53285   -53285   -53287   -53285   -53284   -53285   -53283   -53281 
  -53284   -53284   -53283   -53288   -53287   -53283   -53285   -53288 
  -53285   -53284   -53285   -53285   -53287   -53287   -53287   -53287 
  -53285   -53285   -53285   -53285   -53287   -53287   -53285   -53287 
  -53287   -53287   -53287   -53283   -53284   -53288   -53287   -53285 
  -53287   -53285   -53287   -53288   -53287   -53287   -53287   -53283 
  -53284   -53288   -53284   -53283   -53287   -53285   -53283   -53285 
  -53285   -53284   -53285   -53285   -53285   -53287   -53285   -53284 
  -53287   -53289   -53287   -53285   -53287   -53285   -53284   -53285 
  -53285   -53285   -53285   -53284   -53284   -53285   -53284   -53285 
  -53287   -53285   -53287   -53287   -53287   -53288   -53287   -53285 
  -53285   -53287   -53284   -53284   -53284   -53285   -53285   -53285 
  -53287   -53287   -53285   -53287   -53285   -53284   -53287   -53288 
  -53285   -53281   -53285   -53285   -53283   -53284   -53285   -53285 
  -53287   -53287   -53285   -53285   -53284   -53284   -53285   -53287 
  -53285   -53284   -53283   -53284   -53285   -53285   -53287   -53284 
  -53283   -53285   -53285   -53283   -53283   -53284   -53285   -53288 
  -53287   -53285   -53288   -53285   -53284   -53285   -53284   -53285 
  -53287   -53285   -53284   -53284   -53285   -53284   -53283   -53284 
  -53285   -53285   -53284   -53284   -53285   -53284   -53281   -53281 
  -53284   -53285   -53285   -53287   -53285   -53284   -53285   -53285 
  -53283   -53283   -53284   -53285   -53285   -53284   -53287   -53287 
  -53284   -53284   -53285   -53284   -53284   -53287   -53288   -53285 
  -53284   -53284   -53285   -53287   -53285   -53283   -53285   -53287 
  -53285   -53285   -53287   -53284   -53284   -53287   -53285   -53285 
  -53284   -53285   -53287   -53285   -53284   -53284   -53284   -53285 
  -53287   -53287   -53285   -53284   -53285   -53287   -53287   -53287 
  -53285   -53287   -53287   -53285   -53284   -53285   -53285   -53283 
  -53284   -53285   -53285   -53287   -53287   -53287   -53284   -53283 
  -53284   -53285   -53288   -53287   -53285   -53287   -53285   -53283 
  -53285   -53287   -53285   -53284   -53284   -53285   -53285   -53284 
  -53284   -53285   -53285   -53287   -53285   -53285   -53285   -53285 
  -53284   -53281   -53283   -53287   -53287   -53283   -53283   -53285 
  -53285   -53283   -53283   -53285   -53285   -53285   -53285   -53285 
  -53285   -53287   -53285   -53285   -53287   -53284   -53283   -53287 
  -53287   -53284   -53284   -53285   -53285   -53285   -53284   -53284 
  -53283   -53285   -53288   -53285   -53283   -53284   -53283   -53281 
  -53284   -53284   -53283   -53285   -53285   -53285   -53287   -53285 
  -53283   -53285   -53285   -53284   -53285   -53287   -53285   -53285 
  -53287   -53285   -53284   -53285   -53283   -53284   -53284   -53283 
  -53284   -53284   -53283   -53285   -53288   -53287   -53287   -53287 
  -53283   -53284   -53287   -53284   -53283   -53285   -53287   -53285 
  -53284   -53287   -53288   -53285   -53284   -53285   -53284   -53284 
  -53285   -53284   -53283   -53285   -53287   -53284   -53283   -53284 
  -53288   -53287   -53284   -53284   -53285   -53283   -53283   -53284 
  -53284   -53283   -53283   -53283   -53285   -53284   -53283   -53283 
  -53283   -53285   -53287   -53284   -53283   -53284   -53284   -53283 
  -53284   -53285   -53285   -53284   -53283   -53284   -53283   -53284 
  -53285   -53284   -53285   -53284   -53284   -53287   -53285   -53283 
  -53285   -53287   -53287   -53284   -53284   -53285   -53285   -53285 
  -53288   -53287   -53283   -53284   -53284   -53285   -53285   -53285 
  -53285   -53287   -53285   -53285   -53284   -53284   -53287   -53285 
  -53284   -53285   -53285   -53284   -53285   -53284   -53283   -53285 
  -53288   -53288   -53284   -53283   -53285   -53288   -53285   -53285 
  -53285   -53284   -53284   -53284   -53284   -53284   -53284   -53283 
  -53284   -53287   -53287   -53284   -53285   -53285   -53283   -53284 
  -53285   -53285   -53287   -53285   -53284   -53285   -53287   -53285 
  -53283   -53283   -53287   -53285   -53284   -53283   -53279   -53277 
  -53276   -53269   -53264   -53258   -53252   -53244   -53233   -53226 
  -53221   -53217   -53225   -53241   -53258   -53291   -53335   -53373 
  -53403   -53437   -53446   -53420   -53407   -53423   -53393   -53292 
  -53219   -53219   -53169   -53071   -53073   -53091   -53061   -53239 
  -53509   -53407   -53142   -53230   -53476   -53501   -53376   -53268 
  -53299   -53410   -53370   -53295   -53308   -53230   -53202   -53347 
  -53306   -53119   -53179   -53299   -53245   -53204   -53165   -53046 
  -53136   -53491   -53615   -53396   -53341   -53434   -53341   -53261 
  -53339   -53488   -53601   -53476   -53230   -53073   -52944   -53022 
  -53298   -53231   -52853   -52901   -53396   -53481   -53104   -53149 
  -53542   -53495   -53292   -53476   -53547   -53320   -53373   -53426 
  -53092   -53127   -53570   -53418   -52913   -52968   -53223   -53192 
  -53308   -53554   -53372   -53032   -53190   -53580   -53557   -53233 
  -53080   -53199   -53343   -53341   -53249   -53153   -53196   -53350 
  -53310   -53235   -53341   -53279   -53117   -53210   -53323   -53292 
  -53334   -53329   -53196   -53343   -53596   -53443   -53308   -53518 
  -53507   -53149   -52953   -53106   -53334   -53306   -53099   -53161 
  -53424   -53345   -53168   -53427   -53578   -53329   -53287   -53277 
  -52995   -52995   -53298   -53379   -53296   -53408   -53569   -53292 
  -52884   -53072   -53406   -53225   -53106   -53404   -53415   -53090 
  -53148   -53515   -53643   -53468   -53249   -53266   -53343   -53129 
  -53017   -53238   -53206   -53100   -53549   -53832   -53315   -52915 
  -53264   -53565   -53366   -53275   -53316   -53152   -53215   -53407 
  -53154   -53013   -53304   -53287   -53063   -53303   -53503   -53185 
  -53028   -53214   -53237   -53207   -53408   -53580   -53441   -53230 
  -53310   -53445   -53391   -53414   -53411   -53204   -53149   -53231 
  -53195   -53207   -53289   -53346   -53393   -53380   -53380   -53337 
  -53098   -52947   -53060   -53320   -53566   -53387   -52957   -53075 
  -53493   -53485   -53276   -53235   -53300   -53389   -53356   -53333 
  -53461   -53316   -53086   -53261   -53310   -53145   -53265   -53312 
  -53185   -53261   -53372   -53373   -53269   -53061   -53059   -53333 
  -53514   -53455   -53331   -53223   -53218   -53411   -53416   -53110 
  -53106   -53320   -53312   -53358   -53365   -53138   -53196   -53433 
  -53349   -53242   -53198   -53063   -53161   -53346   -53283   -53258 
  -53360   -53426   -53447   -53368   -53272   -53281   -53318   -53331 
  -53343   -53350   -53264   -53102   -53082   -53142   -53165   -53308 
  -53406   -53326   -53366   -53473   -53410   -53279   -53185   -53169 
  -53264   -53360   -53327   -53258   -53303   -53339   -53257   -53199 
  -53271   -53406   -53345   -53050   -53067   -53397   -53381   -53210 
  -53335   -53372   -53295   -53406   -53295   -53021   -53145   -53289 
  -53223   -53345   -53431   -53334   -53389   -53408   -53256   -53212 
  -53188   -53171   -53420   -53500   -53158   -53148   -53455   -53358 
  -53119   -53113   -53141   -53265   -53447   -53422   -53292   -53195 
  -53142   -53316   -53519   -53256   -52961   -53237   -53480   -53291 
  -53158   -53214   -53299   -53361   -53350   -53388   -53454   -53311 
  -53114   -53122   -53237   -53416   -53536   -53366   -53179   -53165 
  -53158   -53250   -53339   -53226   -53230   -53395   -53368   -53335 
  -53449   -53365   -53173   -53200   -53230   -53150   -53248   -53373 
  -53291   -53261   -53296   -53230   -53239   -53288   -53196   -53173 
  -53323   -53392   -53419   -53531   -53383   -53083   -53218   -53427 
  -53230   -53082   -53215   -53345   -53296   -53225   -53391   -53458 
  -53226   -53276   -53416   -53183   -53225   -53534   -53377   -53148 
  -53163   -53061   -53095   -53422   -53573   -53433   -53176   -52998 
  -53184   -53500   -53455   -53248   -53177   -53118   -53095   -53168 
  -53175   -53226   -53493   -53607   -53434   -53396   -53392   -53225 
  -53208   -53266   -53199   -53250   -53357   -53333   -53319   -53200 
  -52960   -53158   -53609   -53458   -53090   -53235   -53430   -53361 
  -53271   -53106   -53121   -53423   -53449   -53285   -53248   -53133 
  -53177   -53397   -53295   -53179   -53334   -53331   -53231   -53314 
  -53407   -53406   -53354   -53268   -53175   -53181   -53315   -53307 
  -53210   -53350   -53445   -53291   -53242   -53284   -53208   -53137 
  -53181   -53319   -53400   -53356   -53377   -53383   -53150   -53001 
  -53208   -53381   -53287   -53272   -53343   -53276   -53315   -53446 
  -53349   -53242   -53315   -53327   -53276   -53312   -53302   -53172 
  -53164   -53315   -53325   -53214   -53322   -53501   -53308   -53006 
  -53107   -53366   -53427   -53414   -53347   -53187   -53194   -53357 
  -53334   -53175   -53140   -53260   -53387   -53287   -53145   -53293 
  -53408   -53295   -53327   -53399   -53161   -53003   -53300   -53563 
  -53399   -53204   -53254   -53258   -53227   -53414   -53466   -53204 
  -53214   -53477   -53360   -53099   -53262   -53501   -53288   -52988 
  -53086   -53315   -53424   -53455   -53308   -53102   -53134   -53326 
  -53392   -53295   -53285   -53403   -53399   -53329   -53293   -53145 
  -53026   -53194   -53360   -53252   -53172   -53273   -53352   -53400 
  -53476   -53457   -53354   -53312   -53352   -53314   -53172   -53136 
  -53256   -53410   -53445   -53237   -53113   -53323   -53400   -53187 
  -53138   -53272   -53306   -53283   -53283   -53176   -53023   -53117 
  -53275   -53109   -53015   -53246   -53181   -52971   -53204   -53381 
  -53268   -53433   -53630   -53482   -53484   -53734   -53877   -53955 
  -53831   -53393   -53091   -53137   -53329   -53388   -53088   -52617 
  -52347   -52537   -53265   -53566   -52637   -52118   -53196   -53993 
  -53518   -53212   -53496   -53744   -54032   -54072   -53310   -52807 
  -53551   -53995   -53242   -52991   -53441   -53103   -52654   -53318 
  -53954   -53265   -52270   -52411   -52982   -52932   -53113   -53775 
  -53735   -53211   -53185   -53724   -54288   -53905   -52921   -52936 
  -53690   -53859   -53389   -52860   -52758   -52967   -53080   -53360 
  -53414   -52627   -52462   -53435   -53520   -52840   -53023   -53493 
  -53859   -54367   -53973   -52999   -53167   -54005   -54009   -53245 
  -52775   -53076   -53277   -52749   -52477   -53042   -53383   -52895 
  -52709   -53515   -53947   -53314   -53110   -53686   -53892   -53802 
  -53721   -53350   -52978   -52848   -53021   -53415   -53410   -53345 
  -53568   -53152   -52639   -53029   -53322   -53164   -53144   -52996 
  -52921   -53204   -53203   -53038   -53264   -53447   -53401   -53561 
  -53673   -53364   -53221   -53480   -53458   -53219   -53293   -53376 
  -53264   -53246   -53179   -52972   -53059   -53489   -53688   -53273 
  -52807   -53099   -53734   -53941   -53742   -53190   -52710   -52959 
  -53226   -52829   -52701   -53275   -53667   -53605   -53527   -53455 
  -53388   -53508   -53515   -53306   -53460   -53781   -53512   -52990 
  -52902   -53038   -53053   -53148   -53322   -53109   -52797   -53144 
  -53689   -53611   -53396   -53690   -53731   -52986   -52805   -53557 
  -53601   -52992   -53045   -53352   -53221   -53060   -53126   -53126 
  -53023   -53122   -53261   -53269   -53497   -53707   -53418   -53160 
  -53303   -53439   -53430   -53312   -53129   -53045   -52987   -52990 
  -53299   -53802   -54020   -53671   -53223   -53138   -53113   -53014 
  -53102   -53257   -53226   -53203   -53411   -53491   -53190   -53130 
  -53584   -53464   -52515   -52412   -53474   -53921   -53464   -53148 
  -52894   -52672   -52995   -53422   -53423   -53335   -53410   -53590 
  -53692   -53449   -53192   -53258   -53303   -53446   -53819   -53605 
  -53007   -53055   -53156   -52803   -52791   -53065   -53337   -53812 
  -53794   -53195   -53334   -54043   -53705   -52548   -52290   -52906 
  -53214   -53500   -54086   -54112   -53636   -53287   -52906   -52610 
  -52828   -53491   -53950   -53582   -53009   -53096   -53401   -53342 
  -52972   -52783   -53356   -53879   -53295   -52767   -53167   -53339 
  -53234   -53555   -53644   -53492   -53643   -53443   -53044   -53242 
  -53280   -52928   -53141   -53424   -53146   -53134   -53542   -53572 
  -53164   -52867   -52951   -53252   -53505   -53495   -53180   -52952 
  -52992   -52978   -52984   -53239   -53484   -53516   -53303   -53013 
  -53037   -53308   -53526   -53590   -53418   -53302   -53507   -53630 
  -53542   -53461   -53245   -53040   -53103   -53200   -53300   -53291 
  -53060   -53196   -53478   -53287   -53357   -53696   -53457   -53172 
  -53194   -53071   -53011   -53114   -53168   -53323   -53454   -53352 
  -53345   -53536   -53503   -53256   -53150   -53145   -53231   -53406 
  -53304   -53060   -53167   -53379   -53339   -53299   -53404   -53523 
  -53604   -53526   -53254   -53106   -53303   -53481   -53249   -53011 
  -53115   -53075   -52907   -53180   -53424   -53175   -53067   -53203 
  -53100   -53040   -53204   -53292   -53412   -53568   -53392   -53059 
  -53030   -53302   -53524   -53453   -53361   -53561   -53693   -53477 
  -53258   -53271   -53373   -53384   -53276   -53218   -53279   -53256 
  -53091   -53121   -53383   -53365   -53113   -53090   -53088   -52959 
  -53091   -53370   -53353   -53204   -53261   -53416   -53419   -53284 
  -53312   -53554   -53577   -53277   -53204   -53505   -53619   -53353 
  -53134   -53180   -53353   -53399   -53142   -52917   -53142   -53449 
  -53314   -53034   -53079   -53397   -53555   -53237   -52929   -53142 
  -53280   -53014   -53137   -53676   -53690   -53230   -53102   -53346 
  -53473   -53352   -53299   -53524   -53638   -53360   -53153   -53322 
  -53472   -53361   -53261   -53275   -53227   -53212   -53271   -53160 
  -53095   -53315   -53395   -53200   -53148   -53303   -53383   -53230 
  -53057   -53141   -53281   -53258   -53234   -53252   -53276   -53338 
  -53362   -53381   -53399   -53234   -53072   -53276   -53555   -53466 
  -53231   -53187   -53215   -53144   -53130   -53256   -53308   -53279 
  -53289   -53204   -53098   -53203   -53362   -53373   -53337   -53327 
  -53310   -53330   -53449   -53508   -53337   -53130   -53104   -53165 
  -53248   -53341   -53325   -53229   -53192   -53257   -53453   -53609 
  -53450   -53194   -53121   -53057   -53071   -53302   -53408   -53354 
  -53343   -53283   -53265   -53326   -53287   -53303   -53392   -53273 
  -53096   -53099   -53149   -53195   -53325   -53404   -53345   -53392 
  -53488   -53339   -53265   -53392   -53289   -53156   -53261   -53289 
  -53248   -53242   -53138   -53129   -53307   -53389   -53418   -53519 
  -53442   -53181   -53082   -53194   -53310   -53338   -53347   -53326 
  -53227   -53223   -53315   -53250   -53206   -53414   -53541   -53415 
  -53365   -53416   -53319   -53152   -53082   -53092   -53177   -53271 
  -53287   -53337   -53433   -53369   -53231   -53230   -53280   -53272 
  -53244   -53271   -53415   -53478   -53238   -53003   -53113   -53291 
  -53333   -53465   -53576   -53438   -53284   -53169   -53022   -53057 
  -53199   -53253   -53333   -53329   -53146   -53113   -53283   -53372 
  -53326   -53283   -53285   -53284   -53334   -53482   -53505   -53295 
  -53138   -53226   -53354   -53308   -53245   -53349   -53395   -53222 
  -53123   -53225   -53312   -53408   -53508   -53356   -53129   -53203 
  -53362   -53316   -53273   -53334   -53310   -53222   -53204   -53207 
  -53169   -53131   -53173   -53314   -53434   -53395   -53191   -53075 
  -53291   -53509   -53360   -53204   -53307   -53277   -53131   -53273 
