Origin Time       2015/01/14 21:02:00
Lat.              35.027
Long.             135.532
Depth. (km)       15
Mag.              3.9
Station Code      SIGH03
Station Lat.      34.853
Station Long.     136.0316
Station Height(m) 360
Record Time       2015/01/14 21:02:36
Sampling Freq(Hz) 100Hz
Duration Time(s)  120
Dir.              5
Scale Factor      7845(gal)/8223790
Max. Acc. (gal)   4.716
Last Correction   1970/01/31 00:00:00
Memo.             
[...]
    1719     1719     1719     1719     1722     1722     1719     1721 
    1722     1722     1722     1719     1719     1721     1722     1721 
    1719     1721     1723     1719     1717     1719     1719     1719 
    1719     1721     1723     1721     1719     1722     1721     1719 
    1721     1721     1722     1722     1721     1718     1718     1719 
    1721     1721     1722     1722     1722     1719     1719     1721 
    1719     1719     1721     1719     1719     1721     1721     1719 
    1719     1721     1722     1719     1721     1723     1721     1719 
    1719     1721     1719     1721     1722     1721     1721     1721 
    1719     1719     1721     1721     1722     1722     1721     1719 
    1722     1723     1721     1721     1722     1722     1722     1721 
    1721     1722     1723     1721     1723     1723     1721     1721 
    1722     1721     1719     1721     1723     1722     1719     1719 
    1721     1718     1718     1718     1719     1721     1721     1719 
    1721     1719     1718     1719     1719     1721     1722     1722 
    1721     1722     1722     1718     1718     1722     1721     1719 
    1721     1721     1721     1721     1721     1722     1722     1721 
    1721     1722     1722     1718     1718     1722     1721     1721 
    1721     1721     1721     1722     1719     1718     1721     1721 
    1719     1719     1722     1722     1719     1721     1722     1721 
    1721     1723     1721     1719     1721     1719     1721     1723 
    1723     1719     1719     1722     1722     1722     1722     1722 
    1721     1722     1723     1723     1722     1721     1721     1721 
    1719     1721     1722     1723     1721     1718     1718     1718 
    1719     1722     1723     1721     1719     1722     1723     1722 
    1722     1722     1722     1721     1721     1723     1722     1718 
    1722     1725     1721     1722     1723     1719     1718     1722 
    1723     1721     1721     1721     1722     1722     1721     1719 
    1721     1721     1719     1722     1722     1721     1719     1721 
    1721     1721     1722     1722     1723     1723     1721     1718 
    1719     1721     1721     1722     1723     1721     1719     1721 
    1722     1719     1719     1722     1722     1723     1723     1722 
    1722     1721     1721     1722     1721     1721     1723     1722 
    1719     1722     1722     1721     1721     1719     1721     1722 
    1721     1719     1722     1722     1721     1721     1722     1721 
    1718     1719     1722     1719     1718     1719     1719     1721 
    1722     1721     1721     1721     1722     1722     1721     1719 
    1719     1723     1723     1722     1722     1725     1722     1719 
    1721     1722     1722     1721     1719     1721     1719     1718 
    1722     1722     1722     1719     1718     1719     1722     1722 
    1721     1722     1722     1721     1719     1719     1719     1722 
    1722     1721     1721     1721     1718     1719     1722     1721 
    1721     1723     1722     1721     1721     1719     1721     1721 
    1719     1719     1721     1721     1721     1721     1719     1721 
    1722     1719     1721     1722     1719     1718     1722     1722 
    1719     1719     1721     1721     1722     1721     1719     1719 
    1719     1721     1722     1723     1723     1723     1722     1721 
    1721     1721     1721     1722     1723     1722     1722     1721 
    1718     1719     1722     1721     1719     1722     1725     1725 
    1722     1722     1722     1722     1721     1719     1721     1722 
    1721     1719     1721     1722     1719     1719     1722     1721 
    1721     1721     1721     1722     1725     1721     1719     1722 
    1722     1718     1718     1721     1721     1721     1722     1722 
    1721     1721     1722     1721     1721     1722     1722     1721 
    1721     1722     1721     1721     1722     1722     1722     1721 
    1721     1723     1723     1721     1719     1719     1719     1722 
    1721     1721     1722     1721     1719     1719     1721     1722 
    1722     1721     1721     1721     1721     1721     1722     1722 
    1721     1721     1723     1723     1721     1719     1722     1722 
    1721     1721     1721     1721     1722     1722     1721     1722 
    1719     1718     1722     1722     1721     1721     1722     1722 
    1719     1719     1722     1721     1719     1721     1721     1721 
    1722     1722     1721     1718     1718     1721     1721     1719 
    1719     1721     1721     1719     1721     1721     1719     1721 
    1721     1718     1717     1719     1722     1723     1723     1722 
    1721     1721     1721     1722     1722     1722     1719     1719 
    1721     1721     1722     1723     1721     1719     1721     1721 
    1719     1721     1721     1721     1721     1719     1722     1722 
    1719     1721     1722     1718     1718     1721     1719     1719 
    1721     1721     1721     1722     1719     1719     1721     1722 
    1722     1721     1719     1722     1723     1722     1722     1722 
    1719     1721     1722     1722     1722     1722     1722     1722 
    1721     1719     1718     1717     1719     1719     1718     1719 
    1721     1721     1721     1721     1722     1722     1722     1723 
    1723     1721     1719     1722     1722     1719     1721     1722 
    1719     1719     1722     1721     1719     1721     1721     1719 
    1719     1719     1721     1722     1722     1721     1719     1718 
    1719     1721     1719     1721     1723     1722     1719     1721 
    1722     1721     1721     1721     1721     1722     1722     1721 
    1721     1722     1721     1719     1721     1722     1722     1723 
    1723     1725     1723     1721     1721     1719     1721     1721 
    1721     1722     1723     1722     1721     1721     1721     1723 
    1722     1719     1722     1725     1721     1719     1721     1723 
    1723     1719     1719     1722     1723     1721     1719     1721 
    1721     1722     1723     1721     1719     1723     1723     1719 
    1719     1721     1722     1722     1722     1721     1719     1719 
    1722     1721     1719     1719     1722     1722     1719     1718 
    1721     1722     1721     1721     1721     1721     1721     1721 
    1722     1722     1722     1719     1719     1722     1721     1718 
    1719     1721     1719     1718     1719     1723     1722     1719 
    1719     1721     1722     1721     1722     1719     1717     1719 
    1721     1719     1721     1721     1719     1721     1721     1721 
    1722     1721     1719     1719     1722     1721     1721     1721 
    1722     1722     1722     1721     1719     1719     1722     1723 
    1722     1723     1725     1725     1722     1721     1721     1721 
    1721     1721     1719     1719     1719     1721     1721     1721 
    1719     1718     1719     1721     1719     1718     1719     1721 
    1722     1722     1722     1721     1718     1719     1723     1723 
    1718     1718     1722     1722     1721     1721     1721     1722 
    1722     1721     1719     1718     1719     1721     1718     1713 
    1709     1705     1698     1690     1684     1678     1671     1671 
    1671     1672     1675     1682     1691     1701     1713     1725 
    1729     1736     1741     1718     1684     1683     1687     1657 
    1663     1752     1842     1852     1871     1962     2014     2066 
    2142     2053     1984     2008     1647     1183     1264     1383 
    1223     1359     1626     1607     1764     2095     2050     1964 
    2235     2388     2029     1425     1067     1193     1578     1529 
     873      847     1780     2172     1877     1877     1923     1921 
    2153     1802      981     1206     2088     2154     1698     1603 
    2155     2952     2841     1861     1464     1881     1926     1004 
    -125     -186      745     1190     1000     1374     2438     3294 
    3179     2539     2556     2906     2498     1578     1063     1251 
    1468     1107      939     1614     2312     2396     1950     1385 
    1285     1221      699      552     1026     1526     2088     2268 
    1796     2033     3096     3237     2297     1672     1890     2282 
    1942     1147     1325     2165     1930     1143      839      568 
     720     1177      961     1011     1769     2170     2209     2322 
    2660     3046     2841     2164     1595     1386     1875     2544 
    2112     1088      805     1023     1391     1803     1606     1075 
    1003     1298     1509     1318     1108     1431     1682     1540 
    1834     2388     2408     2286     2380     2458     2508     2336 
    2033     1993     1586      649      456      908      864      696 
    1070     1749     2520     3333     3852     3705     3013     2084 
    1270      958      834      745     1144     1426     1242     1593 
    2234     2238     1929     1632     1240      974     1017     1094 
    1205     1458     1282     1190     2205     2995     2473     2003 
    2095     1757      966      503      747     1399     1858     1942 
    1904     2416     3454     3559     2560     1745     1301     1117 
    1031      535      330     1335     2651     2911     2334     1985 
    2218     2462     2166     1794     1904     2146     1903      936 
     199      629     1182     1123     1096     1121     1146     1495 
    1775     1765     1952     2323     2627     2778     2536     2114 
    1985     1799      993      130      265     1408     2635     3106 
    2911     2728     2563     2091     1624     1560     1544      985 
     356      600     1331     1769     2218     2627     2293     1561 
    1282     1397     1599     1740     1530     1215     1171     1055 
     882     1350     2527     3451     3329     2650     2172     1632 
     866      546      888     1348     1560     1506     1557     2176 
    2910     2832     2147     1742     1553     1158      733      476 
     511     1140     2185     2749     2484     2336     2724     2613 
    1922     1629     1466     1140     1404     2103     2268     1640 
     959     1027     1363     1134      811     1147     1702     1749 
    1598     1956     2725     3113     2833     2543     2462     2064 
    1341      754      606      920     1275     1336     1521     2153 
    2706     2623     1985     1493     1726     1965     1425      858 
     780      849     1085     1347     1516     1937     2413     2593 
    2592     2415     2111     1813     1425      943      751     1196 
    1783     1925     2003     2295     2492     2466     2207     1942 
    1945     1705     1023      793     1185     1344     1131     1124 
    1467     1840     2019     1910     1772     2053     2284     1903 
    1495     1568     1912     2234     2334     2277     2182     2057 
    2030     1969     1566      953      508      664     1363     1796 
    1792     1858     1935     1867     1718     1501     1489     1784 
    1848     1418     1175     1633     2343     2654     2350     1935 
    1873     1633     1024      895     1567     2269     2184     1448 
     949     1140     1644     1976     2016     1985     2139     2259 
    2010     1602     1493     1733     1860     1699     1663     2016 
    2403     2157     1455     1228     1505     1537     1158      972 
    1358     1846     2084     2188     1993     1544     1405     1683 
    1706     1278     1232     1746     1895     1520     1391     1806 
    2268     2216     1856     1701     1609     1493     1660     1957 
    2224     2407     2046     1464     1553     2097     2301     1979 
    1402      881      900     1719     2381     2061     1547     1534 
    1742     1910     1834     1490     1443     1846     1825     1148 
    1021     1831     2308     1833     1316     1521     2073     2176 
    1738     1422     1564     1671     1452     1409     1811     2265 
    2249     1622     1009     1054     1564     2018     1937     1217 
     769     1436     2416     2560     2176     2137     2404     2223 
    1567     1348     1738     1989     1807     1610     1818     2153 
    2100     1977     2143     1929     1161      816     1086     1343 
    1363     1108      932     1414     2178     2457     2312     2220 
    2177     1910     1667     1765     1750     1372     1134     1181 
    1223     1309     1651     2080     2191     1944     1773     1914 
    2160     2286     2072     1584     1336     1362     1350     1401 
    1663     2010     2157     1827     1300     1225     1605     1773 
    1512     1451     1856     2131     2162     2200     2150     2150 
    2072     1448      819      926     1281     1201      970      973 
     930      789      835     1062     1459     1900     2200     2548 
    2906     3146     3512     3726     3383     3011     2998     2776 
    1930      982      646      815      986      981      945      976 
     739      213      141      669     1296     2114     3183     4040 
    4595     4638     3491     1861     1383     1566      591    -1197 
   -2130    -1838     -571     1107     2033     2192     2467     2862 
    2968     2778     2671     2870     2736     1819     1111     1586 
    2385     1894      456      -70      637     1648     2216     1607 
     592     1101     3015     4473     4618     4429     4806     4727 
    3497     2107      675    -1340    -2991    -3223    -2571    -1911 
   -1206      -68     1390     2524     3094     3636     4426     5150 
    5355     4511     2720     1370     1443     1984     1962     1669 
    1296      534     -201     -178      390     1080     1838     2452 
    2951     3253     2937     2620     2984     3103     2367     1486 
     425     -877    -1213     -423      638     2008     3429     4068 
    3715     2852     2301     2122     1857     1894     2242     1888 
     870      274      359      691     1009     1321     1721     2003 
    1657      526     -498     -330      575     1444     2529     3709 
    4237     3645     2363     1509     1285     1088      602     -229 
    -822     -521      546     2111     3743     4911     5401     5011 
    4245     3977     3898     3439     2459      951     -122      -70 
     263      201      -85     -260      -94      380      954     1304 
    1486     1931     2717     3597     4001     3794     3381     2124 
     -44    -1421    -1274     -159     1259     2093     1961     1173 
     630     1448     3218     4365     3993     2405      797     -135 
    -535      -71     1328     2531     2971     3222     3307     2906 
    2380     2101     2254     2709     2698     2323     2640     3399 
    3321     2261     1073       82     -896    -1614    -1139      868 
    2922     3535     2995     1969      716     -157     -113      363 
     484      541     1162     2096     2785     3119     3218     2917 
    2054     1282     1402     2242     3106     3261     2249      830 
     326      815     1331     1296     1161     1644     2586     3593 
    4526     4602     3437     1979      926      491      804     1062 
     614       14     -592    -1413    -1399      217     2257     3562 
    4271     4514     4118     3208     2127     1383     1483     2070 
    2072     1385      702      112     -151      521     1744     2717 
    3352     3406     2625     1637      695     -272     -309      785 
    1611     1752     2034     2673     3404     3759     3060     1710 
     762      434      787     1813     2689     2748     2234     1487 
     471     -415     -287      746     1625     2007     2197     2292 
    2443     2542     2053     1318     1113     1271     1615     2458 
    3566     4264     4294     3908     3408     2906     2334     1586 
     714     -248    -1189    -1561    -1131     -353      503     1358 
    1919     2145     2282     2474     2816     3334     3585     2968 
    1632      368     -236     -174      318     1193     2137     2539 
    2600     2824     2995     2970     2934     2825     2511     1987 
    1399     1093     1105      923      514      418      675      962 
     963      579      477     1066     1588     1579     1605     2045 
    2656     3352     4257     4922     4548     3269     1975     1013 
     332      214      769     1382     1541     1468     1374     1200 
    1383     2228     3010     3132     2677     1733      546     -334 
    -545      -37      957     1875     2187     2065     2138     2586 
    2941     2632     1792     1224     1102      965      907     1190 
    1468     1354     1050     1202     2014     2871     3269     3379 
    3330     2857     2049     1555     1640     1899     1933     1709 
    1526     1598     1624     1476     1541     1586      985       97 
    -261      109      865     1429     1553     1580     1806     2189 
    2749     3364     3380     2398     1073      414      697     1414 
    2049     2440     2489     2195     1725     1236     1011     1336 
    1987     2481     2816     3161     3199     2789     2330     1879 
    1213      607      405      438      571      973     1520     1927 
    2205     2273     2100     1985     1960     1881     1792     1603 
    1364     1243     1148     1089     1194     1404     1525     1501 
    1686     2238     2577     2401     2070     1810     1711     1753 
    1659     1505     1490     1352     1139     1332     1799     2064 
    2083     1949     1744     1663     1664     1493     1220     1248 
    1723     2286     2573     2582     2428     2222     2072     1958 
    1861     1810     1682     1439     1335     1368     1300     1248 
    1262     1177     1179     1381     1574     1760     2010     2114 
    1993     1902     1861     1641     1359     1273     1351     1440 
    1435     1409     1618     2128     2652     2895     2741     2254 
    1725     1414     1355     1497     1795     2180     2443     2330 
    1956     1594     1228      988     1080     1239     1344     1597 
    1791     1833     1989     2100     1969     1721     1262      676 
     502      855     1297     1622     1954     2295     2533     2644 
    2570     2172     1530      965      656      712     1250     2014 
    2571     2806     2695     2251     1875     1915     2180     2342 
    2226     1637      769      295      322      548     1240     2361 
    3071     3033     2658     2250     1912     1780     1838     1848 
    1679     1506     1467     1448     1398     1354     1248     1094 
    1067     1317     1718     1899     1699     1224      681      475 
     819     1536     2343     2828     2756     2447     2197     1961 
    1868     2154     2716     3094     2886     2297     1767     1337 
     935      704      688      642      541      629      893     1237 
    1675     2088     2307     2324     2403     2663     2874     2868 
    2598     2150     1810     1603     1475     1541     1566     1262 
     846      556      484      795     1406     1852     1900     1860 
    1952     2083     2127     2011     1842     1667     1300      965 
    1078     1524     1991     2354     2538     2560     2600     2809 
    2994     2848     2413     1884     1420     1192     1131     1024 
