Origin Time       2015/01/14 21:02:00
Lat.              35.027
Long.             135.532
Depth. (km)       15
Mag.              3.9
Station Code      SIGH03
Station Lat.      34.853
Station Long.     136.0316
Station Height(m) 160
Record Time       2015/01/14 21:02:36
Sampling Freq(Hz) 100Hz
Duration Time(s)  120
Dir.              3
Scale Factor      3923(gal)/8224838
Max. Acc. (gal)   0.367
Last Correction   1970/01/31 00:00:00
Memo.             
[...]
  -41123   -41123   -41121   -41121   -41123   -41123   -41123   -41125 
  -41125   -41123   -41123   -41122   -41121   -41123   -41125   -41123 
  -41123   -41126   -41125   -41122   -41122   -41122   -41123   -41123 
  -41121   -41121   -41123   -41125   -41123   -41122   -41123   -41123 
  -41123   -41123   -41123   -41123   -41125   -41126   -41126   -41125 
  -41123   -41125   -41123   -41123   -41126   -41126   -41123   -41123 
  -41123   -41125   -41122   -41122   -41126   -41123   -41121   -41123 
  -41126   -41123   -41123   -41125   -41125   -41121   -41122   -41125 
  -41123   -41122   -41125   -41123   -41123   -41123   -41123   -41122 
  -41122   -41123   -41125   -41123   -41123   -41123   -41123   -41122 
  -41121   -41123   -41125   -41123   -41122   -41122   -41123   -41125 
  -41123   -41122   -41121   -41123   -41123   -41123   -41123   -41123 
  -41123   -41123   -41123   -41125   -41123   -41121   -41122   -41123 
  -41125   -41123   -41125   -41125   -41123   -41123   -41123   -41121 
  -41121   -41123   -41126   -41123   -41123   -41123   -41121   -41121 
  -41123   -41125   -41125   -41123   -41121   -41119   -41122   -41125 
  -41122   -41122   -41125   -41125   -41122   -41122   -41123   -41123 
  -41122   -41122   -41122   -41123   -41123   -41122   -41123   -41125 
  -41123   -41123   -41123   -41122   -41121   -41123   -41123   -41122 
  -41121   -41125   -41125   -41121   -41121   -41125   -41123   -41122 
  -41121   -41122   -41123   -41122   -41121   -41123   -41125   -41122 
  -41122   -41122   -41119   -41121   -41122   -41121   -41123   -41125 
  -41125   -41123   -41122   -41123   -41123   -41121   -41122   -41125 
  -41126   -41123   -41121   -41121   -41123   -41123   -41125   -41125 
  -41122   -41121   -41122   -41122   -41122   -41123   -41126   -41125 
  -41122   -41122   -41122   -41122   -41125   -41125   -41123   -41123 
  -41123   -41123   -41125   -41125   -41125   -41125   -41122   -41123 
  -41125   -41122   -41123   -41125   -41123   -41123   -41123   -41121 
  -41122   -41123   -41123   -41123   -41125   -41125   -41123   -41123 
  -41123   -41122   -41122   -41125   -41125   -41122   -41123   -41123 
  -41122   -41123   -41123   -41125   -41126   -41122   -41119   -41123 
  -41123   -41121   -41122   -41121   -41119   -41123   -41125   -41122 
  -41122   -41125   -41125   -41123   -41122   -41122   -41122   -41122 
  -41119   -41121   -41123   -41123   -41125   -41123   -41122   -41125 
  -41125   -41122   -41122   -41123   -41123   -41123   -41123   -41123 
  -41123   -41122   -41123   -41125   -41122   -41122   -41123   -41123 
  -41122   -41123   -41123   -41123   -41123   -41122   -41122   -41123 
  -41125   -41122   -41121   -41122   -41123   -41125   -41125   -41123 
  -41122   -41123   -41122   -41121   -41125   -41127   -41125   -41122 
  -41122   -41122   -41123   -41123   -41122   -41122   -41123   -41123 
  -41125   -41125   -41123   -41125   -41123   -41123   -41126   -41123 
  -41121   -41123   -41123   -41123   -41123   -41122   -41123   -41125 
  -41123   -41123   -41122   -41121   -41123   -41126   -41123   -41123 
  -41125   -41125   -41122   -41121   -41122   -41125   -41122   -41121 
  -41123   -41125   -41122   -41123   -41126   -41127   -41125   -41123 
  -41122   -41121   -41123   -41123   -41122   -41123   -41123   -41123 
  -41122   -41122   -41125   -41126   -41125   -41122   -41123   -41123 
  -41123   -41126   -41125   -41121   -41123   -41126   -41123   -41123 
  -41125   -41122   -41121   -41122   -41125   -41123   -41122   -41123 
  -41125   -41123   -41123   -41122   -41122   -41123   -41122   -41121 
  -41123   -41125   -41123   -41123   -41122   -41123   -41126   -41125 
  -41122   -41123   -41125   -41123   -41123   -41121   -41121   -41123 
  -41125   -41126   -41123   -41119   -41121   -41123   -41122   -41122 
  -41122   -41121   -41122   -41123   -41122   -41122   -41121   -41121 
  -41125   -41125   -41121   -41121   -41123   -41125   -41123   -41122 
  -41123   -41123   -41122   -41123   -41125   -41123   -41121   -41123 
  -41126   -41125   -41125   -41125   -41122   -41122   -41123   -41123 
  -41125   -41123   -41122   -41121   -41125   -41126   -41121   -41121 
  -41123   -41123   -41123   -41123   -41123   -41122   -41122   -41123 
  -41122   -41122   -41125   -41122   -41121   -41123   -41126   -41122 
  -41119   -41122   -41123   -41125   -41123   -41122   -41122   -41126 
  -41126   -41121   -41122   -41126   -41122   -41121   -41122   -41121 
  -41121   -41122   -41122   -41121   -41122   -41123   -41122   -41123 
  -41125   -41123   -41122   -41122   -41123   -41125   -41125   -41125 
  -41125   -41121   -41121   -41123   -41121   -41121   -41123   -41122 
  -41121   -41125   -41122   -41121   -41122   -41121   -41119   -41123 
  -41126   -41122   -41122   -41123   -41123   -41125   -41125   -41122 
  -41121   -41123   -41125   -41123   -41123   -41123   -41122   -41123 
  -41123   -41123   -41122   -41123   -41122   -41121   -41122   -41122 
  -41123   -41123   -41125   -41125   -41123   -41123   -41123   -41123 
  -41123   -41122   -41123   -41126   -41125   -41125   -41125   -41123 
  -41123   -41125   -41126   -41123   -41123   -41125   -41122   -41119 
  -41121   -41122   -41123   -41123   -41122   -41123   -41126   -41125 
  -41122   -41119   -41123   -41127   -41123   -41122   -41123   -41123 
  -41123   -41122   -41122   -41125   -41126   -41126   -41125   -41123 
  -41123   -41123   -41121   -41121   -41125   -41125   -41122   -41123 
  -41125   -41125   -41119   -41119   -41123   -41125   -41123   -41122 
  -41122   -41122   -41123   -41122   -41122   -41122   -41121   -41122 
  -41122   -41123   -41125   -41126   -41123   -41122   -41123   -41122 
  -41122   -41125   -41126   -41122   -41122   -41125   -41123   -41123 
  -41125   -41125   -41130   -41135   -41141   -41152   -41165   -41176 
  -41188   -41200   -41214   -41229   -41242   -41249   -41241   -41220 
  -41188   -41145   -41092   -41038   -40979   -40946   -40972   -40975 
  -40882   -40825   -40923   -41023   -40986   -40990   -41203   -41362 
  -41206   -41050   -41053   -40986   -41126   -41409   -41185   -40896 
  -41056   -41145   -41266   -41404   -40953   -40817   -41435   -41355 
  -40705   -40851   -41382   -41342   -41081   -41219   -41341   -41193 
  -41385   -41567   -41296   -41270   -41276   -40909   -40787   -40837 
  -40829   -40991   -41004   -40967   -41202   -41073   -40776   -41197 
  -41500   -41214   -41328   -41446   -40956   -40791   -41177   -41188 
  -40791   -40953   -41457   -41162   -40743   -41188   -41634   -41449 
  -41177   -41168   -41084   -40856   -41091   -41396   -40953   -40697 
  -41185   -41447   -41270   -41083   -41052   -41091   -41044   -41022 
  -40940   -40964   -41281   -41227   -40887   -40987   -41133   -41095 
  -41278   -41150   -40737   -41183   -41569   -40913   -40865   -41508 
  -41431   -41176   -41176   -41108   -41242   -41330   -40957   -40706 
  -40891   -41091   -41226   -41272   -41261   -41389   -41364   -41219 
  -41154   -41073   -41118   -40849   -40416   -40832   -41165   -40679 
  -40663   -41104   -41370   -41644   -41516   -41289   -41481   -41339 
  -40923   -40948   -41183   -41134   -40946   -41083   -41200   -40922 
  -40894   -41246   -41455   -41474   -41241   -40956   -41087   -41260 
  -41187   -41249   -41399   -41230   -40821   -40884   -41323   -41060 
  -40630   -41011   -41222   -40990   -41187   -41459   -41192   -40721 
  -40818   -41287   -41037   -40732   -41438   -41766   -41023   -40815 
  -41338   -41179   -40640   -40986   -41519   -41199   -40797   -41031 
  -41370   -41292   -41060   -41014   -41069   -41272   -41466   -41196 
  -40868   -41058   -41314   -41189   -40991   -41011   -41042   -40922 
  -41057   -41289   -41103   -41168   -41509   -41179   -40775   -40996 
  -41280   -41266   -41108   -41037   -41031   -41125   -41243   -41035 
  -40914   -41214   -41431   -41295   -40950   -40919   -41207   -41197 
  -41115   -41134   -41058   -41110   -41133   -41075   -41088   -40945 
  -41008   -41420   -41377   -41064   -41219   -41327   -40992   -40744 
  -40743   -40917   -41234   -41304   -41165   -41299   -41420   -41173 
  -40948   -40941   -40964   -40979   -41089   -41251   -41238   -41125 
  -41143   -41203   -41227   -41222   -41041   -40950   -41214   -41358 
  -41111   -40981   -41233   -41207   -40887   -41071   -41297   -41108 
  -41153   -41307   -41234   -41243   -41102   -40756   -40864   -41246 
  -41281   -41099   -40944   -40932   -41103   -41188   -41118   -41061 
  -40987   -40995   -41258   -41401   -41130   -40968   -41130   -41152 
  -41065   -41176   -41365   -41311   -41018   -41049   -41362   -41254 
  -40979   -41103   -41320   -41220   -41022   -41157   -41193   -40775 
  -40755   -41168   -41300   -41262   -41156   -41015   -40999   -41123 
  -41197   -40961   -40967   -41386   -41434   -41193   -41071   -40973 
  -40957   -40895   -40709   -40905   -41404   -41453   -41216   -41283 
  -41281   -40940   -40948   -41292   -41172   -40942   -41061   -41011 
  -40899   -41145   -41316   -41216   -41238   -41381   -41432   -41268 
  -40975   -40998   -41145   -41088   -41235   -41354   -41029   -40840 
  -40942   -40934   -40996   -41222   -41296   -41231   -41191   -41145 
  -41126   -41270   -41372   -41072   -40726   -40869   -41161   -41153 
  -41042   -41106   -41173   -41023   -41022   -41297   -41361   -41173 
  -41023   -40975   -40991   -41022   -41143   -41296   -41243   -41089 
  -41013   -40878   -40892   -41234   -41266   -41053   -41299   -41443 
  -41111   -40972   -40990   -40983   -41176   -41210   -41010   -41118 
  -41254   -41092   -41108   -41243   -41215   -41173   -41079   -40934 
  -40915   -41202   -41524   -41342   -41000   -40934   -40950   -41098 
  -41287   -41238   -41181   -41253   -41253   -41162   -40988   -40905 
  -41079   -41103   -40910   -41052   -41365   -41326   -41118   -41049 
  -41031   -41034   -41118   -41219   -41285   -41196   -41069   -41291 
  -41426   -41103   -40922   -40907   -40853   -40999   -41130   -41200 
  -41284   -41135   -40991   -41058   -41195   -41299   -41123   -40810 
  -40878   -41189   -41359   -41270   -40941   -40833   -41069   -41145 
  -41096   -41166   -41253   -41316   -41231   -41076   -41104   -41131 
  -41081   -41122   -41127   -41054   -41142   -41373   -41301   -40971 
  -40932   -41073   -41135   -41226   -41183   -41095   -41216   -41212 
  -40969   -40914   -41183   -41376   -41234   -41075   -41095   -41044 
  -40948   -41100   -41270   -41214   -41229   -41254   -41060   -40859 
  -40791   -40975   -41224   -41125   -41062   -41307   -41337   -41156 
  -41150   -41219   -41164   -40963   -40815   -41048   -41377   -41377 
  -41180   -40894   -40822   -41121   -41199   -41038   -41098   -41227 
  -41226   -41143   -41156   -41295   -41175   -40848   -40883   -41146 
  -41149   -41085   -41238   -41339   -41173   -40996   -40990   -41084 
  -41204   -41200   -41111   -41145   -41292   -41300   -41033   -40976 
  -41230   -41149   -40944   -41184   -41443   -41292   -41079   -41098 
  -41138   -41041   -41068   -41123   -40876   -40910   -41358   -41223 
  -40867   -41158   -41318   -41069   -41056   -40986   -40875   -41084 
  -41127   -40973   -41034   -41177   -41180   -41085   -41026   -40922 
  -40899   -41103   -41099   -40996   -41202   -41251   -41141   -41276 
  -41314   -41185   -41283   -41496   -41523   -41396   -41311   -41300 
  -41184   -41037   -41103   -41216   -41189   -41103   -40876   -40621 
  -40671   -40879   -41011   -41161   -41268   -41185   -41080   -41197 
  -41481   -41458   -41014   -40848   -41083   -41046   -40869   -40967 
  -40984   -40957   -41223   -41373   -41196   -41034   -41265   -41777 
  -41746   -41341   -41322   -41164   -40856   -41023   -41130   -40969 
  -40941   -40849   -40701   -40725   -40913   -41310   -41462   -41052 
  -40842   -41143   -41314   -41166   -41098   -41280   -41395   -41245 
  -40863   -40525   -40981   -41661   -41191   -40568   -41015   -41424 
  -41160   -40934   -40875   -40841   -40979   -41107   -41253   -41473 
  -41224   -40825   -41026   -41365   -41374   -41293   -41203   -41131 
  -41301   -41558   -41453   -41260   -41366   -41377   -41172   -41042 
  -40923   -40726   -40687   -40895   -41096   -41111   -40879   -40721 
  -40898   -40922   -40810   -41106   -41486   -41469   -41238   -41067 
  -41073   -41283   -41445   -41400   -41283   -41116   -41110   -41372 
  -41277   -40774   -40643   -40917   -41026   -40960   -40983   -41130 
  -41389   -41472   -41179   -41037   -41277   -41396   -41245   -41149 
  -41145   -41076   -41099   -41214   -41215   -41107   -40914   -40857 
  -41010   -41165   -41342   -41339   -41193   -41239   -41170   -40849 
  -40591   -40581   -40852   -41044   -41010   -41116   -41343   -41350 
  -41200   -41193   -41320   -41332   -41200   -41098   -41061   -41022 
  -41084   -41222   -41234   -41210   -41116   -40892   -40838   -40954 
  -41180   -41469   -41366   -40969   -40899   -41129   -41249   -41168 
  -41092   -41196   -41362   -41463   -41474   -41216   -40780   -40725 
  -41112   -41220   -40902   -40861   -41134   -41142   -41118   -41292 
  -41068   -40713   -40979   -41300   -41084   -40841   -41073   -41523 
  -41535   -41138   -41049   -41237   -41185   -41087   -41154   -41156 
  -41037   -41044   -41278   -41380   -41157   -40976   -40990   -41038 
  -41068   -41104   -41247   -41476   -41419   -41083   -40898   -40802 
  -40657   -40717   -40994   -41295   -41667   -41893   -41596   -41169 
  -40991   -40824   -40772   -40991   -41148   -41119   -41098   -41106 
  -40952   -40767   -40903   -41040   -40960   -41170   -41374   -41125 
  -41110   -41435   -41380   -41038   -40910   -41065   -41214   -41135 
  -41169   -41418   -41376   -41102   -41044   -41096   -41017   -40981 
  -41207   -41477   -41551   -41465   -41256   -40991   -40745   -40635 
  -40806   -41035   -41077   -41103   -41077   -40849   -40859   -41239 
  -41307   -41080   -41091   -41053   -40930   -41064   -41141   -41092 
  -41249   -41424   -41343   -41130   -41073   -41152   -41089   -41011 
  -41091   -41139   -41230   -41443   -41403   -41064   -40860   -40868 
  -40909   -41023   -41199   -41304   -41276   -41154   -41095   -41118 
  -41179   -41229   -41141   -41022   -41048   -41172   -41231   -41122 
  -41037   -41085   -41040   -40983   -41079   -41138   -41256   -41465 
  -41332   -41007   -40948   -40977   -40946   -40992   -41080   -41126 
  -41110   -41095   -41227   -41391   -41373   -41274   -41233   -41196 
  -41112   -41040   -41095   -41251   -41307   -41181   -41002   -40942 
  -41038   -41157   -41161   -41091   -41061   -41038   -40996   -41023 
  -41050   -41042   -41192   -41380   -41234   -40929   -40899   -41061 
  -41089   -41015   -41022   -41112   -41218   -41250   -41143   -41045 
  -41033   -41030   -41125   -41289   -41258   -41099   -41103   -41161 
  -41094   -41062   -41088   -41052   -41049   -41115   -41170   -41170 
  -41131   -41065   -40950   -41007   -41289   -41365   -41229   -41185 
  -41133   -41030   -41010   -41058   -41130   -41169   -41197   -41268 
  -41261   -41145   -41104   -41181   -41264   -41245   -41195   -41204 
  -41141   -41080   -41142   -41168   -41183   -41184   -41056   -40994 
  -41098   -41172   -41162   -41119   -41056   -41075   -41127   -41052 
  -40994   -41122   -41265   -41172   -40926   -40886   -41038   -41067 
  -41041   -41092   -41075   -41025   -41037   -41081   -41177   -41148 
  -40998   -41060   -41149   -41058   -40990   -40983   -41075   -41223 
  -41226   -41204   -41293   -41332   -41239   -41130   -41103   -41133 
  -41145   -41192   -41283   -41272   -41207   -41123   -40960   -40984 
  -41218   -41234   -41072   -41073   -41122   -41121   -41206   -41234 
  -41127   -41060   -41046   -41083   -41154   -41103   -40990   -41041 
  -41165   -41160   -41095   -41116   -41199   -41195   -41107   -41044 
  -41018   -41137   -41326   -41269   -41142   -41154   -41056   -40964 
  -41091   -41110   -40964   -40977   -41129   -41229   -41188   -41034 
  -41025   -41187   -41133   -40913   -40983   -41245   -41265   -41149 
  -41145   -41072   -40968   -41116   -41250   -41137   -41067   -41118 
  -41152   -41187   -41149   -41033   -41038   -41133   -41141   -41119 
  -41166   -41196   -41084   -40992   -41121   -41253   -41215   -41181 
  -41191   -41188   -41265   -41308   -41150   -41002   -41017   -41034 
  -41031   -41118   -41231   -41212   -41129   -41114   -41107   -41095 
  -41110   -41114   -41134   -41126   -41042   -41069   -41185   -41222 
  -41258   -41222   -41079   -41076   -41134   -41068   -41017   -41062 
  -41123   -41134   -41121   -41149   -41179   -41157   -41161   -41164 
  -41087   -41046   -41089   -41111   -41122   -41173   -41180   -41142 
  -41138   -41130   -41088   -41073   -41087   -41064   -41038   -41075 
  -41137   -41169   -41168   -41162   -41164   -41116   -41025   -41052 
  -41183   -41191   -41100   -41089   -41138   -41142   -41072   -41030 
  -41083   -41170   -41276   -41304   -41187   -41108   -41150   -41145 
  -41127   -41202   -41164   -41017   -40992   -41015   -41030   -41064 
  -41026   -41011   -41091   -41129   -41104   -41146   -41261   -41245 
  -41083   -41049   -41165   -41161   -41076   -41130   -41157   -41088 
  -41166   -41250   -41130   -41034   -41089   -41149   -41173   -41168 
  -41104   -41052   -41103   -41230   -41239   -41085   -41000   -41003 
  -40969   -41025   -41196   -41265   -41200   -41127   -41122   -41158 
  -41135   -41108   -41119   -41062   -41040   -41157   -41235   -41223 
  -41214   -41168   -41061   -40996   -41018   -41042   -41072   -41199 
  -41284   -41215   -41129   -41035   -40983   -41118   -41256   -41181 
  -41091   -41137   -41138   -41064   -41073   -41107   -41072   -41040 
  -41069   -41161   -41220   -41207   -41138   -40975   -40909   -41058 
  -41133   -41048   -41031   -41125   -41238   -41293   -41223   -41116 
  -41114   -41160   -41111   -41048   -41071   -41133   -41253   -41331 
  -41258   -41207   -41164   -41030   -40973   -41011   -41083   -41206 
  -41197   -41035   -41006   -41129   -41216   -41260   -41256   -41162 
  -41106   -41170   -41183   -41054   -40991   -41092   -41203   -41196 
  -41099   -41056   -41112   -41137   -41080   -41033   -41099   -41238 
  -41215   -41064   -41046   -41110   -41146   -41188   -41139   -41003 
  -40991   -41149   -41272   -41224   -41129   -41079   -41029   -41015 
  -41048   -41019   -40972   -41003   -41042   -41094   -41168   -41152 
  -41108   -41130   -41127   -41102   -41131   -41179   -41175   -41148 
  -41138   -41134   -41138   -41148   -41149   -41165   -41210   -41266 
  -41287   -41222   -41129   -41146   -41238   -41222   -41133   -41116 
  -41149   -41173   -41191   -41193   -41170   -41079   -40987   -40994 
  -41002   -40991   -41073   -41172   -41162   -41110   -41079   -41057 
  -41041   -41053   -41103   -41116   -41058   -41057   -41125   -41135 
  -41131   -41176   -41192   -41161   -41088   -41018   -41065   -41170 
  -41197   -41141   -41058   -41089   -41193   -41161   -41084   -41115 
  -41160   -41173   -41204   -41218   -41164   -41073   -41013   -41044 
  -41118   -41099   -41072   -41139   -41142   -41065   -41065   -41108 
  -41116   -41114   -41102   -41091   -41138   -41222   -41235   -41162 
