Origin Time       2015/01/14 21:02:00
Lat.              35.027
Long.             135.532
Depth. (km)       15
Mag.              3.9
Station Code      SIGH03
Station Lat.      34.853
Station Long.     136.0316
Station Height(m) 360
Record Time       2015/01/14 21:02:36
Sampling Freq(Hz) 100Hz
Duration Time(s)  120
Dir.              6
Scale Factor      7845(gal)/8223790
Max. Acc. (gal)   1.943
Last Correction   1970/01/31 00:00:00
Memo.             
[...]
  -16019   -16020   -16019   -16019   -16020   -16020   -16019   -16020 
  -16021   -16020   -16017   -16020   -16020   -16019   -16020   -16021 
  -16020   -16019   -16020   -16020   -16017   -16019   -16020   -16020 
  -16021   -16020   -16017   -16020   -16021   -16020   -16020   -16019 
  -16017   -16017   -16019   -16019   -16019   -16017   -16020   -16020 
  -16017   -16017   -16020   -16019   -16017   -16020   -16020   -16017 
  -16019   -16021   -16020   -16017   -16019   -16021   -16020   -16020 
  -16020   -16017   -16019   -16020   -16020   -16020   -16020   -16019 
  -16019   -16020   -16017   -16017   -16020   -16020   -16019   -16020 
  -16021   -16020   -16019   -16019   -16020   -16019   -16019   -16019 
  -16019   -16020   -16020   -16020   -16020   -16019   -16016   -16019 
  -16021   -16020   -16020   -16020   -16019   -16019   -16020   -16020 
  -16017   -16017   -16020   -16020   -16020   -16020   -16020   -16019 
  -16019   -16021   -16021   -16021   -16020   -16020   -16021   -16019 
  -16016   -16017   -16020   -16020   -16019   -16020   -16020   -16020 
  -16021   -16020   -16020   -16020   -16019   -16020   -16020   -16019 
  -16019   -16021   -16023   -16021   -16021   -16021   -16019   -16019 
  -16020   -16019   -16019   -16019   -16019   -16019   -16019   -16020 
  -16020   -16020   -16020   -16020   -16019   -16017   -16019   -16021 
  -16020   -16019   -16020   -16020   -16020   -16020   -16020   -16020 
  -16020   -16021   -16020   -16019   -16019   -16019   -16020   -16021 
  -16021   -16019   -16019   -16019   -16019   -16020   -16020   -16019 
  -16019   -16021   -16021   -16019   -16019   -16021   -16020   -16019 
  -16020   -16021   -16019   -16019   -16021   -16020   -16017   -16019 
  -16020   -16019   -16019   -16019   -16019   -16019   -16020   -16021 
  -16020   -16020   -16021   -16020   -16019   -16023   -16021   -16017 
  -16020   -16021   -16020   -16019   -16021   -16021   -16020   -16020 
  -16021   -16020   -16017   -16017   -16020   -16020   -16020   -16020 
  -16019   -16017   -16019   -16020   -16021   -16020   -16017   -16017 
  -16020   -16020   -16019   -16021   -16021   -16019   -16019   -16021 
  -16019   -16019   -16020   -16020   -16019   -16017   -16019   -16020 
  -16020   -16020   -16021   -16023   -16023   -16019   -16019   -16020 
  -16020   -16016   -16017   -16020   -16020   -16019   -16020   -16021 
  -16019   -16019   -16019   -16019   -16017   -16019   -16019   -16019 
  -16017   -16019   -16019   -16017   -16017   -16021   -16021   -16019 
  -16020   -16019   -16017   -16017   -16019   -16021   -16021   -16020 
  -16019   -16017   -16019   -16021   -16020   -16017   -16017   -16020 
  -16021   -16020   -16021   -16020   -16019   -16019   -16020   -16019 
  -16020   -16021   -16020   -16020   -16023   -16019   -16019   -16023 
  -16021   -16019   -16019   -16020   -16020   -16021   -16020   -16019 
  -16017   -16019   -16021   -16021   -16019   -16017   -16019   -16021 
  -16021   -16019   -16020   -16019   -16017   -16019   -16020   -16020 
  -16021   -16020   -16019   -16017   -16017   -16019   -16019   -16019 
  -16020   -16021   -16020   -16019   -16019   -16020   -16021   -16020 
  -16019   -16017   -16019   -16020   -16021   -16020   -16017   -16020 
  -16021   -16019   -16017   -16019   -16020   -16019   -16020   -16020 
  -16019   -16020   -16023   -16020   -16019   -16019   -16021   -16020 
  -16019   -16019   -16019   -16021   -16023   -16021   -16019   -16021 
  -16020   -16019   -16020   -16023   -16021   -16020   -16019   -16017 
  -16020   -16023   -16020   -16020   -16021   -16021   -16020   -16020 
  -16021   -16020   -16020   -16021   -16019   -16017   -16021   -16023 
  -16021   -16021   -16019   -16019   -16021   -16020   -16020   -16020 
  -16019   -16019   -16020   -16020   -16020   -16020   -16017   -16019 
  -16021   -16021   -16020   -16020   -16020   -16020   -16019   -16020 
  -16020   -16019   -16017   -16020   -16021   -16020   -16019   -16020 
  -16019   -16017   -16020   -16021   -16019   -16020   -16024   -16024 
  -16021   -16020   -16020   -16019   -16021   -16020   -16020   -16021 
  -16019   -16016   -16019   -16020   -16021   -16021   -16019   -16019 
  -16019   -16020   -16021   -16021   -16020   -16020   -16020   -16021 
  -16021   -16020   -16020   -16020   -16019   -16019   -16019   -16019 
  -16019   -16017   -16019   -16020   -16021   -16021   -16019   -16019 
  -16021   -16021   -16020   -16020   -16020   -16017   -16017   -16019 
  -16020   -16019   -16019   -16020   -16020   -16020   -16020   -16020 
  -16017   -16016   -16020   -16020   -16019   -16019   -16019   -16019 
  -16017   -16016   -16020   -16021   -16017   -16020   -16021   -16020 
  -16020   -16019   -16019   -16020   -16019   -16019   -16020   -16021 
  -16020   -16020   -16019   -16017   -16020   -16021   -16020   -16020 
  -16020   -16020   -16020   -16019   -16019   -16017   -16017   -16017 
  -16020   -16021   -16020   -16020   -16020   -16021   -16021   -16019 
  -16019   -16021   -16020   -16019   -16019   -16019   -16020   -16021 
  -16021   -16020   -16019   -16019   -16020   -16020   -16020   -16020 
  -16019   -16017   -16020   -16020   -16016   -16017   -16021   -16020 
  -16017   -16019   -16020   -16019   -16020   -16019   -16017   -16021 
  -16023   -16019   -16019   -16021   -16020   -16019   -16020   -16021 
  -16019   -16020   -16020   -16020   -16021   -16020   -16020   -16020 
  -16019   -16019   -16021   -16023   -16020   -16016   -16017   -16020 
  -16021   -16023   -16023   -16021   -16020   -16020   -16019   -16020 
  -16019   -16019   -16019   -16017   -16017   -16021   -16020   -16019 
  -16020   -16019   -16017   -16019   -16019   -16019   -16016   -16019 
  -16021   -16021   -16020   -16020   -16020   -16019   -16020   -16023 
  -16023   -16020   -16020   -16020   -16019   -16020   -16020   -16020 
  -16019   -16019   -16020   -16020   -16017   -16017   -16019   -16020 
  -16020   -16019   -16020   -16023   -16025   -16036   -16052   -16071 
  -16096   -16121   -16146   -16168   -16190   -16206   -16213   -16201 
  -16162   -16096   -16005   -15897   -15776   -15635   -15500   -15435 
  -15439   -15425   -15414   -15549   -15781   -15952   -16136   -16498 
  -16868   -16915   -16760   -16683   -16545   -16366   -16191   -15620 
  -15084   -15354   -15680   -15504   -15552   -15730   -15697   -16258 
  -17055   -16742   -16164   -16472   -16681   -16252   -15951   -16032 
  -16098   -16065   -16085   -15954   -15849   -16048   -16019   -15685 
  -15306   -14901   -15114   -15749   -15666   -15461   -16012   -16352 
  -16216   -16665   -17379   -17275   -16663   -16340   -16345   -16278 
  -15811   -15202   -15205   -15535   -15244   -14935   -15276   -15877 
  -16702   -17091   -16583   -16252   -16668   -17356   -17313   -16102 
  -15039   -15217   -16144   -16405   -15296   -14378   -14891   -15827 
  -16221   -15862   -15396   -15921   -16719   -16390   -15526   -15539 
  -16360   -16962   -16849   -16355   -16464   -16981   -16563   -15921 
  -16185   -16114   -15230   -14937   -15608   -16291   -16214   -15739 
  -15905   -16213   -15502   -14990   -15770   -16379   -16116   -15865 
  -16078   -16603   -16853   -16548   -16075   -15835   -15931   -15850 
  -15265   -14854   -14953   -15203   -15804   -16794   -17347   -17450 
  -17536   -17199   -16719   -16669   -16298   -15286   -14644   -14793 
  -14740   -14122   -14427   -16170   -17559   -17598   -17145   -16853 
  -16560   -16324   -16274   -16063   -15549   -14879   -14494   -15001 
  -15595   -15373   -15543   -16540   -16807   -16626   -17290   -17525 
  -16193   -15052   -15469   -16272   -16303   -16102   -16305   -16303 
  -15525   -15187   -16033   -16124   -15148   -15418   -16360   -16154 
  -15912   -16299   -16162   -15797   -16119   -16397   -16301   -16594 
  -16681   -15971   -15654   -16214   -16584   -16201   -15668   -15363 
  -14909   -14721   -15503   -16379   -16621   -16680   -16528   -16151 
  -15975   -16044   -16158   -15900   -15670   -16200   -16470   -15863 
  -15426   -15703   -16291   -16449   -16181   -16027   -16008   -16224 
  -16455   -16181   -15669   -15672   -16306   -16518   -16081   -16042 
  -15984   -15298   -15088   -15601   -15830   -15815   -16001   -16082 
  -15989   -15962   -16075   -16510   -16772   -16221   -15905   -16298 
  -16101   -15572   -15781   -16254   -16393   -16352   -16429   -16344 
  -15739   -15392   -15780   -16050   -15823   -15628   -15723   -15988 
  -16236   -16308   -16268   -16499   -16668   -15921   -15280   -15884 
  -16380   -16021   -15781   -15853   -15832   -15776   -15736   -15750 
  -15984   -16187   -16032   -15815   -15913   -16178   -16330   -16455 
  -16549   -16173   -15483   -15510   -16294   -16642   -16260   -15873 
  -15804   -15923   -16033   -16100   -16021   -15666   -15580   -16077 
  -16379   -16089   -15817   -16124   -16614   -16394   -15982   -16108 
  -15778   -15144   -15660   -16742   -16679   -15506   -15107   -15988 
  -16448   -15898   -15418   -15776   -16279   -16216   -16464   -16972 
  -16490   -15535   -15284   -15507   -15603   -15839   -16382   -16484 
  -16096   -15948   -16017   -16127   -16434   -16646   -16364   -15847 
  -15637   -15772   -15946   -15963   -15795   -15820   -16195   -16355 
  -16155   -15897   -15782   -15996   -16235   -16305   -16406   -16193 
  -15574   -15311   -15503   -15589   -15780   -16456   -16920   -16474 
  -15704   -15545   -16011   -16405   -16249   -15905   -15925   -16047 
  -15940   -15800   -15780   -15878   -15836   -15616   -15808   -16393 
  -16629   -16343   -16106   -16274   -16428   -16206   -15913   -15807 
  -15649   -15377   -15375   -15912   -16723   -16923   -16321   -15923 
  -15897   -15542   -15155   -15489   -16187   -16316   -16023   -15939 
  -16141   -16599   -16846   -16402   -15781   -15619   -15792   -15874 
  -15857   -15915   -16094   -16310   -16268   -16082   -16040   -15986 
  -15839   -15719   -15719   -15884   -16170   -16411   -16502   -16402 
  -16002   -15662   -15754   -15817   -15778   -16056   -16251   -16040 
  -15828   -15838   -16044   -16166   -15907   -15808   -16182   -16275 
  -16247   -16731   -16707   -15685   -15118   -15655   -16260   -16137 
  -15827   -15904   -15839   -15371   -15327   -16160   -16758   -16217 
  -15645   -15974   -16403   -16328   -16083   -15880   -15839   -16133 
  -16317   -16020   -15782   -15997   -16312   -16264   -15924   -15855 
  -16058   -16105   -16156   -16272   -16117   -15898   -16029   -16171 
  -15896   -15650   -15799   -15984   -16031   -15965   -15823   -15939 
  -16263   -16221   -15819   -15687   -16008   -16206   -16027   -16031 
  -16272   -16120   -15839   -15988   -16097   -15884   -15813   -16094 
  -16333   -15997   -15584   -15951   -16502   -16384   -15913   -15677 
  -15858   -16181   -16302   -16266   -16208   -16019   -15893   -16245 
  -16398   -15596   -14881   -15430   -16403   -16294   -15587   -15780 
  -16486   -16564   -16386   -16524   -16443   -15866   -15476   -15627 
  -15835   -15596   -15273   -15687   -16451   -16551   -16200   -16059 
  -16190   -16410   -16341   -15975   -15954   -16406   -16552   -15888 
  -15273   -15560   -16023   -15958   -15840   -16031   -16132   -15942 
  -15946   -16282   -16413   -16210   -16044   -15896   -15735   -15863 
  -15977   -15734   -15762   -16166   -16135   -15863   -16019   -16210 
  -16008   -15793   -16044   -16514   -16503   -16043   -15799   -15954 
  -16050   -15855   -15786   -15919   -15979   -16167   -16352   -16119 
  -15723   -15612   -15745   -15768   -15811   -16216   -16571   -16447 
  -16214   -16252   -16274   -16094   -16139   -16359   -16119   -15473 
  -15175   -15503   -15827   -15768   -15788   -15990   -16017   -15932 
  -15820   -15728   -15930   -16163   -16159   -16487   -17089   -17030 
  -16366   -15928   -16098   -16641   -16694   -16002   -15685   -16104 
  -16303   -16036   -15898   -16079   -16023   -15510   -15161   -15311 
  -15778   -16194   -16021   -15412   -15299   -15919   -16471   -16449 
  -16120   -15838   -15704   -15658   -15607   -15572   -15785   -16143 
  -16017   -15499   -15466   -16087   -16587   -16294   -15757   -16092 
  -16826   -16633   -15885   -16089   -17321   -18042   -17404   -16183 
  -15545   -15780   -16125   -15838   -15016   -14497   -14960   -15985 
  -16595   -16285   -15655   -15797   -16537   -16748   -16231   -15681 
  -15399   -15503   -15969   -16021   -15534   -15450   -15942   -16267 
  -16050   -15688   -15611   -15857   -16232   -16279   -15869   -15461 
  -15557   -16330   -17184   -17302   -16892   -16494   -15921   -15304 
  -15510   -16262   -16258   -15711   -15689   -15913   -15996   -16235 
  -16649   -17220   -17566   -17263   -16835   -16339   -15342   -14392 
  -14137   -14526   -15126   -15437   -15326   -15155   -15430   -15963 
  -16232   -16514   -16935   -16907   -16413   -16094   -16197   -16325 
  -16357   -16455   -16310   -16035   -16086   -16040   -15452   -14883 
  -15138   -16067   -16681   -16533   -16117   -15989   -16105   -16224 
  -16294   -15988   -15391   -15229   -15493   -15851   -16382   -16842 
  -16919   -16869   -16895   -16756   -16248   -15538   -15087   -15171 
  -15681   -16214   -16191   -15712   -15603   -15961   -15961   -15342 
  -15021   -15674   -16298   -15977   -15750   -16286   -16519   -16119 
  -16228   -16999   -17064   -16286   -15835   -15917   -16146   -16330 
  -16356   -16160   -15780   -15720   -16105   -16132   -15581   -15134 
  -15229   -15560   -15626   -15403   -15244   -15766   -17118   -18057 
  -17432   -16032   -15523   -16128   -16692   -16399   -15574   -15174 
  -15352   -15543   -15815   -16227   -16297   -16105   -16198   -16360 
  -16048   -15622   -15542   -15592   -15635   -15704   -15835   -16139 
  -16420   -16294   -15890   -15851   -16366   -16911   -17014   -16591 
  -16140   -16081   -15974   -15670   -15515   -15363   -15358   -15924 
  -16606   -16839   -16634   -15955   -14905   -14268   -14648   -15623 
  -16467   -16964   -17289   -17516   -17316   -16580   -15917   -15445 
  -14739   -14477   -15352   -16391   -16582   -16239   -15966   -15909 
  -16006   -16060   -15985   -15911   -15731   -15523   -15745   -16282 
  -16575   -16559   -16663   -16956   -16946   -16532   -15912   -14949 
  -14202   -14696   -15908   -16368   -15928   -15696   -16055   -16271 
  -16154   -16247   -16644   -16970   -16939   -16478   -15596   -14764 
  -14804   -15614   -16136   -15881   -15576   -15986   -16681   -16794 
  -16383   -16136   -16205   -16344   -16492   -16426   -16009   -15753 
  -16058   -16357   -15967   -15272   -15156   -15589   -15790   -15718 
  -15912   -16156   -16078   -16066   -16407   -16675   -16409   -15935 
  -15913   -16302   -16575   -16521   -16294   -16025   -15676   -15361 
  -15372   -15579   -15651   -15696   -15866   -16052   -16171   -16201 
  -16321   -16796   -17312   -17153   -16249   -15298   -14775   -14634 
  -14805   -15145   -15439   -15776   -16156   -16270   -16123   -16078 
  -16278   -16592   -16884   -17034   -16924   -16552   -16102   -15772 
  -15518   -15398   -15709   -16317   -16549   -16102   -15624   -15809 
  -16206   -16021   -15391   -15055   -15496   -16436   -17061   -17058 
  -16806   -16638   -16534   -16194   -15516   -15068   -15206   -15325 
  -15147   -15245   -15668   -15952   -16147   -16480   -16880   -17069 
  -16814   -16198   -15579   -15248   -15286   -15668   -16160   -16414 
  -16366   -16092   -15819   -15965   -16513   -16860   -16677   -16295 
  -16020   -15757   -15385   -15152   -15396   -15800   -15823   -15726 
  -15870   -15942   -15834   -15971   -16336   -16465   -16283   -16087 
  -16136   -16329   -16351   -16251   -16233   -16108   -15776   -15562 
  -15646   -15904   -16141   -16148   -15992   -15908   -15859   -15770 
  -15812   -16086   -16236   -16055   -15984   -16275   -16564   -16402 
  -15957   -15804   -15917   -15974   -16036   -16063   -15890   -15747 
  -15789   -15781   -15772   -16031   -16390   -16591   -16713   -16757 
  -16565   -16148   -15796   -15766   -15854   -15719   -15484   -15462 
  -15643   -15723   -15709   -15932   -16243   -16177   -15863   -15724 
  -15689   -15538   -15433   -15638   -16173   -16668   -16758   -16622 
  -16528   -16486   -16568   -16592   -16183   -15700   -15888   -16384 
  -16204   -15504   -15079   -15086   -15438   -15917   -16129   -16085 
  -16062   -16220   -16540   -16773   -16672   -16320   -15982   -15754 
  -15660   -15739   -15874   -15843   -15677   -15724   -15997   -16123 
  -16110   -16127   -16101   -16117   -16316   -16421   -16150   -15749 
  -15526   -15481   -15637   -15940   -16155   -16290   -16370   -16236 
  -16050   -15994   -15939   -15908   -15913   -15863   -15962   -16208 
  -16228   -16108   -16190   -16416   -16534   -16397   -16092   -15934 
  -15978   -16002   -15888   -15607   -15271   -15237   -15646   -16120 
  -16359   -16422   -16425   -16438   -16357   -16009   -15701   -15753 
  -15938   -16082   -16178   -16158   -16120   -16125   -16073   -15974 
  -15966   -16044   -15967   -15573   -15188   -15236   -15573   -15874 
  -16146   -16403   -16471   -16337   -16268   -16335   -16321   -16198 
  -16071   -15966   -15877   -15886   -16104   -16258   -16029   -15726 
  -15754   -16050   -16390   -16555   -16398   -16069   -15785   -15668 
  -15728   -15712   -15637   -15828   -16106   -16121   -15974   -15936 
  -16055   -16148   -16209   -16355   -16438   -16247   -15913   -15739 
  -15795   -15979   -16098   -15957   -15677   -15603   -15921   -16383 
  -16492   -16170   -15865   -15950   -16233   -16344   -16228   -16066 
  -15924   -15655   -15460   -15696   -16033   -16073   -16040   -16174 
  -16291   -16131   -15865   -15834   -15989   -16128   -16170   -16081 
  -15851   -15560   -15444   -15631   -15936   -16204   -16393   -16448 
  -16402   -16341   -16367   -16424   -16320   -16164   -16146   -16108 
  -15927   -15736   -15678   -15678   -15618   -15680   -15901   -15893 
  -15668   -15754   -16202   -16352   -16002   -15800   -15981   -16129 
  -16119   -16116   -16183   -16249   -16232   -16187   -16235   -16290 
  -16181   -15992   -15851   -15735   -15772   -16002   -16140   -16040 
  -15905   -15969   -16218   -16418   -16401   -16213   -15981   -15804 
  -15741   -15712   -15565   -15375   -15369   -15595   -15930   -16254 
  -16440   -16551   -16725   -16744   -16318   -15709   -15446   -15637 
  -15984   -16183   -16173   -16147   -16210   -16167   -15970   -15932 
  -16156   -16249   -16008   -15758   -15691   -15720   -15843   -15969 
  -15965   -16011   -16301   -16599   -16548   -16252   -16032   -15866 
  -15674   -15587   -15601   -15591   -15580   -15670   -15904   -16233 
  -16436   -16386   -16241   -16128   -16102   -16228   -16363   -16228 
  -15807   -15484   -15585   -15920   -16055   -15962   -16047   -16287 
  -16314   -16337   -16561   -16540   -16144   -15890   -15909   -15788 
  -15539   -15620   -15890   -15853   -15703   -15904   -16263   -16352 
  -16302   -16324   -16150   -15773   -15641   -15753   -15746   -15637 
  -15765   -16114   -16298   -16328   -16438   -16479   -16318   -16058 
  -15768   -15612   -15703   -15892   -16083   -16278   -16355   -16303 
  -16236   -16089   -15871   -15813   -15970   -16114   -16005   -15754 
  -15714   -15859   -15898   -15861   -15996   -16225   -16232   -15992 
