Origin Time       2012/11/01 22:13:00
Lat.              36.707
Long.             140.592
Depth. (km)       10
Mag.              2.9
Station Code      IBRH16
Station Lat.      36.6405
Station Long.     140.3976
Station Height(m) 90
Record Time       2012/11/01 22:13:21
Sampling Freq(Hz) 100Hz
Duration Time(s)  120
Dir.              4
Scale Factor      3920(gal)/6170801
Max. Acc. (gal)   1.697
Last Correction   2012/11/01 22:13:06
Memo.             
[...]
    5237     5238     5239     5242     5239     5235     5241     5240 
    5234     5235     5236     5234     5235     5235     5239     5240 
    5234     5239     5246     5241     5233     5235     5238     5234 
    5235     5242     5239     5236     5242     5241     5234     5237 
    5242     5237     5237     5246     5238     5226     5234     5240 
    5239     5244     5243     5234     5232     5238     5239     5235 
    5239     5241     5232     5231     5240     5241     5233     5234 
    5243     5240     5230     5233     5240     5237     5232     5234 
    5237     5235     5235     5241     5242     5234     5231     5236 
    5239     5234     5234     5240     5238     5231     5236     5243 
    5240     5236     5237     5237     5235     5234     5236     5235 
    5233     5238     5244     5241     5241     5242     5236     5230 
    5234     5237     5236     5236     5238     5236     5232     5237 
    5241     5239     5241     5242     5236     5231     5232     5234 
    5234     5236     5239     5238     5237     5239     5238     5237 
    5237     5236     5237     5237     5235     5234     5235     5236 
    5238     5241     5237     5235     5239     5240     5235     5232 
    5233     5236     5240     5238     5237     5238     5235     5235 
    5236     5236     5235     5235     5236     5237     5237     5239 
    5241     5238     5237     5239     5236     5233     5237     5239 
    5234     5235     5241     5241     5238     5241     5243     5236 
    5231     5233     5236     5238     5239     5240     5237     5231 
    5233     5240     5242     5242     5240     5236     5233     5233 
    5235     5237     5239     5241     5240     5236     5236     5239 
    5241     5240     5239     5239     5235     5232     5234     5239 
    5240     5240     5241     5239     5238     5239     5237     5233 
    5235     5239     5236     5235     5239     5240     5236     5235 
    5238     5241     5240     5236     5235     5237     5234     5231 
    5238     5241     5239     5240     5240     5240     5240     5237 
    5232     5233     5235     5238     5238     5237     5238     5237 
    5235     5237     5239     5237     5235     5236     5240     5240 
    5236     5237     5240     5238     5237     5239     5241     5239 
    5235     5235     5237     5233     5233     5238     5239     5238 
    5237     5237     5240     5241     5240     5236     5233     5232 
    5232     5235     5239     5241     5242     5241     5239     5237 
    5237     5237     5235     5234     5235     5233     5231     5235 
    5243     5244     5241     5240     5239     5234     5231     5233 
    5238     5237     5235     5240     5245     5238     5235     5241 
    5240     5234     5235     5236     5232     5232     5237     5240 
    5237     5235     5238     5241     5241     5238     5235     5234 
    5234     5233     5237     5241     5238     5238     5240     5240 
    5238     5239     5240     5235     5230     5232     5239     5241 
    5241     5239     5240     5242     5242     5240     5238     5237 
    5233     5231     5236     5240     5239     5241     5245     5243 
    5241     5239     5234     5234     5235     5235     5239     5238 
    5235     5239     5246     5245     5245     5242     5233     5229 
    5233     5236     5236     5237     5240     5242     5240     5239 
    5240     5240     5237     5234     5232     5233     5236     5236 
    5237     5239     5239     5238     5238     5240     5238     5234 
    5234     5235     5236     5236     5236     5239     5239     5237 
    5237     5240     5240     5237     5235     5234     5234     5233 
    5238     5242     5238     5239     5242     5237     5230     5233 
    5238     5239     5239     5239     5235     5230     5233     5241 
    5242     5239     5236     5236     5237     5236     5232     5234 
    5236     5234     5235     5238     5240     5240     5238     5239 
    5241     5237     5233     5232     5232     5235     5238     5242 
    5242     5239     5236     5235     5235     5235     5238     5241 
    5239     5235     5234     5234     5235     5238     5240     5238 
    5238     5239     5236     5235     5237     5236     5234     5234 
    5234     5235     5237     5239     5242     5242     5236     5232 
    5233     5235     5237     5237     5239     5239     5236     5239 
    5239     5233     5232     5237     5239     5237     5236     5236 
    5234     5234     5241     5244     5239     5236     5238     5236 
    5233     5234     5238     5236     5234     5236     5237     5238 
    5241     5240     5237     5236     5234     5234     5234     5235 
    5238     5240     5237     5237     5240     5238     5234     5236 
    5240     5240     5235     5232     5234     5234     5234     5241 
    5242     5239     5239     5239     5238     5234     5232     5236 
    5238     5235     5234     5238     5238     5236     5237     5239 
    5237     5233     5233     5235     5235     5233     5236     5241 
    5238     5237     5239     5238     5235     5238     5239     5233 
    5231     5233     5233     5235     5239     5240     5240     5239 
    5238     5238     5234     5232     5236     5238     5234     5232 
    5236     5240     5239     5239     5240     5237     5232     5232 
    5231     5232     5236     5239     5241     5238     5234     5238 
    5242     5239     5235     5233     5230     5227     5229     5239 
    5243     5238     5239     5242     5238     5234     5236     5236 
    5232     5231     5235     5237     5235     5236     5242     5241 
    5236     5237     5241     5238     5231     5229     5232     5232 
    5234     5242     5244     5237     5235     5238     5238     5236 
    5237     5236     5232     5229     5232     5239     5241     5240 
    5240     5238     5236     5236     5238     5235     5231     5233 
    5240     5242     5239     5237     5240     5241     5234     5233 
    5237     5233     5229     5235     5240     5239     5236     5238 
    5240     5236     5235     5236     5236     5235     5234     5234 
    5234     5232     5236     5242     5243     5239     5236     5235 
    5233     5231     5234     5238     5237     5234     5236     5239 
    5238     5238     5241     5237     5236     5237     5235     5235 
    5233     5232     5237     5240     5239     5239     5239     5235 
    5233     5238     5240     5234     5231     5234     5234     5233 
    5237     5242     5242     5238     5235     5235     5234     5231 
    5232     5235     5234     5238     5245     5242     5237     5236 
    5236     5236     5234     5232     5233     5234     5232     5234 
    5241     5244     5240     5238     5240     5235     5231     5234 
    5235     5234     5234     5238     5242     5238     5235     5238 
    5240     5237     5235     5234     5234     5232     5234     5239 
    5237     5232     5236     5241     5241     5240     5236     5232 
    5230     5231     5234     5239     5240     5236     5236     5239 
    5239     5238     5239     5239     5233     5228     5232     5238 
    5240     5239     5236     5238     5238     5238     5240     5236 
    5231     5231     5234     5235     5235     5238     5242     5240 
    5235     5234     5237     5237     5235     5235     5236     5234 
    5233     5238     5242     5238     5235     5234     5233     5234 
    5237     5238     5237     5237     5235     5235     5238     5239 
    5239     5237     5233     5233     5235     5233     5233     5239 
    5241     5234     5234     5240     5239     5235     5236     5237 
    5236     5233     5233     5240     5242     5236     5235     5237 
    5234     5235     5238     5239     5237     5233     5235     5240 
    5236     5234     5237     5235     5232     5235     5240     5240 
    5238     5237     5234     5234     5237     5237     5235     5234 
    5231     5233     5239     5238     5235     5241     5242     5236 
    5235     5237     5235     5233     5236     5238     5236     5236 
    5236     5235     5239     5243     5238     5235     5236     5233 
    5231     5235     5240     5238     5236     5236     5235     5235 
    5236     5236     5237     5235     5232     5233     5236     5234 
    5236     5244     5245     5236     5234     5236     5234     5234 
    5235     5235     5233     5236     5243     5242     5235     5235 
    5235     5232     5235     5238     5235     5233     5236     5238 
    5237     5241     5242     5238     5236     5236     5233     5233 
    5234     5236     5237     5236     5236     5241     5241     5237 
    5238     5237     5231     5232     5235     5236     5238     5237 
    5236     5238     5238     5238     5240     5238     5234     5232 
    5233     5235     5236     5239     5241     5239     5235     5233 
    5236     5238     5236     5237     5239     5235     5232     5234 
    5237     5238     5238     5240     5240     5236     5235     5238 
    5237     5231     5231     5238     5240     5238     5238     5237 
    5234     5233     5237     5236     5232     5232     5232     5232 
    5235     5240     5240     5237     5233     5232     5234     5233 
    5233     5236     5237     5235     5235     5236     5237     5238 
    5236     5232     5228     5231     5236     5236     5236     5236 
    5235     5237     5239     5238     5239     5238     5232     5231 
    5233     5232     5236     5239     5237     5233     5232     5237 
    5241     5239     5237     5234     5233     5235     5237     5236 
    5233     5228     5231     5239     5241     5242     5242     5238 
    5233     5231     5234     5237     5237     5237     5237     5236 
    5236     5237     5239     5241     5236     5233     5236     5236 
    5235     5237     5237     5237     5237     5235     5236     5238 
    5236     5234     5238     5237     5232     5231     5235     5238 
    5239     5236     5238     5240     5235     5234     5237     5233 
    5230     5233     5237     5237     5235     5240     5243     5239 
    5235     5235     5237     5235     5234     5238     5241     5235 
    5230     5227     5234     5248     5242     5229     5247     5250 
    5218     5223     5252     5242     5226     5234     5242     5235 
    5231     5242     5241     5230     5234     5237     5234     5236 
    5235     5235     5242     5242     5233     5230     5237     5240 
    5231     5235     5246     5236     5229     5242     5242     5231 
    5232     5239     5241     5236     5235     5235     5232     5234 
    5236     5237     5238     5236     5238     5242     5240     5240 
    5243     5231     5223     5235     5240     5236     5239     5240 
    5236     5236     5240     5241     5234     5228     5229     5234 
    5240     5241     5239     5241     5240     5235     5235     5237 
    5236     5235     5235     5236     5239     5238     5236     5237 
    5240     5241     5239     5235     5224     5199     5173     5177 
    5215     5255     5241     5132     5091     5338     5516     5321 
    5359     5559     5221     4745     4626     5223     6119     5775 
    5041     5127     4837     4386     4619     5174     5919     6210 
    5879     5532     5155     5040     4997     4605     4730     5310 
    5531     5471     5049     4671     4913     5370     5903     6263 
    5946     5185     4458     4321     4825     5262     5271     5195 
    5528     5833     5442     4844     4568     4732     5381     6162 
    6495     5883     4649     3812     3994     5101     6148     6237 
    5743     5199     4565     4224     4767     5650     5896     5811 
    5893     5649     4978     4407     4243     4686     5505     5985 
    5765     5192     4896     4966     5122     5385     5539     5306 
    4948     4885     5355     5791     5613     5317     5133     4974 
    4994     5012     5105     5263     5267     5403     5441     5176 
    5179     5234     5079     5244     5485     5437     5369     5133 
    4963     5274     5384     5085     5057     5229     5191     5172 
    5365     5450     5379     5233     4989     5091     5407     5267 
    5049     5149     5250     5285     5374     5488     5409     5177 
    4993     4860     5055     5388     5417     5363     5203     5079 
    5200     5273     5548     5831     5396     4828     4822     5005 
    5127     5268     5360     5357     5252     5133     5139     5338 
    5613     5492     5018     4880     5107     5447     5643     5263 
    4815     4842     5007     5191     5407     5622     5595     5154 
    5006     5255     5285     5240     5297     5283     5086     4953 
    5057     5048     5312     5905     5740     5205     5139     5060 
    4971     5165     5299     5236     5131     4990     4893     5075 
    5408     5613     5748     5711     5401     5110     4893     4698 
    4759     5034     5351     5647     5639     5353     5253     5378 
    5339     5137     5169     5266     5070     4890     4904     5011 
    5230     5454     5625     5705     5677     5419     4894     4670 
    4866     5076     5244     5290     5343     5471     5435     5443 
    5472     5275     5143     5041     4837     4895     5083     5129 
    5285     5498     5565     5625     5663     5368     4629     4093 
    4318     4731     5073     5799     6640     6847     6175     5500 
    5355     4572     3060     2565     3947     6306     7752     7613 
    7007     6203     4740     3394     3200     3888     4622     5033 
    5053     5147     5860     6558     6791     7034     6667     5074 
    3566     2964     2636     3080     5140     7201     7625     7354 
    6812     5278     3831     3826     4559     4802     4499     4461 
    5015     5774     6319     6305     5966     5680     5124     4570 
    4594     4759     4853     5005     5056     5236     5866     6549 
    6328     5155     4232     4158     4629     5289     5864     6152 
    5610     4341     3926     4925     5865     5833     5475     5254 
    4782     4537     5428     6452     6390     5594     4510     3747 
    3930     4645     5597     6586     6805     6373     5813     4864 
    3969     3853     4203     4667     5322     6064     6279     5730 
    5196     5069     5007     4926     4906     4987     5154     5192 
    5139     5394     5730     5593     5527     5932     5819     4955 
    4371     4317     4429     4801     5589     6277     6149     5738 
    5666     5282     4733     4756     4894     4744     4519     4389 
    4705     5640     6566     6815     6540     5898     4895     4214 
    4268     4471     4415     4486     4935     5334     5533     5888 
    6370     6567     6244     5605     4972     4272     3649     3914 
    5005     5660     5510     5155     4848     4967     5923     6819 
    6379     5153     4591     4582     4275     4286     5143     5611 
    5289     5154     5619     6429     6705     6106     5367     4554 
    3638     3470     4398     5500     5834     5757     5956     6185 
    5995     5531     5131     4686     4103     3903     4359     5168 
    5965     6190     5887     5768     5591     4968     4514     4501 
    4570     4774     5353     5929     6010     5767     5467     5098 
    4832     4794     4744     4695     5182     6161     6642     6201 
    5366     4640     4293     4193     4106     4563     5651     6223 
    6008     5917     6194     6228     5483     4458     4095     4177 
    4232     4538     5115     5627     5964     6214     6269     5971 
    5667     5306     4442     3664     3677     4391     5419     6020 
    6033     6016     5810     5389     5375     5569     5370     4739 
    3977     3834     4682     5677     6177     6423     6273     5641 
    5235     5215     5043     4539     4116     4360     4992     5371 
    5725     6180     6234     5877     5462     4921     4454     4425 
    4488     4708     5381     5760     5696     5883     5942     5347 
    4700     4687     5000     4858     4644     5040     5381     5354 
    5401     5567     5929     5998     5259     4611     4611     4764 
    4933     5110     5197     5479     5940     6047     5728     5300 
    5000     4984     4867     4510     4668     5204     5268     5255 
    5717     6091     5902     5269     4727     4864     5108     4783 
    4665     5053     5253     5362     5728     6096     5967     5262 
    4685     4657     4980     5307     5226     5014     5200     5641 
    5883     5641     5376     5410     5077     4494     4537     4936 
    5098     5290     5583     5675     5559     5321     5175     5188 
    4989     4544     4389     4775     5335     5809     6182     6299 
    5996     5242     4606     4599     4631     4464     4681     5194 
    5664     6090     6199     5949     5675     5221     4437     3905 
    4318     5204     5325     5080     5517     6006     6025     5935 
    5814     5662     5218     4397     3962     4252     4784     5220 
    5582     6010     6242     5955     5583     5433     5159     4648 
    4285     4453     4942     5269     5321     5235     5385     5775 
    5820     5577     5291     4841     4595     4638     4633     4848 
    5290     5511     5626     5872     5991     5710     5224     4836 
    4586     4545     4736     5069     5565     5951     5906     5785 
    5920     5825     5127     4393     4093     4103     4506     5244 
    5865     6195     6152     5813     5509     5222     4900     4670 
    4486     4490     4864     5291     5618     5918     5896     5634 
    5500     5229     4621     4217     4499     5071     5349     5457 
    5609     5663     5536     5442     5556     5551     5161     4650 
    4446     4761     5140     5224     5422     5741     5818     5717 
    5496     5249     5110     4912     4773     5019     5359     5314 
    5048     5076     5426     5607     5484     5469     5620     5484 
    5095     4944     4913     4736     4864     5312     5452     5486 
    5630     5377     4939     4907     5052     5084     5190     5307 
    5211     5170     5302     5375     5515     5662     5404     4942 
    4746     4716     4824     5285     5714     5740     5606     5512 
    5480     5321     4966     4783     4782     4764     4950     5345 
    5656     5768     5672     5492     5400     5277     5033     4831 
    4708     4733     5122     5577     5573     5326     5345     5420 
    5199     5127     5367     5386     5214     5084     4996     5086 
    5207     5228     5270     5268     5198     5152     5199     5332 
    5508     5703     5630     5151     4739     4733     4866     4869 
    4996     5376     5509     5381     5484     5552     5407     5469 
    5554     5358     5029     4683     4604     4934     5304     5479 
    5551     5531     5344     5217     5328     5390     5332     5347 
    5299     5099     4980     5060     5161     5136     5145     5364 
    5510     5264     5026     5212     5466     5419     5210     5133 
    5280     5445     5370     5070     4908     4979     5021     5177 
    5389     5324     5303     5335     5125     5135     5429     5430 
    5176     5017     5059     5277     5381     5214     5177     5396 
