Origin Time       2012/11/01 22:13:00
Lat.              36.707
Long.             140.592
Depth. (km)       10
Mag.              2.9
Station Code      IBRH16
Station Lat.      36.6405
Station Long.     140.3976
Station Height(m) 90
Record Time       2012/11/01 22:13:21
Sampling Freq(Hz) 100Hz
Duration Time(s)  120
Dir.              6
Scale Factor      3920(gal)/6170801
Max. Acc. (gal)   1.729
Last Correction   2012/11/01 22:13:06
Memo.             
  -19308   -19305   -19306   -19312   -19309   -19296   -19302   -19317 
  -19297   -19292   -19333   -19324   -19284   -19302   -19313   -19299 
  -19309   -19308   -19301   -19310   -19304   -19299   -19309   -19308 
  -19303   -19307   -19308   -19303   -19299   -19310   -19316   -19304 
  -19302   -19307   -19304   -19308   -19308   -19301   -19307   -19311 
  -19298   -19300   -19316   -19310   -19298   -19302   -19305   -19307 
  -19310   -19303   -19303   -19310   -19304   -19302   -19312   -19306 
  -19296   -19309   -19316   -19306   -19304   -19305   -19302   -19308 
  -19306   -19302   -19308   -19309   -19303   -19300   -19306   -19315 
  -19304   -19292   -19314   -19321   -19295   -19299   -19313   -19301 
  -19303   -19313   -19306   -19300   -19303   -19307   -19308   -19302 
  -19305   -19314   -19308   -19297   -19303   -19312   -19307   -19305 
  -19307   -19305   -19304   -19308   -19309   -19306   -19305   -19306 
  -19311   -19307   -19298   -19305   -19316   -19309   -19300   -19304 
  -19309   -19309   -19308   -19308   -19306   -19303   -19305   -19309 
  -19308   -19308   -19304   -19303   -19308   -19310   -19307   -19305 
  -19304   -19307   -19310   -19307   -19306   -19308   -19308   -19311 
  -19311   -19304   -19303   -19309   -19312   -19304   -19300   -19304 
  -19307   -19307   -19309   -19309   -19305   -19302   -19304   -19312 
  -19312   -19306   -19304   -19304   -19303   -19306   -19307   -19308 
  -19311   -19307   -19302   -19303   -19307   -19309   -19307   -19306 
  -19307   -19306   -19305   -19307   -19305   -19305   -19307   -19306 
  -19306   -19307   -19305   -19306   -19308   -19304   -19302   -19307 
  -19311   -19309   -19304   -19304   -19308   -19308   -19304   -19305 
  -19307   -19307   -19310   -19311   -19308   -19304   -19303   -19307 
  -19309   -19307   -19303   -19302   -19308   -19312   -19310   -19306 
  -19304   -19304   -19308   -19310   -19308   -19305   -19304   -19305 
  -19308   -19309   -19308   -19308   -19307   -19307   -19306   -19303 
  -19307   -19311   -19307   -19305   -19308   -19307   -19304   -19305 
  -19307   -19309   -19307   -19305   -19306   -19304   -19304   -19306 
  -19305   -19305   -19309   -19308   -19306   -19304   -19302   -19304 
  -19308   -19307   -19304   -19304   -19305   -19304   -19305   -19307 
  -19306   -19305   -19308   -19308   -19305   -19304   -19304   -19307 
  -19307   -19305   -19304   -19303   -19303   -19309   -19311   -19307 
  -19302   -19302   -19305   -19306   -19304   -19303   -19306   -19307 
  -19304   -19301   -19304   -19307   -19305   -19305   -19308   -19306 
  -19302   -19303   -19306   -19304   -19302   -19305   -19308   -19305 
  -19301   -19303   -19307   -19308   -19307   -19304   -19306   -19309 
  -19307   -19306   -19305   -19305   -19306   -19305   -19303   -19301 
  -19303   -19308   -19310   -19305   -19303   -19306   -19306   -19303 
  -19305   -19308   -19307   -19306   -19307   -19308   -19305   -19302 
  -19306   -19310   -19306   -19302   -19304   -19306   -19306   -19306 
  -19306   -19304   -19301   -19302   -19306   -19307   -19305   -19308 
  -19311   -19308   -19303   -19302   -19306   -19309   -19307   -19306 
  -19305   -19304   -19306   -19306   -19306   -19306   -19304   -19304 
  -19309   -19307   -19301   -19305   -19308   -19304   -19303   -19306 
  -19309   -19311   -19308   -19303   -19301   -19303   -19309   -19312 
  -19308   -19304   -19304   -19307   -19307   -19305   -19306   -19306 
  -19302   -19302   -19307   -19306   -19303   -19304   -19306   -19307 
  -19305   -19303   -19308   -19311   -19308   -19307   -19306   -19302 
  -19303   -19305   -19307   -19310   -19309   -19305   -19308   -19308 
  -19299   -19303   -19315   -19311   -19301   -19299   -19305   -19309 
  -19307   -19305   -19307   -19306   -19305   -19305   -19307   -19308 
  -19307   -19306   -19308   -19308   -19305   -19306   -19310   -19311 
  -19306   -19302   -19304   -19308   -19308   -19306   -19304   -19305 
  -19309   -19310   -19308   -19306   -19306   -19306   -19304   -19305 
  -19306   -19302   -19306   -19312   -19307   -19304   -19306   -19306 
  -19306   -19308   -19309   -19307   -19305   -19304   -19306   -19306 
  -19306   -19309   -19306   -19303   -19307   -19308   -19305   -19306 
  -19306   -19305   -19305   -19304   -19308   -19307   -19303   -19305 
  -19310   -19307   -19303   -19301   -19305   -19309   -19306   -19304 
  -19307   -19306   -19303   -19300   -19302   -19307   -19311   -19309 
  -19305   -19301   -19303   -19308   -19309   -19308   -19307   -19304 
  -19303   -19307   -19309   -19307   -19307   -19308   -19308   -19305 
  -19302   -19303   -19308   -19310   -19308   -19305   -19302   -19303 
  -19307   -19310   -19307   -19305   -19304   -19301   -19303   -19309 
  -19310   -19305   -19303   -19307   -19310   -19307   -19307   -19309 
  -19306   -19304   -19307   -19307   -19306   -19306   -19306   -19305 
  -19304   -19306   -19309   -19307   -19306   -19307   -19305   -19305 
  -19309   -19309   -19304   -19303   -19306   -19307   -19305   -19302 
  -19306   -19309   -19306   -19303   -19304   -19304   -19303   -19306 
  -19309   -19308   -19304   -19303   -19305   -19304   -19304   -19308 
  -19309   -19306   -19302   -19301   -19306   -19310   -19308   -19307 
  -19309   -19306   -19299   -19302   -19309   -19308   -19305   -19306 
  -19305   -19303   -19307   -19308   -19306   -19308   -19309   -19307 
  -19304   -19302   -19304   -19308   -19307   -19305   -19307   -19309 
  -19307   -19308   -19309   -19304   -19304   -19311   -19310   -19304 
  -19305   -19306   -19305   -19307   -19309   -19308   -19306   -19305 
  -19307   -19306   -19306   -19311   -19313   -19309   -19303   -19302 
  -19307   -19312   -19309   -19306   -19306   -19305   -19300   -19301 
  -19309   -19311   -19306   -19305   -19306   -19307   -19309   -19307 
  -19303   -19303   -19309   -19311   -19306   -19303   -19306   -19312 
  -19311   -19305   -19303   -19308   -19309   -19305   -19305   -19305 
  -19305   -19307   -19308   -19309   -19310   -19308   -19305   -19303 
  -19305   -19309   -19311   -19307   -19303   -19304   -19308   -19308 
  -19311   -19312   -19303   -19298   -19304   -19309   -19310   -19308 
  -19303   -19306   -19309   -19304   -19302   -19307   -19309   -19306 
  -19306   -19308   -19304   -19302   -19307   -19311   -19309   -19303 
  -19303   -19310   -19313   -19306   -19304   -19308   -19306   -19305 
  -19310   -19308   -19303   -19306   -19306   -19305   -19309   -19310 
  -19306   -19300   -19297   -19303   -19310   -19308   -19305   -19306 
  -19304   -19302   -19305   -19308   -19307   -19303   -19303   -19307 
  -19307   -19306   -19307   -19307   -19304   -19304   -19307   -19307 
  -19305   -19306   -19308   -19308   -19306   -19305   -19304   -19304 
  -19305   -19306   -19306   -19308   -19305   -19301   -19304   -19307 
  -19307   -19308   -19309   -19306   -19305   -19309   -19310   -19306 
  -19303   -19303   -19306   -19309   -19307   -19307   -19306   -19302 
  -19304   -19308   -19307   -19308   -19307   -19305   -19304   -19304 
  -19307   -19308   -19304   -19302   -19305   -19307   -19307   -19305 
  -19306   -19309   -19307   -19303   -19305   -19306   -19307   -19308 
  -19308   -19308   -19307   -19304   -19305   -19306   -19308   -19308 
  -19305   -19302   -19306   -19311   -19310   -19309   -19306   -19302 
  -19304   -19308   -19307   -19308   -19308   -19300   -19300   -19308 
  -19309   -19307   -19308   -19306   -19302   -19304   -19307   -19307 
  -19305   -19305   -19307   -19307   -19303   -19304   -19310   -19310 
  -19303   -19300   -19304   -19308   -19309   -19310   -19307   -19304 
  -19305   -19307   -19308   -19310   -19306   -19304   -19307   -19304 
  -19302   -19306   -19310   -19309   -19308   -19303   -19301   -19306 
  -19311   -19309   -19306   -19305   -19306   -19306   -19305   -19305 
  -19308   -19311   -19309   -19309   -19306   -19299   -19302   -19310 
  -19309   -19304   -19304   -19306   -19309   -19310   -19307   -19305 
  -19305   -19308   -19310   -19308   -19305   -19306   -19306   -19306 
  -19306   -19306   -19307   -19310   -19310   -19305   -19306   -19309 
  -19311   -19311   -19308   -19303   -19304   -19309   -19311   -19307 
  -19306   -19308   -19306   -19304   -19307   -19309   -19312   -19312 
  -19305   -19304   -19308   -19310   -19308   -19308   -19308   -19306 
  -19305   -19304   -19306   -19311   -19310   -19304   -19303   -19307 
  -19306   -19304   -19307   -19310   -19306   -19304   -19307   -19306 
  -19305   -19308   -19311   -19309   -19306   -19307   -19311   -19311 
  -19306   -19303   -19307   -19311   -19308   -19305   -19303   -19301 
  -19307   -19312   -19308   -19303   -19304   -19307   -19311   -19311 
  -19308   -19305   -19306   -19309   -19309   -19303   -19303   -19306 
  -19307   -19311   -19310   -19305   -19306   -19308   -19309   -19308 
  -19307   -19307   -19307   -19306   -19306   -19306   -19308   -19311 
  -19309   -19308   -19309   -19306   -19303   -19309   -19314   -19310 
  -19305   -19305   -19306   -19306   -19306   -19311   -19314   -19310 
  -19304   -19303   -19304   -19309   -19311   -19309   -19307   -19306 
  -19306   -19308   -19309   -19307   -19307   -19309   -19305   -19304 
  -19309   -19310   -19305   -19304   -19308   -19312   -19305   -19298 
  -19304   -19309   -19305   -19304   -19309   -19309   -19307   -19308 
  -19307   -19307   -19309   -19309   -19306   -19307   -19308   -19307 
  -19304   -19305   -19312   -19314   -19307   -19303   -19307   -19311 
  -19308   -19307   -19309   -19311   -19308   -19305   -19304   -19307 
  -19311   -19310   -19305   -19302   -19304   -19309   -19311   -19308 
  -19308   -19308   -19304   -19308   -19311   -19305   -19306   -19309 
  -19305   -19306   -19307   -19304   -19310   -19313   -19303   -19300 
  -19307   -19311   -19310   -19308   -19306   -19304   -19306   -19308 
  -19306   -19305   -19308   -19308   -19307   -19310   -19309   -19307 
  -19311   -19310   -19302   -19304   -19310   -19307   -19302   -19304 
  -19307   -19306   -19305   -19307   -19310   -19307   -19305   -19306 
  -19307   -19307   -19307   -19306   -19307   -19305   -19301   -19306 
  -19310   -19307   -19304   -19307   -19309   -19308   -19306   -19306 
  -19308   -19309   -19307   -19303   -19304   -19304   -19305   -19310 
  -19307   -19301   -19304   -19308   -19307   -19306   -19307   -19310 
  -19308   -19302   -19301   -19305   -19309   -19309   -19305   -19303 
  -19304   -19306   -19307   -19307   -19305   -19304   -19309   -19312 
  -19302   -19293   -19316   -19316   -19275   -19310   -19358   -19294 
  -19268   -19324   -19317   -19294   -19310   -19307   -19305   -19314 
  -19301   -19297   -19308   -19309   -19309   -19308   -19303   -19304 
  -19304   -19304   -19310   -19307   -19298   -19310   -19316   -19292 
  -19295   -19324   -19311   -19297   -19313   -19308   -19305   -19313 
  -19303   -19302   -19314   -19308   -19304   -19308   -19306   -19306 
  -19306   -19303   -19306   -19310   -19306   -19297   -19307   -19322 
  -19306   -19293   -19311   -19313   -19301   -19307   -19308   -19302 
  -19303   -19307   -19310   -19311   -19307   -19305   -19308   -19306 
  -19299   -19300   -19316   -19317   -19302   -19301   -19306   -19307 
  -19312   -19308   -19301   -19307   -19309   -19301   -19304   -19312 
  -19310   -19305   -19302   -19277   -19170   -18918   -18722   -19112 
  -19998   -20196   -19492   -19301   -19332   -18276   -17703   -19172 
  -21320   -22028   -20429   -18573   -18127   -17519   -17127   -18768 
  -20524   -20740   -21075   -20943   -18617   -16841   -17792   -19064 
  -19375   -20237   -21303   -20476   -18547   -17916   -18268   -18582 
  -19356   -20309   -20367   -19738   -18936   -18415   -18926   -19609 
  -19479   -19282   -19433   -19610   -19590   -19343   -18874   -18625 
  -19240   -19670   -19292   -19592   -20042   -19104   -18392   -19235 
  -19776   -19348   -19320   -19391   -19008   -18932   -19397   -19829 
  -19633   -19050   -18948   -19201   -19178   -19219   -19446   -19524 
  -19591   -19493   -19169   -19014   -19035   -19305   -19702   -19414 
  -18959   -19391   -19751   -19377   -19119   -19164   -19200   -19335 
  -19387   -19156   -19196   -19454   -19367   -19423   -19690   -19407 
  -18899   -18895   -19072   -19177   -19545   -19709   -19422   -19378 
  -19435   -19102   -18899   -19324   -19583   -19183   -19013   -19352 
  -19513   -19380   -19411   -19499   -19375   -19206   -18938   -18945 
  -19561   -19831   -19396   -19155   -19156   -18997   -19242   -19780 
  -19659   -19263   -19209   -18889   -18584   -19356   -20088   -19702 
  -19304   -19112   -18719   -18829   -19642   -20156   -19754   -18904 
  -18442   -18923   -19657   -19789   -19607   -19365   -19170   -19132 
  -19174   -19240   -19257   -19391   -19511   -19223   -19011   -19441 
  -19880   -19509   -18919   -18970   -19127   -19141   -19513   -19771 
  -19394   -18921   -18899   -19184   -19520   -19840   -19789   -19268 
  -18803   -18698   -19041   -19456   -19468   -19661   -19909   -19380 
  -18903   -19209   -19403   -19205   -19194   -19152   -19023   -19364 
  -19739   -19579   -19307   -19189   -19263   -19524   -19535   -19238 
  -19062   -18955   -18824   -19120   -19674   -19757   -19505   -19246 
  -19005   -19063   -19486   -19709   -19345   -19041   -19173   -19138 
  -18951   -19184   -19732   -19917   -19585   -19263   -19170   -19120 
  -18966   -18972   -19404   -19750   -19628   -19229   -18928   -19097 
  -19365   -19438   -19688   -19829   -19356   -18822   -18786   -18922 
  -19313   -19858   -19739   -19275   -19051   -18954   -19178   -19633 
  -19785   -19519   -19113   -19096   -19712   -20177   -19678   -18921 
  -18700   -18387   -18377   -19646   -20729   -20199   -19167   -18879 
  -18806   -18351   -18258   -19182   -20353   -20419   -19500   -18834 
  -18772   -18849   -18708   -18680   -19388   -20302   -20174   -19373 
  -19341   -19705   -19362   -18796   -18638   -18844   -19193   -19479 
  -19827   -20020   -19788   -19495   -19144   -18416   -18091   -19250 
  -20664   -20306   -18998   -18682   -18964   -18782   -18845   -19614 
  -20077   -19813   -19427   -19236   -19047   -18993   -19245   -19491 
  -19638   -19713   -19546   -19183   -19010   -19171   -19308   -19348 
  -19526   -19580   -19287   -19015   -18966   -19026   -19041   -19044 
  -19431   -20061   -19965   -18797   -17858   -18462   -19720   -20076 
  -19794   -19753   -19648   -19038   -18487   -18840   -19776   -19798 
  -19014   -19013   -19504   -19539   -19600   -19819   -19332   -18553 
  -18780   -19398   -19421   -19457   -19858   -19981   -19408   -18764 
  -18721   -19075   -19403   -19497   -19525   -19421   -18909   -18651 
  -19099   -19647   -19891   -19883   -19548   -18846   -18401   -18682 
  -19150   -19468   -19904   -20122   -19534   -18695   -18570   -19217 
  -19799   -19647   -19331   -19446   -19347   -18749   -18835   -19769 
  -20026   -19557   -19249   -18968   -18790   -18988   -19477   -20038 
  -20064   -19359   -18762   -18821   -19168   -19638   -19856   -19067 
  -18380   -19141   -20002   -19732   -19301   -19361   -19133   -18717 
  -19172   -19978   -19943   -19410   -19119   -19038   -19125   -19131 
  -19038   -19364   -19639   -19483   -19250   -19106   -19385   -19640 
  -19330   -19065   -19124   -19125   -19187   -19516   -19538   -19242 
  -19163   -19067   -19057   -19440   -19664   -19322   -18811   -18675 
  -19084   -19653   -19699   -19289   -19011   -19020   -19390   -19770 
  -19641   -19431   -19422   -19183   -18870   -18899   -19206   -19717 
  -19988   -19568   -19186   -19277   -19231   -19104   -19287   -19593 
  -19748   -19435   -18872   -18764   -18979   -19303   -19899   -19976 
  -19221   -18790   -18776   -18690   -19054   -19776   -20035   -19538 
  -18855   -18871   -19539   -19988   -19637   -18992   -18887   -19094 
  -19155   -19251   -19633   -19930   -19468   -18701   -18662   -19330 
  -19939   -19883   -19307   -18843   -18694   -18799   -19367   -20113 
  -20134   -19498   -18894   -18506   -18739   -19634   -20033   -19631 
  -19343   -19083   -18939   -19477   -19710   -19355   -19381   -19317 
  -18816   -18878   -19448   -19577   -19528   -19672   -19478   -19018 
  -18862   -19161   -19517   -19331   -18998   -19114   -19213   -19106 
  -19311   -19759   -19804   -19279   -18814   -18927   -19166   -19246 
  -19539   -19668   -19487   -19440   -19227   -19133   -19625   -19726 
  -19211   -19092   -19233   -19093   -19033   -19308   -19838   -20121 
  -19435   -18591   -18750   -19333   -19621   -19584   -19262   -19078 
  -19143   -18960   -18904   -19491   -19883   -19550   -18943   -18712 
  -19236   -19514   -19086   -19259   -19819   -19560   -19046   -19038 
  -19386   -19725   -19537   -19013   -19020   -19425   -19493   -19399 
  -19479   -19401   -19060   -18867   -19234   -19872   -19867   -19243 
  -18855   -18958   -19171   -19203   -19400   -19736   -19551   -19028 
  -18879   -19258   -19619   -19457   -18992   -18941   -19523   -19775 
  -19404   -19254   -19300   -19146   -19093   -19328   -19532   -19517 
  -19350   -19203   -19300   -19510   -19476   -19197   -19165   -19454 
  -19277   -18774   -18991   -19798   -20012   -19209   -18609   -18861 
  -19120   -19358   -19713   -19655   -19369   -19170   -18956   -19038 
  -19532   -19646   -19130   -18896   -19294   -19612   -19560   -19449 
  -19247   -19120   -19370   -19531   -19401   -19471   -19479   -19011 
  -18763   -19069   -19467   -19870   -20010   -19497   -18968   -18952 
  -18997   -19177   -19616   -19502   -18964   -18996   -19381   -19486 
  -19438   -19423   -19402   -19259   -19018   -18979   -19203   -19358 
  -19331   -19345   -19344   -19259   -19316   -19466   -19487   -19282 
  -18991   -19099   -19497   -19515   -19365   -19359   -19212   -19192 
  -19378   -19236   -19082   -19351   -19440   -19305   -19459   -19534 
  -19269   -19080   -19262   -19480   -19331   -19210   -19425   -19501 
  -19171   -19073   -19410   -19462   -19306   -19438   -19498   -19288 
  -19157   -19074   -18987   -19252   -19659   -19566   -19246   -19236 
  -19195   -19062   -19247   -19425   -19360   -19375   -19286   -19055 
  -19233   -19516   -19361   -19157   -19152   -19191   -19330   -19570 
  -19591   -19329   -19235   -19307   -19255   -19225   -19242   -19171 
  -19122   -19260   -19482   -19496   -19451   -19516   -19300   -19029 
  -19300   -19592   -19323   -19062   -19212   -19293   -19287   -19502 
  -19537   -19266   -19182   -19364   -19460   -19430   -19368   -19081 
  -18880   -19151   -19462   -19607   -19672   -19454   -19063   -18850 
  -18877   -19135   -19443   -19533   -19512   -19367   -19091   -19173 
  -19456   -19382   -19277   -19292   -19069   -18983   -19324   -19625 
  -19664   -19479   -19201   -19183   -19330   -19284   -19297   -19442 
  -19206   -18940   -19343   -19791   -19575   -19220   -19188   -19106 
  -18978   -19255   -19582   -19543   -19369   -19162   -19043   -19183 
  -19412   -19660   -19847   -19575   -18966   -18661   -18831   -19274 
  -19677   -19783   -19635   -19371   -19113   -18874   -18888   -19408 
  -19834   -19614   -19229   -19178   -19235   -19183   -19183   -19232 
  -19303   -19378   -19250   -19175   -19428   -19574   -19360   -19088 
