Origin Time       2012/11/01 22:13:00
Lat.              36.707
Long.             140.592
Depth. (km)       10
Mag.              2.9
Station Code      IBRH16
Station Lat.      36.6405
Station Long.     140.3976
Station Height(m) 90
Record Time       2012/11/01 22:13:21
Sampling Freq(Hz) 100Hz
Duration Time(s)  120
Dir.              5
Scale Factor      3920(gal)/6170801
Max. Acc. (gal)   1.771
Last Correction   2012/11/01 22:13:06
Memo.             
[...]
   -6928    -6939    -6951    -6928    -6922    -6938    -6923    -6917 
   -6933    -6932    -6935    -6942    -6933    -6929    -6930    -6926 
   -6932    -6940    -6933    -6922    -6923    -6924    -6926    -6933 
   -6937    -6941    -6942    -6931    -6927    -6929    -6931    -6932 
   -6932    -6929    -6930    -6933    -6933    -6930    -6933    -6936 
   -6931    -6930    -6932    -6932    -6934    -6931    -6925    -6927 
   -6933    -6935    -6934    -6935    -6937    -6933    -6925    -6928 
   -6934    -6931    -6928    -6931    -6931    -6927    -6933    -6943 
   -6942    -6936    -6932    -6930    -6927    -6928    -6932    -6932 
   -6930    -6931    -6932    -6934    -6936    -6938    -6938    -6933 
   -6927    -6928    -6930    -6932    -6937    -6937    -6932    -6932 
   -6934    -6933    -6934    -6934    -6929    -6927    -6929    -6931 
   -6931    -6930    -6932    -6935    -6936    -6936    -6939    -6939 
   -6933    -6927    -6926    -6928    -6930    -6931    -6933    -6932 
   -6931    -6933    -6939    -6939    -6932    -6928    -6927    -6926 
   -6924    -6929    -6935    -6935    -6935    -6937    -6933    -6932 
   -6934    -6929    -6925    -6928    -6932    -6931    -6928    -6929 
   -6934    -6936    -6936    -6936    -6933    -6931    -6931    -6930 
   -6930    -6928    -6927    -6931    -6933    -6932    -6931    -6930 
   -6932    -6934    -6932    -6928    -6926    -6928    -6930    -6930 
   -6931    -6935    -6936    -6932    -6931    -6931    -6930    -6931 
   -6933    -6930    -6927    -6927    -6930    -6933    -6934    -6936 
   -6937    -6930    -6924    -6925    -6929    -6930    -6932    -6935 
   -6934    -6934    -6933    -6929    -6931    -6934    -6933    -6929 
   -6928    -6927    -6924    -6925    -6931    -6936    -6939    -6934 
   -6929    -6933    -6932    -6928    -6932    -6934    -6929    -6929 
   -6932    -6931    -6929    -6932    -6936    -6936    -6933    -6927 
   -6927    -6931    -6931    -6932    -6936    -6935    -6931    -6930 
   -6934    -6936    -6937    -6937    -6935    -6931    -6927    -6924 
   -6924    -6930    -6935    -6936    -6935    -6933    -6934    -6933 
   -6931    -6932    -6933    -6931    -6927    -6928    -6931    -6931 
   -6934    -6939    -6939    -6935    -6931    -6925    -6924    -6928 
   -6932    -6934    -6935    -6934    -6930    -6929    -6935    -6937 
   -6936    -6935    -6930    -6925    -6924    -6927    -6932    -6933 
   -6934    -6936    -6931    -6927    -6929    -6931    -6930    -6929 
   -6931    -6933    -6932    -6932    -6936    -6937    -6934    -6935 
   -6935    -6928    -6923    -6927    -6928    -6928    -6931    -6935 
   -6937    -6933    -6932    -6935    -6934    -6933    -6937    -6933 
   -6925    -6923    -6924    -6929    -6935    -6939    -6941    -6935 
   -6924    -6928    -6934    -6930    -6929    -6934    -6934    -6928 
   -6928    -6934    -6935    -6934    -6940    -6939    -6929    -6927 
   -6931    -6928    -6925    -6928    -6932    -6935    -6936    -6932 
   -6930    -6935    -6936    -6933    -6932    -6931    -6929    -6929 
   -6932    -6932    -6932    -6937    -6939    -6933    -6929    -6929 
   -6929    -6933    -6933    -6928    -6929    -6934    -6937    -6938 
   -6938    -6937    -6933    -6933    -6931    -6926    -6924    -6926 
   -6930    -6934    -6936    -6936    -6938    -6937    -6936    -6933 
   -6927    -6928    -6931    -6927    -6929    -6936    -6938    -6940 
   -6939    -6935    -6934    -6932    -6929    -6928    -6927    -6928 
   -6931    -6933    -6935    -6938    -6937    -6935    -6937    -6938 
   -6937    -6933    -6928    -6927    -6928    -6930    -6935    -6935 
   -6932    -6932    -6934    -6934    -6932    -6932    -6933    -6931 
   -6931    -6933    -6934    -6933    -6935    -6939    -6939    -6932 
   -6928    -6929    -6929    -6929    -6933    -6936    -6935    -6933 
   -6934    -6935    -6932    -6930    -6934    -6935    -6932    -6931 
   -6930    -6932    -6935    -6935    -6936    -6933    -6928    -6929 
   -6930    -6928    -6930    -6932    -6931    -6931    -6934    -6933 
   -6932    -6934    -6937    -6939    -6937    -6931    -6927    -6925 
   -6927    -6930    -6931    -6933    -6933    -6931    -6931    -6932 
   -6936    -6938    -6935    -6933    -6930    -6925    -6925    -6934 
   -6939    -6938    -6937    -6934    -6931    -6931    -6930    -6929 
   -6931    -6931    -6930    -6930    -6928    -6930    -6937    -6940 
   -6937    -6934    -6932    -6930    -6927    -6928    -6931    -6930 
   -6930    -6930    -6930    -6929    -6930    -6933    -6936    -6938 
   -6935    -6929    -6928    -6927    -6927    -6933    -6938    -6936 
   -6934    -6931    -6926    -6927    -6932    -6933    -6933    -6930 
   -6926    -6926    -6932    -6933    -6937    -6941    -6936    -6932 
   -6933    -6931    -6928    -6928    -6928    -6930    -6933    -6930 
   -6926    -6930    -6934    -6935    -6937    -6936    -6929    -6926 
   -6930    -6933    -6933    -6935    -6937    -6937    -6935    -6932 
   -6933    -6934    -6931    -6928    -6926    -6924    -6927    -6932 
   -6933    -6937    -6940    -6937    -6935    -6935    -6932    -6930 
   -6929    -6930    -6931    -6930    -6928    -6934    -6938    -6934 
   -6935    -6939    -6935    -6927    -6924    -6927    -6928    -6930 
   -6936    -6940    -6936    -6934    -6935    -6933    -6933    -6933 
   -6931    -6927    -6924    -6922    -6929    -6934    -6934    -6936 
   -6938    -6934    -6933    -6934    -6932    -6931    -6934    -6930 
   -6926    -6931    -6934    -6933    -6936    -6936    -6934    -6934 
   -6932    -6928    -6924    -6924    -6930    -6936    -6936    -6935 
   -6936    -6937    -6938    -6934    -6932    -6932    -6929    -6927 
   -6928    -6928    -6929    -6934    -6938    -6938    -6938    -6935 
   -6930    -6928    -6929    -6929    -6930    -6930    -6930    -6933 
   -6934    -6935    -6939    -6936    -6927    -6923    -6924    -6925 
   -6929    -6932    -6930    -6933    -6940    -6940    -6935    -6933 
   -6932    -6930    -6927    -6928    -6929    -6929    -6928    -6929 
   -6933    -6937    -6937    -6937    -6932    -6924    -6924    -6927 
   -6929    -6933    -6936    -6936    -6935    -6933    -6933    -6933 
   -6931    -6929    -6930    -6928    -6925    -6925    -6928    -6934 
   -6938    -6935    -6933    -6934    -6933    -6930    -6932    -6936 
   -6935    -6931    -6927    -6927    -6931    -6932    -6931    -6934 
   -6935    -6934    -6930    -6926    -6929    -6932    -6932    -6932 
   -6934    -6933    -6934    -6935    -6936    -6936    -6935    -6933 
   -6929    -6924    -6924    -6927    -6930    -6935    -6937    -6935 
   -6935    -6934    -6932    -6933    -6934    -6930    -6928    -6932 
   -6933    -6930    -6930    -6934    -6935    -6935    -6936    -6930 
   -6922    -6923    -6928    -6930    -6930    -6932    -6935    -6936 
   -6937    -6936    -6937    -6938    -6931    -6923    -6923    -6925 
   -6927    -6933    -6938    -6937    -6935    -6933    -6932    -6932 
   -6932    -6932    -6931    -6929    -6929    -6932    -6936    -6940 
   -6940    -6936    -6934    -6930    -6926    -6926    -6926    -6928 
   -6930    -6929    -6933    -6936    -6934    -6936    -6941    -6938 
   -6932    -6930    -6927    -6925    -6926    -6927    -6927    -6932 
   -6938    -6940    -6937    -6933    -6929    -6927    -6929    -6932 
   -6933    -6928    -6925    -6929    -6937    -6942    -6938    -6934 
   -6934    -6930    -6925    -6927    -6931    -6931    -6931    -6933 
   -6931    -6933    -6937    -6937    -6934    -6934    -6933    -6930 
   -6929    -6927    -6926    -6933    -6937    -6935    -6933    -6930 
   -6929    -6929    -6928    -6928    -6930    -6934    -6937    -6935 
   -6933    -6936    -6936    -6933    -6931    -6927    -6923    -6924 
   -6926    -6929    -6933    -6933    -6933    -6933    -6931    -6932 
   -6934    -6936    -6936    -6933    -6930    -6927    -6926    -6928 
   -6933    -6936    -6936    -6933    -6930    -6929    -6929    -6931 
   -6932    -6931    -6932    -6933    -6929    -6930    -6936    -6938 
   -6938    -6938    -6933    -6928    -6929    -6932    -6932    -6930 
   -6928    -6928    -6929    -6930    -6932    -6935    -6934    -6934 
   -6937    -6936    -6931    -6930    -6932    -6933    -6932    -6933 
   -6933    -6931    -6930    -6931    -6932    -6935    -6938    -6934 
   -6928    -6927    -6930    -6931    -6934    -6938    -6937    -6933 
   -6932    -6932    -6932    -6931    -6928    -6928    -6931    -6929 
   -6930    -6934    -6934    -6934    -6936    -6934    -6932    -6929 
   -6928    -6928    -6930    -6933    -6934    -6935    -6938    -6937 
   -6932    -6931    -6933    -6930    -6926    -6928    -6931    -6929 
   -6932    -6938    -6937    -6934    -6934    -6935    -6934    -6930 
   -6926    -6926    -6928    -6932    -6935    -6936    -6935    -6936 
   -6935    -6932    -6930    -6929    -6928    -6930    -6933    -6933 
   -6933    -6933    -6937    -6941    -6934    -6930    -6932    -6929 
   -6925    -6927    -6929    -6929    -6933    -6935    -6936    -6935 
   -6935    -6935    -6936    -6933    -6930    -6930    -6931    -6932 
   -6932    -6932    -6931    -6931    -6933    -6933    -6932    -6933 
   -6932    -6929    -6929    -6933    -6935    -6934    -6936    -6933 
   -6928    -6929    -6933    -6933    -6932    -6930    -6931    -6935 
   -6936    -6935    -6933    -6931    -6928    -6928    -6930    -6930 
   -6930    -6933    -6936    -6934    -6934    -6936    -6936    -6934 
   -6931    -6932    -6932    -6929    -6929    -6932    -6932    -6929 
   -6928    -6933    -6936    -6935    -6934    -6934    -6932    -6931 
   -6935    -6935    -6931    -6929    -6929    -6929    -6931    -6933 
   -6935    -6935    -6931    -6930    -6933    -6936    -6933    -6925 
   -6924    -6937    -6937    -6904    -6921    -6982    -6943    -6891 
   -6945    -6950    -6908    -6928    -6934    -6929    -6948    -6927 
   -6911    -6943    -6942    -6922    -6935    -6943    -6928    -6922 
   -6927    -6930    -6931    -6930    -6936    -6943    -6927    -6919 
   -6947    -6943    -6914    -6928    -6935    -6921    -6933    -6933 
   -6928    -6942    -6936    -6925    -6935    -6936    -6930    -6934 
   -6930    -6924    -6930    -6932    -6923    -6927    -6946    -6939 
   -6921    -6935    -6938    -6924    -6931    -6934    -6929    -6937 
   -6934    -6928    -6938    -6938    -6927    -6930    -6937    -6931 
   -6925    -6933    -6937    -6927    -6928    -6937    -6933    -6932 
   -6933    -6927    -6933    -6937    -6927    -6929    -6936    -6930 
   -6929    -6934    -6935    -6937    -6950    -6990    -7044    -7030 
   -6915    -6862    -7012    -7173    -7062    -6796    -6772    -6824 
   -6445    -6272    -6985    -7621    -7593    -7116    -6298    -6116 
   -6552    -6786    -7498    -8105    -7860    -7862    -7097    -5212 
   -4931    -6172    -7009    -7392    -7631    -7868    -7684    -6856 
   -6508    -6616    -6537    -7031    -7732    -7347    -6525    -6187 
   -6039    -6365    -7221    -7412    -7028    -7075    -7304    -7575 
   -7836    -7402    -6696    -6462    -6169    -5660    -5907    -6906 
   -7495    -7699    -7942    -7641    -7002    -6673    -6423    -6358 
   -6712    -7136    -7348    -7122    -6695    -6586    -6565    -6629 
   -7229    -7633    -7282    -6912    -6552    -6242    -6755    -7385 
   -7447    -7563    -7212    -6384    -6479    -6865    -6682    -6795 
   -7089    -7166    -7268    -6952    -6437    -6521    -6828    -7032 
   -7348    -7414    -6972    -6528    -6455    -6621    -6964    -7435 
   -7631    -7342    -6921    -6544    -6126    -5991    -6532    -7399 
   -7809    -7749    -7593    -7131    -6572    -6477    -6492    -6413 
   -6557    -6701    -6847    -7309    -7602    -7377    -7175    -7027 
   -6630    -6498    -6653    -6648    -6868    -7194    -7081    -6999 
   -7295    -7467    -7188    -6824    -6633    -6459    -6633    -7154 
   -7201    -6789    -6458    -6371    -6650    -7077    -7384    -7496 
   -7311    -7073    -6924    -6678    -6538    -6766    -7074    -7080 
   -6794    -6623    -6951    -7283    -7004    -6679    -6828    -7076 
   -7228    -7369    -7253    -6761    -6462    -6636    -6813    -6992 
   -7249    -7148    -6786    -6634    -6762    -6955    -7063    -7104 
   -7090    -6994    -6744    -6554    -6783    -7057    -7027    -6876 
   -6668    -6718    -7124    -7413    -7406    -7140    -6859    -6870 
   -6929    -6755    -6559    -6515    -6539    -6778    -7289    -7614 
   -7588    -7386    -6946    -6464    -6319    -6487    -6766    -6909 
   -6859    -6912    -7056    -7168    -7338    -7346    -7148    -6925 
   -6574    -6333    -6464    -6727    -6983    -7247    -7346    -7128 
   -6934    -7007    -7021    -7021    -7088    -6943    -6699    -6487 
   -6351    -6340    -6410    -7035    -7979    -8075    -7579    -7227 
   -6774    -6525    -6794    -6903    -6786    -6789    -6882    -7276 
   -7676    -7760    -7892    -7621    -6602    -5947    -6107    -6006 
   -5299    -5145    -6141    -7304    -7850    -8240    -8684    -8394 
   -7019    -5451    -4796    -5377    -6589    -7387    -7343    -7035 
   -6911    -6688    -6663    -7424    -8125    -7998    -7658    -7271 
   -6524    -5912    -6025    -6864    -7820    -8222    -8284    -7966 
   -6586    -5114    -5037    -5496    -5707    -6869    -8853    -9720 
   -9010    -7846    -6889    -5911    -4904    -4665    -5323    -6122 
   -6961    -7749    -8298    -8853    -8564    -7061    -6012    -5968 
   -6130    -6304    -6394    -6725    -7448    -7547    -6994    -6856 
   -7184    -7468    -7260    -6706    -6620    -6627    -6177    -6183 
   -6945    -7697    -7922    -7476    -6948    -6862    -6914    -7040 
   -7202    -7028    -6675    -6505    -6471    -6558    -7050    -7784 
   -7776    -6823    -6214    -6519    -6860    -6948    -7218    -7404 
   -7118    -6691    -6429    -6324    -6412    -6628    -6828    -6967 
   -7127    -7394    -7642    -7776    -7788    -7604    -7146    -6407 
   -5719    -5404    -5576    -6494    -7764    -8648    -9023    -8369 
   -6572    -5128    -4953    -5647    -6720    -7581    -7864    -7572 
   -7020    -7022    -7266    -6845    -6560    -6630    -5932    -5365 
   -6318    -7645    -8208    -8499    -8422    -7518    -6617    -6495 
   -6663    -6649    -6632    -6672    -6548    -6339    -6472    -6973 
   -7295    -7211    -7148    -7229    -7103    -6971    -7061    -6889 
   -6464    -6365    -6461    -6464    -6776    -7468    -7839    -7626 
   -7324    -7133    -6707    -6290    -6497    -6775    -6577    -6680 
   -7248    -7527    -7646    -7823    -7464    -6600    -6006    -5866 
   -6073    -6572    -6904    -7056    -7347    -7465    -7347    -7124 
   -6862    -7109    -7324    -6619    -6080    -6362    -6649    -6831 
   -7150    -7632    -8173    -8052    -7183    -6767    -6992    -6802 
   -6395    -6427    -6369    -6224    -6486    -6729    -6873    -7296 
   -7803    -8062    -7668    -6740    -6274    -6234    -5949    -6007 
   -6760    -7444    -7501    -7049    -6796    -6950    -6889    -6761 
   -6956    -7245    -7634    -7803    -7364    -6887    -6636    -6351 
   -6147    -6087    -6137    -6466    -7092    -7673    -7977    -8149 
   -8114    -7664    -6928    -5964    -5146    -5206    -5888    -6599 
   -7536    -8464    -8624    -8178    -7602    -6831    -6058    -5577 
   -5507    -5971    -6458    -6808    -7639    -8322    -8088    -7738 
   -7572    -6957    -6071    -5645    -5842    -6283    -6703    -7286 
   -8038    -8296    -7837    -7243    -6812    -6612    -6594    -6384 
   -6143    -6158    -6255    -6732    -7532    -7853    -7734    -7531 
   -7325    -7237    -6894    -6373    -6270    -6153    -5856    -6087 
   -6852    -7778    -8350    -7988    -7200    -6655    -6291    -6305 
   -6577    -6581    -6728    -7217    -7335    -7159    -7179    -7233 
   -7181    -6937    -6510    -6388    -6633    -6874    -7240    -7543 
   -7247    -6851    -6850    -6930    -7078    -7014    -6518    -6374 
   -6640    -6780    -6986    -7216    -7228    -7171    -7057    -6925 
   -6952    -6932    -6613    -6217    -6174    -6589    -7042    -7268 
   -7542    -7828    -7758    -7374    -6918    -6521    -6212    -6029 
   -6291    -7047    -7488    -7297    -7295    -7558    -7393    -7020 
   -6833    -6656    -6502    -6517    -6640    -6849    -7253    -7634 
   -7566    -7232    -6957    -6603    -6262    -6317    -6701    -6928 
   -6834    -6807    -7044    -7372    -7710    -7703    -7042    -6454 
   -6452    -6369    -6106    -6231    -6472    -6688    -7254    -7789 
   -7933    -7839    -7470    -6918    -6288    -5737    -5804    -6359 
   -6766    -7007    -7156    -7230    -7556    -8043    -8035    -7375 
   -6594    -6005    -5712    -5992    -6866    -7743    -7876    -7451 
   -7273    -7200    -6852    -6663    -6644    -6437    -6270    -6345 
   -6665    -7286    -7892    -7921    -7445    -7000    -6653    -6382 
   -6392    -6582    -6748    -6844    -6949    -7152    -7331    -7469 
   -7507    -7287    -7032    -6701    -6221    -6096    -6237    -6277 
   -6636    -7300    -7582    -7477    -7430    -7461    -7176    -6548 
   -6273    -6431    -6460    -6580    -6995    -7315    -7516    -7618 
   -7440    -7229    -7256    -7226    -6774    -6144    -5872    -6106 
   -6625    -7287    -7979    -8171    -7589    -6827    -6288    -5968 
   -5980    -6214    -6647    -7235    -7531    -7603    -7634    -7375 
   -7119    -7034    -6661    -6169    -6078    -6278    -6579    -7140 
   -7791    -7871    -7331    -6979    -7059    -7000    -6735    -6630 
   -6500    -6184    -6276    -6965    -7407    -7339    -7404    -7571 
   -7382    -7072    -6904    -6566    -6140    -6157    -6489    -6868 
   -7421    -7786    -7605    -7250    -6888    -6509    -6489    -6779 
   -6860    -6780    -6760    -6636    -6617    -7027    -7477    -7581 
   -7360    -6874    -6450    -6391    -6551    -6816    -7013    -6903 
   -6839    -7130    -7403    -7395    -7228    -7116    -7040    -6750 
   -6454    -6457    -6489    -6482    -6786    -7321    -7528    -7400 
   -7476    -7522    -7103    -6630    -6381    -6248    -6223    -6344 
   -6752    -7323    -7643    -7612    -7398    -7111    -6777    -6492 
   -6480    -6780    -7131    -7320    -7283    -7009    -6708    -6629 
   -6574    -6402    -6536    -7016    -7257    -7221    -7252    -7327 
   -7364    -7240    -6899    -6570    -6391    -6376    -6536    -6860 
   -7269    -7496    -7426    -7230    -7081    -7042    -6957    -6664 
   -6344    -6378    -6769    -7099    -7149    -7042    -6958    -6918 
   -6772    -6606    -6797    -7271    -7386    -7082    -6825    -6667 
   -6680    -6857    -6869    -6903    -7054    -7003    -6975    -7046 
   -6937    -6884    -6952    -6893    -6864    -6939    -7059    -7271 
   -7234    -6944    -6979    -7030    -6664    -6474    -6623    -6822 
   -7085    -7171    -7098    -7154    -7133    -6994    -6838    -6625 
   -6613    -6807    -6930    -7040    -7151    -7106    -6932    -6828 
   -6888    -6947    -6909    -6873    -6863    -6808    -6718    -6870 
