Origin Time       2012/11/01 22:13:00
Lat.              36.707
Long.             140.592
Depth. (km)       10
Mag.              2.9
Station Code      IBRH16
Station Lat.      36.6405
Station Long.     140.3976
Station Height(m) -210
Record Time       2012/11/01 22:13:21
Sampling Freq(Hz) 100Hz
Duration Time(s)  120
Dir.              2
Scale Factor      2940(gal)/6170270
Max. Acc. (gal)   0.371
Last Correction   2012/11/01 22:13:06
Memo.             
[...]
   22898    22896    22898    22898    22899    22901    22901    22899 
   22898    22898    22899    22899    22900    22901    22901    22901 
   22903    22903    22901    22902    22902    22901    22902    22903 
   22902    22903    22904    22902    22901    22900    22900    22902 
   22901    22903    22906    22905    22901    22901    22903    22904 
   22902    22902    22902    22901    22901    22903    22902    22899 
   22902    22903    22900    22899    22900    22898    22899    22902 
   22900    22899    22899    22900    22902    22899    22898    22900 
   22900    22899    22900    22899    22898    22899    22898    22897 
   22900    22900    22895    22895    22899    22898    22894    22897 
   22900    22900    22898    22898    22899    22901    22900    22900 
   22898    22896    22900    22903    22899    22898    22900    22901 
   22900    22899    22900    22900    22899    22901    22900    22898 
   22899    22899    22898    22899    22900    22902    22902    22899 
   22897    22897    22899    22898    22897    22899    22900    22897 
   22896    22898    22899    22898    22897    22897    22900    22901 
   22901    22901    22902    22900    22900    22902    22898    22897 
   22898    22899    22899    22899    22899    22900    22897    22895 
   22897    22897    22896    22898    22901    22900    22898    22898 
   22899    22897    22895    22894    22894    22897    22900    22902 
   22900    22899    22897    22897    22900    22901    22900    22899 
   22899    22900    22900    22898    22897    22898    22898    22898 
   22899    22900    22900    22899    22898    22900    22900    22899 
   22896    22895    22897    22900    22901    22899    22899    22901 
   22899    22898    22900    22901    22900    22898    22898    22899 
   22899    22898    22897    22899    22899    22897    22897    22899 
   22899    22896    22897    22899    22896    22895    22898    22898 
   22896    22897    22900    22900    22896    22896    22898    22898 
   22898    22896    22895    22897    22896    22893    22895    22898 
   22895    22894    22895    22895    22895    22894    22896    22898 
   22898    22898    22897    22895    22896    22897    22897    22896 
   22897    22898    22896    22894    22894    22896    22897    22895 
   22895    22898    22896    22896    22899    22899    22897    22898 
   22899    22899    22897    22898    22897    22894    22894    22898 
   22899    22898    22899    22897    22892    22895    22899    22898 
   22896    22896    22897    22898    22899    22899    22899    22897 
   22896    22898    22897    22898    22900    22900    22897    22896 
   22897    22898    22898    22898    22898    22900    22900    22897 
   22897    22898    22896    22898    22900    22899    22899    22900 
   22899    22900    22899    22896    22895    22896    22897    22897 
   22896    22896    22898    22899    22898    22896    22893    22894 
   22897    22898    22897    22898    22898    22897    22898    22898 
   22897    22896    22895    22896    22897    22897    22898    22899 
   22896    22892    22894    22896    22896    22896    22896    22895 
   22895    22896    22897    22896    22896    22899    22899    22896 
   22895    22897    22897    22896    22896    22895    22896    22898 
   22897    22894    22896    22896    22895    22895    22895    22894 
   22895    22898    22898    22896    22897    22900    22898    22896 
   22897    22897    22894    22894    22896    22895    22895    22894 
   22894    22897    22897    22895    22897    22899    22898    22897 
   22897    22898    22898    22897    22897    22898    22898    22899 
   22898    22896    22895    22896    22895    22896    22897    22897 
   22897    22896    22897    22898    22897    22898    22897    22895 
   22896    22896    22895    22897    22897    22896    22897    22897 
   22897    22897    22897    22896    22895    22896    22897    22896 
   22894    22896    22897    22897    22897    22898    22897    22899 
   22898    22896    22898    22900    22899    22896    22896    22898 
   22900    22900    22901    22899    22897    22900    22903    22901 
   22898    22898    22901    22900    22896    22897    22899    22898 
   22898    22898    22897    22898    22898    22899    22900    22900 
   22898    22898    22899    22900    22900    22901    22903    22903 
   22900    22898    22898    22898    22899    22900    22901    22900 
   22901    22901    22901    22899    22898    22900    22901    22901 
   22898    22898    22901    22901    22899    22898    22902    22902 
   22898    22899    22900    22897    22899    22901    22899    22899 
   22900    22899    22899    22899    22900    22899    22899    22900 
   22899    22897    22899    22901    22902    22903    22901    22899 
   22901    22901    22902    22904    22902    22901    22903    22902 
   22901    22905    22905    22905    22907    22905    22901    22901 
   22903    22902    22901    22901    22901    22900    22903    22905 
   22903    22901    22901    22900    22900    22902    22901    22898 
   22897    22901    22902    22899    22899    22901    22901    22900 
   22899    22900    22900    22899    22901    22901    22900    22901 
   22902    22899    22898    22899    22900    22900    22902    22901 
   22899    22902    22902    22900    22901    22900    22899    22900 
   22901    22901    22900    22899    22898    22900    22902    22900 
   22899    22901    22900    22901    22903    22902    22902    22904 
   22903    22903    22901    22898    22899    22901    22899    22900 
   22903    22902    22901    22900    22900    22900    22901    22899 
   22899    22901    22903    22903    22901    22897    22897    22900 
   22899    22899    22901    22900    22898    22899    22899    22899 
   22899    22899    22899    22897    22898    22900    22901    22901 
   22900    22900    22901    22900    22897    22899    22899    22899 
   22900    22900    22899    22901    22900    22899    22900    22899 
   22897    22897    22898    22899    22898    22899    22900    22900 
   22899    22899    22902    22901    22899    22898    22900    22902 
   22901    22899    22900    22900    22897    22898    22902    22903 
   22901    22900    22901    22901    22900    22901    22902    22900 
   22897    22899    22903    22903    22901    22901    22900    22900 
   22898    22900    22903    22902    22900    22901    22902    22901 
   22902    22900    22901    22904    22903    22899    22898    22897 
   22897    22899    22900    22899    22900    22899    22897    22897 
   22898    22898    22899    22899    22896    22897    22900    22899 
   22899    22902    22900    22900    22903    22902    22900    22900 
   22900    22900    22899    22898    22899    22899    22898    22899 
   22900    22901    22901    22901    22903    22902    22899    22899 
   22900    22902    22901    22898    22898    22901    22900    22897 
   22899    22902    22900    22898    22899    22903    22901    22899 
   22902    22902    22900    22900    22899    22897    22898    22899 
   22898    22899    22901    22902    22902    22902    22902    22901 
   22900    22902    22901    22898    22901    22905    22905    22903 
   22902    22901    22903    22902    22899    22900    22902    22901 
   22900    22903    22904    22901    22902    22904    22904    22903 
   22903    22903    22904    22903    22900    22896    22897    22899 
   22897    22897    22899    22899    22898    22900    22902    22902 
   22901    22901    22902    22901    22899    22900    22900    22898 
   22897    22900    22900    22899    22898    22899    22899    22900 
   22899    22900    22901    22899    22898    22898    22899    22899 
   22902    22901    22901    22903    22902    22900    22902    22900 
   22898    22900    22900    22900    22901    22902    22904    22901 
   22900    22903    22902    22899    22900    22901    22898    22900 
   22902    22898    22899    22903    22902    22901    22901    22899 
   22900    22901    22901    22901    22900    22900    22897    22896 
   22898    22899    22901    22902    22900    22900    22900    22898 
   22899    22897    22896    22899    22899    22896    22897    22899 
   22900    22899    22899    22900    22899    22898    22900    22900 
   22898    22900    22901    22898    22896    22899    22902    22898 
   22896    22899    22900    22900    22900    22897    22897    22899 
   22900    22900    22899    22899    22898    22898    22899    22899 
   22899    22898    22898    22899    22899    22898    22899    22898 
   22896    22897    22897    22897    22900    22900    22898    22897 
   22898    22899    22898    22897    22898    22899    22899    22897 
   22898    22900    22899    22898    22897    22899    22900    22897 
   22895    22898    22897    22895    22898    22900    22898    22896 
   22896    22897    22899    22898    22894    22896    22900    22899 
   22898    22898    22896    22896    22898    22897    22895    22897 
   22898    22897    22897    22897    22898    22899    22899    22897 
   22897    22898    22898    22898    22899    22898    22897    22897 
   22897    22899    22900    22899    22897    22898    22900    22900 
   22899    22897    22897    22898    22898    22897    22899    22900 
   22898    22898    22900    22899    22897    22899    22901    22899 
   22898    22898    22898    22899    22899    22896    22896    22898 
   22899    22899    22897    22897    22899    22899    22897    22897 
   22896    22895    22896    22899    22899    22898    22899    22898 
   22895    22898    22900    22896    22896    22899    22899    22898 
   22896    22896    22897    22900    22900    22898    22897    22898 
   22897    22897    22899    22898    22898    22900    22900    22899 
   22899    22900    22900    22900    22898    22898    22900    22900 
   22900    22902    22902    22901    22902    22900    22899    22899 
   22898    22898    22898    22897    22897    22897    22899    22900 
   22898    22899    22899    22897    22898    22898    22897    22898 
   22899    22899    22900    22901    22900    22900    22899    22900 
   22901    22900    22899    22902    22902    22899    22901    22902 
   22900    22900    22901    22900    22900    22900    22899    22897 
   22897    22899    22900    22897    22897    22898    22898    22899 
   22900    22899    22898    22900    22899    22897    22899    22901 
   22901    22901    22901    22900    22899    22900    22901    22898 
   22895    22897    22900    22901    22900    22898    22896    22898 
   22899    22896    22897    22900    22898    22896    22898    22898 
   22897    22898    22898    22897    22898    22900    22901    22899 
   22899    22899    22897    22897    22899    22899    22899    22899 
   22900    22900    22901    22899    22897    22898    22897    22899 
   22902    22898    22895    22897    22898    22897    22896    22897 
   22898    22897    22897    22898    22899    22899    22899    22900 
   22903    22899    22883    22850    22813    22851    22968    22975 
   22845    22871    22980    22848    22723    22859    23091    23175 
   22940    22841    23034    22882    22671    22800    22833    22821 
   23031    23210    22973    22562    22616    22881    22897    22939 
   23116    23108    22857    22816    23059    22960    22573    22680 
   23095    23065    22908    23025    22905    22635    22784    23036 
   22993    22873    22880    22941    22920    22905    23008    22919 
   22654    22779    23073    22952    22806    22952    22972    22816 
   22821    22978    22982    22781    22748    22975    23047    22894 
   22883    22928    22797    22814    22990    22934    22853    22967 
   22947    22777    22824    22987    22945    22825    22833    22933 
   22966    22868    22859    22901    22841    22887    22972    22927 
   22848    22807    22931    23040    22904    22849    22926    22867 
   22849    22965    22930    22841    22902    22908    22882    22936 
   22929    22894    22883    22864    22898    22948    22917    22841 
   22845    22941    22973    22879    22789    22840    22965    22931 
   22831    22882    22896    22879    22978    22956    22847    22898 
   22972    22903    22817    22881    22943    22849    22817    22938 
   22965    22808    22810    23010    22928    22763    22927    23020 
   22898    22890    22940    22908    22866    22904    22972    22868 
   22706    22809    22992    22970    22855    22834    22943    22959 
   22836    22885    22969    22828    22820    22982    22962    22906 
   22892    22821    22842    22941    22990    22922    22820    22889 
   22980    22884    22843    22936    22922    22898    22970    22922 
   22791    22801    22910    22942    22884    22862    22902    22936 
   22886    22830    22951    23021    22858    22835    22959    22902 
   22811    22874    22935    22884    22828    22907    22958    22842 
   22865    23018    22949    22814    22872    22978    22914    22813 
   22921    22995    22867    22855    22966    22908    22806    22897 
   22950    22834    22866    22993    22919    22847    22907    22919 
   22907    22906    22864    22837    22845    22883    22905    22824 
   22784    22842    22748    22695    22883    22819    22620    22886 
   23193    23004    22854    23313    23625    22883    22122    22621 
   23411    23222    22674    22710    23064    23094    22821    22829 
   23098    23184    23209    23026    22574    22578    22932    22878 
   22729    22961    23008    22774    22885    22946    22525    22487 
   23115    23323    22807    22642    23124    23060    22370    22608 
   23458    23136    22351    22798    23550    23163    22630    23005 
   23150    22583    22692    23316    23096    22710    23032    23168 
   22800    22723    22970    22926    22692    22790    22953    22821 
   22851    23055    22848    22592    22837    22974    22707    22719 
   23088    23132    22700    22533    22967    23166    22825    22791 
   23082    22951    22686    22814    23005    23026    22995    22940 
   22972    22960    22758    22886    23199    22937    22652    22927 
   23152    22935    22673    22867    23140    22849    22559    22878 
   23223    23061    22747    22759    22946    22795    22490    22744 
   23192    23071    22778    22758    22839    22860    22798    22899 
   23035    22809    22756    23079    22967    22711    22999    23128 
   22836    22754    22868    22955    22954    22899    22954    22958 
   22824    22866    23034    23008    22878    22835    22938    22968 
   22754    22780    23037    22965    22765    22765    22887    22981 
   22913    22825    22891    22952    22879    22832    22825    22772 
   22865    23035    22957    22774    22862    23093    23051    22847 
   22839    22955    22987    22935    22899    22888    22874    22920 
   22960    22854    22792    22858    22854    22933    23093    22948 
   22704    22710    22885    23101    23036    22749    22817    22988 
   22841    22835    23064    23051    22894    22890    22936    22937 
   22881    22858    22974    22891    22661    22894    23194    22945 
   22724    22873    22878    22705    22806    23063    22989    22676 
   22760    23167    23042    22645    22805    23034    22869    22776 
   22939    23066    22940    22761    22799    22974    23020    22791 
   22706    22954    22974    22815    22874    22897    22866    23014 
   22987    22713    22784    23083    23033    22830    22886    23012 
   22930    22843    22925    22976    22946    22926    22857    22786 
   22891    23052    23021    22862    22761    22849    23025    22979 
   22844    22847    22773    22725    22959    23063    22836    22820 
   22992    22918    22822    22878    22913    22922    22878    22859 
   22989    22983    22722    22663    22931    23057    22852    22701 
   22950    23148    22798    22585    23004    23196    22813    22729 
   23023    22947    22727    22894    23116    22983    22775    22850 
   22971    22989    22992    22836    22744    22908    22949    22838 
   22847    22921    22937    22929    22880    22822    22890    22947 
   22933    22953    22830    22675    22867    23135    23033    22843 
   22857    22833    22806    22944    23017    22938    22859    22843 
   22887    22951    22940    22875    22869    22885    22916    22926 
   22861    22920    22974    22888    22942    22948    22798    22862 
   22968    22873    22831    22894    22951    22954    22839    22833 
   23030    23031    22832    22845    22958    22884    22817    22866 
   22878    22874    22892    22941    22937    22807    22822    22947 
   22827    22773    22957    22906    22801    22977    23046    22925 
   22833    22798    22909    23027    22909    22781    22874    22966 
   22900    22823    22824    22910    23019    22953    22747    22771 
   23015    23020    22814    22793    22910    22900    22787    22784 
   22957    23040    22879    22786    22938    23012    22876    22851 
   22986    22979    22866    22863    22890    22867    22926    23020 
   22949    22825    22870    22966    22961    22916    22879    22887 
   22915    22880    22843    22889    22982    22959    22839    22926 
   23028    22858    22812    22959    22915    22760    22832    22982 
   22843    22782    23040    23052    22818    22764    22816    22882 
   22936    22882    22811    22824    22878    22890    22896    22996 
   23002    22833    22784    22832    22912    23090    22959    22667 
   22884    23113    22864    22795    22957    22885    22847    22956 
   22904    22784    22843    22983    23013    22954    22920    22918 
   22845    22799    22936    22947    22783    22866    23004    22892 
   22817    22907    22956    22921    22890    22853    22821    22899 
   23000    22953    22848    22834    22903    22891    22808    22892 
   22935    22791    22889    23064    22868    22766    23015    23025 
   22742    22718    22963    22994    22820    22877    23000    22896 
   22834    22910    22961    22900    22771    22812    22951    22920 
   22821    22846    22961    22947    22853    22981    23069    22859 
   22789    22937    22929    22875    22944    22932    22833    22827 
   22935    23020    22922    22776    22824    22959    22923    22794 
   22910    23098    22970    22777    22790    22883    22956    22943 
   22859    22823    22841    22878    22961    23040    22996    22875 
   22866    22898    22824    22830    22930    22902    22861    22899 
   22870    22848    22942    22987    22830    22732    22967    23070 
   22776    22744    23060    23061    22816    22794    22871    22867 
   22924    23013    22967    22784    22738    22977    23023    22737 
   22751    23054    23019    22747    22750    22984    23062    22856 
   22724    22935    23047    22791    22737    23060    23106    22786 
   22728    22970    23020    22833    22783    22943    22986    22878 
   22889    22937    22863    22838    22899    22882    22846    22940 
   23020    22920    22819    22841    22884    22901    22895    22865 
