Origin Time       2012/11/01 22:13:00
Lat.              36.707
Long.             140.592
Depth. (km)       10
Mag.              2.9
Station Code      IBRH16
Station Lat.      36.6405
Station Long.     140.3976
Station Height(m) -210
Record Time       2012/11/01 22:13:21
Sampling Freq(Hz) 100Hz
Duration Time(s)  120
Dir.              1
Scale Factor      2940(gal)/6170270
Max. Acc. (gal)   0.712
Last Correction   2012/11/01 22:13:06
Memo.             
[...]
   -5656    -5658    -5660    -5657    -5656    -5658    -5657    -5656 
   -5658    -5657    -5655    -5657    -5658    -5658    -5660    -5660 
   -5657    -5655    -5658    -5660    -5657    -5657    -5659    -5658 
   -5655    -5656    -5658    -5659    -5657    -5656    -5657    -5657 
   -5656    -5657    -5658    -5657    -5657    -5657    -5657    -5658 
   -5658    -5656    -5656    -5658    -5656    -5656    -5659    -5659 
   -5657    -5657    -5659    -5658    -5657    -5656    -5656    -5656 
   -5657    -5659    -5660    -5659    -5658    -5655    -5655    -5659 
   -5658    -5655    -5657    -5659    -5658    -5656    -5656    -5658 
   -5657    -5658    -5659    -5660    -5657    -5655    -5658    -5659 
   -5658    -5658    -5660    -5659    -5658    -5659    -5659    -5658 
   -5659    -5661    -5659    -5656    -5657    -5659    -5660    -5660 
   -5659    -5656    -5658    -5660    -5657    -5657    -5659    -5658 
   -5658    -5659    -5660    -5659    -5658    -5659    -5657    -5656 
   -5657    -5658    -5659    -5659    -5658    -5659    -5659    -5657 
   -5657    -5657    -5657    -5658    -5658    -5659    -5659    -5658 
   -5658    -5659    -5661    -5659    -5658    -5659    -5659    -5658 
   -5658    -5657    -5656    -5657    -5659    -5658    -5657    -5657 
   -5659    -5658    -5659    -5659    -5658    -5657    -5659    -5658 
   -5657    -5659    -5659    -5657    -5658    -5659    -5657    -5657 
   -5658    -5658    -5656    -5658    -5660    -5659    -5657    -5657 
   -5657    -5658    -5659    -5659    -5658    -5656    -5656    -5656 
   -5659    -5659    -5657    -5658    -5662    -5660    -5657    -5657 
   -5659    -5659    -5657    -5657    -5658    -5658    -5659    -5657 
   -5655    -5657    -5658    -5656    -5657    -5659    -5659    -5659 
   -5658    -5657    -5658    -5657    -5657    -5659    -5659    -5657 
   -5657    -5656    -5655    -5657    -5658    -5656    -5658    -5658 
   -5657    -5658    -5658    -5656    -5656    -5658    -5659    -5658 
   -5659    -5660    -5657    -5657    -5659    -5657    -5657    -5656 
   -5655    -5657    -5660    -5658    -5657    -5657    -5658    -5657 
   -5656    -5657    -5657    -5658    -5659    -5660    -5659    -5658 
   -5658    -5657    -5657    -5658    -5658    -5658    -5658    -5658 
   -5659    -5660    -5658    -5657    -5659    -5659    -5658    -5659 
   -5659    -5656    -5656    -5657    -5656    -5656    -5659    -5660 
   -5658    -5658    -5658    -5657    -5658    -5659    -5658    -5657 
   -5659    -5659    -5658    -5659    -5659    -5658    -5658    -5660 
   -5659    -5657    -5658    -5659    -5659    -5658    -5656    -5659 
   -5659    -5656    -5658    -5661    -5659    -5656    -5655    -5656 
   -5658    -5659    -5658    -5658    -5658    -5658    -5658    -5657 
   -5657    -5657    -5657    -5658    -5658    -5657    -5656    -5658 
   -5659    -5657    -5656    -5658    -5658    -5658    -5659    -5660 
   -5659    -5657    -5656    -5656    -5656    -5656    -5659    -5659 
   -5658    -5659    -5658    -5657    -5658    -5659    -5659    -5658 
   -5658    -5658    -5657    -5658    -5657    -5656    -5658    -5658 
   -5657    -5657    -5656    -5656    -5658    -5658    -5656    -5657 
   -5658    -5658    -5659    -5658    -5657    -5658    -5657    -5658 
   -5660    -5658    -5657    -5658    -5658    -5657    -5657    -5657 
   -5657    -5657    -5657    -5658    -5658    -5659    -5657    -5656 
   -5657    -5657    -5657    -5660    -5660    -5657    -5657    -5658 
   -5657    -5655    -5657    -5659    -5658    -5658    -5658    -5656 
   -5657    -5658    -5657    -5656    -5657    -5656    -5656    -5658 
   -5658    -5657    -5657    -5658    -5658    -5659    -5659    -5657 
   -5655    -5657    -5660    -5658    -5657    -5659    -5657    -5657 
   -5659    -5656    -5656    -5659    -5658    -5656    -5657    -5658 
   -5659    -5659    -5658    -5656    -5658    -5661    -5659    -5657 
   -5658    -5656    -5656    -5659    -5659    -5659    -5657    -5656 
   -5658    -5659    -5658    -5659    -5659    -5659    -5659    -5658 
   -5657    -5658    -5660    -5660    -5659    -5658    -5658    -5657 
   -5657    -5659    -5659    -5657    -5658    -5659    -5659    -5659 
   -5659    -5659    -5659    -5658    -5657    -5657    -5658    -5658 
   -5658    -5658    -5658    -5657    -5658    -5659    -5658    -5659 
   -5661    -5658    -5657    -5658    -5657    -5657    -5658    -5659 
   -5660    -5660    -5659    -5659    -5659    -5659    -5659    -5657 
   -5656    -5660    -5661    -5658    -5658    -5660    -5660    -5659 
   -5657    -5655    -5658    -5661    -5658    -5656    -5658    -5658 
   -5656    -5656    -5658    -5658    -5659    -5659    -5657    -5657 
   -5657    -5657    -5658    -5659    -5658    -5657    -5658    -5658 
   -5657    -5657    -5657    -5657    -5659    -5659    -5658    -5659 
   -5660    -5657    -5657    -5658    -5657    -5657    -5659    -5658 
   -5658    -5660    -5658    -5657    -5659    -5660    -5658    -5658 
   -5659    -5659    -5659    -5658    -5655    -5656    -5658    -5658 
   -5659    -5658    -5658    -5661    -5661    -5658    -5658    -5659 
   -5659    -5658    -5659    -5661    -5660    -5659    -5658    -5658 
   -5657    -5656    -5657    -5658    -5657    -5657    -5658    -5656 
   -5656    -5659    -5660    -5656    -5657    -5658    -5656    -5658 
   -5660    -5658    -5657    -5658    -5658    -5658    -5659    -5659 
   -5659    -5657    -5656    -5658    -5657    -5656    -5657    -5657 
   -5657    -5658    -5659    -5657    -5657    -5659    -5660    -5660 
   -5660    -5659    -5658    -5660    -5659    -5656    -5658    -5660 
   -5657    -5657    -5660    -5659    -5657    -5658    -5658    -5658 
   -5658    -5656    -5656    -5659    -5660    -5658    -5657    -5659 
   -5658    -5657    -5658    -5658    -5658    -5659    -5658    -5657 
   -5656    -5657    -5658    -5657    -5656    -5657    -5657    -5658 
   -5657    -5656    -5657    -5658    -5659    -5659    -5659    -5660 
   -5660    -5658    -5657    -5657    -5658    -5659    -5658    -5658 
   -5659    -5658    -5658    -5658    -5657    -5657    -5657    -5657 
   -5656    -5656    -5658    -5658    -5658    -5659    -5657    -5656 
   -5658    -5658    -5657    -5659    -5658    -5657    -5658    -5656 
   -5656    -5657    -5657    -5657    -5658    -5658    -5658    -5657 
   -5657    -5657    -5656    -5658    -5659    -5657    -5657    -5657 
   -5656    -5657    -5657    -5658    -5658    -5656    -5657    -5660 
   -5658    -5657    -5659    -5661    -5658    -5656    -5658    -5659 
   -5656    -5656    -5658    -5657    -5657    -5658    -5657    -5659 
   -5658    -5656    -5658    -5658    -5657    -5658    -5659    -5658 
   -5658    -5659    -5658    -5657    -5658    -5658    -5657    -5657 
   -5659    -5660    -5658    -5659    -5659    -5657    -5657    -5658 
   -5658    -5658    -5659    -5657    -5658    -5658    -5658    -5657 
   -5657    -5658    -5659    -5658    -5659    -5660    -5658    -5659 
   -5661    -5659    -5658    -5659    -5657    -5657    -5659    -5657 
   -5656    -5657    -5659    -5659    -5658    -5657    -5657    -5657 
   -5657    -5660    -5658    -5656    -5659    -5659    -5656    -5657 
   -5658    -5657    -5658    -5659    -5658    -5657    -5657    -5658 
   -5657    -5658    -5661    -5660    -5658    -5657    -5658    -5659 
   -5661    -5659    -5657    -5658    -5658    -5657    -5659    -5660 
   -5660    -5659    -5658    -5658    -5660    -5660    -5658    -5658 
   -5661    -5660    -5659    -5659    -5658    -5657    -5657    -5658 
   -5659    -5659    -5658    -5658    -5660    -5659    -5658    -5658 
   -5658    -5658    -5659    -5659    -5659    -5659    -5658    -5656 
   -5658    -5661    -5659    -5657    -5658    -5659    -5659    -5658 
   -5658    -5657    -5658    -5660    -5660    -5658    -5658    -5659 
   -5659    -5659    -5660    -5659    -5658    -5659    -5660    -5659 
   -5659    -5660    -5657    -5656    -5658    -5659    -5658    -5658 
   -5658    -5657    -5657    -5657    -5659    -5659    -5658    -5657 
   -5657    -5659    -5659    -5657    -5658    -5658    -5657    -5658 
   -5658    -5657    -5657    -5658    -5659    -5660    -5658    -5657 
   -5659    -5659    -5658    -5657    -5658    -5659    -5659    -5659 
   -5659    -5660    -5658    -5656    -5658    -5659    -5659    -5658 
   -5656    -5657    -5660    -5659    -5657    -5658    -5660    -5659 
   -5658    -5658    -5657    -5657    -5658    -5660    -5660    -5658 
   -5659    -5660    -5658    -5656    -5657    -5658    -5659    -5659 
   -5658    -5659    -5660    -5658    -5657    -5659    -5659    -5658 
   -5660    -5659    -5657    -5656    -5658    -5660    -5659    -5656 
   -5657    -5659    -5660    -5659    -5660    -5661    -5660    -5659 
   -5658    -5657    -5659    -5658    -5657    -5658    -5660    -5659 
   -5657    -5658    -5658    -5657    -5656    -5659    -5659    -5659 
   -5659    -5658    -5657    -5660    -5660    -5658    -5657    -5658 
   -5659    -5659    -5658    -5658    -5658    -5658    -5661    -5660 
   -5658    -5661    -5662    -5658    -5658    -5660    -5660    -5661 
   -5661    -5659    -5659    -5658    -5658    -5660    -5660    -5657 
   -5657    -5661    -5660    -5658    -5659    -5660    -5659    -5659 
   -5659    -5657    -5657    -5658    -5659    -5659    -5659    -5661 
   -5660    -5656    -5658    -5661    -5660    -5658    -5660    -5660 
   -5660    -5661    -5661    -5660    -5659    -5659    -5657    -5659 
   -5660    -5658    -5659    -5662    -5659    -5656    -5658    -5660 
   -5658    -5657    -5659    -5661    -5660    -5660    -5662    -5660 
   -5659    -5660    -5660    -5659    -5659    -5659    -5657    -5657 
   -5660    -5661    -5657    -5657    -5659    -5659    -5659    -5659 
   -5657    -5657    -5658    -5658    -5658    -5659    -5660    -5658 
   -5657    -5659    -5659    -5660    -5660    -5658    -5659    -5660 
   -5659    -5660    -5660    -5658    -5658    -5659    -5659    -5659 
   -5659    -5658    -5657    -5657    -5659    -5659    -5657    -5658 
   -5659    -5658    -5658    -5660    -5659    -5658    -5660    -5659 
   -5656    -5656    -5658    -5658    -5657    -5656    -5657    -5659 
   -5660    -5659    -5658    -5657    -5656    -5658    -5659    -5658 
   -5658    -5658    -5657    -5657    -5658    -5659    -5658    -5657 
   -5656    -5656    -5658    -5659    -5660    -5658    -5657    -5659 
   -5658    -5656    -5658    -5661    -5659    -5656    -5657    -5658 
   -5658    -5658    -5657    -5657    -5660    -5660    -5657    -5658 
   -5658    -5654    -5655    -5657    -5658    -5658    -5657    -5657 
   -5657    -5659    -5659    -5659    -5658    -5657    -5657    -5658 
   -5658    -5658    -5658    -5657    -5659    -5658    -5655    -5655 
   -5657    -5659    -5659    -5656    -5655    -5658    -5660    -5656 
   -5656    -5658    -5658    -5657    -5658    -5658    -5658    -5657 
   -5658    -5661    -5674    -5717    -5769    -5729    -5572    -5531 
   -5705    -5722    -5552    -5682    -5943    -5787    -5371    -5251 
   -5595    -5769    -5535    -5639    -5907    -5780    -5745    -5800 
   -5470    -5205    -5594    -6130    -5910    -5432    -5737    -6004 
   -5395    -5259    -5966    -5866    -5174    -5429    -5995    -5738 
   -5424    -5681    -5809    -5580    -5570    -5836    -5741    -5392 
   -5639    -5995    -5640    -5419    -5763    -5773    -5438    -5513 
   -5824    -5759    -5519    -5649    -5857    -5593    -5413    -5787 
   -5915    -5526    -5445    -5766    -5768    -5530    -5643    -5811 
   -5621    -5531    -5776    -5819    -5567    -5547    -5744    -5679 
   -5519    -5724    -5905    -5607    -5418    -5730    -5859    -5517 
   -5427    -5772    -5856    -5572    -5541    -5794    -5741    -5512 
   -5620    -5767    -5667    -5605    -5631    -5645    -5702    -5716 
   -5661    -5618    -5600    -5658    -5706    -5633    -5592    -5661 
   -5712    -5679    -5648    -5657    -5683    -5703    -5661    -5628 
   -5672    -5658    -5618    -5671    -5730    -5693    -5622    -5610 
   -5639    -5677    -5675    -5610    -5585    -5659    -5724    -5646 
   -5561    -5675    -5806    -5708    -5588    -5677    -5711    -5602 
   -5651    -5742    -5629    -5508    -5636    -5829    -5699    -5499 
   -5682    -5816    -5552    -5466    -5748    -5812    -5551    -5534 
   -5827    -5796    -5485    -5593    -5870    -5687    -5471    -5652 
   -5782    -5641    -5590    -5724    -5727    -5547    -5540    -5741 
   -5766    -5636    -5624    -5632    -5622    -5718    -5761    -5624 
   -5538    -5662    -5772    -5644    -5518    -5682    -5801    -5586 
   -5531    -5798    -5781    -5519    -5618    -5846    -5676    -5491 
   -5690    -5793    -5561    -5497    -5739    -5792    -5582    -5603 
   -5789    -5694    -5551    -5639    -5680    -5583    -5631    -5773 
   -5676    -5543    -5697    -5786    -5601    -5553    -5753    -5773 
   -5559    -5547    -5706    -5675    -5579    -5629    -5701    -5692 
   -5665    -5659    -5615    -5604    -5735    -5777    -5638    -5575 
   -5605    -5667    -5762    -5725    -5541    -5504    -5739    -5860 
   -5697    -5731    -5949    -5769    -5496    -5719    -5808    -5244 
   -5081    -5860    -6180    -5464    -5274    -6232    -6624    -5375 
   -4164    -4815    -6339    -6715    -5859    -5188    -5383    -5866 
   -5881    -5338    -5177    -5899    -6179    -5444    -5266    -5930 
   -5880    -5344    -5625    -5859    -5142    -5102    -6327    -6462 
   -5097    -5047    -6360    -6067    -4776    -5211    -6285    -5902 
   -5212    -5747    -6364    -5746    -5024    -5360    -5904    -5868 
   -5782    -5921    -5767    -5303    -5237    -5780    -6023    -5661 
   -5578    -5694    -5537    -5505    -5648    -5759    -5808    -5648 
   -5456    -5535    -5810    -5983    -5743    -5304    -5360    -5798 
   -5873    -5703    -5716    -5691    -5530    -5523    -5701    -5766 
   -5532    -5463    -5915    -5955    -5285    -5275    -5909    -5784 
   -5294    -5588    -6072    -5859    -5461    -5633    -5947    -5562 
   -5138    -5737    -6252    -5638    -5209    -5691    -6063    -5771 
   -5392    -5610    -5946    -5641    -5396    -5759    -5927    -5539 
   -5317    -5741    -6091    -5676    -5359    -5728    -5818    -5425 
   -5446    -5727    -5601    -5440    -5692    -5941    -5753    -5510 
   -5717    -5848    -5494    -5494    -5938    -5718    -5151    -5505 
   -6162    -5783    -5122    -5548    -6292    -5994    -5330    -5472 
   -5835    -5690    -5645    -5886    -5638    -5139    -5324    -5874 
   -5923    -5637    -5686    -5810    -5501    -5490    -5954    -5812 
   -5366    -5547    -5838    -5658    -5517    -5797    -5876    -5512 
   -5500    -5874    -5772    -5339    -5444    -5796    -5634    -5412 
   -5690    -5959    -5813    -5514    -5407    -5625    -5796    -5664 
   -5675    -5781    -5561    -5449    -5698    -5842    -5683    -5428 
   -5457    -5691    -5633    -5599    -5958    -5964    -5475    -5509 
   -5896    -5684    -5344    -5578    -5919    -5772    -5486    -5703 
   -5908    -5561    -5484    -5889    -5841    -5460    -5566    -5842 
   -5630    -5344    -5656    -6123    -5910    -5402    -5471    -5824 
   -5740    -5463    -5578    -5832    -5669    -5392    -5545    -5811 
   -5789    -5685    -5629    -5630    -5722    -5650    -5484    -5591 
   -5722    -5628    -5543    -5533    -5587    -5739    -5825    -5804 
   -5779    -5688    -5513    -5439    -5622    -5816    -5706    -5585 
   -5710    -5709    -5546    -5682    -5892    -5704    -5468    -5558 
   -5731    -5749    -5640    -5598    -5682    -5651    -5540    -5602 
   -5647    -5588    -5694    -5819    -5698    -5561    -5641    -5821 
   -5801    -5526    -5420    -5624    -5695    -5642    -5760    -5752 
   -5566    -5608    -5759    -5701    -5573    -5646    -5763    -5627 
   -5497    -5673    -5825    -5662    -5497    -5609    -5756    -5750 
   -5681    -5631    -5665    -5748    -5745    -5622    -5534    -5594 
   -5655    -5660    -5756    -5826    -5649    -5527    -5717    -5761 
   -5522    -5523    -5760    -5774    -5626    -5637    -5695    -5629 
   -5615    -5661    -5633    -5642    -5666    -5601    -5585    -5660 
   -5705    -5702    -5651    -5595    -5628    -5699    -5709    -5631 
   -5548    -5600    -5724    -5773    -5708    -5568    -5540    -5690 
   -5780    -5673    -5589    -5663    -5691    -5656    -5676    -5661 
   -5639    -5667    -5673    -5658    -5650    -5680    -5685    -5591 
   -5571    -5650    -5705    -5750    -5650    -5561    -5771    -5840 
   -5580    -5496    -5646    -5679    -5583    -5590    -5702    -5742 
   -5726    -5736    -5690    -5607    -5618    -5677    -5726    -5759 
   -5667    -5553    -5650    -5725    -5587    -5580    -5753    -5749 
   -5591    -5581    -5752    -5717    -5448    -5583    -5858    -5525 
   -5277    -5727    -6007    -5680    -5430    -5614    -5799    -5702 
   -5598    -5593    -5555    -5656    -5848    -5727    -5532    -5680 
   -5796    -5603    -5506    -5679    -5735    -5615    -5702    -5812 
   -5594    -5494    -5769    -5864    -5577    -5432    -5630    -5725 
   -5604    -5640    -5762    -5695    -5631    -5691    -5694    -5609 
   -5591    -5685    -5638    -5515    -5741    -5880    -5560    -5544 
   -5843    -5735    -5537    -5657    -5707    -5564    -5595    -5826 
   -5788    -5515    -5634    -5898    -5689    -5456    -5601    -5756 
   -5785    -5726    -5545    -5527    -5762    -5833    -5617    -5436 
   -5534    -5783    -5756    -5563    -5733    -5846    -5483    -5437 
   -5811    -5776    -5493    -5582    -5846    -5712    -5428    -5627 
   -5884    -5654    -5463    -5649    -5706    -5572    -5713    -5857 
   -5608    -5520    -5723    -5597    -5473    -5805    -5862    -5478 
   -5518    -5906    -5785    -5362    -5518    -5965    -5780    -5367 
   -5589    -5921    -5644    -5385    -5741    -5966    -5556    -5387 
   -5793    -5895    -5556    -5487    -5723    -5720    -5509    -5589 
   -5781    -5674    -5564    -5673    -5757    -5683    -5585    -5622 
   -5684    -5612    -5549    -5637    -5713    -5687    -5698    -5718 
   -5658    -5592    -5609    -5672    -5654    -5613    -5696    -5792 
   -5704    -5527    -5575    -5785    -5730    -5478    -5558    -5848 
   -5735    -5485    -5697    -5933    -5698    -5461    -5612    -5768 
   -5636    -5532    -5645    -5695    -5634    -5715    -5798    -5660 
   -5602    -5737    -5700    -5549    -5623    -5715    -5620    -5599 
   -5713    -5739    -5620    -5583    -5740    -5727    -5532    -5653 
   -5820    -5585    -5490    -5829    -5899    -5480    -5372    -5806 
   -5932    -5499    -5358    -5766    -5901    -5513    -5422    -5835 
   -5884    -5458    -5442    -5822    -5825    -5538    -5570    -5803 
   -5710    -5461    -5563    -5786    -5692    -5563    -5704    -5759 
   -5541    -5499    -5759    -5825    -5616    -5576    -5682    -5635 
   -5586    -5702    -5787    -5707    -5625    -5653    -5665    -5645 
   -5688    -5677    -5570    -5651    -5853    -5737    -5495    -5598 
