Origin Time       2012/11/01 22:13:00
Lat.              36.707
Long.             140.592
Depth. (km)       10
Mag.              2.9
Station Code      IBRH16
Station Lat.      36.6405
Station Long.     140.3976
Station Height(m) -210
Record Time       2012/11/01 22:13:21
Sampling Freq(Hz) 100Hz
Duration Time(s)  120
Dir.              3
Scale Factor      2940(gal)/6170270
Max. Acc. (gal)   0.367
Last Correction   2012/11/01 22:13:06
Memo.             
[...]
  -44142   -44143   -44141   -44141   -44142   -44141   -44140   -44141 
  -44140   -44140   -44141   -44141   -44140   -44141   -44140   -44139 
  -44141   -44142   -44141   -44141   -44144   -44143   -44140   -44141 
  -44142   -44142   -44141   -44139   -44139   -44142   -44142   -44140 
  -44141   -44141   -44141   -44141   -44140   -44140   -44140   -44141 
  -44141   -44142   -44143   -44143   -44141   -44140   -44141   -44141 
  -44140   -44140   -44140   -44139   -44139   -44140   -44141   -44140 
  -44142   -44142   -44140   -44141   -44142   -44141   -44140   -44140 
  -44142   -44142   -44141   -44141   -44141   -44140   -44140   -44140 
  -44139   -44139   -44140   -44141   -44140   -44141   -44144   -44144 
  -44141   -44141   -44142   -44140   -44139   -44141   -44143   -44143 
  -44142   -44141   -44141   -44140   -44142   -44142   -44140   -44141 
  -44142   -44142   -44140   -44140   -44141   -44141   -44139   -44140 
  -44142   -44142   -44141   -44141   -44142   -44141   -44141   -44142 
  -44141   -44140   -44141   -44142   -44141   -44141   -44142   -44141 
  -44140   -44140   -44139   -44140   -44142   -44142   -44140   -44142 
  -44142   -44142   -44142   -44142   -44140   -44140   -44140   -44140 
  -44141   -44141   -44141   -44144   -44143   -44139   -44141   -44140 
  -44140   -44142   -44141   -44141   -44141   -44141   -44143   -44141 
  -44138   -44141   -44142   -44141   -44141   -44140   -44140   -44143 
  -44140   -44138   -44141   -44141   -44140   -44141   -44140   -44141 
  -44142   -44140   -44139   -44140   -44142   -44142   -44142   -44140 
  -44140   -44142   -44141   -44140   -44142   -44143   -44142   -44141 
  -44140   -44141   -44140   -44140   -44141   -44141   -44142   -44141 
  -44139   -44140   -44142   -44141   -44140   -44141   -44141   -44140 
  -44141   -44141   -44141   -44143   -44143   -44141   -44140   -44141 
  -44142   -44142   -44143   -44143   -44143   -44143   -44141   -44140 
  -44142   -44142   -44142   -44142   -44141   -44140   -44141   -44141 
  -44140   -44141   -44143   -44142   -44140   -44140   -44142   -44141 
  -44140   -44142   -44142   -44139   -44139   -44142   -44141   -44141 
  -44141   -44140   -44141   -44142   -44142   -44141   -44140   -44141 
  -44141   -44141   -44142   -44142   -44140   -44140   -44141   -44140 
  -44140   -44141   -44141   -44141   -44142   -44141   -44140   -44139 
  -44140   -44141   -44141   -44142   -44143   -44142   -44141   -44141 
  -44141   -44142   -44142   -44141   -44142   -44141   -44140   -44141 
  -44143   -44141   -44141   -44143   -44141   -44140   -44142   -44142 
  -44140   -44140   -44141   -44141   -44141   -44141   -44142   -44142 
  -44142   -44141   -44141   -44141   -44140   -44139   -44140   -44141 
  -44140   -44140   -44141   -44142   -44141   -44143   -44144   -44140 
  -44139   -44142   -44142   -44140   -44141   -44144   -44144   -44142 
  -44142   -44141   -44139   -44142   -44143   -44142   -44142   -44142 
  -44140   -44141   -44143   -44141   -44138   -44140   -44143   -44141 
  -44141   -44141   -44141   -44141   -44141   -44139   -44139   -44141 
  -44141   -44141   -44142   -44141   -44139   -44140   -44141   -44140 
  -44141   -44142   -44141   -44141   -44143   -44140   -44138   -44142 
  -44143   -44141   -44140   -44142   -44142   -44143   -44142   -44141 
  -44142   -44141   -44139   -44140   -44142   -44140   -44140   -44141 
  -44141   -44142   -44143   -44140   -44140   -44142   -44142   -44141 
  -44140   -44140   -44141   -44142   -44142   -44142   -44141   -44141 
  -44141   -44140   -44142   -44142   -44141   -44142   -44144   -44143 
  -44143   -44142   -44140   -44141   -44143   -44144   -44143   -44141 
  -44142   -44142   -44142   -44140   -44140   -44141   -44140   -44140 
  -44140   -44141   -44142   -44141   -44141   -44142   -44141   -44141 
  -44143   -44143   -44141   -44140   -44141   -44142   -44143   -44141 
  -44139   -44141   -44143   -44143   -44142   -44140   -44140   -44141 
  -44140   -44139   -44141   -44142   -44142   -44141   -44142   -44143 
  -44143   -44141   -44142   -44142   -44140   -44141   -44144   -44142 
  -44140   -44141   -44141   -44140   -44140   -44141   -44140   -44141 
  -44141   -44140   -44141   -44142   -44141   -44141   -44141   -44141 
  -44140   -44140   -44142   -44142   -44141   -44141   -44141   -44140 
  -44141   -44144   -44144   -44142   -44140   -44140   -44142   -44141 
  -44140   -44141   -44141   -44140   -44139   -44138   -44141   -44140 
  -44139   -44141   -44142   -44140   -44139   -44141   -44141   -44140 
  -44141   -44141   -44139   -44140   -44143   -44141   -44139   -44140 
  -44141   -44141   -44142   -44139   -44138   -44141   -44140   -44138 
  -44139   -44142   -44141   -44141   -44142   -44142   -44140   -44140 
  -44141   -44142   -44141   -44140   -44141   -44140   -44141   -44143 
  -44142   -44140   -44141   -44142   -44141   -44140   -44141   -44142 
  -44142   -44143   -44143   -44142   -44142   -44143   -44142   -44140 
  -44141   -44142   -44141   -44140   -44141   -44141   -44140   -44141 
  -44142   -44140   -44140   -44142   -44142   -44140   -44141   -44143 
  -44143   -44143   -44142   -44141   -44143   -44143   -44142   -44142 
  -44142   -44142   -44142   -44141   -44140   -44142   -44142   -44142 
  -44141   -44141   -44143   -44142   -44140   -44142   -44142   -44140 
  -44141   -44144   -44144   -44141   -44140   -44142   -44143   -44142 
  -44141   -44141   -44141   -44142   -44141   -44141   -44142   -44142 
  -44141   -44142   -44143   -44142   -44142   -44142   -44142   -44140 
  -44140   -44142   -44142   -44142   -44142   -44141   -44140   -44141 
  -44143   -44141   -44140   -44142   -44142   -44141   -44142   -44141 
  -44141   -44143   -44142   -44140   -44141   -44142   -44142   -44143 
  -44144   -44143   -44140   -44141   -44143   -44143   -44143   -44142 
  -44142   -44142   -44142   -44141   -44141   -44141   -44141   -44142 
  -44142   -44143   -44144   -44142   -44141   -44141   -44142   -44142 
  -44142   -44141   -44143   -44143   -44141   -44141   -44141   -44140 
  -44139   -44140   -44140   -44140   -44141   -44141   -44139   -44141 
  -44143   -44143   -44142   -44140   -44141   -44141   -44140   -44140 
  -44140   -44141   -44141   -44141   -44141   -44142   -44141   -44140 
  -44141   -44142   -44141   -44141   -44142   -44140   -44139   -44141 
  -44141   -44139   -44140   -44141   -44142   -44142   -44140   -44140 
  -44140   -44140   -44140   -44140   -44141   -44142   -44140   -44139 
  -44142   -44142   -44140   -44140   -44140   -44140   -44141   -44139 
  -44138   -44139   -44141   -44141   -44139   -44141   -44139   -44136 
  -44138   -44141   -44141   -44140   -44140   -44141   -44141   -44140 
  -44140   -44141   -44140   -44140   -44140   -44141   -44141   -44141 
  -44140   -44140   -44140   -44140   -44142   -44143   -44143   -44142 
  -44141   -44139   -44139   -44141   -44142   -44142   -44142   -44140 
  -44138   -44141   -44143   -44139   -44139   -44143   -44144   -44141 
  -44140   -44141   -44141   -44140   -44141   -44142   -44142   -44141 
  -44140   -44139   -44140   -44140   -44140   -44142   -44141   -44139 
  -44141   -44142   -44142   -44142   -44141   -44140   -44139   -44139 
  -44140   -44141   -44140   -44140   -44141   -44140   -44139   -44139 
  -44141   -44142   -44142   -44140   -44139   -44141   -44140   -44139 
  -44140   -44141   -44140   -44140   -44140   -44142   -44141   -44138 
  -44138   -44141   -44142   -44140   -44140   -44141   -44141   -44140 
  -44141   -44141   -44140   -44142   -44141   -44140   -44141   -44141 
  -44140   -44140   -44139   -44140   -44142   -44140   -44140   -44140 
  -44139   -44138   -44139   -44138   -44139   -44140   -44142   -44142 
  -44138   -44138   -44140   -44140   -44140   -44140   -44140   -44141 
  -44142   -44141   -44140   -44139   -44141   -44142   -44141   -44141 
  -44142   -44141   -44140   -44142   -44143   -44141   -44139   -44141 
  -44142   -44141   -44141   -44141   -44139   -44138   -44140   -44142 
  -44141   -44142   -44142   -44139   -44140   -44142   -44141   -44139 
  -44141   -44142   -44141   -44140   -44140   -44141   -44141   -44142 
  -44143   -44141   -44140   -44142   -44142   -44141   -44141   -44141 
  -44141   -44140   -44140   -44141   -44141   -44140   -44140   -44141 
  -44140   -44139   -44140   -44142   -44142   -44141   -44142   -44142 
  -44142   -44143   -44143   -44141   -44141   -44141   -44142   -44142 
  -44142   -44141   -44140   -44140   -44141   -44142   -44142   -44142 
  -44140   -44140   -44141   -44141   -44142   -44142   -44141   -44141 
  -44141   -44140   -44141   -44141   -44140   -44140   -44140   -44139 
  -44140   -44140   -44138   -44138   -44140   -44141   -44141   -44140 
  -44139   -44139   -44139   -44140   -44141   -44139   -44139   -44141 
  -44140   -44138   -44139   -44141   -44141   -44140   -44139   -44139 
  -44139   -44139   -44139   -44140   -44142   -44140   -44139   -44140 
  -44142   -44141   -44139   -44140   -44141   -44138   -44138   -44140 
  -44139   -44137   -44139   -44140   -44139   -44141   -44141   -44139 
  -44140   -44141   -44140   -44140   -44140   -44141   -44139   -44138 
  -44139   -44140   -44140   -44141   -44141   -44140   -44139   -44141 
  -44142   -44140   -44140   -44140   -44140   -44140   -44140   -44141 
  -44140   -44140   -44142   -44142   -44141   -44141   -44140   -44139 
  -44141   -44142   -44140   -44139   -44139   -44139   -44138   -44138 
  -44140   -44141   -44142   -44141   -44139   -44139   -44138   -44138 
  -44138   -44140   -44141   -44140   -44138   -44141   -44142   -44138 
  -44139   -44141   -44140   -44140   -44140   -44140   -44139   -44139 
  -44139   -44140   -44142   -44141   -44140   -44140   -44141   -44141 
  -44141   -44142   -44142   -44139   -44139   -44139   -44140   -44141 
  -44141   -44141   -44141   -44140   -44140   -44140   -44141   -44141 
  -44140   -44141   -44141   -44140   -44140   -44140   -44140   -44141 
  -44142   -44142   -44142   -44142   -44141   -44140   -44140   -44139 
  -44141   -44142   -44140   -44138   -44138   -44139   -44140   -44139 
  -44138   -44140   -44140   -44141   -44141   -44139   -44139   -44140 
  -44139   -44139   -44140   -44140   -44141   -44141   -44140   -44141 
  -44140   -44139   -44139   -44140   -44140   -44140   -44139   -44139 
  -44142   -44141   -44137   -44138   -44140   -44140   -44139   -44138 
  -44139   -44140   -44139   -44140   -44142   -44140   -44137   -44138 
  -44138   -44139   -44140   -44140   -44139   -44140   -44141   -44138 
  -44137   -44139   -44141   -44140   -44139   -44139   -44140   -44139 
  -44138   -44139   -44139   -44139   -44141   -44141   -44139   -44140 
  -44139   -44139   -44140   -44140   -44140   -44140   -44140   -44140 
  -44140   -44139   -44141   -44140   -44139   -44141   -44140   -44138 
  -44141   -44141   -44139   -44141   -44141   -44140   -44141   -44141 
  -44140   -44141   -44142   -44140   -44138   -44140   -44141   -44140 
  -44140   -44142   -44142   -44140   -44139   -44140   -44140   -44138 
  -44139   -44135   -44109   -44043   -43987   -44094   -44299   -44230 
  -44019   -44185   -44275   -43921   -43896   -44171   -44406   -44606 
  -44179   -43931   -44326   -44031   -43840   -44157   -43817   -44004 
  -44786   -44466   -43844   -43941   -44136   -44123   -44132   -44378 
  -44532   -44070   -43831   -44288   -44159   -43788   -44243   -44339 
  -43843   -44140   -44575   -44003   -43645   -44180   -44328   -44079 
  -44315   -44420   -43965   -43848   -44167   -44214   -44140   -44166 
  -44113   -44178   -44290   -44128   -44007   -44102   -44117   -44096 
  -44142   -44196   -44232   -44141   -44051   -44123   -44186   -44182 
  -44135   -44049   -44113   -44218   -44111   -44111   -44239   -44152 
  -44087   -44113   -44115   -44238   -44221   -43977   -44034   -44313 
  -44246   -44050   -44097   -44145   -44139   -44169   -44120   -44094 
  -44155   -44157   -44145   -44180   -44215   -44189   -44091   -44054 
  -44094   -44189   -44232   -44097   -44056   -44186   -44248   -44154 
  -44069   -44181   -44209   -44105   -44136   -44142   -44074   -44079 
  -44133   -44151   -44159   -44207   -44116   -44040   -44228   -44227 
  -44043   -44103   -44143   -44141   -44265   -44185   -44055   -44188 
  -44191   -43999   -44088   -44295   -44193   -44019   -44082   -44185 
  -44134   -44063   -44150   -44268   -44159   -44038   -44149   -44188 
  -44147   -44192   -44088   -44009   -44177   -44228   -44132   -44096 
  -44048   -44122   -44311   -44191   -43991   -44159   -44269   -44103 
  -44069   -44187   -44202   -44139   -44115   -44074   -44064   -44191 
  -44150   -43980   -44187   -44393   -44152   -44020   -44121   -44105 
  -44141   -44164   -44050   -44089   -44191   -44219   -44220   -44131 
  -44097   -44145   -44146   -44130   -44102   -44141   -44173   -44060 
  -44046   -44211   -44296   -44234   -44147   -44087   -44093   -44156 
  -44146   -44078   -44090   -44160   -44170   -44140   -44098   -44063 
  -44241   -44324   -44060   -44024   -44158   -44118   -44112   -44088 
  -44103   -44209   -44185   -44155   -44175   -44141   -44095   -44044 
  -44057   -44186   -44272   -44163   -44057   -44140   -44121   -44087 
  -44298   -44278   -44049   -44133   -44204   -44106   -44198   -44212 
  -44143   -44366   -44368   -44011   -44070   -44408   -44256   -43765 
  -43781   -44377   -44523   -43945   -43798   -44448   -44614   -43826 
  -43370   -43833   -44426   -44568   -44357   -44150   -44169   -44248 
  -43989   -43668   -43987   -44511   -44410   -44004   -43967   -44106 
  -44072   -44246   -44397   -43825   -43483   -44322   -44856   -44120 
  -43753   -44245   -44181   -43709   -43813   -44205   -44286   -44275 
  -44481   -44393   -43943   -43843   -44021   -44102   -44212   -44327 
  -44315   -44207   -44087   -44012   -44082   -44266   -44236   -44072 
  -44092   -44133   -44114   -44100   -44056   -44130   -44264   -44230 
  -44122   -44104   -44144   -44115   -44122   -44240   -44224   -44223 
  -44364   -44153   -43838   -44066   -44268   -44041   -44063   -44330 
  -44258   -44084   -44175   -44217   -44007   -43940   -44156   -44300 
  -44319   -44235   -43938   -43847   -44152   -44236   -44039   -44039 
  -44118   -44180   -44313   -44192   -43958   -44092   -44252   -44096 
  -44001   -44143   -44225   -44130   -44050   -44116   -44232   -44181 
  -44087   -44196   -44179   -44047   -44283   -44383   -44022   -43938 
  -44161   -44167   -44042   -44079   -44215   -44175   -44059   -44114 
  -44155   -44078   -44144   -44248   -44075   -43984   -44145   -44129 
  -44093   -44207   -44122   -44075   -44294   -44267   -44053   -44112 
  -44222   -44247   -44232   -44063   -44053   -44260   -44178   -44021 
  -44165   -44179   -44068   -44197   -44171   -43964   -44112   -44339 
  -44218   -44081   -44170   -44220   -44152   -44134   -44157   -44221 
  -44270   -44143   -44046   -44165   -44207   -44123   -44125   -44135 
  -44171   -44253   -44183   -44127   -44171   -44143   -44116   -44108 
  -44095   -44115   -44129   -44111   -44058   -44134   -44244   -44093 
  -43987   -44095   -44147   -44156   -44124   -44106   -44170   -44143 
  -44061   -43989   -44001   -44202   -44247   -44049   -44063   -44240 
  -44201   -44107   -44150   -44097   -44058   -44226   -44232   -44057 
  -44053   -44089   -44087   -44160   -44131   -44096   -44234   -44233 
  -44059   -44049   -44246   -44334   -44101   -43948   -44152   -44289 
  -44205   -44154   -44127   -44126   -44190   -44148   -44038   -44076 
  -44211   -44267   -44144   -43991   -44050   -44208   -44187   -44095 
  -44140   -44130   -44041   -44097   -44126   -44119   -44251   -44248 
  -44082   -44087   -44172   -44194   -44216   -44152   -44142   -44211 
  -44037   -43949   -44225   -44279   -44077   -44167   -44253   -44098 
  -44157   -44237   -44128   -44148   -44139   -44084   -44208   -44186 
  -44030   -44134   -44216   -44137   -44189   -44194   -44134   -44192 
  -44107   -43999   -44179   -44252   -44041   -43997   -44164   -44228 
  -44129   -44079   -44233   -44210   -43966   -44100   -44280   -44120 
  -44133   -44207   -44098   -44141   -44242   -44153   -44019   -44035 
  -44169   -44201   -44114   -44113   -44205   -44173   -44040   -44072 
  -44181   -44195   -44208   -44140   -44046   -44143   -44227   -44144 
  -44108   -44191   -44215   -44071   -44027   -44244   -44279   -44017 
  -44007   -44237   -44243   -44141   -44122   -44131   -44169   -44069 
  -43994   -44146   -44160   -44095   -44144   -44060   -44005   -44167 
  -44218   -44125   -44168   -44210   -44128   -44166   -44244   -44168 
  -44086   -44098   -44173   -44192   -44121   -44135   -44182   -44152 
  -44133   -44099   -44064   -44165   -44225   -44122   -44132   -44243 
  -44198   -44090   -44112   -44189   -44161   -44105   -44135   -44160 
  -44209   -44260   -44103   -43963   -44113   -44243   -44131   -44073 
  -44207   -44228   -44073   -44027   -44080   -44054   -44091   -44240 
  -44190   -44056   -44131   -44146   -44068   -44128   -44170   -44098 
  -44048   -44157   -44249   -44122   -44068   -44131   -44120   -44173 
  -44225   -44141   -44115   -44177   -44177   -44156   -44151   -44133 
  -44166   -44207   -44162   -44138   -44188   -44174   -44149   -44203 
  -44171   -44109   -44187   -44217   -44139   -44143   -44156   -44128 
  -44154   -44153   -44121   -44142   -44129   -44077   -44126   -44191 
  -44106   -44053   -44157   -44194   -44126   -44069   -44040   -44101 
  -44157   -44116   -44109   -44135   -44146   -44120   -44063   -44079 
  -44151   -44179   -44140   -44122   -44166   -44173   -44135   -44132 
  -44151   -44169   -44193   -44156   -44148   -44223   -44170   -44084 
  -44129   -44184   -44236   -44211   -44077   -44104   -44207   -44117 
  -44041   -44155   -44250   -44174   -44069   -44106   -44231   -44267 
  -44122   -43986   -44065   -44171   -44157   -44147   -44171   -44147 
  -44069   -44053   -44108   -44087   -44066   -44142   -44155   -44148 
  -44230   -44185   -44038   -44057   -44165   -44195   -44161   -44136 
  -44161   -44178   -44139   -44103   -44132   -44165   -44132   -44120 
  -44155   -44154   -44170   -44219   -44203   -44100   -44036   -44132 
  -44242   -44194   -44129   -44152   -44131   -44091   -44172   -44225 
  -44141   -44112   -44146   -44122   -44127   -44173   -44175   -44141 
  -44101   -44137   -44179   -44102   -44083   -44162   -44132   -44092 
  -44137   -44113   -44075   -44126   -44135   -44088   -44131   -44206 
  -44160   -44107   -44121   -44089   -44095   -44126   -44084   -44129 
  -44199   -44138   -44101   -44153   -44195   -44181   -44158   -44158 
  -44145   -44141   -44177   -44218   -44203   -44135   -44115   -44200 
  -44249   -44146   -44080   -44123   -44144   -44179   -44178   -44121 
  -44144   -44174   -44122   -44097   -44194   -44228   -44127   -44133 
  -44168   -44125   -44156   -44171   -44111   -44100   -44150   -44171 
  -44104   -44071   -44137   -44152   -44115   -44110   -44091   -44068 
  -44106   -44131   -44091   -44085   -44141   -44174   -44137   -44094 
  -44110   -44134   -44144   -44152   -44149   -44163   -44161   -44150 
  -44140   -44120   -44163   -44188   -44140   -44139   -44143   -44124 
  -44135   -44171   -44208   -44161   -44129   -44192   -44151   -44075 
