Origin Time       2019/01/14 13:23:00
Lat.              36.162
Long.             139.810
Depth. (km)       53
Mag.              4.9
Station Code      YMNH11
Station Lat.      35.6247
Station Long.     138.9777
Station Height(m) 465
Record Time       2019/01/14 13:24:00
Sampling Freq(Hz) 100Hz
Duration Time(s)  120
Dir.              5
Scale Factor      3920(gal)/6170801
Max. Acc. (gal)   4.886
Last Correction   2019/01/14 13:23:45
Memo.             
[...]
   16403    16239    16059    15974    16023    16214    16539    16823 
   16896    16787    16572    16323    16146    16095    16200    16420 
   16550    16496    16416    16432    16501    16506    16361    16147 
   16035    16040    16092    16189    16334    16528    16756    16922 
   16944    16828    16573    16193    15848    15749    15955    16289 
   16517    16565    16508    16392    16211    15988    15820    15842 
   16060    16339    16624    16934    17202    17357    17467    17570 
   17526    17217    16703    16110    15566    15225    15207    15479 
   15845    16105    16161    16023    15866    15959    16369    16904 
   17329    17476    17326    17016    16676    16411    16246    16075 
   15924    15987    16249    16504    16601    16489    16231    15931 
   15682    15595    15690    15910    16237    16543    16653    16610 
   16560    16564    16654    16844    17145    17508    17722    17591 
   17157    16607    16095    15696    15459    15402    15499    15662 
   15754    15720    15712    15871    16111    16310    16520    16853 
   17236    17422    17389    17353    17379    17387    17291    17027 
   16662    16309    15983    15708    15526    15401    15299    15195 
   15106    15156    15413    15844    16474    17213    17731    17786 
   17403    16807    16412    16512    16922    17177    16968    16363 
   15755    15464    15406    15385    15505    15887    16302    16498 
   16561    16695    16957    17283    17535    17565    17320    16875 
   16374    15978    15808    15849    15939    15970    15992    16080 
   16220    16334    16372    16369    16395    16468    16598    16810 
   17034    17150    17048    16655    16058    15486    15073    14865 
   14998    15518    16243    16951    17427    17495    17199    16727 
   16259    16096    16486    17250    17910    17988    17231    15914 
   14767    14403    14924    15921    16805    17243    17219    16803 
   16192    15771    15796    16175    16656    16968    16867    16394 
   15907    15698    15906    16600    17507    18061    17953    17294 
   16349    15385    14659    14464    14963    15930    16857    17327 
   17248    16868    16512    16400    16607    16966    17157    16936 
   16254    15409    14892    14951    15538    16464    17302    17600 
   17341    16878    16537    16403    16330    16196    16136    16346 
   16790    17248    17490    17287    16556    15609    14876    14534 
   14639    15114    15562    15658    15555    15665    16329    17531 
   18782    19504    19357    18345    16981    15966    15574    15649 
   15869    15905    15709    15425    15039    14641    14554    14917 
   15644    16651    17800    18837    19419    19222    18254    17014 
   16161    15994    16294    16554    16295    15398    14291    13669 
   13943    14951    16125    16939    17229    17139    16867    16581 
   16466    16652    17056    17374    17385    17166    16845    16409 
   15975    15851    16048    16268    16293    16086    15878    15997 
   16325    16518    16590    16625    16456    16040    15681    15720 
   16133    16619    16989    17197    17179    16923    16508    16106 
   15895    15911    16198    16789    17376    17591    17417    16923 
   16191    15571    15424    15734    16230    16665    16896    16852 
   16576    16227    15909    15618    15429    15454    15643    15866 
   16083    16293    16460    16573    16751    17100    17470    17581 
   17362    16984    16607    16307    16126    16033    15994    16034 
   16108    16093    15982    15939    16023    16056    15904    15725 
   15847    16377    17042    17525    17697    17436    16744    16007 
   15707    15960    16512    16950    17032    16972    17022    17007 
   16726    16345    16112    16053    16058    16047    15940    15679 
   15424    15346    15352    15465    15884    16407    16665    16739 
   16873    17044    17130    17187    17401    17745    17868    17493 
   16706    15800    15106    14936    15329    15945    16418    16586 
   16348    15733    15175    15165    15597    16075    16553    17071 
   17425    17409    16988    16402    16097    16274    16848    17699 
   18464    18584    17951    16973    16041    15428    15221    15164 
   15084    15072    15069    15041    15322    16162    17307    18165 
   18196    17410    16468    16024    16125    16380    16426    16191 
   15854    15617    15585    15860    16346    16662    16620    16334 
   15919    15583    15603    16023    16650    17127    17215    17190 
   17408    17706    17689    17148    16177    15212    14799    15188 
   16079    16846    17142    17071    16813    16498    16301    16285 
   16425    16763    17095    17028    16630    16255    15954    15702 
   15631    15750    15915    16016    16090    16348    16879    17334 
   17266    16629    15750    15033    14719    14873    15389    15973 
   16454    16866    17171    17399    17715    18016    18027    17753 
   17375    16987    16614    16262    15987    15825    15628    15332 
   15224    15556    16105    16275    15653    14550    13795    13938 
   14952    16505    18141    19444    20165    20153    19499    18658 
   17955    17302    16609    15984    15518    15174    14858    14535 
   14233    13949    13747    13913    14677    15841    16885    17423 
   17500    17348    17049    16584    16098    15998    16551    17438 
   18048    18115    17705    16962    16182    15681    15531    15729 
   16175    16456    16231    15678    15297    15476    16243    17304 
   18217    18522    18004    17068    16447    16330    16308    16127 
   15882    15691    15637    15771    16000    16171    16244    16266 
   16320    16444    16476    16235    15793    15417    15412    15839 
   16356    16701    16954    17131    17034    16567    15972    15714 
   15958    16419    16848    17159    17244    17034    16630    16324 
   16277    16288    16244    16360    16634    16670    16172    15371 
   14965    15454    16499    17312    17471    17012    16223    15558 
   15357    15612    16159    16895    17722    18467    18775    18265 
   17028    15695    14939    15008    15515    15866    15948    15981 
   16101    16414    16844    17078    16921    16443    15954    15761 
   15825    15951    16176    16562    16874    16811    16359    15899 
   15944    16441    16862    17034    17065    16897    16560    16327 
   16473    16908    17066    16566    15698    14855    14225    14166 
   14942    16278    17646    18479    18366    17520    16556    15942 
   15871    16149    16486    16901    17335    17516    17467    17310 
   16828    15848    14701    13922    13853    14552    15711    16805 
   17464    17567    17350    17297    17474    17520    17278    16824 
   16303    15861    15525    15494    16081    17024    17724    17970 
   17684    16758    15447    14221    13488    13602    14562    15802 
   16765    17382    17761    17932    17801    17061    15659    14219 
   13518    13941    15365    17091    18234    18458    18148    17946 
   18075    18256    18336    18310    17914    17069    16166    15574 
   15530    16099    16735    16753    16159    15273    14301    13619 
   13584    14102    14870    15740    16626    17338    17652    17512 
   17085    16666    16527    16692    16908    17020    17098    17099 
   16870    16501    16173    15930    15898    16136    16395    16500 
   16501    16366    16049    15715    15641    15969    16521    16959 
   17174    17334    17478    17306    16674    15972    15597    15537 
   15708    15974    16002    15617    15120    15149    16042    17317 
   18228    18482    18157    17487    16764    16191    15950    16065 
   16192    16073    15860    15675    15506    15487    15710    16124 
   16616    16878    16669    16142    15534    15161    15572    16776 
   17959    18422    18077    17133    15940    15041    15014    15957 
   17137    17656    17319    16547    15873    15604    15709    16017 
   16336    16569    16848    17241    17597    17782    17663    17144 
   16463    15946    15589    15392    15520    15855    16010    15783 
   15366    15181    15390    15793    16269    16776    17070    17045 
   16924    16850    16866    17046    17140    16768    16105    15551 
   15204    15171    15565    16185    16797    17262    17362    17100 
   16801    16651    16594    16567    16524    16430    16242    16013 
   16073    16593    17126    17196    16870    16375    15885    15745 
   16020    16200    16038    15902    16102    16577    17009    17053 
   16772    16524    16394    16273    16159    16035    15848    15755 
   16069    16736    17159    16810    15809    14863    14640    15214 
   16197    17147    17730    17863    17685    17337    17000    16786 
   16525    16130    15768    15591    15768    16296    16797    17003 
   16974    16770    16503    16409    16540    16616    16265    15574 
   15146    15405    16295    17385    18006    17773    16811    15474 
   14436    14403    15239    16281    17215    17896    18164    17990 
   17446    16751    16175    15864    15877    16076    16153    16095 
   16090    16028    15734    15411    15423    15870    16487    16807 
   16532    15892    15421    15469    16118    17163    18109    18485 
   18118    17223    16368    15961    15859    15803    15749    15623 
   15389    15246    15406    15900    16527    16946    17022    16915 
   16940    17412    18270    18994    19086    18326    16929    15692 
   15268    15501    16050    16776    17294    17213    16713    16278 
   16089    15848    15132    13968    12919    12551    13012    13957 
   14826    15454    16049    16565    16859    17199    17817    18448 
   18780    18823    18661    18385    18126    17806    17302    16835 
   16600    16310    15649    14901    14596    14741    15099    15646 
   16203    16451    16352    15954    15450    15311    15681    16269 
   16831    17209    17423    17611    17638    17354    16927    16538 
   16116    15537    15001    14901    15209    15591    16024    16613 
   17125    17156    16565    15714    15253    15477    16169    16968 
   17552    17806    17937    18104    18119    17659    16668    15613 
   15239    15843    16910    17593    17471    16740    15875    15358 
   15449    16015    16657    16905    16538    15784    15030    14552 
   14527    14929    15510    15998    16203    16132    16041    16163 
   16548    17229    18106    18854    19271    19231    18560    17450 
   16326    15433    15094    15617    16754    17821    18164    17472 
   16052    14682    13945    13857    14095    14412    14843    15445 
   16062    16612    17165    17638    17887    17967    18064    18234 
   18350    18264    17910    17269    16372    15340    14475    14154 
   14443    14963    15233    15138    14977    15031    15409    16169 
   17156    17915    17995    17319    16371    15821    15944    16654 
   17768    18827    19042    17974    16135    14508    13749    13948 
   14577    14898    14762    14620    14923    15779    16833    17627 
   18044    18113    17976    18014    18299    18387    17838    16582 
   15054    13965    13769    14550    15988    17314    17922    17811 
   17284    16706    16330    16172    16194    16404    16868    17607 
   18255    18185    17198    15836    14923    14986    15907    16940 
   17164    16280    15130    14851    15545    16474    17133    17417 
   17290    16777    16124    15677    15548    15591    15705    15748 
   15585    15493    15830    16483    17163    17667    17715    17216 
   16585    16247    16163    16198    16357    16565    16702    16800 
   17018    17344    17488    17390    17254    17047    16596    15787 
   14585    13411    13036    13700    14901    16076    16898    17173 
   17003    16824    16986    17327    17286    16696    16175    16384 
   17311    18393    18898    18456    17489    16763    16590    16632 
   16356    15515    14292    13269    12999    13517    14626    16029 
   17149    17714    18026    18253    18397    18673    19102    19299 
   18933    18007    16923    16177    15735    15178    14414    13740 
   13379    13276    13339    13599    13956    14267    14703    15588 
   16933    18229    18891    18960    18928    18986    18955    18765 
   18515    18171    17522    16552    15665    15260    15336    15667 
   16090    16557    17016    17375    17635    17794    17711    17344 
   16943    16918    17434    17990    17844    16875    15519    14197 
   13230    12774    12656    12605    12460    12176    11979    12249 
   13040    14190    15591    16910    17821    18453    18843    18789 
   18459    18161    17941    17686    17175    16356    15432    14570 
   14005    14023    14651    15744    17052    18159    18717    18639 
   18169    17872    18182    18969    19651    19643    18847    17580 
   16170    14997    14531    15054    16452    18126    19341    19878 
   19926    19674    19497    19708    19989    19739    18565    16519 
   14424    13205    12879    13007    13324    13468    13100    12359 
   11709    11555    11989    12741    13474    14229    15279    16486 
   17441    18119    18698    19159    19406    19311    18699    17561 
   16220    15241    14865    14593    13954    13195    12669    12431 
   12575    13164    14085    15123    16027    16703    17327    18166 
   19289    20486    21604    22687    23634    24090    23612    21981 
   19644    17331    15388    14100    13724    14021    14534    14893 
   14848    14569    14408    14402    14448    14387    13992    13334 
   12844    13001    14155    16058    17748    18469    18126    16926 
   15505    14695    14730    15358    16225    16911    17223    17217 
   17148    17492    18346    19211    19599    19175    17986    16786 
   16270    16534    17429    18485    18979    18612    17613    16418 
   15564    15450    16057    16970    17574    17355    16281    14974 
   14396    14997    16132    16594    15721    13835    11891    10750 
   10596    11121    12086    13391    14921    16638    18460    19974 
   20705    20609    20007    19253    18529    17882    17395    17144 
   16982    16558    15718    14792    14179    13890    13837    13995 
   14273    14767    15687    16891    18011    18852    19566    20528 
   21909    23325    23960    23229    21365    19140    17153    15517 
   14077    12755    11652    10961    10771    11037    11697    12552 
   13306    14017    14849    15494    15659    15613    15821    16526 
   17501    18107    17941    17159    16181    15457    15297    15554 
   15759    15714    15573    15437    15427    15910    17120    18694 
   19988    20729    20885    20340    19256    18104    17177    16538 
   16125    15804    15570    15548    15775    16145    16471    16574 
   16543    16694    17164    17874    18691    19175    18705    17199 
   15210    13403    12320    12148    12432    12536    12273    11868 
   11816    12564    13974    15510    16653    16985    16660    16492 
   17123    18597    20452    21943    22639    22530    21710    20451 
   19024    17497    16192    15581    15587    15758    15792    15471 
   14784    14169    14033    14337    14809    15186    15305    15218 
   15241    15861    17296    19034    20262    20663    20292    19282 
   18079    17195    16616    15918    14762    13251    12023    11638 
   11934    12461    12986    13309    13410    13647    14281    15149 
   15855    16089    15985    16148    17044    18468    19766    20456 
   20562    20404    20269    20389    20774    20992    20566    19509 
   18190    17034    16382    16130    15725    14802    13470    12109 
   11296    11549    12737    14060    14746    14589    14067    14021 
   14855    16177    17409    18192    18317    17889    17321    16922 
   16682    16385    15885    15258    14711    14476    14745    15491 
   16507    17604    18479    18723    18276    17642    17470    17953 
   18705    19258    19335    18771    17757    16820    16228    15849 
   15496    15126    14830    14624    14378    14023    13665    13598 
   14065    14873    15680    16378    16837    16901    16751    16744 
   17042    17719    18691    19422    19345    18423    16978    15587 
   15018    15578    16749    17768    18217    18063    17508    16927 
   16776    17290    18135    18543    17961    16507    14860    13734 
   13333    13332    13287    12963    12518    12425    13029    14343 
   16132    17835    18896    19324    19502    19706    19889    19795 
   19323    18509    17327    16079    15396    15343    15374    15105 
   14476    13619    12761    12124    12026    12648    13771    15080 
   16364    17450    18241    18761    19125    19497    19955    20377 
   20393    19707    18597    17602    16784    15978    15328    15054 
   15184    15620    16157    16581    16697    16278    15440    14995 
   15748    17472    19113    19789    19218    17656    15795    14481 
   14208    14786    15545    15846    15443    14666    14286    14746 
   15634    16222    16076    15117    13758    12889    13226    14680 
   16510    17924    18446    18136    17584    17338    17407    17479 
   17351    17028    16636    16448    16702    17186    17413    17155 
   16513    15641    14623    13699    13330    13601    14128    14700 
   15361    16111    16890    17643    18436    19340    20127    20486 
   20364    19823    18948    17943    17102    16734    16970    17600 
   18215    18310    17435    15708    13924    12867    12807    13583 
   14707    15550    15777    15594    15512    15812    16272    16467 
   16193    15596    15061    15017    15579    16295    16629    16635 
   16633    16548    16210    15859    15847    16223    16826    17484 
   18031    18319    18327    18281    18368    18351    17827    16629 
   14936    13336    12504    12643    13469    14477    15200    15593 
   15942    16352    16760    17219    17804    18497    19103    19269 
   18967    18644    18481    18186    17583    16671    15481    14207 
   13143    12646    13088    14362    15705    16284    15894    14958 
   14083    13817    14411    15542    16626    17331    17622    17604 
   17478    17517    17799    18130    18393    18579    18576    18319 
   17988    17925    18269    18767    19098    19199    19145    18917 
   18286    17080    15651    14623    14203    14154    14180    14127 
   14163    14583    15148    15269    14803    14071    13512    13561 
   14393    15811    17418    18695    19166    18855    18387    18298 
   18460    18399    17852    16865    15717    14809    14436    14625 
   15136    15543    15603    15502    15601    15986    16359    16447 
   16377    16483    16830    17113    17097    16853    16431    15771 
   14992    14433    14341    14561    14726    14681    14452    14151 
   14090    14545    15431    16511    17632    18660    19429    19808 
   19913    20127    20482    20489    19926    19053    18083    17032 
   15923    14948    14348    14047    13875    13981    14549    15468 
   16366    16765    16543    15976    15379    15185    15729    16668 
   17327    17277    16377    15041    14062    13737    13842    14261 
