Origin Time       2019/01/14 13:23:00
Lat.              36.162
Long.             139.810
Depth. (km)       53
Mag.              4.9
Station Code      YMNH11
Station Lat.      35.6247
Station Long.     138.9777
Station Height(m) 265
Record Time       2019/01/14 13:24:00
Sampling Freq(Hz) 100Hz
Duration Time(s)  120
Dir.              3
Scale Factor      2940(gal)/6170270
Max. Acc. (gal)   0.457
Last Correction   2019/01/14 13:23:45
Memo.             
[...]
  -51628   -51613   -51640   -51721   -51829   -51925   -51989   -52031 
  -52035   -51958   -51823   -51728   -51697   -51672   -51657   -51676 
  -51679   -51618   -51545   -51520   -51548   -51650   -51798   -51896 
  -51988   -52132   -52212   -52149   -52007   -51852   -51731   -51665 
  -51633   -51668   -51787   -51897   -51915   -51857   -51790   -51751 
  -51749   -51813   -51926   -52042   -52131   -52167   -52139   -52011 
  -51832   -51771   -51801   -51782   -51778   -51832   -51840   -51833 
  -51894   -51933   -51902   -51904   -51958   -51996   -51973   -51871 
  -51753   -51685   -51666   -51693   -51709   -51687   -51695   -51721 
  -51714   -51690   -51656   -51635   -51690   -51810   -51887   -51881 
  -51876   -51903   -51924   -51903   -51797   -51661   -51646   -51767 
  -51896   -51934   -51878   -51806   -51749   -51705   -51750   -51929 
  -52146   -52240   -52128   -51913   -51751   -51661   -51642   -51731 
  -51873   -52003   -52074   -51985   -51782   -51659   -51655   -51694 
  -51757   -51825   -51869   -51895   -51890   -51828   -51734   -51663 
  -51663   -51750   -51859   -51889   -51875   -51914   -51928   -51849 
  -51781   -51737   -51666   -51630   -51659   -51723   -51811   -51868 
  -51881   -51910   -51954   -51975   -51937   -51839   -51730   -51628 
  -51552   -51566   -51731   -51962   -52059   -52014   -51972   -51957 
  -51964   -52015   -52048   -52010   -51969   -51976   -51949   -51834 
  -51697   -51615   -51628   -51709   -51798   -51911   -52045   -52077 
  -51957   -51799   -51672   -51616   -51713   -51855   -51854   -51817 
  -51889   -51951   -51890   -51807   -51807   -51855   -51903   -51907 
  -51837   -51762   -51748   -51785   -51848   -51888   -51878   -51877 
  -51891   -51831   -51689   -51552   -51496   -51561   -51691   -51752 
  -51704   -51666   -51734   -51828   -51876   -51911   -51921   -51922 
  -51922   -51826   -51719   -51784   -51911   -51984   -52094   -52150 
  -51991   -51787   -51706   -51679   -51694   -51754   -51821   -51968 
  -52170   -52216   -52059   -51854   -51725   -51684   -51683   -51719 
  -51844   -52003   -52014   -51874   -51780   -51755   -51693   -51680 
  -51805   -51962   -52037   -51988   -51866   -51784   -51742   -51716 
  -51746   -51806   -51789   -51666   -51580   -51604   -51631   -51680 
  -51798   -51840   -51795   -51819   -51887   -51891   -51842   -51802 
  -51850   -51940   -51934   -51899   -51949   -51986   -51907   -51740 
  -51596   -51576   -51618   -51695   -51923   -52165   -52204   -52126 
  -52036   -51947   -51891   -51855   -51866   -51921   -51890   -51824 
  -51860   -51870   -51785   -51759   -51775   -51752   -51774   -51882 
  -52015   -52085   -52056   -51955   -51798   -51614   -51483   -51469 
  -51570   -51749   -51926   -51943   -51782   -51609   -51545   -51617 
  -51761   -51867   -51958   -52101   -52209   -52143   -51892   -51586 
  -51408   -51451   -51629   -51759   -51795   -51878   -52018   -52025 
  -51867   -51729   -51715   -51710   -51649   -51708   -51942   -52113 
  -52055   -51890   -51839   -51928   -51998   -51941   -51829   -51885 
  -52095   -52146   -51998   -51827   -51699   -51675   -51731   -51745 
  -51707   -51706   -51850   -52032   -52025   -51928   -51879   -51746 
  -51556   -51529   -51666   -51779   -51776   -51731   -51740   -51840 
  -51946   -51918   -51837   -51846   -51909   -51985   -52003   -51869 
  -51668   -51545   -51562   -51652   -51732   -51843   -51930   -51889 
  -51821   -51844   -51964   -52126   -52201   -52174   -52101   -51935 
  -51722   -51586   -51486   -51378   -51394   -51575   -51792   -51972 
  -52085   -52133   -52180   -52213   -52109   -51873   -51674   -51629 
  -51735   -51899   -51919   -51756   -51656   -51735   -51809   -51765 
  -51692   -51713   -51865   -52012   -52009   -51920   -51822   -51728 
  -51690   -51633   -51473   -51446   -51699   -51948   -51993   -51881 
  -51670   -51528   -51595   -51780   -51949   -52048   -52102   -52144 
  -52075   -51906   -51833   -51854   -51851   -51887   -51966   -51967 
  -51932   -51930   -51860   -51697   -51603   -51656   -51808   -51976 
  -52045   -51992   -51914   -51871   -51837   -51743   -51607   -51589 
  -51702   -51757   -51716   -51704   -51781   -51921   -52008   -51993 
  -51996   -52050   -52066   -52007   -51900   -51814   -51745   -51683 
  -51728   -51878   -51965   -51892   -51712   -51591   -51634   -51671 
  -51535   -51411   -51542   -51844   -52063   -52076   -51984   -51954 
  -51960   -51827   -51656   -51727   -52001   -52232   -52266   -52064 
  -51815   -51728   -51701   -51624   -51608   -51727   -51910   -52019 
  -52032   -52008   -51914   -51798   -51748   -51768   -51835   -51849 
  -51755   -51646   -51620   -51705   -51844   -51960   -51995   -51952 
  -51896   -51818   -51768   -51841   -51893   -51811   -51749   -51762 
  -51761   -51759   -51799   -51858   -51902   -51869   -51731   -51618 
  -51727   -51978   -52019   -51826   -51750   -51843   -51920   -51947 
  -51934   -51881   -51876   -51887   -51778   -51645   -51638   -51667 
  -51720   -51897   -52055   -51987   -51779   -51674   -51708   -51733 
  -51743   -51796   -51823   -51788   -51740   -51710   -51688   -51692 
  -51759   -51827   -51860   -51920   -51928   -51785   -51683   -51770 
  -51874   -51922   -51970   -51978   -51994   -52037   -51955   -51796 
  -51734   -51694   -51580   -51521   -51544   -51544   -51616   -51877 
  -52132   -52196   -52151   -52010   -51753   -51575   -51579   -51636 
  -51716   -51900   -52112   -52151   -52011   -51864   -51807   -51796 
  -51730   -51648   -51761   -52056   -52191   -52015   -51851   -51978 
  -52189   -52173   -51993   -51897   -51895   -51823   -51748   -51847 
  -52018   -52101   -52065   -51891   -51681   -51576   -51529   -51465 
  -51495   -51717   -51938   -51914   -51755   -51738   -51829   -51773 
  -51615   -51598   -51703   -51790   -51807   -51796   -51850   -51939 
  -51945   -51872   -51776   -51716   -51829   -52094   -52218   -52073 
  -51844   -51715   -51734   -51836   -51873   -51823   -51781   -51754 
  -51773   -51837   -51764   -51554   -51503   -51679   -51778   -51741 
  -51847   -52040   -52031   -51861   -51747   -51707   -51689   -51713 
  -51730   -51796   -52075   -52341   -52247   -51931   -51770   -51852 
  -51946   -51893   -51754   -51595   -51491   -51502   -51527   -51570 
  -51765   -52017   -52187   -52279   -52170   -51843   -51609   -51605 
  -51728   -51929   -52039   -51991   -52011   -52090   -52020   -51865 
  -51791   -51789   -51795   -51822   -51866   -51860   -51830   -51767 
  -51585   -51502   -51728   -51948   -51864   -51669   -51646   -51765 
  -51803   -51744   -51750   -51842   -51988   -52088   -52001   -51891 
  -51914   -51934   -51904   -51860   -51788   -51720   -51665   -51655 
  -51722   -51818   -51939   -52083   -52146   -52065   -51943   -51880 
  -51796   -51593   -51361   -51295   -51483   -51753   -51870   -51791 
  -51662   -51670   -51787   -51835   -51831   -51841   -51847   -51945 
  -52078   -51963   -51639   -51445   -51552   -51871   -52125   -52113 
  -51964   -51876   -51873   -51913   -51962   -52023   -52073   -52002 
  -51795   -51662   -51718   -51799   -51788   -51792   -51829   -51804 
  -51769   -51751   -51755   -51878   -52037   -52113   -52138   -52051 
  -51847   -51723   -51761   -51810   -51746   -51709   -51816   -51948 
  -51996   -51900   -51725   -51713   -51780   -51663   -51530   -51568 
  -51583   -51538   -51654   -51865   -51918   -51866   -51869   -51864 
  -51833   -51844   -51888   -51980   -52091   -52105   -52046   -51947 
  -51755   -51629   -51711   -51814   -51843   -51888   -51954   -52039 
  -52113   -52051   -51828   -51626   -51565   -51529   -51535   -51692 
  -51849   -51908   -51976   -52058   -52044   -51922   -51859   -51961 
  -52021   -51901   -51785   -51790   -51860   -51897   -51797   -51652 
  -51656   -51810   -51954   -51898   -51712   -51659   -51733   -51803 
  -51869   -51856   -51728   -51678   -51770   -51799   -51725   -51711 
  -51767   -51839   -51971   -52117   -52110   -51938   -51836   -51920 
  -51972   -51906   -51822   -51713   -51706   -51823   -51772   -51630 
  -51726   -51914   -51939   -51892   -51838   -51730   -51617   -51542 
  -51554   -51673   -51784   -51816   -51854   -51965   -52009   -51866 
  -51736   -51779   -51816   -51780   -51799   -51853   -51861   -51873 
  -51903   -51889   -51849   -51774   -51644   -51603   -51723   -51894 
  -52013   -51981   -51860   -51857   -51948   -51964   -51867   -51731 
  -51696   -51847   -52093   -52199   -52051   -51812   -51644   -51612 
  -51770   -51972   -52053   -52065   -52056   -52044   -51991   -51862 
  -51816   -51913   -52018   -52080   -52047   -51826   -51543   -51512 
  -51749   -51918   -51862   -51729   -51718   -51821   -51808   -51672 
  -51600   -51565   -51505   -51450   -51429   -51584   -51903   -52067 
  -52072   -52164   -52187   -51949   -51729   -51781   -51838   -51686 
  -51626   -51810   -51939   -51807   -51541   -51446   -51563   -51622 
  -51610   -51647   -51713   -51852   -51972   -51863   -51630   -51560 
  -51682   -51759   -51676   -51608   -51715   -51884   -51951   -51942 
  -51973   -52086   -52186   -52138   -51958   -51813   -51795   -51788 
  -51726   -51697   -51724   -51814   -51939   -52017   -52085   -52164 
  -52193   -52154   -52041   -51868   -51719   -51679   -51792   -51918 
  -51856   -51687   -51596   -51577   -51618   -51764   -51898   -51828 
  -51678   -51693   -51778   -51778   -51744   -51740   -51807   -51920 
  -51982   -51963   -51840   -51689   -51719   -51933   -52103   -52106 
  -52090   -52141   -52093   -51950   -51853   -51773   -51709   -51721 
  -51829   -51987   -52069   -52000   -51866   -51843   -51888   -51854 
  -51856   -51972   -52028   -51934   -51810   -51728   -51625   -51573 
  -51652   -51632   -51513   -51631   -51914   -52094   -52165   -52137 
  -52044   -51985   -51937   -51840   -51729   -51696   -51753   -51825 
  -51845   -51788   -51700   -51639   -51611   -51617   -51637   -51672 
  -51762   -51885   -52041   -52236   -52319   -52200   -52012   -51881 
  -51805   -51737   -51666   -51648   -51751   -51922   -52014   -51941 
  -51777   -51664   -51622   -51600   -51609   -51641   -51660   -51719 
  -51822   -51856   -51757   -51632   -51660   -51810   -51946   -52020 
  -51985   -51922   -51986   -52085   -52054   -51952   -51862   -51720 
  -51581   -51588   -51676   -51728   -51755   -51827   -51963   -52028 
  -51958   -51910   -51903   -51811   -51687   -51651   -51701   -51763 
  -51875   -52153   -52404   -52346   -52100   -51917   -51838   -51683 
  -51369   -51254   -51500   -51727   -51772   -51785   -51741   -51607 
  -51602   -51851   -52048   -51927   -51704   -51675   -51785   -51809 
  -51730   -51718   -51742   -51695   -51771   -51988   -52001   -51845 
  -51810   -51848   -51881   -51908   -51874   -51874   -51959   -52003 
  -51974   -51854   -51696   -51720   -51839   -51745   -51552   -51543 
  -51647   -51759   -51943   -52139   -52187   -52116   -52084   -52091 
  -52040   -51969   -51887   -51704   -51529   -51551   -51725   -51982 
  -52205   -52141   -51884   -51767   -51749   -51633   -51492   -51510 
  -51674   -51810   -51845   -51879   -51951   -51936   -51821   -51791 
  -51865   -51920   -51946   -51927   -51861   -51838   -51843   -51826 
  -51841   -51832   -51693   -51514   -51497   -51657   -51760   -51674 
  -51579   -51688   -51910   -51967   -51871   -51838   -51874   -51927 
  -51962   -51888   -51799   -51829   -51884   -51859   -51798   -51786 
  -51798   -51758   -51695   -51602   -51476   -51495   -51702   -51868 
  -51929   -52011   -52035   -51856   -51652   -51672   -51848   -51954 
  -51964   -52005   -52071   -52107   -52120   -52053   -51905   -51810 
  -51866   -51997   -52046   -52008   -51932   -51793   -51684   -51717 
  -51816   -51905   -51929   -51853   -51801   -51838   -51940   -52095 
  -52175   -52120   -52056   -51991   -51849   -51694   -51642   -51678 
  -51791   -51954   -51985   -51887   -51815   -51757   -51735   -51794 
  -51806   -51658   -51533   -51593   -51640   -51548   -51462   -51494 
  -51666   -51853   -51873   -51765   -51707   -51734   -51779   -51849 
  -51895   -51820   -51709   -51667   -51615   -51494   -51422   -51504 
  -51696   -51921   -52052   -51993   -51828   -51691   -51621   -51615 
  -51686   -51764   -51698   -51609   -51724   -51912   -52013   -52059 
  -52022   -51953   -51967   -51973   -51880   -51774   -51740   -51835 
  -51987   -52067   -52120   -52103   -51946   -51837   -51809   -51727 
  -51718   -51882   -52118   -52262   -52199   -52108   -52175   -52244 
  -52175   -52033   -51990   -52163   -52376   -52351   -52089   -51834 
  -51675   -51513   -51422   -51490   -51669   -51926   -52052   -51887 
  -51695   -51735   -51840   -51809   -51763   -51812   -51889   -51957 
  -51974   -51964   -52022   -52046   -51979   -51945   -51863   -51670 
  -51542   -51518   -51531   -51605   -51691   -51685   -51622   -51591 
  -51575   -51548   -51515   -51454   -51388   -51384   -51500   -51720 
  -51913   -51966   -51959   -52031   -52088   -51936   -51697   -51612 
  -51619   -51570   -51514   -51470   -51432   -51531   -51767   -51931 
  -51966   -51998   -51988   -51846   -51657   -51509   -51485   -51663 
  -51883   -51974   -52008   -52021   -52000   -51970   -51860   -51738 
  -51743   -51811   -51910   -51960   -51846   -51802   -51973   -52145 
  -52264   -52443   -52664   -52789   -52720   -52541   -52384   -52297 
  -52196   -51968   -51815   -51917   -52011   -51933   -51826   -51801 
  -51848   -51862   -51775   -51671   -51635   -51637   -51591   -51547 
  -51654   -51726   -51521   -51312   -51352   -51454   -51450   -51411 
  -51485   -51656   -51743   -51693   -51592   -51595   -51804   -52013 
  -51960   -51737   -51632   -51743   -51815   -51685   -51565   -51556 
  -51537   -51513   -51551   -51626   -51712   -51811   -51892   -51881 
  -51721   -51569   -51641   -51755   -51746   -51833   -52000   -52074 
  -52128   -52132   -52099   -52158   -52194   -52150   -52167   -52238 
  -52216   -52003   -51740   -51666   -51685   -51566   -51379   -51326 
  -51408   -51459   -51423   -51426   -51519   -51600   -51635   -51716 
  -51891   -52107   -52261   -52288   -52229   -52184   -52142   -52044 
  -51998   -52078   -52147   -52144   -52139   -52148   -52178   -52177 
  -52018   -51789   -51706   -51773   -51872   -51982   -52116   -52207 
  -52176   -52054   -51921   -51714   -51434   -51352   -51577   -51865 
  -52024   -52056   -52043   -52019   -51920   -51708   -51551   -51634 
  -51853   -51967   -51950   -51948   -51976   -51917   -51800   -51789 
  -51867   -51860   -51788   -51749   -51674   -51560   -51512   -51508 
  -51455   -51421   -51567   -51780   -51836   -51822   -51864   -51905 
  -51890   -51819   -51811   -51941   -52045   -51997   -51917   -51884 
  -51773   -51611   -51603   -51715   -51815   -51921   -51994   -51946 
  -51791   -51632   -51612   -51701   -51706   -51648   -51694   -51805 
  -51826   -51725   -51608   -51612   -51697   -51716   -51716   -51745 
  -51723   -51685   -51637   -51533   -51501   -51588   -51672   -51709 
  -51710   -51660   -51586   -51550   -51561   -51622   -51718   -51766 
  -51827   -52024   -52155   -52106   -52128   -52232   -52242   -52152 
  -51982   -51838   -51870   -51978   -52039   -52130   -52260   -52280 
  -52154   -52023   -52000   -52047   -52079   -52113   -52215   -52311 
  -52313   -52282   -52245   -52145   -52001   -51886   -51815   -51755 
  -51688   -51663   -51681   -51675   -51673   -51705   -51708   -51703 
  -51773   -51870   -51827   -51610   -51414   -51372   -51427   -51462 
  -51415   -51387   -51465   -51553   -51608   -51647   -51678   -51779 
  -51848   -51715   -51583   -51607   -51592   -51549   -51646   -51785 
  -51925   -52096   -52174   -52194   -52259   -52272   -52234   -52242 
  -52227   -52144   -52073   -52004   -51876   -51783   -51857   -52002 
  -52013   -51954   -51983   -51948   -51760   -51643   -51623   -51554 
  -51508   -51564   -51642   -51649   -51616   -51681   -51796   -51760 
  -51628   -51597   -51697   -51872   -52006   -52025   -52017   -51986 
  -51924   -51946   -51973   -51899   -51831   -51783   -51726   -51739 
  -51733   -51659   -51716   -51906   -52030   -52080   -52105   -52024 
  -51877   -51805   -51735   -51621   -51609   -51622   -51532   -51470 
  -51492   -51561   -51695   -51828   -51920   -52025   -52070   -51952 
  -51751   -51661   -51737   -51834   -51886   -52005   -52147   -52142 
  -52053   -52032   -52083   -52147   -52154   -52087   -52062   -52110 
  -52104   -51981   -51855   -51855   -51911   -51829   -51577   -51365 
  -51376   -51565   -51765   -51789   -51648   -51579   -51583   -51567 
  -51657   -51803   -51857   -51908   -51966   -51949   -51876   -51734 
  -51601   -51630   -51754   -51857   -51934   -51967   -51974   -52021 
  -52087   -52061   -51905   -51789   -51761   -51636   -51491   -51501 
  -51538   -51572   -51691   -51731   -51658   -51683   -51811   -51940 
  -52062   -52151   -52188   -52192   -52154   -52027   -51834   -51723 
  -51754   -51801   -51866   -52047   -52240   -52301   -52225   -52086 
  -51962   -51900   -51902   -51850   -51708   -51652   -51714   -51796 
  -51879   -51878   -51771   -51707   -51693   -51671   -51714   -51790 
  -51822   -51814   -51720   -51591   -51587   -51638   -51594   -51515 
  -51493   -51541   -51682   -51863   -51985   -52061   -52092   -52038 
  -51988   -52025   -52063   -52018   -51957   -51908   -51810   -51693 
  -51590   -51509   -51489   -51502   -51574   -51731   -51808   -51777 
  -51765   -51682   -51517   -51446   -51476   -51532   -51576   -51534 
  -51437   -51382   -51425   -51587   -51763   -51817   -51811   -51879 
  -51969   -51970   -51893   -51792   -51711   -51722   -51803   -51831 
  -51810   -51798   -51791   -51859   -52023   -52194   -52301   -52304 
  -52324   -52451   -52483   -52397   -52400   -52438   -52419   -52397 
  -52315   -52153   -52074   -52143   -52192   -52112   -52014   -51951 
  -51880   -51844   -51830   -51785   -51759   -51769   -51776   -51753 
  -51725   -51746   -51788   -51808   -51804   -51770   -51741   -51765 
  -51783   -51687   -51530   -51515   -51656   -51739   -51679   -51594 
  -51585   -51656   -51770   -51867   -51892   -51855   -51824   -51842 
  -51862   -51840   -51821   -51821   -51743   -51591   -51530   -51598 
  -51669   -51677   -51630   -51661   -51830   -51894   -51730   -51571 
  -51547   -51554   -51516   -51474   -51515   -51618   -51626   -51522 
  -51481   -51551   -51605   -51571   -51514   -51563   -51723   -51849 
  -51869   -51864   -51897   -51966   -52099   -52246   -52295   -52270 
  -52262   -52268   -52251   -52224   -52252   -52345   -52379   -52297 
  -52226   -52219   -52174   -52048   -51895   -51751   -51634   -51598 
  -51662   -51731   -51711   -51638   -51584   -51576   -51594   -51572 
  -51523   -51566   -51712   -51812   -51803   -51766   -51740   -51726 
  -51754   -51852   -52018   -52146   -52140   -52049   -51926   -51816 
  -51825   -51933   -51972   -51877   -51744   -51692   -51748   -51815 
  -51831   -51895   -52047   -52153   -52142   -52062   -51987   -52002 
  -52091   -52143   -52092   -51957   -51848   -51856   -51899   -51866 
