Origin Time       2019/01/14 13:23:00
Lat.              36.162
Long.             139.810
Depth. (km)       53
Mag.              4.9
Station Code      YMNH11
Station Lat.      35.6247
Station Long.     138.9777
Station Height(m) 465
Record Time       2019/01/14 13:24:00
Sampling Freq(Hz) 100Hz
Duration Time(s)  120
Dir.              6
Scale Factor      3920(gal)/6170801
Max. Acc. (gal)   2.012
Last Correction   2019/01/14 13:23:45
Memo.             
[...]
  -36111   -36302   -36660   -36939   -37124   -37465   -38047   -38610 
  -38767   -38386   -37773   -37283   -36900   -36459   -36005   -35644 
  -35348   -35132   -35112   -35312   -35681   -36238   -36941   -37565 
  -37962   -38236   -38539   -38868   -39010   -38656   -37700   -36441 
  -35364   -34613   -34018   -33654   -33796   -34499   -35572   -36695 
  -37656   -38415   -38804   -38699   -38432   -38332   -38261   -37971 
  -37445   -36832   -36274   -35763   -35127   -34302   -33711   -33985 
  -35082   -36382   -37563   -38613   -39404   -39734   -39509   -38814 
  -37892   -37010   -36363   -36050   -36008   -35989   -35711   -35156 
  -34610   -34425   -34849   -35752   -36716   -37579   -38398   -39064 
  -39340   -39149   -38680   -38094   -37308   -36340   -35462   -34920 
  -34780   -34901   -35041   -35248   -35791   -36559   -37127   -37315 
  -37310   -37474   -38016   -38749   -39244   -38962   -37696   -36134 
  -35214   -35040   -35089   -34992   -34809   -34973   -35895   -37236 
  -38079   -38095   -37826   -37834   -38097   -38116   -37559   -36800 
  -36497   -36681   -36717   -36169   -35245   -34479   -34357   -35100 
  -36478   -37918   -38898   -39113   -38554   -37643   -36999   -36842 
  -36890   -36799   -36498   -36154   -35912   -35724   -35528   -35407 
  -35526   -36033   -36836   -37528   -37867   -38030   -38097   -37886 
  -37480   -37165   -36937   -36672   -36384   -36023   -35629   -35463 
  -35684   -36240   -36865   -37107   -36890   -36661   -36678   -36880 
  -37233   -37626   -37882   -37927   -37743   -37252   -36382   -35377 
  -34769   -34941   -35768   -36619   -37020   -37118   -37209   -37464 
  -37896   -38150   -37890   -37339   -36922   -36781   -36857   -36937 
  -36681   -36023   -35410   -35410   -36018   -36598   -36714   -36600 
  -36712   -37086   -37253   -36980   -36659   -36632   -36780   -36876 
  -36886   -36983   -37301   -37631   -37642   -37371   -37038   -36701 
  -36436   -36283   -36095   -35802   -35543   -35527   -35896   -36564 
  -37182   -37471   -37491   -37363   -37035   -36676   -36629   -36784 
  -36823   -36744   -36579   -36409   -36502   -36727   -36682   -36474 
  -36547   -37007   -37485   -37604   -37498   -37509   -37663   -37764 
  -37523   -36768   -35841   -35220   -34989   -35133   -35625   -36181 
  -36636   -37179   -37857   -38268   -37992   -37181   -36474   -36371 
  -36863   -37414   -37396   -36804   -36237   -36120   -36266   -36309 
  -36206   -36161   -36357   -36840   -37445   -37895   -38001   -37690 
  -37022   -36317   -35936   -35835   -35750   -35664   -35708   -35924 
  -36414   -37156   -37654   -37531   -37114   -36874   -36981   -37348 
  -37585   -37514   -37452   -37470   -37249   -36777   -36366   -36084 
  -35739   -35360   -35308   -35743   -36444   -37170   -37734   -37972 
  -37912   -37665   -37349   -36988   -36441   -35892   -35863   -36378 
  -36948   -37248   -37195   -36793   -36307   -36165   -36407   -36668 
  -36734   -36729   -36869   -37269   -37783   -37997   -37616   -36788 
  -35948   -35482   -35485   -35775   -36097   -36255   -36202   -36184 
  -36596   -37388   -37927   -37865   -37574   -37483   -37565   -37488 
  -36979   -36220   -35791   -35915   -36093   -35927   -35841   -36301 
  -36951   -37215   -37096   -36990   -37130   -37285   -37102   -36801 
  -36856   -37187   -37454   -37609   -37634   -37344   -36652   -35828 
  -35395   -35574   -35963   -36171   -36341   -36678   -37026   -37179 
  -37186   -37114   -36889   -36761   -37140   -37706   -37873   -37651 
  -37095   -36075   -35055   -34780   -35186   -35720   -36295   -37001 
  -37650   -38102   -38263   -37942   -37251   -36614   -36316   -36336 
  -36502   -36669   -36808   -36922   -36930   -36863   -36881   -36777 
  -36214   -35581   -35651   -36633   -38050   -38998   -38725   -37468 
  -36176   -35392   -35133   -35298   -35613   -35867   -36141   -36497 
  -37002   -37687   -38135   -38031   -37747   -37527   -37043   -36317 
  -36042   -36602   -37504   -37924   -37424   -36320   -35467   -35300 
  -35426   -35451   -35585   -36184   -36993   -37370   -37318   -37349 
  -37585   -37889   -38045   -37679   -36890   -36398   -36656   -37370 
  -37642   -36677   -34953   -33976   -34481   -35769   -36792   -37211 
  -37368   -37630   -38091   -38621   -38847   -38572   -38093   -37547 
  -36711   -35787   -35172   -34731   -34367   -34348   -34751   -35609 
  -36882   -37909   -38139   -37986   -38037   -38241   -38187   -37662 
  -36894   -36342   -36285   -36482   -36286   -35622   -35320   -35863 
  -36824   -37583   -37771   -37622   -37779   -38116   -37874   -36990 
  -35991   -35289   -35171   -35611   -36165   -36442   -36408   -36263 
  -36175   -36125   -36020   -36001   -36541   -37798   -38942   -39041 
  -38344   -37827   -37781   -37628   -36998   -36254   -35892   -35900 
  -35767   -35273   -35044   -35629   -36556   -37035   -36971   -36846 
  -37047   -37604   -38312   -38768   -38565   -37746   -36783   -36037 
  -35459   -34828   -34245   -34282   -35385   -37024   -38023   -37975 
  -37570   -37469   -37568   -37462   -37222   -37204   -37362   -37391 
  -37111   -36487   -35730   -35173   -34939   -35037   -35493   -36122 
  -36598   -36987   -37702   -38652   -39072   -38482   -37336   -36659 
  -36982   -37672   -37807   -37270   -36443   -35616   -35007   -34787 
  -34997   -35575   -36283   -36813   -37132   -37359   -37489   -37509 
  -37482   -37463   -37328   -36844   -36166   -35822   -36084   -36734 
  -37185   -36948   -36267   -35933   -36394   -37239   -37576   -37085 
  -36446   -36457   -37117   -37678   -37449   -36693   -36423   -37056 
  -37807   -37619   -36384   -35002   -34359   -34594   -35322   -36229 
  -37196   -38010   -38432   -38442   -38041   -37247   -36436   -36194 
  -36799   -37793   -38203   -37573   -36337   -35297   -35098   -35689 
  -36423   -36799   -36709   -36504   -36917   -38121   -39110   -38817 
  -37552   -36522   -36266   -36192   -35535   -34519   -34230   -35324 
  -37276   -38769   -38908   -38008   -36863   -35873   -35331   -35587 
  -36417   -36995   -36986   -36918   -37228   -37672   -37849   -37694 
  -37160   -36219   -35400   -35243   -35579   -36080   -36595   -36992 
  -37329   -37602   -37531   -37055   -36518   -36425   -37073   -37948 
  -38085   -37387   -36676   -36380   -36132   -35672   -35166   -34917 
  -35320   -36429   -37633   -38214   -37974   -37407   -37144   -37164 
  -37107   -36965   -36874   -36746   -36438   -36081   -36107   -36665 
  -37098   -36762   -36108   -36050   -36612   -37067   -37029   -36668 
  -36454   -36933   -37818   -37940   -36941   -35771   -35465   -36316 
  -37588   -38033   -37379   -36621   -36657   -37249   -37441   -36838 
  -36021   -35794   -36436   -37326   -37450   -36709   -35956   -35801 
  -36159   -36592   -36738   -36773   -37167   -37712   -37668   -37081 
  -36583   -36236   -36010   -36245   -36690   -36618   -36080   -35781 
  -36013   -36590   -37276   -37736   -37711   -37458   -37342   -37230 
  -37075   -37306   -37854   -37975   -37408   -36498   -35570   -34937 
  -34805   -34997   -35358   -36049   -36916   -37400   -37495   -37758 
  -38218   -38252   -37462   -36109   -35082   -35245   -36365   -37511 
  -38178   -38029   -36923   -35662   -35279   -35812   -36469   -36678 
  -36789   -37410   -38265   -38501   -37716   -36341   -35485   -35985 
  -37248   -37901   -37389   -36226   -35438   -35833   -36982   -37591 
  -37089   -36028   -35390   -35715   -36536   -37105   -37244   -37074 
  -36833   -37004   -37631   -37959   -37613   -37194   -37214   -37377 
  -37050   -36110   -35171   -34904   -35357   -35969   -36323   -36618 
  -36997   -37242   -37345   -37451   -37523   -37440   -37039   -36358 
  -35929   -36204   -36970   -37731   -38151   -38010   -37326   -36536 
  -36053   -35785   -35495   -35386   -35904   -36931   -37686   -37689 
  -37177   -36530   -36142   -36366   -36925   -37203   -37177   -37117 
  -36943   -36727   -36832   -37096   -36952   -36378   -35758   -35389 
  -35585   -36314   -37093   -37782   -38424   -38518   -37739   -36798 
  -36457   -36481   -36353   -36190   -36371   -36787   -36983   -36813 
  -36435   -36030   -35932   -36309   -36630   -36432   -36205   -36606 
  -37577   -38567   -38951   -38384   -37150   -36024   -35551   -35626 
  -35859   -35999   -36018   -36160   -36640   -37183   -37319   -37017 
  -36690   -36674   -36834   -36940   -37049   -37216   -37372   -37285 
  -36744   -36195   -36204   -36440   -36425   -36278   -36178   -36187 
  -36307   -36374   -36438   -36845   -37647   -38316   -38355   -37911 
  -37331   -36664   -36070   -35874   -36013   -36156   -36195   -36195 
  -36342   -36750   -36997   -36783   -36647   -36974   -37338   -37396 
  -37328   -37334   -37356   -37175   -36672   -36065   -35739   -35856 
  -36178   -36342   -36429   -36996   -38069   -38666   -38055   -36715 
  -35717   -35777   -36614   -37160   -36852   -36207   -36029   -36576 
  -37423   -37912   -37746   -37136   -36564   -36401   -36516   -36433 
  -36070   -35941   -36320   -36712   -36620   -36263   -36135   -36452 
  -37086   -37633   -37702   -37241   -36642   -36459   -36867   -37578 
  -38026   -37701   -36819   -36066   -35668   -35599   -35879   -36094 
  -35843   -35583   -35962   -36756   -37235   -37073   -36548   -36230 
  -36470   -37094   -37563   -37438   -37018   -37027   -37404   -37451 
  -37103   -36887   -36938   -36932   -36681   -36299   -36073   -36365 
  -37035   -37231   -36665   -36216   -36424   -36719   -36696   -36701 
  -36846   -36956   -37200   -37391   -37159   -37051   -37443   -37690 
  -37283   -36385   -35570   -35381   -35697   -35991   -36110   -36351 
  -36830   -37171   -37118   -36805   -36429   -36432   -37203   -38099 
  -38034   -37077   -36323   -36461   -37096   -37220   -36472   -35721 
  -35941   -37023   -37982   -37920   -36937   -36159   -36513   -37577 
  -38132   -37692   -36785   -36091   -35966   -36205   -36228   -35965 
  -35918   -36339   -37041   -37650   -37728   -37109   -36217   -35669 
  -35669   -36075   -36749   -37508   -37962   -37826   -37313   -36842 
  -36597   -36516   -36257   -35746   -35711   -36517   -37385   -37600 
  -37232   -36795   -36865   -37367   -37452   -36710   -35861   -35693 
  -36156   -36832   -37361   -37443   -37178   -36958   -36862   -36633 
  -36100   -35507   -35384   -36053   -37321   -38485   -38786   -38114 
  -37060   -36373   -36331   -36499   -36454   -36409   -36725   -37311 
  -37630   -37126   -35876   -34744   -34497   -35044   -35843   -36526 
  -37012   -37504   -38172   -38731   -38760   -38146   -37030   -35891 
  -35470   -35964   -36713   -37018   -36934   -37031   -37395   -37433 
  -36740   -35636   -35012   -35542   -36800   -37694   -37672   -37091 
  -36626   -36563   -36680   -36583   -36046   -35324   -35101   -35846 
  -37283   -38589   -39111   -38897   -38280   -37399   -36539   -36095 
  -36001   -35935   -35839   -35808   -35898   -36213   -36701   -36883 
  -36461   -35913   -36015   -37031   -38318   -38826   -38195   -37064 
  -36301   -36197   -36388   -36408   -36162   -36106   -36716   -37459 
  -37372   -36692   -36432   -36861   -37302   -36992   -36170   -35776 
  -36051   -36574   -36998   -37115   -37047   -37113   -37274   -37292 
  -37049   -36458   -35715   -35468   -35939   -36559   -37043   -37708 
  -38500   -38616   -37507   -35907   -35088   -35371   -36152   -36777 
  -37034   -37204   -37472   -37535   -37171   -36639   -36317   -36277 
  -36370   -36623   -37017   -37134   -36821   -36592   -36788   -37034 
  -36857   -36298   -35702   -35503   -35999   -36819   -37251   -37135 
  -36888   -36861   -36944   -36950   -37052   -37394   -37823   -37900 
  -37159   -36015   -35582   -36172   -37098   -37558   -37112   -36117 
  -35667   -36292   -37277   -37678   -37233   -36423   -35983   -36108 
  -36385   -36548   -36737   -36884   -36599   -36081   -36135   -36934 
  -37760   -37942   -37610   -37425   -37472   -37199   -36610   -36320 
  -36436   -36450   -36197   -36013   -36033   -36122   -36253   -36471 
  -36813   -37280   -37649   -37670   -37367   -36802   -36112   -35764 
  -36030   -36601   -37048   -37181   -37140   -37249   -37507   -37781 
  -38274   -38730   -38264   -36921   -35766   -35243   -35053   -35044 
  -35069   -35190   -35956   -37223   -38004   -38003   -37704   -37559 
  -37784   -38024   -37560   -36355   -35242   -34913   -35184   -35466 
  -35639   -36052   -36844   -37703   -38164   -37976   -37450   -37193 
  -37315   -37294   -36654   -35574   -34713   -34464   -34641   -34868 
  -35176   -36095   -37748   -39315   -39906   -39444   -38541   -37807 
  -37309   -36814   -36418   -36262   -36011   -35529   -35224   -35284 
  -35663   -36275   -36639   -36600   -36806   -37472   -38029   -38188 
  -38161   -38047   -37794   -37527   -37213   -36599   -35845   -35195 
  -34695   -34867   -36061   -37553   -38545   -38824   -38464   -37885 
  -37457   -37039   -36433   -35813   -35679   -36322   -37095   -37022 
  -36073   -35098   -34875   -35433   -36147   -36610   -37073   -37802 
  -38612   -39124   -39156   -38838   -38309   -37656   -37070   -36616 
  -36156   -35560   -34870   -34518   -34834   -35343   -35471   -35371 
  -35559   -36235   -37043   -37620   -38073   -38403   -38267   -37602 
  -36801   -36286   -36145   -36084   -35895   -35991   -36839   -38006 
  -38734   -38747   -37896   -36373   -35079   -34601   -34468   -34056 
  -33591   -33850   -35134   -36922   -38313   -38656   -38215   -37911 
  -38004   -38089   -38216   -38547   -38680   -38313   -37638   -36899 
  -36243   -35640   -34903   -34302   -34463   -35417   -36520   -37204 
  -37493   -37694   -37865   -38075   -38357   -38250   -37503   -36599 
  -36130   -36301   -36790   -37130   -37259   -37303   -37247   -37059 
  -36819   -36714   -36803   -36933   -37055   -37258   -37393   -37072 
  -36250   -35424   -35153   -35557   -36118   -36222   -35954   -35795 
  -35912   -36177   -36315   -36103   -35769   -35897   -36796   -38103 
  -39014   -39013   -38381   -37886   -37979   -38184   -37683   -36650 
  -35927   -35663   -35473   -35293   -35324   -35614   -35978   -36077 
  -35706   -35299   -35427   -35909   -36523   -37569   -38854   -39504 
  -39079   -37895   -36701   -36289   -36529   -36512   -36049   -35619 
  -35451   -35701   -36237   -36424   -36043   -35536   -35375   -35793 
  -36738   -37842   -38515   -38439   -38114   -38135   -38262   -37984 
  -37256   -36397   -35804   -35651   -35865   -36369   -37023   -37524 
  -37743   -37859   -37981   -37978   -37738   -37220   -36556   -36259 
  -36545   -36704   -36197   -35544   -35434   -36044   -37103   -37947 
  -38086   -37636   -36810   -35826   -35193   -35242   -35715   -36126 
  -36234   -36154   -36113   -36264   -36648   -37118   -37520   -37938 
  -38456   -38895   -38984   -38553   -37496   -36070   -34948   -34375 
  -34104   -34254   -34983   -35935   -36876   -37772   -38370   -38618 
  -38671   -38485   -38119   -37857   -37818   -37718   -37108   -36070 
  -35235   -34941   -34932   -34879   -34741   -34648   -34909   -35814 
  -36982   -37747   -38157   -38579   -38933   -38983   -38531   -37553 
  -36573   -36172   -36379   -36824   -36941   -36434   -35724   -35497 
  -35884   -36243   -35917   -35179   -35009   -35898   -37271   -38232 
  -38484   -38338   -38142   -37847   -37248   -36533   -36084   -35951 
  -35929   -35924   -35911   -35759   -35501   -35374   -35436   -35658 
  -36045   -36477   -36928   -37448   -37845   -37986   -38018   -37960 
  -37757   -37614   -37599   -37491   -37327   -37327   -37489   -37605 
  -37338   -36452   -35320   -34855   -35579   -36922   -37843   -37866 
  -37280   -36746   -36633   -36681   -36572   -36402   -36390   -36645 
  -37155   -37773   -38211   -38029   -37083   -35991   -35558   -35947 
  -36524   -36576   -36237   -36062   -36008   -35840   -35860   -36316 
  -36859   -37297   -37772   -37983   -37554   -36801   -36204   -35904 
  -35940   -36170   -36262   -36194   -36218   -36321   -36318   -36335 
  -36653   -37182   -37578   -37694   -37645   -37621   -37606   -37322 
  -36746   -36317   -36386   -36799   -37241   -37651   -37927   -37817 
  -37312   -36651   -36117   -35883   -35790   -35631   -35584   -35899 
  -36511   -37169   -37504   -37347   -36965   -36569   -36253   -36229 
  -36427   -36603   -36746   -36859   -36858   -36778   -36847   -37216 
  -37593   -37554   -37067   -36489   -36361   -36885   -37535   -37718 
  -37373   -36738   -36200   -35958   -35742   -35599   -36005   -36816 
  -37410   -37446   -36884   -36043   -35543   -35617   -35913   -36178 
  -36467   -36703   -36842   -37118   -37498   -37615   -37435   -37158 
  -36815   -36522   -36642   -37300   -37988   -38101   -37660   -37004 
  -36340   -35891   -35783   -35939   -36353   -37011   -37663   -38032 
  -38119   -38075   -37842   -37278   -36555   -36013   -35760   -35762 
  -36085   -36633   -36896   -36540   -35921   -35491   -35282   -35285 
  -35595   -36202   -37001   -37750   -38082   -37807   -37205   -36748 
  -36622   -36812   -37156   -37265   -37019   -36673   -36438   -36433 
  -36476   -36235   -35932   -36026   -36546   -37228   -37642   -37514 
  -37207   -37219   -37450   -37576   -37472   -36993   -36146   -35441 
  -35399   -35922   -36512   -36916   -37214   -37431   -37478   -37343 
  -37156   -37007   -36782   -36530   -36577   -36882   -37017   -36745 
  -36109   -35451   -35281   -35702   -36269   -36503   -36472   -36675 
  -37218   -37726   -37966   -38015   -37943   -37661   -37325   -37353 
  -37758   -37981   -37475   -36391   -35552   -35465   -35775   -35922 
  -35798   -35720   -36021   -36611   -37050   -37008   -36566   -36113 
  -36053   -36628   -37682   -38634   -39012   -38729   -37912   -36836 
  -35823   -35112   -34854   -35059   -35567   -36142   -36577   -36786 
  -36894   -37137   -37510   -37713   -37505   -36965   -36393   -35861 
  -35340   -35222   -35664   -36115   -36303   -36487   -36770   -37116 
  -37446   -37495   -37240   -37127   -37357   -37511   -37221   -36613 
  -36032   -35836   -36151   -36595   -36740   -36686   -36715   -36770 
  -36743   -36790   -36966   -37219   -37760   -38617   -39305   -39326 
  -38497   -37186   -36269   -36154   -36381   -36480   -36403   -36234 
  -36110   -36123   -36171   -36218   -36334   -36479   -36613   -36750 
  -36890   -37082   -37428   -37886   -38051   -37552   -36563   -35515 
  -34724   -34360   -34407   -34776   -35409   -36205   -36992   -37657 
  -38314   -39052   -39491   -39196   -38393   -37633   -37097   -36657 
  -36198   -35780   -35564   -35650   -36070   -36664   -37057   -37025 
  -36749   -36627   -36801   -37104   -37415   -37597   -37380   -36703 
  -35872   -35270   -35001   -34948   -35173   -35810   -36556   -36887 
  -36693   -36322   -36233   -36500   -36691   -36686   -36845   -37093 
  -37128   -37189   -37573   -38141   -38535   -38352   -37608   -36848 
  -36375   -36011   -35615   -35306   -35355   -35921   -36777   -37393 
  -37543   -37606   -37908   -38237   -38267   -37939   -37401   -36810 
  -36202   -35696   -35600   -35990   -36472   -36627   -36340   -35810 
  -35500   -35706   -36176   -36510   -36769   -37280   -38017   -38593 
  -38660   -38118   -37301   -36817   -36754   -36508   -35697   -34775 
