Origin Time       2019/01/14 13:23:00
Lat.              36.162
Long.             139.810
Depth. (km)       53
Mag.              4.9
Station Code      YMNH11
Station Lat.      35.6247
Station Long.     138.9777
Station Height(m) 265
Record Time       2019/01/14 13:24:00
Sampling Freq(Hz) 100Hz
Duration Time(s)  120
Dir.              2
Scale Factor      2940(gal)/6170270
Max. Acc. (gal)   0.409
Last Correction   2019/01/14 13:23:45
Memo.             
[...]
 -136368  -136342  -136332  -136326  -136331  -136345  -136357  -136361 
 -136350  -136337  -136346  -136362  -136378  -136407  -136418  -136388 
 -136357  -136362  -136374  -136341  -136284  -136292  -136351  -136377 
 -136376  -136384  -136413  -136464  -136474  -136406  -136334  -136304 
 -136271  -136240  -136256  -136288  -136327  -136404  -136464  -136455 
 -136431  -136434  -136430  -136391  -136340  -136306  -136288  -136294 
 -136330  -136346  -136327  -136326  -136360  -136391  -136407  -136424 
 -136434  -136427  -136434  -136459  -136450  -136410  -136397  -136393 
 -136358  -136306  -136257  -136227  -136242  -136285  -136332  -136381 
 -136421  -136444  -136456  -136443  -136423  -136413  -136413  -136444 
 -136464  -136408  -136348  -136360  -136390  -136375  -136312  -136255 
 -136236  -136216  -136203  -136211  -136221  -136289  -136407  -136481 
 -136544  -136626  -136658  -136633  -136570  -136474  -136385  -136314 
 -136252  -136216  -136185  -136153  -136146  -136151  -136164  -136211 
 -136291  -136390  -136502  -136611  -136667  -136639  -136556  -136457 
 -136349  -136251  -136178  -136123  -136116  -136180  -136260  -136327 
 -136397  -136455  -136482  -136466  -136426  -136420  -136457  -136512 
 -136525  -136434  -136305  -136230  -136186  -136142  -136122  -136169 
 -136294  -136431  -136541  -136634  -136673  -136620  -136530  -136450 
 -136375  -136314  -136281  -136262  -136254  -136259  -136258  -136250 
 -136255  -136263  -136262  -136300  -136395  -136463  -136450  -136407 
 -136384  -136393  -136432  -136468  -136466  -136430  -136385  -136355 
 -136341  -136331  -136315  -136278  -136241  -136247  -136289  -136331 
 -136345  -136331  -136344  -136406  -136457  -136459  -136436  -136429 
 -136452  -136466  -136439  -136401  -136384  -136359  -136299  -136224 
 -136180  -136174  -136192  -136271  -136409  -136526  -136574  -136571 
 -136526  -136447  -136371  -136341  -136329  -136299  -136280  -136298 
 -136347  -136398  -136427  -136449  -136460  -136422  -136354  -136307 
 -136309  -136325  -136341  -136392  -136440  -136412  -136351  -136319 
 -136314  -136324  -136344  -136372  -136400  -136394  -136355  -136337 
 -136345  -136354  -136362  -136373  -136404  -136441  -136434  -136396 
 -136380  -136401  -136426  -136411  -136356  -136307  -136307  -136334 
 -136335  -136311  -136298  -136301  -136330  -136392  -136448  -136445 
 -136385  -136315  -136279  -136282  -136307  -136361  -136438  -136459 
 -136389  -136326  -136341  -136384  -136419  -136410  -136330  -136254 
 -136252  -136317  -136424  -136512  -136524  -136482  -136425  -136354 
 -136257  -136178  -136167  -136188  -136202  -136237  -136313  -136380 
 -136404  -136436  -136514  -136548  -136489  -136465  -136551  -136610 
 -136540  -136414  -136326  -136273  -136222  -136200  -136227  -136283 
 -136360  -136406  -136381  -136357  -136372  -136374  -136368  -136400 
 -136426  -136442  -136480  -136480  -136422  -136358  -136287  -136262 
 -136346  -136429  -136396  -136310  -136264  -136279  -136324  -136350 
 -136345  -136312  -136274  -136291  -136357  -136411  -136443  -136469 
 -136454  -136381  -136332  -136359  -136359  -136319  -136351  -136418 
 -136429  -136399  -136356  -136336  -136325  -136285  -136279  -136340 
 -136425  -136488  -136490  -136459  -136400  -136288  -136227  -136259 
 -136274  -136271  -136313  -136355  -136367  -136380  -136383  -136367 
 -136376  -136425  -136480  -136510  -136495  -136438  -136380  -136362 
 -136374  -136374  -136351  -136319  -136307  -136332  -136344  -136327 
 -136325  -136324  -136302  -136303  -136330  -136370  -136441  -136498 
 -136458  -136348  -136254  -136200  -136182  -136219  -136307  -136397 
 -136453  -136471  -136444  -136392  -136384  -136425  -136469  -136481 
 -136451  -136400  -136368  -136366  -136373  -136356  -136310  -136241 
 -136180  -136181  -136242  -136315  -136377  -136413  -136429  -136468 
 -136512  -136493  -136438  -136415  -136430  -136453  -136434  -136376 
 -136364  -136390  -136369  -136323  -136308  -136317  -136333  -136335 
 -136325  -136333  -136305  -136200  -136161  -136282  -136395  -136367 
 -136342  -136452  -136576  -136587  -136553  -136504  -136397  -136299 
 -136296  -136367  -136390  -136310  -136235  -136250  -136290  -136320 
 -136368  -136386  -136351  -136346  -136389  -136401  -136387  -136402 
 -136416  -136387  -136347  -136357  -136424  -136478  -136480  -136445 
 -136382  -136331  -136360  -136442  -136486  -136438  -136310  -136210 
 -136238  -136301  -136266  -136183  -136168  -136221  -136292  -136378 
 -136440  -136416  -136367  -136401  -136486  -136519  -136484  -136431 
 -136372  -136319  -136308  -136279  -136182  -136130  -136218  -136358 
 -136411  -136392  -136404  -136451  -136478  -136470  -136451  -136453 
 -136443  -136388  -136346  -136340  -136331  -136353  -136415  -136436 
 -136396  -136376  -136393  -136367  -136307  -136293  -136294  -136292 
 -136383  -136531  -136543  -136402  -136310  -136340  -136377  -136375 
 -136325  -136219  -136162  -136198  -136267  -136362  -136430  -136419 
 -136405  -136433  -136455  -136449  -136438  -136477  -136530  -136505 
 -136433  -136381  -136336  -136263  -136162  -136109  -136167  -136272 
 -136340  -136390  -136446  -136465  -136420  -136364  -136355  -136383 
 -136409  -136428  -136451  -136463  -136435  -136360  -136283  -136271 
 -136346  -136468  -136541  -136513  -136456  -136399  -136287  -136204 
 -136286  -136441  -136483  -136427  -136365  -136265  -136158  -136159 
 -136231  -136259  -136225  -136200  -136233  -136283  -136333  -136416 
 -136505  -136544  -136543  -136529  -136507  -136495  -136478  -136370 
 -136180  -136046  -136042  -136152  -136333  -136457  -136441  -136390 
 -136432  -136536  -136596  -136578  -136507  -136409  -136361  -136373 
 -136351  -136322  -136356  -136371  -136312  -136258  -136272  -136341 
 -136408  -136386  -136301  -136286  -136322  -136339  -136381  -136405 
 -136342  -136296  -136366  -136475  -136531  -136508  -136413  -136313 
 -136274  -136268  -136242  -136209  -136222  -136298  -136389  -136425 
 -136405  -136387  -136419  -136483  -136490  -136390  -136280  -136269 
 -136310  -136329  -136346  -136361  -136334  -136303  -136344  -136419 
 -136443  -136440  -136468  -136493  -136447  -136364  -136357  -136435 
 -136500  -136506  -136463  -136408  -136381  -136377  -136389  -136398 
 -136369  -136350  -136388  -136432  -136460  -136501  -136516  -136467 
 -136385  -136287  -136186  -136139  -136163  -136179  -136154  -136183 
 -136296  -136385  -136415  -136412  -136346  -136252  -136246  -136370 
 -136528  -136560  -136421  -136293  -136335  -136447  -136468  -136416 
 -136354  -136274  -136207  -136196  -136238  -136336  -136433  -136438 
 -136403  -136397  -136351  -136266  -136273  -136377  -136454  -136506 
 -136600  -136636  -136520  -136383  -136332  -136279  -136184  -136142 
 -136187  -136285  -136404  -136475  -136502  -136540  -136505  -136339 
 -136191  -136204  -136307  -136346  -136302  -136228  -136136  -136137 
 -136311  -136465  -136441  -136376  -136411  -136446  -136364  -136250 
 -136216  -136251  -136352  -136537  -136698  -136678  -136542  -136471 
 -136428  -136302  -136198  -136182  -136174  -136213  -136360  -136527 
 -136602  -136509  -136356  -136366  -136478  -136502  -136433  -136367 
 -136391  -136436  -136409  -136430  -136526  -136561  -136539  -136489 
 -136379  -136231  -136078  -135977  -136000  -136080  -136133  -136230 
 -136377  -136468  -136476  -136426  -136401  -136481  -136540  -136460 
 -136360  -136360  -136426  -136444  -136403  -136379  -136331  -136227 
 -136164  -136147  -136146  -136198  -136255  -136270  -136298  -136327 
 -136331  -136378  -136451  -136461  -136411  -136393  -136450  -136506 
 -136475  -136356  -136274  -136332  -136433  -136497  -136600  -136709 
 -136673  -136501  -136340  -136286  -136309  -136287  -136165  -136056 
 -136069  -136181  -136339  -136494  -136540  -136477  -136501  -136630 
 -136621  -136415  -136203  -136149  -136252  -136391  -136481  -136480 
 -136400  -136356  -136400  -136437  -136411  -136342  -136276  -136251 
 -136276  -136313  -136314  -136294  -136266  -136225  -136246  -136385 
 -136555  -136650  -136639  -136528  -136406  -136355  -136306  -136200 
 -136134  -136161  -136184  -136184  -136277  -136411  -136437  -136470 
 -136588  -136613  -136518  -136406  -136293  -136228  -136249  -136292 
 -136331  -136417  -136521  -136536  -136455  -136369  -136296  -136250 
 -136293  -136369  -136378  -136326  -136240  -136141  -136107  -136158 
 -136217  -136276  -136388  -136491  -136481  -136439  -136467  -136468 
 -136387  -136336  -136367  -136454  -136556  -136595  -136539  -136432 
 -136321  -136264  -136260  -136258  -136304  -136384  -136394  -136377 
 -136428  -136497  -136496  -136441  -136393  -136348  -136278  -136211 
 -136201  -136250  -136311  -136332  -136292  -136250  -136307  -136438 
 -136499  -136458  -136419  -136439  -136465  -136454  -136419  -136367 
 -136277  -136187  -136189  -136244  -136293  -136385  -136455  -136430 
 -136422  -136435  -136354  -136243  -136274  -136450  -136554  -136490 
 -136441  -136467  -136436  -136356  -136345  -136426  -136493  -136449 
 -136355  -136287  -136213  -136130  -136100  -136147  -136252  -136343 
 -136320  -136256  -136329  -136482  -136546  -136503  -136408  -136335 
 -136320  -136321  -136332  -136362  -136379  -136384  -136391  -136404 
 -136428  -136452  -136438  -136388  -136348  -136320  -136301  -136299 
 -136274  -136236  -136227  -136184  -136133  -136187  -136287  -136356 
 -136420  -136456  -136459  -136512  -136596  -136602  -136529  -136465 
 -136422  -136356  -136296  -136297  -136313  -136311  -136348  -136382 
 -136319  -136216  -136166  -136191  -136283  -136393  -136459  -136466 
 -136450  -136462  -136488  -136441  -136295  -136197  -136263  -136373 
 -136369  -136302  -136299  -136343  -136336  -136260  -136220  -136264 
 -136269  -136185  -136131  -136185  -136319  -136401  -136366  -136376 
 -136467  -136489  -136474  -136484  -136435  -136350  -136316  -136299 
 -136279  -136288  -136303  -136294  -136277  -136284  -136336  -136440 
 -136574  -136662  -136654  -136635  -136664  -136677  -136674  -136678 
 -136640  -136557  -136461  -136371  -136334  -136304  -136197  -136119 
 -136220  -136397  -136443  -136403  -136439  -136529  -136582  -136563 
 -136463  -136396  -136483  -136609  -136637  -136614  -136546  -136384 
 -136241  -136258  -136377  -136473  -136510  -136471  -136379  -136325 
 -136302  -136235  -136164  -136114  -136052  -136039  -136123  -136253 
 -136371  -136443  -136453  -136417  -136401  -136444  -136534  -136621 
 -136615  -136528  -136418  -136275  -136148  -136097  -136136  -136314 
 -136544  -136670  -136701  -136678  -136564  -136377  -136183  -136008 
 -135895  -135930  -136099  -136227  -136188  -136037  -135913  -135941 
 -136178  -136511  -136735  -136785  -136731  -136619  -136485  -136383 
 -136321  -136276  -136292  -136423  -136577  -136629  -136597  -136555 
 -136506  -136358  -136114  -135929  -135798  -135709  -135820  -136015 
 -136095  -136150  -136174  -136110  -136140  -136363  -136622  -136753 
 -136733  -136645  -136578  -136506  -136392  -136342  -136423  -136498 
 -136454  -136320  -136191  -136162  -136202  -136220  -136235  -136275 
 -136260  -136160  -136111  -136214  -136410  -136618  -136756  -136768 
 -136724  -136727  -136741  -136703  -136664  -136671  -136652  -136514 
 -136277  -136067  -135986  -136080  -136334  -136585  -136705  -136758 
 -136780  -136698  -136540  -136427  -136361  -136292  -136278  -136341 
 -136388  -136426  -136534  -136631  -136651  -136618  -136433  -136104 
 -135873  -135861  -135999  -136204  -136353  -136358  -136308  -136327 
 -136387  -136402  -136385  -136381  -136335  -136201  -136063  -136014 
 -136055  -136111  -136156  -136302  -136507  -136562  -136508  -136476 
 -136448  -136427  -136406  -136362  -136361  -136376  -136303  -136220 
 -136249  -136282  -136236  -136239  -136301  -136307  -136245  -136142 
 -136072  -136111  -136218  -136347  -136456  -136457  -136376  -136348 
 -136430  -136550  -136602  -136543  -136448  -136447  -136561  -136633 
 -136598  -136555  -136538  -136501  -136444  -136394  -136334  -136196 
 -136049  -136088  -136276  -136419  -136431  -136263  -136028  -135993 
 -136181  -136393  -136551  -136693  -136787  -136758  -136632  -136491 
 -136396  -136342  -136242  -136067  -135934  -135945  -136056  -136149 
 -136200  -136249  -136263  -136247  -136321  -136522  -136694  -136697 
 -136634  -136614  -136533  -136362  -136255  -136256  -136239  -136140 
 -136062  -136141  -136318  -136428  -136441  -136412  -136349  -136307 
 -136345  -136373  -136347  -136349  -136367  -136366  -136380  -136338 
 -136191  -136029  -135909  -135865  -135912  -135969  -136021  -136100 
 -136118  -136065  -136068  -136137  -136233  -136387  -136595  -136780 
 -136856  -136788  -136624  -136476  -136418  -136420  -136422  -136446 
 -136557  -136718  -136806  -136773  -136655  -136482  -136316  -136179 
 -136083  -136138  -136319  -136452  -136568  -136786  -137000  -137087 
 -137111  -137111  -137043  -136991  -137041  -137086  -137036  -136912 
 -136712  -136474  -136309  -136228  -136182  -136197  -136273  -136365 
 -136439  -136446  -136371  -136286  -136249  -136222  -136199  -136205 
 -136177  -136111  -136014  -135800  -135618  -135690  -135900  -136051 
 -136119  -136161  -136224  -136268  -136181  -135946  -135699  -135549 
 -135507  -135555  -135655  -135754  -135849  -135931  -135966  -135973 
 -136039  -136162  -136218  -136193  -136220  -136358  -136541  -136714 
 -136880  -136978  -136886  -136692  -136599  -136578  -136524  -136530 
 -136643  -136736  -136740  -136698  -136654  -136664  -136759  -136816 
 -136720  -136611  -136677  -136825  -136861  -136807  -136779  -136793 
 -136779  -136678  -136534  -136496  -136606  -136703  -136660  -136578 
 -136578  -136623  -136623  -136525  -136345  -136197  -136164  -136233 
 -136329  -136319  -136189  -136114  -136138  -136191  -136320  -136490 
 -136583  -136639  -136672  -136576  -136321  -135989  -135763  -135733 
 -135789  -135837  -135841  -135819  -135867  -135992  -136096  -136123 
 -136109  -136178  -136346  -136400  -136285  -136225  -136311  -136403 
 -136380  -136311  -136316  -136340  -136299  -136266  -136322  -136405 
 -136379  -136217  -136068  -136043  -136086  -136143  -136292  -136593 
 -136931  -137126  -137089  -136845  -136502  -136176  -135954  -135919 
 -136053  -136259  -136485  -136648  -136670  -136610  -136530  -136458 
 -136427  -136446  -136549  -136675  -136700  -136669  -136621  -136513 
 -136390  -136260  -136166  -136222  -136354  -136421  -136425  -136337 
 -136145  -135993  -135966  -136002  -136046  -136095  -136129  -136128 
 -136132  -136165  -136197  -136253  -136351  -136435  -136480  -136504 
 -136488  -136437  -136386  -136356  -136370  -136414  -136494  -136624 
 -136700  -136665  -136620  -136584  -136442  -136201  -136074  -136172 
 -136336  -136418  -136405  -136314  -136214  -136162  -136087  -135986 
 -135991  -136109  -136244  -136425  -136637  -136758  -136835  -136982 
 -137110  -137097  -136967  -136798  -136642  -136512  -136395  -136294 
 -136239  -136253  -136286  -136271  -136236  -136209  -136163  -136124 
 -136152  -136202  -136220  -136272  -136373  -136458  -136553  -136674 
 -136733  -136727  -136712  -136624  -136436  -136264  -136161  -136080 
 -136030  -136057  -136100  -136110  -136171  -136269  -136292  -136302 
 -136404  -136542  -136592  -136504  -136358  -136236  -136140  -136072 
 -136025  -135978  -135932  -135900  -135917  -136034  -136218  -136382 
 -136503  -136605  -136658  -136568  -136351  -136193  -136195  -136260 
 -136296  -136335  -136385  -136380  -136337  -136305  -136267  -136291 
 -136419  -136505  -136465  -136419  -136426  -136389  -136306  -136299 
 -136366  -136400  -136361  -136259  -136131  -136082  -136165  -136305 
 -136431  -136557  -136694  -136781  -136725  -136537  -136388  -136403 
 -136465  -136447  -136417  -136411  -136376  -136370  -136465  -136604 
 -136701  -136711  -136627  -136472  -136307  -136254  -136359  -136462 
 -136454  -136440  -136425  -136339  -136278  -136275  -136257  -136278 
 -136337  -136352  -136339  -136329  -136364  -136499  -136661  -136758 
 -136797  -136779  -136719  -136668  -136608  -136517  -136421  -136311 
 -136192  -136102  -136054  -136072  -136136  -136210  -136339  -136474 
 -136522  -136528  -136500  -136444  -136475  -136540  -136489  -136352 
 -136268  -136333  -136472  -136515  -136486  -136487  -136483  -136458 
 -136420  -136310  -136156  -136030  -135916  -135827  -135833  -135949 
 -136167  -136452  -136649  -136617  -136423  -136234  -136117  -136076 
 -136125  -136204  -136228  -136163  -136056  -136067  -136237  -136429 
 -136568  -136577  -136430  -136334  -136406  -136481  -136437  -136356 
 -136311  -136255  -136225  -136278  -136342  -136368  -136354  -136284 
 -136160  -136023  -135976  -136021  -136047  -136063  -136139  -136287 
 -136463  -136583  -136645  -136691  -136717  -136726  -136705  -136623 
 -136534  -136527  -136609  -136683  -136666  -136579  -136482  -136391 
 -136298  -136210  -136141  -136134  -136244  -136464  -136683  -136758 
 -136696  -136602  -136475  -136335  -136299  -136343  -136314  -136148 
 -135918  -135742  -135693  -135802  -136033  -136262  -136408  -136520 
 -136627  -136603  -136398  -136145  -135922  -135757  -135695  -135703 
 -135735  -135843  -136063  -136349  -136617  -136738  -136673  -136537 
 -136411  -136339  -136381  -136486  -136563  -136581  -136541  -136509 
 -136493  -136422  -136370  -136414  -136487  -136577  -136683  -136699 
 -136631  -136612  -136669  -136714  -136665  -136570  -136551  -136576 
 -136550  -136538  -136614  -136692  -136670  -136568  -136453  -136385 
 -136372  -136340  -136309  -136410  -136584  -136668  -136682  -136661 
 -136555  -136413  -136320  -136315  -136381  -136386  -136227  -136027 
 -135946  -135958  -136020  -136113  -136129  -136069  -136048  -136052 
 -136087  -136176  -136150  -136004  -135984  -136129  -136282  -136345 
 -136346  -136373  -136420  -136456  -136492  -136500  -136466  -136422 
 -136396  -136435  -136493  -136465  -136374  -136243  -136111  -136141 
 -136348  -136525  -136562  -136502  -136421  -136415  -136521  -136630 
 -136620  -136514  -136401  -136309  -136275  -136331  -136437  -136543 
 -136618  -136634  -136592  -136535  -136495  -136434  -136314  -136180 
 -136119  -136172  -136266  -136276  -136241  -136294  -136406  -136503 
 -136603  -136686  -136746  -136829  -136866  -136738  -136533  -136420 
 -136403  -136438  -136502  -136484  -136347  -136229  -136251  -136387 
 -136518  -136512  -136385  -136273  -136161  -135977  -135833  -135856 
 -135996  -136165  -136298  -136311  -136239  -136232  -136302  -136336 
 -136289  -136156  -135983  -135916  -135992  -136081  -136150  -136271 
 -136398  -136366  -136194  -136077  -136045  -136006  -135957  -135905 
 -135882  -135948  -136079  -136237  -136387  -136423  -136314  -136177 
 -136132  -136205  -136327  -136402  -136406  -136368  -136349  -136369 
 -136416  -136500  -136590  -136623  -136613  -136596  -136554  -136524 
 -136590  -136738  -136901  -137028  -137066  -137047  -137045  -137066 
 -137051  -136914  -136674  -136492  -136412  -136335  -136259  -136234 
