Origin Time       2019/01/14 13:23:00
Lat.              36.162
Long.             139.810
Depth. (km)       53
Mag.              4.9
Station Code      YMNH11
Station Lat.      35.6247
Station Long.     138.9777
Station Height(m) 265
Record Time       2019/01/14 13:24:00
Sampling Freq(Hz) 100Hz
Duration Time(s)  120
Dir.              1
Scale Factor      2940(gal)/6170270
Max. Acc. (gal)   0.495
Last Correction   2019/01/14 13:23:45
Memo.             
[...]
   38886    38889    38899    38969    39044    39041    38999    38976 
   38979    38983    38952    38928    38953    38982    38985    38949 
   38897    38902    38952    38980    38999    39047    39092    39116 
   39137    39141    39098    39033    38981    38902    38799    38758 
   38768    38770    38785    38834    38914    39003    39045    39053 
   39079    39119    39150    39136    39052    38966    38926    38900 
   38919    38993    39018    38988    38966    38948    38946    38957 
   38924    38866    38864    38907    38955    38991    39012    39049 
   39093    39100    39116    39188    39239    39216    39165    39110 
   39012    38861    38732    38683    38691    38739    38848    38999 
   39150    39231    39196    39109    39050    38989    38869    38742 
   38702    38735    38819    38964    39093    39119    39049    38947 
   38897    38914    38932    38927    38907    38884    38888    38900 
   38889    38888    38910    38935    38960    38998    39053    39125 
   39190    39224    39238    39246    39185    39037    38915    38862 
   38844    38881    38936    38971    39033    39119    39155    39134 
   39118    39101    39033    38944    38903    38935    38975    38912 
   38784    38741    38767    38793    38868    38985    39041    39035 
   39064    39116    39076    38966    38941    38996    39009    38963 
   38887    38822    38820    38839    38841    38875    38943    38994 
   39038    39088    39096    39026    38922    38863    38878    38954 
   39060    39130    39106    39014    38949    38949    38969    38976 
   38946    38875    38845    38906    39017    39138    39212    39200 
   39126    39036    38961    38895    38852    38881    38952    38981 
   38978    38990    39004    39011    39014    39017    39010    38977 
   38944    38941    38971    39008    39013    38989    38925    38801 
   38672    38633    38732    38912    39083    39217    39234    39095 
   38946    38899    38944    39025    39048    39023    39031    39045 
   39062    39134    39159    39029    38876    38827    38838    38863 
   38862    38808    38791    38889    39041    39152    39191    39145 
   39071    39060    39029    38905    38859    38950    39015    39029 
   39061    39089    39080    39044    39009    38999    38983    38948 
   38920    38913    38918    38898    38833    38792    38826    38894 
   38954    38998    39037    39070    39019    38891    38842    38858 
   38873    38971    39071    39036    38992    39054    39144    39171 
   39109    39004    38921    38890    38904    38911    38913    38922 
   38873    38784    38763    38828    38910    38946    38993    39131 
   39232    39187    39129    39131    39103    39036    39005    39038 
   39090    39092    39018    38908    38830    38822    38858    38893 
   38926    39002    39097    39104    39030    38973    38952    38948 
   38953    38944    38932    38937    38953    38938    38848    38774 
   38842    38977    39053    39076    39071    39035    38990    38954 
   38901    38852    38877    38949    38998    39011    38978    38944 
   38982    39021    38975    38969    39088    39147    39059    38987 
   38985    39004    39065    39124    39081    38963    38885    38892 
   38940    38958    38949    38968    39017    39046    39038    39043 
   39072    39058    39014    38983    38953    38918    38869    38813 
   38796    38862    39024    39192    39193    39009    38834    38804 
   38866    38947    38997    39013    39069    39132    39056    38884 
   38802    38847    38881    38849    38807    38777    38829    38954 
   39009    39063    39196    39178    38969    38831    38823    38818 
   38808    38881    39016    39116    39209    39308    39286    39166 
   39097    39060    39010    38952    38857    38833    38947    39011 
   38975    38979    38992    38951    38935    38962    38957    38968 
   39042    39102    39099    39034    38934    38875    38854    38881 
   39009    39125    39104    39000    38904    38871    38891    38903 
   38855    38770    38740    38789    38865    38945    38999    38995 
   38977    39006    39108    39236    39276    39182    39057    38968 
   38868    38767    38725    38737    38807    38948    39091    39126 
   39063    39033    39068    39091    39090    39085    39048    38972 
   38923    38941    38947    38882    38808    38793    38865    39014 
   39141    39162    39122    39062    38979    38923    38914    38921 
   38980    39069    39076    39037    39035    39034    39041    39067 
   39026    38904    38789    38763    38807    38799    38757    38828 
   38976    39043    39034    39047    39055    39019    39063    39186 
   39213    39147    39071    38981    38900    38811    38666    38598 
   38717    38886    38976    39040    39141    39257    39291    39202 
   39068    38933    38847    38901    39004    38993    38908    38920 
   39064    39146    39033    38878    38840    38881    38963    39031 
   38943    38772    38704    38734    38815    38961    39128    39218 
   39150    38976    38879    38941    39058    39136    39138    39061 
   38998    39037    39122    39164    39147    39098    39025    38904 
   38731    38575    38565    38708    38829    38843    38831    38857 
   38929    39031    39164    39316    39375    39323    39266    39191 
   39091    39038    38992    38933    38947    38979    38944    38964 
   39055    39027    38913    38887    38859    38711    38623    38743 
   38907    38972    39036    39125    39163    39160    39112    39023 
   38998    39023    38975    38893    38875    38892    38932    39035 
   39103    39041    38974    38981    38952    38884    38883    38909 
   38895    38905    38958    38978    38948    38894    38855    38914 
   39031    39017    38884    38814    38824    38868    38968    39061 
   39074    39056    39060    39050    39013    39013    39004    38908 
   38824    38831    38898    39010    39126    39179    39157    39137 
   39152    39060    38834    38683    38653    38642    38721    38942 
   39132    39189    39289    39478    39461    39205    39002    38857 
   38720    38721    38825    38891    38846    38758    38773    38841 
   38883    38986    39133    39179    39082    38972    38992    39102 
   39150    39125    39138    39198    39188    39052    38909    38893 
   38962    39029    39041    38976    38926    38912    38831    38740 
   38764    38848    38883    38854    38854    38973    39167    39310 
   39312    39196    39098    39049    38881    38651    38679    38923 
   39037    38952    38784    38615    38591    38760    38961    39064 
   39043    38981    39030    39125    39078    38998    39024    39002 
   38940    39007    39068    38972    38869    38896    38959    38941 
   38973    39167    39300    39202    39081    39099    39137    39107 
   39023    38893    38820    38893    38991    39014    39036    39015 
   38838    38694    38797    38974    39020    38977    38889    38830 
   38904    39027    39091    39092    39052    39044    39066    39023 
   38943    38903    38877    38870    38945    39064    39147    39188 
   39188    39138    39039    38920    38854    38856    38872    38905 
   38946    38961    38962    38932    38886    38873    38904    39003 
   39126    39151    39052    38911    38847    38850    38849    38885 
   38918    38883    38877    38950    39045    39057    38954    38865 
   38865    38937    39024    39046    39026    39016    39050    39148 
   39190    39075    38928    38868    38859    38885    38959    39019 
   39055    39143    39222    39177    39057    38933    38843    38830 
   38821    38749    38697    38735    38860    39012    39039    38949 
   38968    39109    39177    39124    39037    39033    39121    39140 
   39026    38941    39012    39084    38978    38903    39050    39127 
   38991    38926    38999    39004    38921    38913    39004    39003 
   38860    38773    38844    38974    39041    39016    38947    38916 
   38949    38944    38886    38907    38964    38971    39058    39220 
   39198    38993    38922    39043    39103    39016    38870    38709 
   38632    38720    38868    38947    38994    39054    39016    38885 
   38863    38941    38943    38877    38832    38833    38911    39085 
   39287    39361    39272    39169    39139    39124    39066    38998 
   38997    39039    39010    38910    38873    38922    38963    38995 
   39048    39084    39027    38856    38742    38808    38893    38889 
   38891    38917    38924    38972    39057    39073    39021    38982 
   38981    38996    38990    38939    38872    38861    38896    38892 
   38888    38955    39019    39040    39079    39113    39090    39051 
   39033    39001    38949    38947    39037    39119    39053    38918 
   38882    38894    38895    38967    39053    39032    38934    38848 
   38808    38791    38783    38789    38816    38889    38987    39060 
   39151    39293    39395    39361    39188    38978    38841    38789 
   38811    38921    39059    39096    39062    39097    39098    38946 
   38797    38726    38704    38789    38949    39050    38997    38880 
   38895    38980    38982    39022    39139    39143    39063    39006 
   38892    38769    38769    38835    38893    38956    39020    39021 
   38951    38943    39034    39085    39051    38992    38938    38935 
   38987    39004    38935    38863    38863    38885    38895    38968 
   39100    39141    39082    39075    39099    39051    38997    38987 
   39002    39089    39223    39252    39112    38991    39007    38978 
   38830    38734    38733    38769    38848    38946    39002    39018 
   39013    39006    39065    39171    39204    39117    38972    38859 
   38814    38829    38867    38875    38946    39085    39083    39000 
   39024    39046    38989    38953    38976    38997    38988    38950 
   38827    38702    38786    38956    39014    39101    39232    39231 
   39153    39098    39067    39086    39074    38926    38764    38739 
   38731    38683    38756    38897    38960    39019    39069    39030 
   38973    38978    39052    39141    39147    39059    38963    38931 
   38955    38954    38919    38914    38890    38837    38874    38959 
   38998    39053    39094    39045    38999    38973    38874    38767 
   38749    38804    38970    39188    39241    39166    39108    39019 
   38930    38905    38879    38899    39023    39093    39065    39065 
   39067    38992    38909    38898    38947    39053    39190    39238 
   39183    39140    39119    39135    39187    39122    38995    38981 
   38958    38850    38820    38827    38772    38797    38949    39128 
   39272    39329    39272    39116    38890    38693    38635    38691 
   38789    38954    39097    39031    38824    38663    38607    38647 
   38770    38956    39122    39179    39205    39261    39242    39101 
   38944    38879    38927    39031    39118    39205    39288    39218 
   38980    38768    38641    38571    38610    38748    38918    39030 
   38993    38875    38821    38894    39102    39337    39434    39371 
   39262    39210    39196    39136    39083    39123    39148    39055 
   38913    38750    38590    38569    38633    38577    38469    38494 
   38631    38819    39061    39222    39167    39035    39000    39050 
   39113    39142    39167    39193    39134    39046    39029    38996 
   38960    39051    39100    38888    38580    38399    38381    38516 
   38701    38788    38857    39051    39218    39184    39142    39226 
   39222    39066    38920    38859    38922    39057    39109    39097 
   39106    39063    38933    38819    38765    38767    38850    38976 
   39063    39081    39011    38921    38978    39105    39075    39005 
   39116    39291    39388    39456    39499    39469    39390    39227 
   38961    38745    38672    38736    38947    39096    39014    38897 
   38891    38949    39018    39046    39032    39031    39039    39015 
   39015    39075    39093    39070    39025    38841    38628    38606 
   38703    38787    38827    38798    38761    38764    38746    38717 
   38758    38859    38932    38931    38889    38826    38752    38740 
   38802    38792    38679    38622    38656    38736    38886    39063 
   39189    39278    39356    39410    39415    39327    39135    38962 
   38941    38975    38888    38722    38604    38585    38650    38705 
   38743    38850    38985    39032    38988    38949    39013    39167 
   39295    39363    39443    39512    39457    39250    39006    38850 
   38766    38668    38525    38395    38418    38649    38913    38995 
   38905    38844    38863    38851    38833    38933    39147    39334 
   39422    39458    39468    39445    39382    39263    39135    39059 
   39031    39030    39049    39057    39011    38961    38976    39056 
   39168    39201    39096    38980    38925    38908    38916    38931 
   39005    39218    39497    39638    39532    39328    39214    39210 
   39182    39010    38824    38848    39009    39119    39084    38891 
   38706    38652    38569    38417    38424    38595    38716    38755 
   38794    38898    39105    39273    39242    39094    38929    38734 
   38576    38547    38553    38456    38340    38368    38484    38541 
   38533    38533    38597    38747    38925    39007    38952    38844 
   38788    38812    38880    38979    39157    39407    39616    39780 
   39957    40015    39859    39536    39106    38772    38718    38755 
   38651    38524    38546    38716    38951    39094    39090    39085 
   39131    39182    39260    39332    39391    39543    39707    39709 
   39613    39538    39497    39447    39310    39103    38971    38957 
   38945    38891    38831    38771    38703    38596    38435    38337 
   38465    38785    39052    39136    39138    39132    39090    39016 
   38968    38973    39006    38993    38846    38650    38548    38529 
   38564    38602    38562    38486    38538    38722    38834    38836 
   38857    38899    38979    39109    39175    39141    39096    39110 
   39162    39195    39184    39110    38975    38804    38641    38543 
   38478    38452    38553    38724    38869    38969    39020    39074 
   39144    39148    39055    38958    38952    39004    39038    39028 
   39024    39157    39366    39367    39182    39032    38958    39004 
   39154    39222    39184    39116    39022    38970    38963    38905 
   38861    38932    39064    39152    39097    38978    39004    39156 
   39260    39238    39101    38925    38819    38814    38866    39000 
   39228    39379    39399    39433    39433    39314    39167    38980 
   38738    38638    38751    38914    39003    38999    38963    38971 
   39007    39051    39131    39219    39207    39034    38810    38701 
   38690    38679    38679    38750    38916    39105    39162    39047 
   38848    38668    38620    38739    38866    38870    38828    38791 
   38708    38622    38595    38608    38646    38663    38622    38624 
   38728    38809    38803    38843    38955    38980    38902    38882 
   38992    39166    39354    39466    39417    39335    39320    39278 
   39196    39127    39083    39046    39006    39083    39310    39429 
   39325    39223    39223    39140    38964    38894    38938    39008 
   39067    39051    38985    38959    38994    39052    39063    39026 
   39041    39117    39052    38787    38555    38447    38406    38467 
   38529    38493    38529    38679    38761    38760    38762    38801 
   38912    39061    39157    39165    39161    39260    39419    39523 
   39599    39668    39617    39471    39349    39200    39003    38879 
   38857    38853    38823    38815    38850    38831    38732    38617 
   38499    38480    38604    38705    38761    38834    38855    38854 
   38946    39119    39349    39595    39699    39617    39483    39329 
   39137    38959    38824    38768    38797    38819    38775    38673 
   38559    38530    38585    38628    38684    38829    38982    39069 
   39132    39166    39204    39357    39491    39438    39369    39386 
   39329    39178    39028    38843    38620    38517    38620    38802 
   38958    39040    38947    38710    38508    38439    38505    38695 
   38958    39179    39253    39208    39158    39134    39092    38994 
   38902    38940    39047    39071    39041    39062    39154    39295 
   39414    39424    39355    39296    39213    39070    38971    38942 
   38886    38843    38924    39054    39110    39104    39081    39050 
   38956    38724    38483    38409    38434    38427    38392    38367 
   38407    38583    38859    39103    39258    39372    39416    39288 
   39044    38863    38844    38972    39129    39178    39146    39167 
   39240    39236    39150    39071    38963    38814    38720    38689 
   38700    38775    38851    38886    38923    38982    39040    39093 
   39173    39263    39279    39214    39133    39076    39020    38898 
   38771    38790    38915    38997    39011    38996    38968    38913 
   38808    38695    38623    38639    38760    38908    39049    39224 
   39379    39435    39348    39130    38924    38878    38902    38825 
   38695    38576    38384    38197    38237    38477    38671    38706 
   38658    38622    38656    38765    38857    38892    38959    39095 
   39231    39335    39378    39312    39182    39109    39139    39223 
   39302    39359    39362    39297    39208    39148    39175    39299 
   39402    39371    39274    39252    39279    39261    39232    39227 
   39180    39125    39160    39248    39275    39208    39123    39091 
   39097    39092    39027    38924    38915    39043    39166    39189 
   39152    39083    39027    39080    39197    39249    39246    39248 
   39189    39019    38836    38744    38707    38645    38559    38516 
   38588    38779    38991    39161    39245    39117    38799    38557 
   38535    38578    38538    38477    38493    38570    38588    38448 
   38310    38374    38531    38625    38686    38735    38762    38777 
   38735    38617    38524    38496    38506    38597    38737    38785 
   38762    38802    38860    38824    38755    38774    38889    39025 
   39168    39310    39388    39442    39513    39520    39529    39639 
   39720    39705    39653    39543    39378    39250    39184    39135 
   39112    39158    39250    39326    39330    39258    39198    39198 
   39167    39076    39037    39105    39206    39250    39189    39047 
   38906    38853    38884    38886    38863    38925    39007    39016 
   39031    39093    39130    39103    38965    38781    38752    38861 
   38934    38967    38966    38893    38836    38866    38961    39064 
   39116    39110    39020    38876    38799    38754    38659    38584 
   38537    38471    38452    38493    38523    38565    38624    38630 
   38553    38421    38323    38350    38509    38778    39090    39304 
   39400    39447    39430    39374    39360    39343    39301    39313 
   39333    39278    39186    39148    39158    39115    39010    38923 
   38873    38830    38774    38733    38733    38713    38654    38657 
   38765    38841    38783    38726    38791    38859    38837    38851 
   38988    39192    39372    39464    39500    39500    39402    39238 
