Origin Time       2019/01/14 13:23:00
Lat.              36.162
Long.             139.810
Depth. (km)       53
Mag.              4.9
Station Code      YMNH11
Station Lat.      35.6247
Station Long.     138.9777
Station Height(m) 465
Record Time       2019/01/14 13:24:00
Sampling Freq(Hz) 100Hz
Duration Time(s)  120
Dir.              4
Scale Factor      3920(gal)/6170801
Max. Acc. (gal)   4.492
Last Correction   2019/01/14 13:23:45
Memo.             
[...]
   -3450    -3430    -3563    -3674    -3840    -4211    -4721    -5150 
   -5281    -4970    -4276    -3523    -3174    -3479    -4175    -4732 
   -4902    -4750    -4311    -3651    -3095    -3049    -3615    -4453 
   -5021    -4993    -4496    -3937    -3583    -3426    -3470    -3722 
   -4021    -4208    -4296    -4343    -4358    -4274    -4023    -3755 
   -3715    -3856    -3901    -3786    -3765    -4104    -4691    -5110 
   -5128    -4829    -4346    -3785    -3336    -3199    -3358    -3608 
   -3821    -3890    -3613    -3017    -2471    -2338    -2822    -3958 
   -5305    -6071    -5902    -5234    -4709    -4591    -4818    -5224 
   -5522    -5462    -5093    -4576    -3977    -3430    -3111    -3054 
   -3204    -3487    -3746    -3738    -3398    -3083    -3158    -3456 
   -3628    -3714    -3888    -4042    -4091    -4240    -4596    -5023 
   -5346    -5324    -4757    -3805    -2974    -2745    -3187    -3928 
   -4560    -4934    -4985    -4693    -4296    -4105    -4101    -4084 
   -4023    -3994    -4008    -4070    -4117    -3949    -3527    -3170 
   -3150    -3334    -3538    -3889    -4445    -4912    -5083    -5054 
   -4871    -4512    -4147    -3974    -3881    -3557    -2965    -2570 
   -2957    -4175    -5541    -6141    -5609    -4364    -3152    -2532 
   -2664    -3334    -4136    -4672    -4715    -4366    -3953    -3682 
   -3609    -3859    -4456    -5040    -5218    -5037    -4790    -4621 
   -4479    -4314    -4162    -4037    -3910    -3872    -4006    -4127 
   -3958    -3460    -2910    -2652    -2688    -2802    -3015    -3496 
   -4179    -4754    -4984    -4957    -4828    -4562    -4238    -4135 
   -4270    -4382    -4348    -4202    -3933    -3507    -3028    -2790 
   -3137    -4105    -5219    -5834    -5681    -5011    -4283    -3818 
   -3708    -3880    -4142    -4281    -4182    -3915    -3736    -3866 
   -4269    -4764    -5179    -5275    -4802    -3866    -2992    -2580 
   -2600    -2878    -3366    -4000    -4505    -4611    -4341    -3983 
   -3810    -3819    -3786    -3605    -3404    -3331    -3393    -3500 
   -3624    -3814    -3958    -3838    -3632    -3825    -4488    -5201 
   -5642    -5810    -5792    -5545    -5024    -4568    -4749    -5547 
   -6131    -5789    -4688    -3510    -2717    -2390    -2447    -2665 
   -2752    -2602    -2381    -2341    -2592    -3098    -3763    -4375 
   -4669    -4584    -4333    -4225    -4446    -4936    -5436    -5603 
   -5309    -4850    -4661    -4845    -5059    -4832    -4089    -3293 
   -2988    -3275    -3707    -3714    -3297    -3005    -3027    -3019 
   -2898    -3021    -3625    -4498    -5140    -5247    -5034    -4903 
   -4930    -4903    -4684    -4350    -4071    -4025    -4251    -4521 
   -4517    -4201    -3900    -3970    -4421    -4871    -4817    -4061 
   -2980    -2224    -2169    -2724    -3454    -3858    -3694    -3091 
   -2474    -2319    -2776    -3622    -4659    -5757    -6551    -6559 
   -5674    -4383    -3430    -3220    -3682    -4471    -5060    -5122 
   -4887    -4745    -4755    -4784    -4751    -4560    -4159    -3702 
   -3375    -3224    -3288    -3677    -4307    -4714    -4501    -3836 
   -3180    -2883    -3194    -4035    -4834    -5091    -4813    -4291 
   -3816    -3478    -3205    -2998    -2925    -2967    -3030    -3132 
   -3467    -4205    -5172    -5791    -5649    -4976    -4239    -3687 
   -3461    -3642    -4157    -4794    -5280    -5427    -5179    -4549 
   -3732    -3101    -2875    -2950    -3066    -3086    -3190    -3599 
   -4181    -4629    -4850    -5010    -5271    -5468    -5293    -4779 
   -4295    -4121    -4103    -3875    -3412    -2966    -2638    -2392 
   -2225    -2196    -2363    -2696    -3246    -4119    -5074    -5719 
   -6045    -6295    -6577    -6744    -6519    -5834    -4906    -4005 
   -3383    -3199    -3374    -3637    -3701    -3433    -3016    -2824 
   -2979    -3193    -3218    -3236    -3514    -3891    -4023    -3869 
   -3647    -3605    -3864    -4278    -4527    -4488    -4404    -4475 
   -4547    -4478    -4368    -4347    -4538    -4959    -5295    -5174 
   -4569    -3800    -3286    -3269    -3686    -4205    -4465    -4370 
   -4048    -3636    -3231    -2938    -2867    -3002    -3162    -3335 
   -3821    -4701    -5545    -5879    -5634    -5162    -4907    -4918 
   -4840    -4460    -3989    -3778    -3869    -3873    -3475    -2987 
   -2952    -3340    -3621    -3478    -3102    -2896    -3101    -3651 
   -4235    -4545    -4559    -4451    -4219    -3782    -3354    -3302 
   -3801    -4716    -5494    -5555    -5051    -4620    -4481    -4442 
   -4449    -4484    -4377    -4224    -4380    -4746    -4806    -4580 
   -4663    -5188    -5545    -5160    -4172    -3235    -2717    -2460 
   -2269    -2069    -1776    -1529    -1720    -2457    -3358    -4012 
   -4339    -4487    -4657    -5004    -5448    -5648    -5366    -4821 
   -4564    -4843    -5298    -5433    -5113    -4618    -4382    -4478 
   -4462    -3997    -3354    -2992    -2950    -2943    -2868    -2953 
   -3385    -3942    -4224    -4197    -4235    -4545    -4828    -4720 
   -4293    -3881    -3668    -3615    -3606    -3682    -4098    -4875 
   -5470    -5327    -4602    -3930    -3642    -3709    -4131    -4719 
   -4952    -4683    -4387    -4269    -3852    -2872    -1868    -1535 
   -2030    -2993    -3818    -4151    -4230    -4532    -5146    -5688 
   -5775    -5406    -4865    -4460    -4258    -4100    -4043    -4282 
   -4646    -4764    -4454    -3744    -3022    -2904    -3509    -4258 
   -4506    -4096    -3363    -2781    -2642    -2916    -3341    -3725 
   -4029    -4125    -3938    -3796    -4145    -5042    -6016    -6382 
   -5948    -5144    -4420    -4053    -4153    -4459    -4553    -4313 
   -3915    -3568    -3367    -3269    -3130    -2869    -2647    -2728 
   -3086    -3313    -3131    -2817    -2950    -3853    -5302    -6600 
   -7038    -6475    -5401    -4420    -3876    -3865    -4286    -4845 
   -5129    -4895    -4274    -3531    -2922    -2845    -3468    -4257 
   -4523    -4217    -3811    -3665    -3756    -3892    -3924    -3730 
   -3354    -3121    -3237    -3452    -3463    -3355    -3345    -3428 
   -3455    -3447    -3671    -4149    -4416    -4266    -4196    -4661 
   -5466    -6109    -6225    -5730    -4873    -4091    -3697    -3717 
   -4048    -4539    -4861    -4713    -4282    -4048    -4039    -3843 
   -3397    -3101    -3137    -3322    -3530    -3717    -3758    -3695 
   -3757    -3979    -4182    -4310    -4371    -4179    -3656    -3134 
   -2968    -3287    -4029    -4761    -4915    -4473    -3919    -3559 
   -3419    -3557    -4006    -4556    -4859    -4783    -4519    -4317 
   -4267    -4291    -4319    -4453    -4766    -5110    -5360    -5592 
   -5869    -6008    -5713    -4979    -4201    -3725    -3468    -3034 
   -2180    -1261     -968    -1509    -2394    -3059    -3326    -3332 
   -3402    -3779    -4308    -4608    -4595    -4499    -4425    -4322 
   -4259    -4309    -4398    -4546    -4834    -5130    -5268    -5339 
   -5502    -5662    -5584    -5217    -4680    -4053    -3303    -2420 
   -1717    -1649    -2066    -2341    -2391    -2742    -3563    -4441 
   -5048    -5451    -5783    -5868    -5369    -4427    -3680    -3432 
   -3442    -3607    -4131    -4963    -5547    -5340    -4474    -3698 
   -3681    -4483    -5525    -6033    -5721    -4902    -3836    -2552 
   -1352     -808    -1162    -2051    -2831    -3197    -3402    -3893 
   -4846    -5921    -6559    -6568    -6137    -5458    -4714    -4206 
   -4126    -4314    -4395    -4120    -3589    -3174    -3106    -3220 
   -3232    -3140    -3079    -2973    -2710    -2458    -2557    -3179 
   -4045    -4521    -4234    -3617    -3560    -4488    -5935    -7053 
   -7338    -6790    -5683    -4462    -3622    -3402    -3560    -3617 
   -3311    -2711    -2137    -2092    -2840    -4043    -5065    -5495 
   -5378    -5044    -4829    -4973    -5534    -6220    -6553    -6301 
   -5514    -4286    -2877    -1792    -1421    -1706    -2282    -2911 
   -3524    -3946    -4008    -3789    -3536    -3531    -3899    -4340 
   -4376    -3850    -2989    -2333    -2486    -3434    -4466    -5036 
   -5233    -5330    -5366    -5307    -5305    -5475    -5511    -5067 
   -4315    -3595    -2986    -2540    -2456    -2815    -3402    -3994 
   -4577    -5165    -5658    -5848    -5492    -4617    -3731    -3390 
   -3618    -4022    -4251    -4076    -3429    -2611    -2055    -1764 
   -1402    -1017    -1167    -2078    -3194    -4034    -4873    -6022 
   -7076    -7353    -6708    -5737    -5196    -5317    -5721    -5892 
   -5582    -4915    -4306    -4134    -4241    -4065    -3564    -3361 
   -3668    -3920    -3599    -2854    -2391    -2763    -3692    -4456 
   -4659    -4336    -3881    -3852    -4477    -5374    -5750    -5071 
   -3662    -2401    -1962    -2435    -3449    -4544    -5330    -5497 
   -5096    -4572    -4270    -4152    -3984    -3565    -2883    -2168 
   -1709    -1650    -1976    -2583    -3251    -3767    -4141    -4436 
   -4723    -5305    -6336    -7363    -7829    -7651    -7140    -6598 
   -5941    -4993    -4031    -3486    -3414    -3493    -3226    -2412 
   -1542    -1263    -1563    -1982    -2306    -2612    -3031    -3546 
   -3782    -3562    -3456    -3953    -4821    -5663    -6279    -6562 
   -6492    -6085    -5379    -4520    -3741    -3323    -3330    -3381 
   -3129    -2679    -2288    -2121    -2262    -2632    -2996    -3140 
   -3083    -3084    -3304    -3631    -3940    -4241    -4473    -4444 
   -4102    -3716    -3685    -4178    -5067    -6107    -6983    -7286 
   -6797    -5847    -5225    -5413    -6031    -6388    -6171    -5409 
   -4408    -3574    -2940    -2350    -1990    -2082    -2404    -2640 
   -2852    -3207    -3591    -3748    -3541    -3070    -2660    -2565 
   -2769    -3187    -3779    -4472    -5148    -5588    -5487    -4869 
   -4295    -4375    -5156    -6087    -6629    -6753    -6653    -6296 
   -5577    -4636    -3739    -2940    -2145    -1465    -1189    -1385 
   -1798    -2124    -2272    -2308    -2184    -1883    -1803    -2543 
   -4225    -6195    -7508    -7736    -7157    -6288    -5538    -5195 
   -5339    -5702    -5795    -5339    -4572    -3900    -3395    -2956 
   -2582    -2171    -1569     -788       95      898     1274      880 
    -535    -2839    -5217    -6762    -7293    -7257    -7117    -7020 
   -6890    -6686    -6443    -6228    -6097    -5873    -5327    -4680 
   -4293    -4128    -4022    -3969    -3902    -3717    -3535    -3592 
   -3899    -4249    -4554    -4841    -4920    -4611    -4176    -4027 
   -4206    -4332    -4008    -3304    -2572    -1957    -1589    -1746 
   -2312    -2667    -2540    -2473    -3111    -4385    -5659    -6526 
   -7031    -7129    -6617    -5621    -4640    -4111    -4054    -4097 
   -3820    -3009    -1716     -386      230     -338    -1840    -3554 
   -4857    -5635    -6139    -6449    -6388    -5952    -5476    -5335 
   -5552    -5762    -5668    -5431    -5402    -5489    -5247    -4635 
   -4072    -3820    -3817    -3978    -4177    -4137    -3723    -3061 
   -2297    -1570    -1047     -736     -501     -287     -128      -48 
     -90     -308     -789    -1702    -3071    -4598    -5944    -7015 
   -7832    -8257    -8099    -7573    -7220    -7215    -7196    -6831 
   -6171    -5461    -4834    -4332    -4077    -4095    -4203    -4288 
   -4347    -4274    -4000    -3692    -3603    -3923    -4703    -5739 
   -6651    -7081    -6831    -5906    -4475    -2926    -1856    -1685 
   -2107    -2183    -1319       64     1149     1490      923     -533 
   -2498    -4341    -5563    -6039    -5997    -5821    -5838    -6148 
   -6597    -6867    -6545    -5380    -3715    -2406    -2060    -2546 
   -3298    -3853    -4087    -4093    -3975    -3874    -3965    -4205 
   -4430    -4748    -5282    -5711    -5637    -5130    -4585    -4213 
   -3903    -3584    -3389    -3439    -3735    -4144    -4415    -4438 
   -4432    -4646    -5010    -5201    -4897    -3994    -2894    -2367 
   -2784    -3782    -4773    -5353    -5379    -4981    -4482    -4258 
   -4491    -4968    -5205    -4882    -4191    -3596    -3237    -2925 
   -2648    -2577    -2754    -2985    -2954    -2565    -2071    -1800 
   -1952    -2594    -3565    -4370    -4433    -3638    -2534    -1732 
   -1430    -1739    -2785    -4300    -5784    -6995    -7961    -8671 
   -8929    -8542    -7700    -6907    -6462    -6303    -6245    -6080 
   -5630    -4778    -3460    -1848     -389      432      359     -477 
   -1671    -2716    -3129    -2865    -2457    -2415    -2955    -4111 
   -5558    -6612    -6655    -5600    -4144    -3255    -3292    -3900 
   -4546    -4933    -5012    -4800    -4395    -4084    -4166    -4613 
   -5051    -5114    -4776    -4276    -3787    -3306    -2814    -2255 
   -1603    -1180    -1492    -2561    -3849    -4835    -5309    -5256 
   -4829    -4411    -4402    -4903    -5656    -6291    -6639    -6797 
   -6894    -6895    -6637    -6042    -5236    -4327    -3262    -2073 
   -1030     -477     -599    -1171    -1648    -1757    -1725    -1848 
   -2150    -2494    -2851    -3298    -3758    -4149    -4681    -5451 
   -6144    -6511    -6619    -6648    -6675    -6660    -6762    -7167 
   -7502    -7241    -6558    -6049    -5858    -5558    -4875    -4017 
   -3089    -1845     -226     1431     2650     2992     2309      924 
    -511    -1423    -1768    -1987    -2548    -3730    -5362    -6686 
   -7234    -7582    -8385    -9305    -9665    -9404    -8874    -8263 
   -7500    -6482    -5288    -4127    -3259    -2939    -3115    -3259 
   -2876    -2041    -1228     -750     -592     -760    -1468    -2810 
   -4446    -5716    -6083    -5574    -4768    -4312    -4415    -4818 
   -5204    -5325    -4893    -3887    -2780    -2126    -2044    -2322 
   -2852    -3559    -4068    -4034    -3632    -3255    -3057    -3038 
   -3225    -3490    -3513    -3272    -3215    -3665    -4454    -5120 
   -5331    -5330    -5818    -7160    -8853    -9884    -9572    -8061 
   -6039    -4064    -2388    -1213     -680     -690     -900     -971 
    -968    -1221    -1788    -2562    -3554    -4539    -4949    -4509 
   -3638    -2942    -2624    -2677    -3149    -3834    -4168    -3718 
   -2721    -1928    -1864    -2501    -3517    -4546    -5325    -5754 
   -5846    -5706    -5616    -5875    -6439    -7010    -7328    -7115 
   -6251    -5131    -4488    -4767    -5636    -6241    -6060    -5244 
   -4211    -3349    -3000    -3303    -4029    -4705    -4890    -4349 
   -3229    -2142    -1863    -2753    -4408    -5996    -6894    -6847 
   -6002    -4903    -4049    -3584    -3308    -2808    -1917     -977 
    -461     -505     -836    -1122    -1264    -1421    -1883    -2739 
   -3771    -4756    -5601    -6220    -6421    -5954    -4774    -3245 
   -2065    -1840    -2557    -3599    -4304    -4383    -3981    -3606 
   -3745    -4347    -4916    -5093    -4932    -4659    -4446    -4495 
   -4957    -5689    -6389    -6873    -7135    -7223    -7071    -6517 
   -5652    -4837    -4270    -3880    -3611    -3467    -3406    -3370 
   -3286    -2964    -2284    -1451     -890    -1010    -1860    -2933 
   -3644    -3777    -3344    -2534    -1794    -1589    -2043    -2920 
   -3875    -4613    -5019    -5263    -5597    -6119    -6764    -7194 
   -6978    -6161    -5298    -4819    -4681    -4632    -4539    -4356 
   -4096    -3923    -3952    -4125    -4419    -4826    -5145    -5115 
   -4763    -4361    -4137    -4173    -4333    -4324    -4094    -3966 
   -4184    -4570    -4686    -4275    -3466    -2500    -1460     -496 
      86      142     -178     -562     -877    -1375    -2363    -3857 
   -5584    -7075    -7927    -8063    -7712    -7288    -7065    -6840 
   -6306    -5526    -4725    -4124    -3962    -4235    -4609    -4679 
   -4200    -3264    -2291    -1679    -1545    -1789    -2151    -2276 
   -2036    -1686    -1577    -1899    -2659    -3671    -4598    -5212 
   -5580    -5894    -6217    -6488    -6667    -6806    -6956    -7020 
   -6871    -6514    -5890    -4839    -3477    -2278    -1649    -1671 
   -2107    -2500    -2529    -2362    -2440    -2925    -3553    -3945 
   -3977    -3811    -3611    -3430    -3438    -3944    -5026    -6232 
   -6858    -6629    -5934    -5347    -5159    -5276    -5375    -5164 
   -4490    -3456    -2402    -1572    -1048     -955    -1310    -1916 
   -2601    -3298    -3901    -4294    -4447    -4352    -4013    -3647 
   -3618    -4170    -5233    -6297    -6724    -6307    -5447    -4859 
   -4897    -5221    -5473    -5798    -6382    -7045    -7408    -7150 
   -6231    -4945    -3597    -2228     -835      286      821      994 
    1309     1772     1924     1401      186    -1388    -2906    -4171 
   -5163    -5983    -6757    -7488    -8244    -9155   -10002   -10307 
   -9825    -8613    -6947    -5352    -4260    -3578    -2921    -2122 
   -1357     -992    -1337    -2330    -3522    -4396    -4626    -4236 
   -3586    -3060    -2876    -3051    -3317    -3301    -2883    -2286 
   -1957    -2225    -3022    -4068    -5092    -5840    -6154    -6058 
   -5823    -5782    -5936    -5976    -5629    -4776    -3471    -2013 
    -842     -368     -815    -1915    -3026    -3743    -4055    -4060 
   -3949    -4002    -4300    -4641    -4935    -5397    -6147    -6935 
   -7421    -7559    -7555    -7527    -7422    -7227    -6944    -6436 
   -5493    -4105    -2576    -1251     -302      220      382      276 
    -223    -1219    -2371    -3136    -3364    -3419    -3733    -4352 
   -4981    -5356    -5360    -4940    -4205    -3446    -2880    -2543 
   -2492    -2863    -3666    -4742    -5851    -6726    -7192    -7232 
   -6967    -6665    -6543    -6342    -5473    -3744    -1649       85 
    1006      952      -18    -1510    -2899    -3672    -3658    -3194 
   -3060    -3829    -5292    -6760    -7683    -7832    -7297    -6516 
   -6089    -6264    -6647    -6720    -6431    -5884    -4985    -3755 
   -2527    -1672    -1293    -1190    -1053     -717     -345     -313 
    -842    -1856    -3108    -4318    -5306    -6029    -6473    -6646 
   -6582    -6243    -5618    -4883    -4307    -3951    -3618    -3206 
   -2919    -2988    -3382    -3880    -4288    -4586    -4917    -5349 
   -5667    -5574    -5038    -4321    -3713    -3273    -2912    -2687 
   -2765    -3113    -3450    -3603    -3668    -3800    -4056    -4405 
   -4686    -4713    -4554    -4486    -4651    -4939    -5205    -5406 
   -5504    -5449    -5307    -5184    -5009    -4573    -3864    -3173 
   -2774    -2647    -2548    -2267    -1789    -1256     -960    -1277 
   -2299    -3649    -4778    -5364    -5418    -5079    -4578    -4386 
   -4859    -5751    -6414    -6379    -5648    -4554    -3459    -2724 
   -2748    -3583    -4653    -5176    -4901    -4284    -3920    -4016 
   -4436    -4813    -4736    -4166    -3514    -3245    -3545    -4227 
   -4782    -4743    -4186    -3585    -3243    -3174    -3262    -3346 
   -3262    -2917    -2498    -2385    -2704    -3240    -3740    -4105 
   -4351    -4462    -4374    -4125    -3866    -3686    -3593    -3631 
