Origin Time       2009/12/20 10:06:00
Lat.              34.963
Long.             139.117
Depth. (km)       4
Mag.              2.5
Station Code      SZOH35
Station Lat.      34.9467
Station Long.     139.0855
Station Height(m) 140
Record Time       2009/12/20 10:06:33
Sampling Freq(Hz) 100Hz
Duration Time(s)  120
Dir.              6
Scale Factor      3920(gal)/6170801
Max. Acc. (gal)   5.244
Last Correction   2009/12/20 10:06:18
Memo.             
[...]
  -25106   -25100   -25108   -25126   -25137   -25152   -25149   -25132 
  -25115   -25076   -25068   -25109   -25107   -25083   -25092   -25082 
  -25080   -25097   -25075   -25063   -25074   -25078   -25131   -25168 
  -25113   -25080   -25096   -25092   -25088   -25082   -25090   -25156 
  -25182   -25118   -25084   -25096   -25086   -25080   -25077   -25081 
  -25116   -25113   -25077   -25087   -25095   -25088   -25112   -25117 
  -25110   -25136   -25132   -25102   -25113   -25130   -25117   -25092 
  -25054   -25037   -25051   -25059   -25096   -25161   -25153   -25111 
  -25125   -25123   -25092   -25097   -25099   -25080   -25072   -25072 
  -25094   -25108   -25105   -25141   -25156   -25112   -25090   -25075 
  -25050   -25057   -25073   -25105   -25143   -25132   -25129   -25139 
  -25087   -25059   -25091   -25092   -25094   -25123   -25124   -25117 
  -25120   -25116   -25105   -25068   -25045   -25084   -25104   -25081 
  -25099   -25128   -25122   -25111   -25090   -25083   -25120   -25128 
  -25101   -25112   -25117   -25089   -25083   -25080   -25072   -25101 
  -25128   -25111   -25091   -25095   -25110   -25117   -25109   -25096 
  -25102   -25119   -25126   -25117   -25098   -25081   -25067   -25067 
  -25090   -25093   -25081   -25107   -25120   -25104   -25116   -25127 
  -25123   -25133   -25116   -25074   -25067   -25072   -25066   -25081 
  -25089   -25091   -25124   -25147   -25139   -25137   -25118   -25083 
  -25076   -25077   -25089   -25122   -25124   -25102   -25104   -25099 
  -25071   -25074   -25099   -25099   -25092   -25104   -25118   -25106 
  -25083   -25100   -25129   -25113   -25093   -25108   -25119   -25104 
  -25099   -25119   -25123   -25101   -25087   -25076   -25052   -25051 
  -25077   -25097   -25124   -25145   -25139   -25142   -25152   -25122 
  -25077   -25056   -25056   -25077   -25112   -25122   -25115   -25110 
  -25101   -25089   -25068   -25046   -25052   -25084   -25123   -25152 
  -25159   -25153   -25138   -25102   -25073   -25082   -25107   -25118 
  -25099   -25059   -25049   -25073   -25096   -25116   -25118   -25101 
  -25106   -25124   -25120   -25100   -25083   -25093   -25116   -25100 
  -25084   -25119   -25140   -25123   -25109   -25099   -25083   -25073 
  -25068   -25060   -25060   -25084   -25121   -25147   -25129   -25090 
  -25085   -25114   -25147   -25163   -25148   -25106   -25065   -25054 
  -25057   -25054   -25060   -25076   -25099   -25132   -25144   -25119 
  -25108   -25123   -25129   -25121   -25098   -25078   -25084   -25106 
  -25119   -25105   -25080   -25075   -25082   -25086   -25105   -25128 
  -25117   -25095   -25094   -25095   -25090   -25090   -25097   -25121 
  -25146   -25149   -25127   -25094   -25081   -25096   -25097   -25078 
  -25058   -25055   -25083   -25104   -25094   -25107   -25139   -25140 
  -25131   -25128   -25111   -25095   -25089   -25087   -25087   -25078 
  -25069   -25076   -25086   -25106   -25135   -25135   -25111   -25083 
  -25054   -25052   -25083   -25117   -25144   -25163   -25163   -25141 
  -25100   -25067   -25065   -25071   -25068   -25057   -25052   -25080 
  -25137   -25163   -25146   -25129   -25111   -25092   -25086   -25084 
  -25073   -25068   -25088   -25133   -25153   -25128   -25107   -25100 
  -25078   -25062   -25069   -25073   -25085   -25127   -25153   -25131 
  -25110   -25104   -25085   -25083   -25106   -25114   -25105   -25100 
  -25103   -25108   -25112   -25106   -25091   -25086   -25093   -25076 
  -25058   -25065   -25075   -25106   -25146   -25160   -25163   -25142 
  -25102   -25082   -25070   -25064   -25076   -25083   -25093   -25106 
  -25104   -25107   -25121   -25129   -25122   -25087   -25052   -25051 
  -25066   -25090   -25131   -25148   -25132   -25132   -25140   -25133 
  -25125   -25104   -25079   -25073   -25050   -25012   -25013   -25057 
  -25114   -25154   -25167   -25168   -25155   -25127   -25097   -25072 
  -25053   -25050   -25062   -25081   -25111   -25140   -25142   -25121 
  -25113   -25112   -25089   -25071   -25073   -25076   -25097   -25119 
  -25112   -25114   -25138   -25133   -25101   -25084   -25074   -25056 
  -25082   -25133   -25138   -25128   -25135   -25109   -25079   -25087 
  -25074   -25038   -25053   -25094   -25105   -25119   -25140   -25136 
  -25132   -25131   -25126   -25127   -25100   -25063   -25069   -25074 
  -25056   -25063   -25090   -25115   -25137   -25141   -25122   -25109 
  -25115   -25126   -25126   -25099   -25064   -25058   -25065   -25070 
  -25085   -25096   -25111   -25131   -25140   -25138   -25118   -25095 
  -25096   -25095   -25085   -25089   -25097   -25098   -25090   -25067 
  -25061   -25092   -25123   -25153   -25181   -25142   -25066   -25037 
  -25043   -25060   -25093   -25118   -25125   -25138   -25143   -25135 
  -25133   -25112   -25064   -25050   -25072   -25072   -25067   -25088 
  -25097   -25093   -25099   -25104   -25107   -25134   -25154   -25122 
  -25093   -25096   -25094   -25102   -25110   -25091   -25087   -25099 
  -25101   -25105   -25110   -25099   -25066   -25040   -25053   -25087 
  -25122   -25155   -25170   -25154   -25120   -25098   -25091   -25083 
  -25091   -25092   -25072   -25067   -25067   -25055   -25067   -25104 
  -25123   -25119   -25133   -25158   -25152   -25132   -25100   -25067 
  -25086   -25116   -25096   -25084   -25108   -25107   -25079   -25074 
  -25090   -25088   -25074   -25069   -25071   -25085   -25104   -25123 
  -25156   -25175   -25153   -25138   -25115   -25056   -25040   -25065 
  -25054   -25053   -25093   -25131   -25148   -25143   -25123   -25098 
  -25080   -25085   -25096   -25093   -25073   -25066   -25096   -25128 
  -25138   -25141   -25132   -25116   -25106   -25106   -25103   -25085 
  -25067   -25058   -25046   -25059   -25093   -25122   -25162   -25189 
  -25167   -25124   -25090   -25054   -25026   -25037   -25069   -25083 
  -25093   -25120   -25147   -25151   -25129   -25095   -25076   -25092 
  -25105   -25083   -25065   -25075   -25088   -25111   -25147   -25160 
  -25139   -25117   -25101   -25064   -25028   -25054   -25097   -25098 
  -25121   -25165   -25152   -25114   -25093   -25079   -25077   -25085 
  -25083   -25087   -25099   -25099   -25096   -25095   -25095   -25103 
  -25105   -25103   -25127   -25142   -25122   -25102   -25091   -25105 
  -25123   -25090   -25058   -25067   -25076   -25090   -25113   -25117 
  -25114   -25098   -25087   -25112   -25112   -25069   -25075   -25122 
  -25133   -25129   -25132   -25112   -25096   -25107   -25103   -25085 
  -25085   -25080   -25075   -25076   -25069   -25075   -25101   -25119 
  -25133   -25140   -25133   -25109   -25074   -25069   -25099   -25125 
  -25120   -25100   -25109   -25143   -25151   -25131   -25092   -25042 
  -25018   -25039   -25077   -25095   -25096   -25119   -25145   -25156 
  -25155   -25127   -25102   -25099   -25078   -25056   -25054   -25052 
  -25096   -25164   -25155   -25126   -25118   -25091   -25069   -25071 
  -25085   -25096   -25089   -25096   -25124   -25123   -25088   -25086 
  -25113   -25105   -25101   -25118   -25121   -25133   -25131   -25098 
  -25085   -25080   -25061   -25060   -25075   -25087   -25104   -25116 
  -25102   -25095   -25113   -25122   -25122   -25123   -25125   -25127 
  -25108   -25081   -25087   -25098   -25093   -25085   -25078   -25074 
  -25077   -25091   -25120   -25137   -25131   -25120   -25108   -25096 
  -25089   -25072   -25072   -25101   -25109   -25110   -25132   -25132 
  -25111   -25101   -25088   -25070   -25070   -25093   -25116   -25113 
  -25095   -25099   -25113   -25097   -25074   -25081   -25090   -25091 
  -25115   -25146   -25139   -25122   -25133   -25139   -25098   -25049 
  -25033   -25041   -25067   -25103   -25129   -25132   -25120   -25123 
  -25127   -25116   -25109   -25085   -25047   -25042   -25059   -25085 
  -25118   -25126   -25128   -25148   -25154   -25142   -25120   -25089 
  -25075   -25066   -25052   -25062   -25067   -25044   -25053   -25099 
  -25139   -25168   -25177   -25157   -25120   -25085   -25067   -25068 
  -25075   -25078   -25094   -25117   -25101   -25089   -25110   -25104 
  -25084   -25096   -25106   -25097   -25096   -25114   -25113   -25083 
  -25083   -25107   -25109   -25117   -25143   -25135   -25097   -25083 
  -25097   -25106   -25093   -25064   -25055   -25071   -25078   -25087 
  -25121   -25144   -25127   -25091   -25074   -25091   -25113   -25116 
  -25112   -25108   -25119   -25136   -25118   -25095   -25091   -25065 
  -25035   -25039   -25059   -25085   -25124   -25160   -25165   -25145 
  -25118   -25095   -25091   -25092   -25077   -25069   -25084   -25095 
  -25103   -25120   -25121   -25105   -25099   -25100   -25105   -25106 
  -25087   -25068   -25075   -25093   -25104   -25107   -25115   -25133 
  -25138   -25125   -25098   -25071   -25077   -25089   -25071   -25060 
  -25079   -25106   -25131   -25139   -25120   -25099   -25099   -25104 
  -25096   -25098   -25109   -25115   -25125   -25111   -25068   -25054 
  -25063   -25060   -25063   -25079   -25103   -25125   -25138   -25141 
  -25127   -25108   -25114   -25139   -25147   -25113   -25066   -25044 
  -25042   -25057   -25090   -25107   -25084   -25085   -25136   -25163 
  -25151   -25119   -25083   -25093   -25112   -25088   -25066   -25068 
  -25083   -25104   -25090   -25055   -25070   -25129   -25172   -25172 
  -25135   -25087   -25068   -25075   -25074   -25065   -25064   -25066 
  -25084   -25118   -25154   -25181   -25151   -25070   -25038   -25074 
  -25096   -25097   -25098   -25093   -25114   -25154   -25148   -25119 
  -25083   -25043   -25067   -25120   -25114   -25090   -25096   -25111 
  -25104   -25079   -25069   -25080   -25097   -25101   -25096   -25116 
  -25135   -25124   -25127   -25144   -25122   -25068   -25042   -25060 
  -25105   -25148   -25123   -25059   -25056   -25083   -25097   -25128 
  -25124   -25082   -25084   -25106   -25110   -25119   -25102   -25077 
  -25096   -25123   -25126   -25111   -25080   -25079   -25116   -25124 
  -25103   -25094   -25085   -25083   -25087   -25077   -25089   -25117 
  -25110   -25114   -25145   -25117   -25059   -25077   -25128   -25122 
  -25098   -25092   -25073   -25077   -25121   -25125   -25096   -25085 
  -25068   -25066   -25127   -25167   -25124   -25090   -25094   -25093 
  -25107   -25103   -25060   -25067   -25103   -25104   -25115   -25132 
  -25127   -25124   -25099   -25065   -25070   -25078   -25071   -25096 
  -25140   -25133   -25089   -25073   -25082   -25102   -25127   -25118 
  -25094   -25103   -25142   -25145   -25089   -25053   -25055   -25064 
  -25093   -25108   -25101   -25092   -25077   -25089   -25129   -25152 
  -25150   -25121   -25073   -25052   -25079   -25116   -25126   -25120 
  -25097   -25068   -25075   -25091   -25099   -25122   -25138   -25132 
  -25092   -25046   -25071   -25116   -25104   -25085   -25082   -25081 
  -25115   -25157   -25148   -25129   -25108   -25070   -25089   -25122 
  -25074   -25044   -25061   -25044   -25074   -25168   -25187   -25153 
  -25139   -25108   -25080   -25080   -25055   -25046   -25082   -25078 
  -25066   -25111   -25140   -25148   -25159   -25107   -25052   -25077 
  -25105   -25114   -25134   -25129   -25103   -25084   -25060   -25061 
  -25093   -25089   -25057   -25058   -25093   -25134   -25157   -25149 
  -25128   -25108   -25096   -25084   -25068   -25074   -25096   -25101 
  -25093   -25100   -25128   -25147   -25135   -25096   -25049   -25037 
  -25062   -25090   -25105   -25109   -25113   -25118   -25121   -25133 
  -25140   -25122   -25095   -25075   -25065   -25069   -25080   -25092 
  -25102   -25091   -25075   -25090   -25124   -25157   -25163   -25121 
  -25076   -25043   -25010   -24994   -24961   -24875   -24770   -24664 
  -24543   -24385   -24280   -24536   -25285   -26227   -27067   -27761 
  -28196   -27936   -26719   -25037   -23486   -22188   -21315   -21166 
  -21945   -23705   -25500   -25677   -24430   -24211   -26068   -28061 
  -28561   -28116   -27509   -26695   -25999   -26203   -26529   -24846 
  -21410   -19629   -21544   -24958   -26172   -24337   -22287   -22785 
  -25275   -27589   -28584   -27989   -26184   -24535   -24181   -24905 
  -25765   -25894   -25144   -24468   -24487   -24621   -24637   -24922 
  -25296   -25272   -24993   -25160   -25810   -25980   -25411   -25124 
  -25707   -26157   -24939   -22266   -20449   -21311   -24311   -27363 
  -28528   -27376   -25549   -25178   -26327   -27247   -26951   -25943 
  -24771   -23466   -22475   -22786   -24360   -25611   -25530   -24893 
  -24456   -23981   -23593   -23988   -24996   -25625   -25597   -25750 
  -26682   -27785   -28152   -27592   -26355   -24971   -24308   -24530 
  -24673   -24266   -24080   -24574   -24975   -24452   -23329   -22652 
  -22900   -23655   -24422   -24998   -25203   -25153   -25474   -26581 
  -28235   -29831   -30488   -29440   -26856   -23933   -22213   -22425 
  -23744   -24739   -24758   -23850   -22211   -20442   -19681   -20778 
  -23367   -26030   -27552   -28040   -28596   -29561   -29686   -27627 
  -23839   -20641   -20176   -22361   -25305   -27341   -28039   -27613 
  -26432   -25242   -24632   -24243   -23448   -22442   -22075   -22860 
  -24284   -25225   -25243   -24962   -25306   -26779   -28880   -30241 
  -30152   -29285   -28382   -27429   -26432   -25610   -24752   -23510 
  -21969   -20430   -19207   -18598   -18796   -19824   -21252   -22491 
  -23467   -24366   -25316   -26564   -28202   -30042   -31775   -32977 
  -33355   -32935   -31877   -30294   -28239   -25941   -23631   -21317 
  -19305   -18057   -17393   -16947   -16872   -17536   -19028   -21183 
  -23839   -26724   -29351   -31203   -31885   -31400   -30236   -28944 
  -27753   -26643   -25628   -24699   -23713   -22721   -22013   -21777 
  -22134   -23082   -24329   -25536   -26438   -26865   -26921   -26815 
  -26480   -25792   -24938   -24230   -23876   -23931   -24281   -24850 
  -25723   -26807   -27673   -27944   -27596   -26767   -25458   -23763 
  -22153   -21025   -20398   -20313   -20916   -22111   -23492   -24722 
  -25887   -27091   -28084   -28665   -28821   -28578   -28114   -27644 
  -27247   -26868   -26398   -25867   -25352   -24776   -24047   -23143 
  -22118   -21178   -20516   -20263   -20671   -21946   -23943   -26235 
  -28240   -29370   -29435   -28773   -27845   -26905   -26058   -25295 
  -24596   -24105   -24001   -24330   -24997   -25734   -26200   -26122 
  -25508   -24742   -24099   -23582   -23302   -23341   -23603   -24017 
  -24535   -25107   -25608   -25768   -25525   -25151   -24898   -24741 
  -24553   -24468   -24762   -25417   -26123   -26573   -26637   -26281 
  -25612   -25000   -24729   -24660   -24593   -24577   -24703   -24928 
  -25128   -25314   -25646   -26048   -26188   -25973   -25623   -25328 
  -25110   -24855   -24450   -23951   -23601   -23607   -23896   -24257 
  -24576   -24800   -24941   -25072   -25177   -25170   -25115   -25236 
  -25605   -26015   -26280   -26403   -26428   -26334   -26110   -25806 
  -25434   -24965   -24475   -24116   -23967   -24029   -24291   -24660 
  -24975   -25162   -25226   -25217   -25260   -25384   -25479   -25485 
  -25430   -25362   -25308   -25235   -25069   -24785   -24509   -24369 
  -24318   -24333   -24526   -24872   -25190   -25399   -25544   -25680 
  -25823   -25881   -25739   -25416   -25028   -24728   -24616   -24614 
  -24617   -24685   -24887   -25107   -25156   -25044   -24970   -25026 
  -25113   -25099   -24979   -24909   -25020   -25238   -25412   -25471 
  -25415   -25277   -25145   -25114   -25177   -25268   -25374   -25460 
  -25482   -25497   -25514   -25461   -25359   -25207   -24951   -24706 
  -24592   -24534   -24493   -24511   -24550   -24583   -24655   -24776 
  -24944   -25202   -25528   -25794   -25917   -25922   -25854   -25758 
  -25657   -25535   -25372   -25137   -24805   -24445   -24180   -24080 
  -24093   -24122   -24165   -24270   -24475   -24799   -25180   -25492 
  -25669   -25736   -25744   -25788   -25945   -26145   -26255   -26229 
  -26048   -25722   -25355   -24988   -24584   -24201   -23916   -23725 
  -23610   -23631   -23823   -24123   -24508   -25004   -25526   -25929 
  -26180   -26329   -26372   -26318   -26233   -26100   -25847   -25493 
  -25124   -24806   -24549   -24319   -24091   -23888   -23779   -23845 
  -24079   -24372   -24670   -25018   -25435   -25849   -26138   -26272 
  -26297   -26214   -26017   -25721   -25361   -24991   -24676   -24512 
  -24517   -24560   -24571   -24609   -24708   -24852   -25014   -25147 
  -25227   -25277   -25315   -25335   -25361   -25442   -25555   -25616 
  -25569   -25416   -25219   -25030   -24877   -24747   -24596   -24447 
  -24385   -24424   -24520   -24644   -24776   -24900   -25039   -25225 
  -25418   -25550   -25616   -25635   -25620   -25562   -25456   -25365 
  -25351   -25353   -25302   -25220   -25146   -25070   -24980   -24886 
  -24809   -24759   -24738   -24742   -24759   -24771   -24811   -24908 
  -25003   -25076   -25156   -25213   -25251   -25293   -25308   -25311 
  -25341   -25368   -25368   -25354   -25330   -25264   -25139   -24994 
  -24891   -24871   -24913   -24951   -24943   -24897   -24865   -24896 
  -24972   -25036   -25079   -25139   -25224   -25282   -25277   -25241 
  -25218   -25185   -25106   -25003   -24923   -24899   -24958   -25082 
  -25178   -25191   -25160   -25149   -25190   -25271   -25342   -25357 
  -25293   -25182   -25109   -25100   -25116   -25139   -25126   -25026 
  -24887   -24795   -24780   -24827   -24873   -24878   -24881   -24918 
  -25026   -25221   -25414   -25529   -25580   -25562   -25469   -25331 
  -25205   -25148   -25109   -24993   -24831   -24717   -24687   -24727 
  -24795   -24840   -24844   -24830   -24871   -25014   -25192   -25308 
  -25366   -25407   -25437   -25471   -25496   -25475   -25413   -25319 
  -25203   -25087   -24987   -24925   -24911   -24907   -24888   -24874 
  -24874   -24893   -24954   -25047   -25109   -25124   -25131   -25154 
  -25193   -25236   -25264   -25244   -25161   -25043   -24941   -24881 
  -24850   -24836   -24861   -24938   -25034   -25125   -25217   -25317 
  -25389   -25419   -25445   -25460   -25430   -25362   -25260   -25139 
  -25033   -24940   -24868   -24828   -24787   -24748   -24744   -24770 
  -24828   -24908   -24973   -25034   -25132   -25246   -25345   -25415 
  -25413   -25360   -25325   -25303   -25252   -25197   -25170   -25145 
  -25107   -25051   -24965   -24883   -24843   -24835   -24865   -24923 
  -24970   -24999   -25042   -25133   -25265   -25383   -25458   -25479 
  -25441   -25380   -25329   -25274   -25183   -25048   -24919   -24840 
  -24804   -24805   -24844   -24893   -24917   -24919   -24920   -24947 
  -25020   -25100   -25131   -25116   -25110   -25154   -25232   -25305 
  -25340   -25306   -25232   -25158   -25072   -24978   -24916   -24893 
  -24903   -24928   -24952   -24992   -25075   -25204   -25335   -25420 
  -25458   -25462   -25432   -25381   -25318   -25239   -25147   -25066 
  -25017   -24994   -24970   -24926   -24878   -24856   -24856   -24856 
  -24872   -24923   -24981   -25018   -25057   -25115   -25177   -25226 
  -25269   -25304   -25309   -25280   -25235   -25171   -25087   -25012 
  -24972   -24949   -24936   -24938   -24949   -24959   -24979   -25022 
  -25072   -25106   -25128   -25153   -25183   -25214   -25231   -25213 
