Origin Time       2009/12/20 10:06:00
Lat.              34.963
Long.             139.117
Depth. (km)       4
Mag.              2.5
Station Code      SZOH35
Station Lat.      34.9467
Station Long.     139.0855
Station Height(m) -160
Record Time       2009/12/20 10:06:33
Sampling Freq(Hz) 100Hz
Duration Time(s)  120
Dir.              1
Scale Factor      2940(gal)/6170270
Max. Acc. (gal)   2.566
Last Correction   2009/12/20 10:06:18
Memo.             
[...]
 -107687  -107689  -107689  -107689  -107688  -107686  -107686  -107687 
 -107686  -107688  -107688  -107688  -107688  -107688  -107687  -107688 
 -107688  -107686  -107687  -107688  -107688  -107688  -107689  -107688 
 -107685  -107685  -107688  -107691  -107688  -107684  -107687  -107689 
 -107687  -107688  -107688  -107687  -107689  -107689  -107687  -107687 
 -107688  -107686  -107687  -107688  -107687  -107687  -107687  -107685 
 -107685  -107686  -107687  -107687  -107687  -107687  -107686  -107685 
 -107688  -107689  -107687  -107686  -107685  -107686  -107688  -107688 
 -107687  -107688  -107688  -107688  -107687  -107687  -107688  -107687 
 -107687  -107689  -107687  -107685  -107687  -107689  -107687  -107686 
 -107688  -107688  -107686  -107688  -107688  -107686  -107686  -107686 
 -107688  -107690  -107687  -107687  -107689  -107688  -107686  -107686 
 -107687  -107688  -107688  -107686  -107687  -107688  -107686  -107687 
 -107688  -107686  -107685  -107688  -107688  -107685  -107685  -107688 
 -107688  -107688  -107688  -107687  -107688  -107687  -107686  -107688 
 -107687  -107686  -107686  -107684  -107686  -107687  -107687  -107686 
 -107686  -107687  -107685  -107685  -107687  -107687  -107686  -107686 
 -107686  -107686  -107687  -107687  -107686  -107685  -107685  -107687 
 -107688  -107687  -107687  -107687  -107686  -107685  -107686  -107688 
 -107688  -107686  -107687  -107688  -107688  -107688  -107689  -107690 
 -107689  -107686  -107686  -107688  -107688  -107686  -107685  -107686 
 -107686  -107686  -107686  -107685  -107686  -107687  -107685  -107687 
 -107691  -107687  -107685  -107689  -107689  -107685  -107685  -107685 
 -107685  -107687  -107687  -107686  -107686  -107686  -107685  -107686 
 -107687  -107686  -107687  -107688  -107684  -107682  -107688  -107690 
 -107686  -107686  -107688  -107687  -107686  -107685  -107685  -107688 
 -107689  -107686  -107686  -107689  -107688  -107688  -107689  -107688 
 -107686  -107686  -107686  -107685  -107686  -107686  -107685  -107684 
 -107685  -107688  -107687  -107686  -107686  -107687  -107686  -107687 
 -107687  -107687  -107688  -107687  -107686  -107687  -107686  -107686 
 -107687  -107687  -107686  -107687  -107687  -107686  -107685  -107686 
 -107685  -107686  -107687  -107688  -107689  -107689  -107689  -107688 
 -107686  -107687  -107686  -107686  -107687  -107686  -107686  -107690 
 -107691  -107687  -107686  -107688  -107688  -107687  -107687  -107687 
 -107688  -107687  -107686  -107687  -107688  -107688  -107686  -107687 
 -107689  -107688  -107687  -107688  -107689  -107687  -107687  -107687 
 -107688  -107688  -107689  -107688  -107687  -107687  -107686  -107688 
 -107689  -107687  -107685  -107687  -107688  -107687  -107688  -107689 
 -107687  -107685  -107687  -107688  -107688  -107686  -107688  -107689 
 -107687  -107685  -107686  -107687  -107686  -107686  -107688  -107689 
 -107687  -107685  -107686  -107689  -107689  -107686  -107687  -107690 
 -107688  -107685  -107688  -107690  -107687  -107686  -107688  -107686 
 -107686  -107689  -107690  -107688  -107687  -107688  -107688  -107687 
 -107687  -107688  -107688  -107687  -107687  -107686  -107687  -107689 
 -107688  -107686  -107687  -107688  -107688  -107689  -107690  -107689 
 -107687  -107688  -107687  -107686  -107686  -107688  -107689  -107688 
 -107686  -107686  -107688  -107689  -107688  -107686  -107688  -107690 
 -107688  -107686  -107688  -107688  -107686  -107685  -107685  -107687 
 -107689  -107687  -107685  -107687  -107688  -107686  -107686  -107684 
 -107684  -107688  -107687  -107685  -107688  -107688  -107686  -107686 
 -107688  -107687  -107686  -107686  -107686  -107685  -107685  -107686 
 -107687  -107687  -107687  -107688  -107686  -107684  -107687  -107687 
 -107683  -107685  -107690  -107688  -107685  -107686  -107687  -107686 
 -107687  -107686  -107687  -107689  -107688  -107687  -107688  -107686 
 -107686  -107686  -107687  -107688  -107688  -107687  -107686  -107687 
 -107686  -107685  -107685  -107686  -107687  -107688  -107687  -107687 
 -107686  -107687  -107688  -107688  -107689  -107690  -107687  -107687 
 -107689  -107686  -107684  -107686  -107688  -107686  -107687  -107690 
 -107688  -107685  -107686  -107687  -107687  -107688  -107689  -107687 
 -107686  -107688  -107689  -107686  -107686  -107689  -107687  -107686 
 -107688  -107687  -107687  -107688  -107687  -107687  -107688  -107688 
 -107687  -107687  -107687  -107687  -107688  -107688  -107689  -107689 
 -107687  -107688  -107691  -107687  -107685  -107688  -107688  -107687 
 -107690  -107686  -107684  -107689  -107689  -107686  -107687  -107686 
 -107687  -107687  -107688  -107690  -107688  -107687  -107688  -107687 
 -107687  -107688  -107688  -107686  -107685  -107687  -107688  -107688 
 -107689  -107690  -107688  -107687  -107688  -107688  -107689  -107688 
 -107687  -107688  -107687  -107686  -107686  -107687  -107688  -107687 
 -107687  -107688  -107687  -107685  -107685  -107688  -107687  -107686 
 -107689  -107690  -107688  -107687  -107686  -107688  -107689  -107688 
 -107687  -107687  -107688  -107690  -107688  -107687  -107687  -107688 
 -107687  -107685  -107687  -107689  -107687  -107688  -107689  -107686 
 -107684  -107688  -107689  -107685  -107685  -107687  -107688  -107689 
 -107687  -107686  -107686  -107686  -107687  -107687  -107688  -107688 
 -107687  -107688  -107688  -107688  -107687  -107687  -107689  -107688 
 -107685  -107685  -107688  -107688  -107687  -107686  -107686  -107688 
 -107687  -107686  -107687  -107687  -107685  -107686  -107689  -107689 
 -107687  -107687  -107686  -107686  -107688  -107688  -107687  -107687 
 -107688  -107688  -107687  -107685  -107687  -107687  -107686  -107686 
 -107687  -107687  -107686  -107687  -107689  -107689  -107690  -107689 
 -107686  -107685  -107686  -107687  -107688  -107689  -107687  -107687 
 -107688  -107688  -107688  -107687  -107688  -107688  -107686  -107687 
 -107688  -107685  -107687  -107689  -107686  -107685  -107688  -107687 
 -107686  -107688  -107688  -107685  -107685  -107686  -107685  -107686 
 -107687  -107685  -107684  -107686  -107686  -107686  -107686  -107686 
 -107686  -107684  -107685  -107687  -107686  -107687  -107687  -107686 
 -107686  -107686  -107687  -107687  -107685  -107685  -107685  -107685 
 -107687  -107689  -107688  -107686  -107688  -107687  -107683  -107685 
 -107687  -107687  -107685  -107685  -107687  -107688  -107685  -107684 
 -107685  -107687  -107686  -107685  -107688  -107688  -107686  -107687 
 -107687  -107687  -107687  -107687  -107687  -107686  -107684  -107683 
 -107686  -107688  -107687  -107687  -107690  -107688  -107684  -107685 
 -107687  -107688  -107688  -107684  -107684  -107687  -107688  -107688 
 -107688  -107688  -107687  -107686  -107687  -107686  -107685  -107687 
 -107688  -107688  -107689  -107687  -107685  -107686  -107689  -107691 
 -107688  -107686  -107688  -107688  -107686  -107689  -107690  -107689 
 -107688  -107687  -107687  -107686  -107687  -107689  -107690  -107688 
 -107687  -107688  -107688  -107688  -107689  -107688  -107689  -107689 
 -107686  -107686  -107690  -107690  -107687  -107688  -107689  -107687 
 -107687  -107688  -107687  -107687  -107688  -107687  -107686  -107687 
 -107687  -107686  -107687  -107687  -107684  -107686  -107689  -107687 
 -107685  -107689  -107691  -107689  -107686  -107688  -107690  -107687 
 -107687  -107689  -107688  -107687  -107688  -107688  -107686  -107687 
 -107690  -107688  -107686  -107687  -107687  -107688  -107690  -107689 
 -107687  -107688  -107688  -107688  -107688  -107688  -107688  -107688 
 -107688  -107689  -107688  -107687  -107688  -107688  -107688  -107688 
 -107688  -107687  -107688  -107689  -107688  -107685  -107687  -107689 
 -107687  -107687  -107689  -107691  -107689  -107688  -107687  -107686 
 -107687  -107688  -107688  -107689  -107687  -107685  -107686  -107689 
 -107689  -107688  -107688  -107689  -107687  -107688  -107688  -107687 
 -107687  -107688  -107688  -107689  -107688  -107687  -107687  -107688 
 -107688  -107687  -107688  -107689  -107687  -107688  -107688  -107686 
 -107686  -107686  -107686  -107687  -107688  -107689  -107688  -107687 
 -107688  -107687  -107687  -107690  -107689  -107689  -107689  -107687 
 -107687  -107688  -107686  -107687  -107688  -107688  -107688  -107688 
 -107685  -107685  -107688  -107689  -107687  -107685  -107685  -107690 
 -107691  -107686  -107687  -107688  -107685  -107688  -107690  -107687 
 -107687  -107688  -107688  -107689  -107687  -107685  -107686  -107686 
 -107685  -107686  -107687  -107687  -107688  -107686  -107685  -107688 
 -107691  -107688  -107686  -107687  -107689  -107688  -107687  -107686 
 -107686  -107686  -107687  -107689  -107690  -107688  -107686  -107687 
 -107687  -107686  -107687  -107688  -107687  -107688  -107688  -107689 
 -107689  -107686  -107685  -107687  -107689  -107687  -107685  -107686 
 -107687  -107686  -107686  -107687  -107687  -107686  -107684  -107687 
 -107689  -107688  -107687  -107688  -107688  -107687  -107687  -107687 
 -107687  -107687  -107687  -107687  -107686  -107685  -107687  -107689 
 -107687  -107687  -107689  -107688  -107686  -107687  -107687  -107686 
 -107686  -107686  -107686  -107687  -107688  -107689  -107688  -107685 
 -107686  -107687  -107686  -107685  -107685  -107686  -107686  -107686 
 -107684  -107686  -107688  -107688  -107688  -107687  -107685  -107686 
 -107688  -107688  -107688  -107688  -107686  -107685  -107685  -107686 
 -107688  -107688  -107687  -107687  -107688  -107687  -107687  -107686 
 -107685  -107688  -107688  -107686  -107688  -107688  -107686  -107686 
 -107687  -107689  -107690  -107688  -107687  -107689  -107687  -107687 
 -107688  -107688  -107686  -107686  -107686  -107687  -107688  -107686 
 -107687  -107689  -107689  -107687  -107687  -107686  -107685  -107686 
 -107687  -107686  -107687  -107688  -107689  -107688  -107686  -107684 
 -107686  -107687  -107683  -107684  -107688  -107687  -107687  -107688 
 -107687  -107687  -107688  -107686  -107686  -107688  -107688  -107686 
 -107686  -107686  -107687  -107688  -107687  -107687  -107687  -107685 
 -107686  -107686  -107687  -107687  -107685  -107686  -107690  -107689 
 -107688  -107688  -107685  -107686  -107688  -107687  -107687  -107688 
 -107689  -107688  -107687  -107687  -107686  -107687  -107688  -107689 
 -107687  -107686  -107687  -107687  -107685  -107687  -107691  -107690 
 -107686  -107685  -107688  -107689  -107689  -107689  -107688  -107687 
 -107688  -107690  -107687  -107685  -107687  -107687  -107685  -107686 
 -107687  -107689  -107687  -107687  -107689  -107689  -107685  -107685 
 -107690  -107690  -107687  -107688  -107689  -107687  -107688  -107688 
 -107685  -107686  -107687  -107687  -107687  -107685  -107684  -107685 
 -107686  -107688  -107690  -107689  -107686  -107687  -107688  -107688 
 -107687  -107686  -107687  -107688  -107688  -107687  -107686  -107686 
 -107686  -107686  -107687  -107686  -107686  -107687  -107689  -107690 
 -107688  -107686  -107687  -107687  -107687  -107686  -107685  -107688 
 -107689  -107687  -107687  -107687  -107687  -107686  -107685  -107686 
 -107688  -107686  -107687  -107687  -107685  -107686  -107688  -107686 
 -107685  -107687  -107686  -107686  -107689  -107689  -107686  -107684 
 -107686  -107689  -107687  -107684  -107688  -107690  -107686  -107687 
 -107690  -107688  -107688  -107688  -107686  -107687  -107687  -107686 
 -107686  -107688  -107687  -107687  -107688  -107688  -107686  -107687 
 -107688  -107688  -107687  -107688  -107686  -107686  -107688  -107686 
 -107685  -107689  -107691  -107689  -107688  -107686  -107686  -107687 
 -107688  -107688  -107687  -107687  -107687  -107686  -107684  -107686 
 -107688  -107687  -107687  -107687  -107686  -107687  -107688  -107688 
 -107688  -107687  -107686  -107687  -107688  -107686  -107685  -107687 
 -107689  -107688  -107689  -107690  -107686  -107683  -107687  -107688 
 -107686  -107687  -107688  -107686  -107687  -107688  -107687  -107688 
 -107689  -107688  -107685  -107685  -107687  -107687  -107686  -107687 
 -107687  -107685  -107685  -107686  -107688  -107688  -107689  -107688 
 -107686  -107685  -107687  -107687  -107687  -107687  -107687  -107686 
 -107686  -107686  -107687  -107688  -107686  -107682  -107682  -107689 
 -107704  -107711  -107689  -107680  -107724  -107761  -107723  -107618 
 -107607  -107792  -107856  -107740  -107787  -107717  -107563  -107728 
 -107559  -107170  -107516  -108011  -107911  -107677  -107754  -107901 
 -107902  -107802  -107352  -106938  -107169  -107622  -107974  -108184 
 -108228  -108169  -107726  -107174  -107219  -107556  -107658  -107907 
 -108305  -108149  -107710  -107500  -107166  -106970  -107439  -107794 
 -107687  -108192  -108810  -107996  -106982  -107336  -107825  -107517 
 -107188  -107264  -107405  -107564  -108204  -108710  -108008  -107083 
 -107154  -107688  -108254  -108585  -107909  -106941  -107256  -108068 
 -107962  -107438  -107110  -107088  -107493  -107862  -107752  -107554 
 -107959  -108362  -107608  -106930  -107689  -108505  -108459  -108042 
 -107397  -106939  -107018  -107360  -107699  -107834  -107836  -107579 
 -106653  -105563  -104906  -104661  -105048  -106332  -108498  -110878 
 -112165  -111587  -109483  -107198  -106093  -106679  -108523  -109880 
 -109506  -108397  -107487  -106240  -104415  -103733  -106275  -110097 
 -111272  -110396  -110415  -111483  -111693  -109730  -106478  -103633 
 -102302  -103600  -106398  -107547  -106793  -106149  -106716  -108426 
 -109748  -109919  -109849  -109063  -107231  -105756  -105294  -106082 
 -107888  -108892  -108299  -107592  -107991  -108757  -108803  -108293 
 -107278  -106109  -106209  -107287  -107874  -107830  -107438  -107312 
 -107920  -108597  -109167  -109554  -109059  -108149  -107502  -107031 
 -107052  -107527  -107985  -108180  -107621  -106680  -106534  -107113 
 -107523  -107552  -107710  -108305  -108771  -108500  -107692  -106884 
 -106626  -107244  -108131  -108365  -108024  -107616  -107278  -107166 
 -107190  -107175  -107408  -107651  -107494  -107585  -108129  -108229 
 -107726  -107457  -107553  -107324  -106900  -106875  -106926  -106891 
 -107297  -107992  -108486  -108773  -108740  -108308  -107792  -107448 
 -107272  -107262  -107555  -107841  -107638  -107473  -107800  -108119 
 -108327  -108448  -108083  -107493  -107236  -107350  -107659  -107754 
 -107595  -107685  -107776  -107494  -107351  -107450  -107423  -107484 
 -107712  -107776  -107754  -107879  -108064  -108150  -108080  -107957 
 -107827  -107658  -107605  -107724  -107767  -107627  -107528  -107561 
 -107621  -107764  -107885  -107739  -107531  -107515  -107643  -107823 
 -107888  -107778  -107699  -107753  -107822  -107807  -107720  -107609 
 -107489  -107355  -107262  -107376  -107586  -107510  -107365  -107581 
 -107840  -107824  -107707  -107551  -107407  -107420  -107530  -107645 
 -107807  -108007  -108054  -107903  -107862  -107966  -107917  -107720 
 -107511  -107379  -107447  -107615  -107712  -107764  -107849  -107918 
 -107829  -107709  -107667  -107521  -107390  -107448  -107530  -107605 
 -107727  -107876  -107949  -107797  -107660  -107726  -107745  -107712 
 -107729  -107675  -107596  -107589  -107653  -107691  -107573  -107562 
 -107788  -107862  -107781  -107809  -107857  -107849  -107782  -107664 
 -107668  -107773  -107759  -107625  -107518  -107522  -107592  -107592 
 -107525  -107501  -107548  -107633  -107684  -107686  -107760  -107911 
 -107974  -107937  -107882  -107761  -107627  -107619  -107669  -107678 
 -107695  -107741  -107791  -107859  -107841  -107704  -107681  -107715 
 -107615  -107609  -107739  -107751  -107701  -107699  -107624  -107467 
 -107417  -107458  -107418  -107442  -107563  -107599  -107725  -107857 
 -107675  -107544  -107697  -107797  -107796  -107757  -107677  -107678 
 -107682  -107612  -107589  -107630  -107702  -107745  -107676  -107604 
 -107638  -107682  -107670  -107660  -107681  -107703  -107724  -107740 
 -107694  -107633  -107641  -107633  -107615  -107695  -107750  -107721 
 -107762  -107858  -107868  -107796  -107761  -107754  -107658  -107569 
 -107633  -107731  -107736  -107721  -107757  -107778  -107743  -107726 
 -107769  -107800  -107751  -107689  -107673  -107655  -107661  -107677 
 -107619  -107593  -107658  -107660  -107646  -107725  -107750  -107680 
 -107638  -107621  -107599  -107585  -107581  -107646  -107733  -107718 
 -107683  -107734  -107797  -107793  -107743  -107730  -107731  -107676 
 -107687  -107764  -107711  -107645  -107718  -107754  -107726  -107687 
 -107599  -107589  -107632  -107565  -107545  -107649  -107734  -107777 
 -107733  -107624  -107592  -107612  -107642  -107687  -107678  -107641 
 -107648  -107638  -107608  -107649  -107710  -107672  -107600  -107587 
 -107574  -107576  -107636  -107669  -107690  -107746  -107758  -107761 
 -107822  -107874  -107891  -107880  -107843  -107845  -107855  -107802 
 -107772  -107785  -107724  -107634  -107630  -107653  -107644  -107635 
 -107612  -107564  -107537  -107538  -107544  -107542  -107567  -107652 
 -107703  -107664  -107662  -107708  -107702  -107691  -107742  -107773 
 -107703  -107654  -107731  -107772  -107732  -107735  -107722  -107669 
 -107652  -107617  -107572  -107619  -107700  -107704  -107686  -107699 
 -107667  -107616  -107659  -107735  -107752  -107735  -107728  -107752 
 -107759  -107739  -107751  -107743  -107689  -107693  -107762  -107788 
 -107746  -107728  -107784  -107795  -107676  -107610  -107671  -107691 
 -107674  -107692  -107675  -107652  -107675  -107678  -107636  -107586 
 -107577  -107605  -107598  -107582  -107604  -107578  -107534  -107620 
 -107735  -107712  -107640  -107635  -107653  -107641  -107635  -107667 
 -107700  -107734  -107771  -107729  -107662  -107685  -107727  -107756 
 -107810  -107796  -107697  -107642  -107689  -107758  -107756  -107718 
 -107721  -107739  -107737  -107728  -107729  -107744  -107701  -107607 
 -107629  -107702  -107645  -107598  -107657  -107656  -107596  -107596 
 -107615  -107605  -107619  -107654  -107656  -107654  -107690  -107732 
 -107760  -107764  -107730  -107691  -107660  -107636  -107648  -107672 
 -107687  -107733  -107764  -107730  -107712  -107749  -107766  -107724 
 -107672  -107659  -107660  -107653  -107662  -107669  -107681  -107716 
 -107713  -107693  -107710  -107714  -107691  -107686  -107700  -107714 
 -107708  -107695  -107700  -107707  -107695  -107659  -107638  -107656 
 -107661  -107654  -107685  -107713  -107699  -107684  -107700  -107732 
 -107716  -107665  -107663  -107666  -107643  -107671  -107711  -107717 
 -107728  -107735  -107730  -107734  -107720  -107700  -107691  -107686 
 -107691  -107679  -107671  -107699  -107698  -107658  -107653  -107672 
 -107675  -107676  -107691  -107709  -107710  -107703  -107708  -107712 
 -107699  -107669  -107651  -107667  -107663  -107634  -107652  -107700 
 -107703  -107679  -107666  -107659  -107643  -107606  -107584  -107618 
 -107656  -107660  -107667  -107681  -107676  -107672  -107688  -107697 
 -107702  -107718  -107738  -107762  -107771  -107754  -107739  -107721 
 -107703  -107705  -107710  -107709  -107715  -107722  -107724  -107707 
 -107685  -107695  -107705  -107688  -107683  -107683  -107661  -107650 
 -107662  -107684  -107703  -107685  -107654  -107645  -107645  -107652 
