Origin Time       2009/12/20 10:06:00
Lat.              34.963
Long.             139.117
Depth. (km)       4
Mag.              2.5
Station Code      SZOH35
Station Lat.      34.9467
Station Long.     139.0855
Station Height(m) -160
Record Time       2009/12/20 10:06:33
Sampling Freq(Hz) 100Hz
Duration Time(s)  120
Dir.              3
Scale Factor      2940(gal)/6170270
Max. Acc. (gal)   1.586
Last Correction   2009/12/20 10:06:18
Memo.             
[...]
    6054     6052     6052     6052     6053     6053     6052     6054 
    6054     6051     6052     6054     6054     6053     6053     6052 
    6053     6053     6052     6053     6052     6052     6052     6053 
    6053     6052     6051     6053     6053     6052     6053     6052 
    6052     6052     6053     6053     6053     6053     6052     6051 
    6053     6054     6053     6052     6052     6052     6052     6053 
    6053     6053     6053     6053     6054     6054     6051     6051 
    6052     6052     6051     6052     6052     6052     6052     6052 
    6051     6052     6053     6051     6050     6053     6054     6052 
    6051     6054     6056     6055     6053     6054     6055     6052 
    6052     6054     6052     6051     6054     6054     6052     6051 
    6052     6052     6051     6051     6052     6051     6050     6051 
    6052     6052     6053     6053     6051     6052     6052     6050 
    6052     6054     6052     6052     6051     6051     6051     6051 
    6052     6052     6051     6054     6055     6051     6050     6052 
    6053     6053     6053     6053     6053     6053     6053     6053 
    6053     6051     6051     6052     6053     6053     6051     6052 
    6055     6054     6051     6051     6051     6049     6050     6052 
    6052     6051     6051     6051     6051     6051     6052     6052 
    6051     6051     6051     6051     6051     6051     6052     6053 
    6052     6051     6052     6052     6052     6053     6055     6054 
    6053     6051     6051     6053     6053     6053     6052     6052 
    6053     6053     6051     6052     6051     6049     6050     6052 
    6051     6052     6052     6051     6052     6052     6053     6054 
    6052     6051     6051     6052     6051     6050     6051     6052 
    6051     6052     6052     6052     6053     6053     6052     6052 
    6054     6054     6053     6052     6052     6054     6054     6053 
    6052     6052     6052     6052     6053     6054     6053     6053 
    6054     6052     6050     6053     6056     6054     6052     6055 
    6056     6054     6053     6052     6052     6053     6054     6052 
    6052     6052     6053     6054     6052     6050     6050     6052 
    6052     6053     6054     6053     6053     6053     6052     6051 
    6051     6052     6054     6052     6050     6051     6052     6052 
    6052     6053     6052     6051     6052     6051     6050     6051 
    6052     6054     6054     6054     6055     6053     6051     6049 
    6049     6052     6053     6052     6052     6053     6052     6052 
    6053     6052     6053     6054     6054     6054     6053     6051 
    6051     6051     6051     6051     6052     6052     6053     6052 
    6050     6050     6052     6053     6054     6053     6052     6053 
    6052     6051     6052     6052     6050     6050     6052     6052 
    6052     6052     6050     6052     6053     6053     6053     6053 
    6053     6053     6053     6052     6052     6054     6052     6051 
    6050     6051     6052     6052     6051     6052     6051     6052 
    6053     6051     6051     6052     6050     6050     6052     6051 
    6051     6052     6053     6053     6052     6052     6051     6052 
    6053     6052     6052     6054     6053     6049     6050     6052 
    6052     6051     6050     6049     6051     6052     6051     6051 
    6052     6052     6050     6050     6051     6053     6054     6052 
    6051     6053     6054     6052     6053     6054     6052     6052 
    6053     6053     6053     6052     6051     6052     6052     6051 
    6052     6051     6052     6054     6053     6054     6054     6053 
    6052     6052     6051     6051     6052     6054     6052     6051 
    6053     6052     6051     6051     6051     6051     6053     6053 
    6052     6049     6049     6053     6054     6050     6050     6050 
    6051     6053     6053     6053     6053     6053     6051     6052 
    6054     6052     6050     6051     6052     6052     6052     6053 
    6053     6052     6051     6051     6051     6052     6053     6054 
    6051     6051     6054     6054     6051     6052     6054     6055 
    6054     6053     6054     6054     6052     6050     6050     6052 
    6052     6050     6051     6050     6050     6053     6053     6050 
    6050     6052     6054     6052     6050     6052     6054     6051 
    6052     6055     6053     6053     6055     6054     6053     6053 
    6052     6051     6052     6053     6053     6052     6052     6052 
    6052     6053     6054     6051     6050     6050     6050     6052 
    6053     6052     6052     6054     6054     6052     6052     6053 
    6053     6053     6052     6051     6052     6053     6053     6052 
    6053     6054     6052     6051     6053     6053     6053     6052 
    6052     6051     6051     6052     6054     6054     6052     6051 
    6052     6052     6052     6053     6052     6053     6053     6052 
    6053     6053     6053     6052     6050     6050     6051     6051 
    6053     6054     6052     6052     6053     6052     6053     6054 
    6053     6050     6050     6051     6052     6052     6051     6052 
    6053     6052     6051     6052     6052     6051     6051     6052 
    6053     6052     6052     6053     6052     6052     6053     6052 
    6050     6050     6052     6052     6052     6052     6051     6051 
    6052     6051     6052     6053     6051     6050     6052     6052 
    6052     6052     6051     6051     6052     6052     6052     6053 
    6054     6054     6053     6053     6053     6051     6051     6053 
    6054     6053     6052     6053     6053     6052     6053     6055 
    6053     6051     6053     6052     6053     6056     6055     6052 
    6052     6053     6053     6052     6054     6055     6052     6050 
    6052     6055     6054     6053     6053     6053     6052     6051 
    6052     6053     6053     6052     6052     6052     6051     6051 
    6052     6052     6052     6053     6053     6052     6053     6054 
    6053     6053     6053     6052     6049     6050     6052     6051 
    6050     6052     6053     6052     6052     6052     6053     6054 
    6053     6052     6052     6052     6052     6052     6053     6053 
    6051     6052     6054     6051     6050     6052     6053     6054 
    6053     6052     6052     6051     6050     6051     6051     6052 
    6053     6053     6053     6053     6052     6050     6049     6051 
    6053     6053     6052     6052     6051     6050     6051     6055 
    6055     6053     6052     6051     6050     6052     6055     6055 
    6054     6050     6048     6051     6053     6054     6055     6053 
    6050     6049     6051     6053     6054     6054     6052     6051 
    6051     6050     6053     6055     6052     6049     6049     6051 
    6053     6054     6055     6054     6053     6053     6051     6051 
    6054     6055     6053     6052     6051     6050     6052     6054 
    6053     6052     6052     6051     6053     6053     6052     6053 
    6053     6050     6051     6052     6052     6053     6055     6052 
    6050     6051     6053     6052     6052     6053     6052     6050 
    6050     6050     6050     6052     6052     6051     6052     6053 
    6052     6053     6053     6052     6052     6053     6052     6052 
    6053     6052     6052     6053     6052     6051     6053     6053 
    6051     6052     6053     6052     6050     6052     6052     6050 
    6052     6055     6052     6049     6052     6055     6053     6052 
    6051     6052     6053     6052     6051     6052     6053     6053 
    6052     6053     6054     6053     6052     6051     6052     6053 
    6053     6052     6052     6053     6053     6051     6051     6053 
    6054     6053     6051     6050     6051     6052     6052     6051 
    6052     6051     6050     6053     6053     6053     6054     6054 
    6052     6050     6051     6053     6053     6052     6051     6051 
    6051     6052     6052     6051     6052     6053     6054     6053 
    6051     6051     6053     6052     6052     6052     6052     6053 
    6052     6051     6052     6052     6052     6052     6053     6054 
    6051     6051     6054     6054     6052     6053     6053     6051 
    6052     6053     6054     6054     6051     6052     6055     6053 
    6050     6051     6052     6053     6055     6054     6052     6051 
    6049     6050     6054     6054     6053     6053     6051     6052 
    6054     6053     6052     6053     6052     6049     6050     6054 
    6054     6053     6053     6053     6052     6053     6054     6054 
    6053     6053     6053     6053     6052     6054     6054     6052 
    6053     6054     6052     6052     6053     6052     6054     6054 
    6053     6052     6051     6052     6054     6053     6051     6053 
    6053     6052     6053     6053     6052     6053     6055     6053 
    6053     6053     6051     6051     6052     6053     6052     6053 
    6053     6052     6052     6054     6054     6053     6051     6052 
    6052     6051     6051     6051     6053     6053     6052     6053 
    6053     6051     6052     6053     6051     6051     6051     6053 
    6054     6051     6051     6052     6052     6051     6052     6051 
    6051     6053     6051     6052     6053     6052     6052     6053 
    6053     6052     6051     6050     6052     6053     6052     6052 
    6054     6054     6051     6050     6052     6052     6052     6052 
    6051     6051     6051     6050     6051     6052     6052     6054 
    6054     6051     6052     6054     6052     6051     6051     6051 
    6051     6051     6050     6049     6051     6052     6052     6051 
    6053     6055     6053     6052     6053     6053     6051     6051 
    6054     6052     6051     6052     6053     6052     6053     6052 
    6052     6053     6053     6054     6052     6051     6052     6054 
    6053     6051     6051     6050     6050     6052     6055     6053 
    6050     6052     6054     6052     6051     6053     6052     6051 
    6052     6052     6053     6054     6054     6053     6053     6053 
    6052     6053     6054     6053     6054     6052     6051     6052 
    6052     6051     6053     6053     6053     6053     6053     6054 
    6055     6053     6051     6051     6052     6053     6051     6050 
    6053     6054     6054     6054     6053     6052     6053     6052 
    6052     6053     6054     6055     6054     6052     6051     6051 
    6052     6051     6052     6052     6052     6053     6053     6051 
    6051     6052     6052     6053     6053     6052     6052     6052 
    6052     6051     6051     6053     6053     6051     6051     6052 
    6052     6051     6053     6053     6052     6051     6052     6052 
    6052     6054     6055     6053     6052     6052     6052     6053 
    6053     6053     6052     6051     6052     6053     6054     6054 
    6052     6051     6051     6052     6053     6055     6055     6053 
    6054     6054     6051     6052     6053     6052     6052     6054 
    6054     6054     6056     6055     6053     6052     6052     6053 
    6053     6053     6053     6053     6053     6052     6052     6052 
    6054     6055     6052     6051     6054     6055     6053     6053 
    6052     6051     6052     6053     6053     6053     6053     6053 
    6054     6054     6052     6051     6053     6053     6053     6053 
    6053     6054     6055     6054     6052     6052     6052     6052 
    6054     6054     6051     6053     6054     6051     6052     6054 
    6054     6053     6053     6052     6052     6053     6053     6054 
    6055     6055     6054     6052     6052     6054     6056     6057 
    6056     6053     6051     6052     6052     6052     6053     6055 
    6054     6053     6052     6052     6053     6054     6055     6054 
    6053     6051     6050     6053     6056     6054     6052     6052 
    6053     6054     6054     6052     6052     6053     6054     6055 
    6054     6053     6058     6065     6079     6107     6144     6178 
    6187     6191     6273     6361     6201     5778     5428     5424 
    5547     5421     5583     6427     6789     6545     6675     6549 
    6231     6509     6283     5341     5262     6185     6401     5568 
    5326     5920     6448     6388     5699     5376     5425     5418 
    6368     7848     7971     6718     5485     5093     5588     5849 
    4905     4597     6100     7112     6667     6189     6157     6598 
    7409     6792     4688     4660     6477     6590     5969     6089 
    5674     5158     5675     6520     6501     5986     6177     6656 
    6520     5827     5215     5556     6569     7189     6762     5482 
    4952     5647     6064     6056     6374     6603     6428     6339 
    6174     5380     5246     6556     6914     5512     4744     5310 
    6067     6828     7593     7422     6133     5254     5577     6074 
    6298     6689     6495     5092     4270     5264     6585     7163 
    6734     5180     4305     4883     5327     5917     7390     8173 
    7204     5390     4483     5360     6640     6701     6055     5819 
    5778     5458     5302     5996     7585     8938     8385     6079 
    4448     4939     6076     5967     4776     3894     4107     5104 
    6424     7507     7470     6796     6433     5420     3873     4390 
    7202     9381     9360     7854     5989     4842     4711     4682 
    4388     4744     6030     7377     8338     8690     8124     7050 
    5892     4930     4667     4678     4403     4518     5372     6235 
    6570     6349     5549     4578     4624     5928     7159     7591 
    7443     6661     5540     4960     5183     5793     6349     6546 
    6298     5746     5454     5839     6384     6558     6448     6327 
    6303     6098     5608     5327     5528     5900     6088     6162 
    6456     6734     6612     6394     6278     6135     6052     6024 
    5887     5743     5796     6007     6254     6315     6071     5819 
    5772     5857     5988     6006     5895     5784     5756     6063 
    6582     6694     6343     5914     5714     5974     6387     6519 
    6462     6368     6250     6078     5923     6021     6229     6203 
    5968     5605     5286     5332     5605     5782     5909     6058 
    6106     5992     5946     6041     6018     6022     6231     6416 
    6542     6484     6158     5991     6066     6189     6314     6254 
    6141     6184     6114     5976     5996     6059     6156     6186 
    6005     5829     5762     5715     5756     5959     6126     6093 
    6050     6122     6215     6247     6162     6040     5968     5942 
    6019     6105     6028     5918     5914     5877     5835     5840 
    5785     5812     5936     6070     6259     6241     6017     5961 
    6076     6197     6218     6074     5972     6100     6219     6083 
    5927     5980     6075     6054     6015     6102     6197     6104 
    6022     6167     6296     6231     6109     6004     5953     5997 
    6022     6002     6107     6263     6262     6215     6216     6187 
    6146     6092     6024     6014     6047     6068     6093     6095 
    6013     5924     5912     5904     5843     5839     5960     6052 
    6046     6043     6062     6068     6034     5986     6013     6077 
    6074     6008     5959     5964     6002     6075     6108     5981 
    5886     6005     6132     6217     6348     6321     6090     5953 
    5979     6003     6008     6003     5950     5938     6003     6015 
    5959     5953     6015     6092     6164     6177     6130     6120 
    6128     6101     6102     6150     6158     6080     5983     5944 
    5963     6017     6029     5968     5943     5980     6020     6072 
    6067     6014     6098     6246     6243     6160     6148     6178 
    6161     6117     6107     6105     6099     6088     6000     5871 
    5861     5943     6001     6068     6073     5983     5990     6066 
    6045     6036     6093     6078     5999     5955     5989     6095 
    6177     6149     6060     5991     5981     5985     5948     5913 
    5917     5937     5960     5959     5934     5965     6047     6064 
    6008     5988     6037     6134     6235     6219     6106     6070 
    6111     6118     6113     6145     6150     6104     6066     6059 
    6088     6134     6130     6077     6049     6071     6079     6032 
    6010     6044     6075     6113     6141     6110     6079     6080 
    6060     6032     6046     6075     6068     6044     6026     6015 
    6014     5990     5957     5972     5986     5977     5998     6004 
    5984     6028     6113     6133     6079     6048     6067     6087 
    6094     6086     6090     6123     6111     6065     6058     6069 
    6049     6009     6015     6044     6000     5962     6015     6051 
    6019     5987     5997     6059     6129     6131     6088     6071 
    6097     6128     6116     6111     6146     6127     6050     6027 
    6051     6034     5985     5971     5970     5960     5979     5992 
    5968     5967     6017     6077     6092     6068     6078     6113 
    6104     6072     6069     6066     6041     6050     6078     6055 
    6022     6051     6084     6058     6037     6058     6066     6039 
    6013     6000     5991     5994     6035     6071     6053     6047 
    6075     6061     6047     6073     6049     5994     6026     6082 
    6075     6059     6041     6008     6034     6101     6106     6062 
    6048     6075     6089     6061     6042     6073     6100     6093 
    6118     6134     6065     6035     6094     6114     6087     6078 
    6051     6013     6015     6035     6048     6063     6043     6001 
    5996     6014     6023     6026     6029     6045     6062     6052 
    6026     6020     6049     6063     6052     6051     6033     6020 
    6050     6074     6071     6066     6064     6061     6062     6064 
    6046     6020     6015     6024     6036     6050     6052     6047 
    6064     6085     6069     6061     6101     6115     6073     6047 
    6068     6087     6072     6036     6010     6023     6046     6024 
    5998     6022     6053     6055     6058     6068     6065     6051 
    6043     6051     6061     6046     6024     6027     6057     6085 
    6069     6031     6035     6064     6052     6025     6035     6064 
    6067     6038     6034     6073     6084     6064     6076     6097 
    6087     6081     6094     6088     6070     6067     6068     6061 
    6052     6045     6043     6060     6082     6067     6040     6041 
    6039     6022     6024     6044     6055     6051     6047     6041 
    6034     6050     6070     6058     6040     6040     6053     6065 
    6050     6036     6049     6049     6040     6054     6060     6055 
    6062     6056     6044     6053     6056     6043     6045     6041 
    6020     6025     6049     6046     6029     6020     6022     6041 
    6055     6058     6074     6087     6070     6055     6061     6072 
    6080     6067     6041     6034     6038     6046     6065     6067 
    6063     6076     6086     6079     6070     6073     6087     6084 
    6071     6077     6075     6070     6084     6087     6059     6035 
