Origin Time       2009/12/20 10:06:00
Lat.              34.963
Long.             139.117
Depth. (km)       4
Mag.              2.5
Station Code      SZOH35
Station Lat.      34.9467
Station Long.     139.0855
Station Height(m) 140
Record Time       2009/12/20 10:06:33
Sampling Freq(Hz) 100Hz
Duration Time(s)  120
Dir.              4
Scale Factor      3920(gal)/6170801
Max. Acc. (gal)   9.314
Last Correction   2009/12/20 10:06:18
Memo.             
[...]
   -4288    -4298    -4352    -4380    -4390    -4402    -4393    -4371 
   -4328    -4293    -4331    -4376    -4372    -4361    -4360    -4390 
   -4402    -4344    -4332    -4367    -4333    -4293    -4324    -4345 
   -4339    -4365    -4389    -4375    -4354    -4334    -4341    -4379 
   -4382    -4357    -4372    -4413    -4413    -4382    -4357    -4320 
   -4297    -4316    -4317    -4306    -4327    -4353    -4364    -4359 
   -4365    -4398    -4407    -4399    -4399    -4366    -4334    -4339 
   -4337    -4339    -4350    -4335    -4333    -4354    -4348    -4347 
   -4376    -4382    -4366    -4349    -4331    -4335    -4345    -4326 
   -4314    -4322    -4337    -4370    -4398    -4401    -4394    -4382 
   -4374    -4376    -4374    -4358    -4337    -4318    -4316    -4340 
   -4366    -4382    -4384    -4366    -4366    -4380    -4361    -4368 
   -4410    -4391    -4345    -4340    -4321    -4289    -4286    -4290 
   -4324    -4399    -4428    -4397    -4368    -4338    -4317    -4319 
   -4305    -4300    -4348    -4397    -4422    -4427    -4401    -4370 
   -4330    -4290    -4312    -4356    -4377    -4412    -4432    -4410 
   -4379    -4328    -4282    -4288    -4312    -4344    -4403    -4437 
   -4421    -4381    -4326    -4289    -4289    -4309    -4342    -4370 
   -4382    -4385    -4374    -4351    -4335    -4323    -4326    -4361 
   -4385    -4380    -4381    -4377    -4366    -4361    -4340    -4325 
   -4349    -4380    -4378    -4349    -4331    -4347    -4373    -4395 
   -4405    -4387    -4362    -4348    -4327    -4314    -4335    -4356 
   -4353    -4352    -4366    -4368    -4346    -4322    -4323    -4340 
   -4347    -4344    -4352    -4367    -4382    -4392    -4377    -4352 
   -4346    -4340    -4336    -4357    -4381    -4383    -4375    -4376 
   -4392    -4412    -4403    -4363    -4336    -4318    -4295    -4303 
   -4326    -4336    -4351    -4358    -4345    -4344    -4358    -4368 
   -4375    -4374    -4361    -4350    -4357    -4366    -4352    -4333 
   -4331    -4348    -4371    -4381    -4367    -4369    -4400    -4408 
   -4380    -4355    -4346    -4330    -4299    -4280    -4298    -4333 
   -4340    -4331    -4343    -4371    -4398    -4430    -4459    -4456 
   -4416    -4370    -4338    -4308    -4290    -4300    -4319    -4336 
   -4358    -4377    -4377    -4359    -4338    -4323    -4315    -4322 
   -4356    -4393    -4400    -4380    -4352    -4330    -4318    -4317 
   -4328    -4347    -4362    -4380    -4406    -4408    -4368    -4341 
   -4356    -4374    -4367    -4355    -4362    -4373    -4361    -4348 
   -4356    -4371    -4378    -4380    -4372    -4352    -4317    -4289 
   -4300    -4331    -4341    -4336    -4345    -4359    -4367    -4359 
   -4351    -4367    -4385    -4385    -4374    -4358    -4350    -4360 
   -4360    -4341    -4325    -4322    -4333    -4358    -4373    -4370 
   -4371    -4380    -4385    -4381    -4364    -4346    -4341    -4336 
   -4325    -4322    -4334    -4348    -4357    -4372    -4385    -4383 
   -4376    -4374    -4360    -4333    -4319    -4327    -4342    -4352 
   -4369    -4393    -4396    -4372    -4351    -4339    -4338    -4345 
   -4349    -4372    -4422    -4436    -4378    -4294    -4244    -4257 
   -4315    -4374    -4420    -4438    -4422    -4395    -4359    -4317 
   -4305    -4323    -4346    -4362    -4360    -4340    -4320    -4326 
   -4353    -4367    -4357    -4348    -4350    -4363    -4389    -4417 
   -4415    -4374    -4331    -4307    -4292    -4297    -4332    -4380 
   -4413    -4416    -4393    -4364    -4346    -4353    -4367    -4367 
   -4373    -4372    -4345    -4320    -4321    -4338    -4355    -4357 
   -4347    -4338    -4344    -4361    -4375    -4384    -4383    -4354 
   -4319    -4320    -4352    -4384    -4399    -4395    -4369    -4329 
   -4290    -4282    -4317    -4362    -4395    -4408    -4392    -4376 
   -4364    -4351    -4351    -4346    -4347    -4382    -4400    -4380 
   -4360    -4350    -4346    -4338    -4320    -4299    -4291    -4320 
   -4367    -4378    -4356    -4343    -4352    -4361    -4359    -4360 
   -4383    -4417    -4425    -4390    -4336    -4299    -4295    -4309 
   -4316    -4331    -4369    -4406    -4407    -4375    -4348    -4336 
   -4328    -4336    -4362    -4387    -4406    -4407    -4385    -4360 
   -4348    -4331    -4309    -4307    -4325    -4353    -4391    -4418 
   -4401    -4349    -4308    -4297    -4304    -4324    -4351    -4378 
   -4391    -4379    -4360    -4348    -4345    -4365    -4385    -4377 
   -4375    -4378    -4365    -4357    -4347    -4332    -4338    -4343 
   -4351    -4375    -4373    -4335    -4314    -4332    -4358    -4374 
   -4374    -4360    -4361    -4369    -4357    -4346    -4334    -4319 
   -4322    -4328    -4333    -4359    -4388    -4398    -4395    -4377 
   -4361    -4360    -4347    -4341    -4359    -4372    -4380    -4396 
   -4388    -4364    -4364    -4372    -4360    -4340    -4340    -4352 
   -4354    -4350    -4346    -4336    -4339    -4357    -4361    -4351 
   -4334    -4310    -4299    -4316    -4335    -4355    -4382    -4395 
   -4395    -4389    -4368    -4336    -4318    -4322    -4336    -4357 
   -4384    -4387    -4369    -4364    -4366    -4356    -4331    -4317 
   -4344    -4383    -4401    -4401    -4381    -4363    -4358    -4351 
   -4347    -4355    -4370    -4377    -4374    -4368    -4346    -4310 
   -4283    -4290    -4337    -4376    -4383    -4383    -4380    -4379 
   -4377    -4357    -4339    -4345    -4363    -4371    -4364    -4359 
   -4361    -4349    -4328    -4306    -4296    -4327    -4383    -4407 
   -4396    -4380    -4355    -4338    -4344    -4340    -4346    -4381 
   -4398    -4388    -4368    -4346    -4337    -4335    -4331    -4338 
   -4358    -4382    -4394    -4375    -4338    -4314    -4323    -4349 
   -4358    -4360    -4383    -4409    -4400    -4363    -4346    -4368 
   -4389    -4365    -4322    -4312    -4331    -4343    -4339    -4338 
   -4352    -4369    -4379    -4388    -4398    -4389    -4351    -4313 
   -4305    -4330    -4358    -4353    -4341    -4356    -4373    -4380 
   -4389    -4381    -4359    -4348    -4336    -4332    -4351    -4379 
   -4399    -4401    -4384    -4354    -4323    -4314    -4331    -4349 
   -4353    -4359    -4365    -4351    -4340    -4354    -4370    -4366 
   -4348    -4341    -4361    -4389    -4385    -4347    -4313    -4303 
   -4312    -4332    -4344    -4354    -4397    -4442    -4427    -4386 
   -4359    -4331    -4326    -4351    -4362    -4367    -4375    -4366 
   -4356    -4338    -4320    -4333    -4353    -4366    -4386    -4390 
   -4363    -4328    -4331    -4374    -4400    -4378    -4345    -4335 
   -4343    -4353    -4345    -4323    -4321    -4334    -4345    -4368 
   -4377    -4366    -4356    -4334    -4315    -4333    -4362    -4380 
   -4396    -4382    -4338    -4327    -4350    -4363    -4377    -4379 
   -4350    -4337    -4355    -4360    -4357    -4375    -4388    -4377 
   -4376    -4387    -4373    -4347    -4331    -4335    -4360    -4361 
   -4336    -4334    -4351    -4361    -4363    -4352    -4339    -4350 
   -4365    -4359    -4348    -4345    -4345    -4326    -4304    -4320 
   -4351    -4373    -4387    -4386    -4375    -4374    -4374    -4360 
   -4356    -4364    -4359    -4349    -4347    -4348    -4342    -4340 
   -4359    -4375    -4371    -4354    -4332    -4330    -4364    -4390 
   -4375    -4357    -4350    -4343    -4354    -4345    -4308    -4321 
   -4369    -4392    -4383    -4353    -4334    -4356    -4389    -4398 
   -4383    -4356    -4337    -4338    -4340    -4324    -4314    -4333 
   -4363    -4389    -4413    -4418    -4380    -4318    -4274    -4274 
   -4325    -4395    -4425    -4414    -4392    -4368    -4346    -4323 
   -4304    -4321    -4357    -4372    -4374    -4369    -4355    -4346 
   -4342    -4335    -4334    -4339    -4353    -4385    -4410    -4396 
   -4357    -4329    -4325    -4334    -4343    -4347    -4359    -4388 
   -4411    -4399    -4359    -4315    -4293    -4298    -4316    -4348 
   -4388    -4414    -4400    -4368    -4346    -4335    -4347    -4371 
   -4381    -4391    -4400    -4388    -4358    -4324    -4303    -4308 
   -4329    -4355    -4367    -4353    -4337    -4340    -4344    -4353 
   -4374    -4366    -4348    -4358    -4366    -4365    -4362    -4351 
   -4352    -4359    -4354    -4339    -4344    -4390    -4423    -4407 
   -4372    -4342    -4332    -4345    -4361    -4365    -4360    -4364 
   -4355    -4317    -4282    -4274    -4307    -4352    -4379    -4410 
   -4421    -4386    -4349    -4331    -4333    -4362    -4391    -4409 
   -4413    -4400    -4374    -4341    -4324    -4325    -4313    -4295 
   -4313    -4358    -4375    -4362    -4357    -4366    -4367    -4352 
   -4327    -4336    -4381    -4414    -4411    -4373    -4334    -4326 
   -4322    -4308    -4298    -4307    -4363    -4430    -4435    -4392 
   -4350    -4323    -4317    -4326    -4351    -4389    -4401    -4381 
   -4364    -4349    -4331    -4325    -4323    -4323    -4351    -4390 
   -4408    -4408    -4390    -4355    -4326    -4314    -4324    -4341 
   -4356    -4385    -4409    -4390    -4344    -4317    -4326    -4332 
   -4323    -4330    -4358    -4379    -4387    -4388    -4385    -4375 
   -4354    -4326    -4306    -4316    -4342    -4362    -4373    -4372 
   -4367    -4346    -4302    -4290    -4332    -4391    -4429    -4419 
   -4385    -4369    -4359    -4339    -4326    -4330    -4352    -4376 
   -4385    -4372    -4350    -4325    -4315    -4339    -4368    -4376 
   -4379    -4379    -4382    -4381    -4359    -4338    -4330    -4345 
   -4368    -4365    -4356    -4344    -4313    -4302    -4311    -4339 
   -4393    -4421    -4403    -4363    -4330    -4325    -4330    -4334 
   -4345    -4353    -4364    -4370    -4368    -4376    -4376    -4346 
   -4326    -4348    -4373    -4369    -4362    -4351    -4346    -4364 
   -4366    -4368    -4386    -4366    -4329    -4333    -4364    -4379 
   -4353    -4317    -4324    -4355    -4357    -4342    -4349    -4366 
   -4375    -4375    -4365    -4363    -4364    -4363    -4359    -4341 
   -4332    -4335    -4337    -4356    -4373    -4367    -4372    -4385 
   -4382    -4365    -4347    -4351    -4374    -4383    -4368    -4349 
   -4346    -4349    -4330    -4302    -4311    -4356    -4375    -4353 
   -4342    -4348    -4350    -4349    -4341    -4341    -4365    -4379 
   -4382    -4386    -4369    -4349    -4343    -4349    -4367    -4375 
   -4371    -4369    -4368    -4366    -4357    -4351    -4361    -4356 
   -4335    -4331    -4340    -4348    -4365    -4380    -4368    -4357 
   -4348    -4331    -4352    -4389    -4380    -4356    -4341    -4333 
   -4336    -4343    -4373    -4400    -4377    -4338    -4324    -4346 
   -4355    -4312    -4299    -4347    -4381    -4380    -4370    -4346 
   -4316    -4330    -4361    -4363    -4405    -4458    -4420    -4368 
   -4342    -4308    -4310    -4335    -4352    -4365    -4361    -4352 
   -4357    -4375    -4370    -4335    -4333    -4360    -4376    -4378 
   -4359    -4340    -4339    -4349    -4367    -4378    -4372    -4338 
   -4309    -4333    -4368    -4378    -4378    -4369    -4351    -4322 
   -4310    -4337    -4385    -4415    -4400    -4373    -4370    -4351 
   -4337    -4364    -4374    -4362    -4358    -4335    -4314    -4326 
   -4337    -4347    -4369    -4375    -4364    -4364    -4359    -4348 
   -4348    -4341    -4345    -4367    -4373    -4368    -4360    -4333 
   -4322    -4343    -4357    -4358    -4359    -4367    -4382    -4386 
   -4367    -4358    -4364    -4369    -4373    -4362    -4334    -4325 
   -4337    -4346    -4359    -4377    -4388    -4391    -4386    -4370 
   -4347    -4327    -4316    -4323    -4347    -4369    -4375    -4364 
   -4350    -4338    -4330    -4324    -4316    -4325    -4354    -4370 
   -4385    -4397    -4380    -4375    -4386    -4360    -4344    -4361 
   -4358    -4351    -4350    -4326    -4317    -4344    -4378    -4416 
   -4433    -4396    -4355    -4343    -4332    -4315    -4303    -4292 
   -4293    -4310    -4332    -4348    -4358    -4389    -4403    -4345 
   -4281    -4287    -4329    -4359    -4374    -4455    -4633    -4684 
   -4436    -4077    -3830    -3702    -3646    -3678    -3963    -4732 
   -5751    -6247    -5813    -4879    -3932    -3084    -2643    -2971 
   -3673    -4103    -4286    -4611    -5135    -5418    -5034    -4434 
   -4529    -5214    -5559    -5359    -5063    -4554    -3430    -2236 
   -2211    -3552    -4943    -5312    -4783    -3860    -3176    -3370 
   -4223    -5045    -5543    -5399    -4596    -4050    -4164    -4144 
   -3783    -3930    -4853    -5745    -5848    -5209    -4415    -3820 
   -3263    -2750    -2770    -3436    -4131    -4400    -4570    -5200 
   -6196    -6669    -5816    -4001    -2618    -2598    -3451    -4067 
   -4022    -3908    -4416    -5254    -5633    -5485    -5103    -4331 
   -3273    -2713    -3190    -4437    -5651    -6011    -5357    -4286 
   -3510    -3303    -3440    -3594    -3719    -3852    -3911    -4055 
   -4810    -6465    -8665   -10700   -11990   -12272   -11415    -9282 
   -6088    -2778     -459      513      495       -5     -532     -781 
    -736     -581     -465     -448     -637    -1109    -1611    -1458 
      55     2961     6391     8919     9069     6062      377    -6558 
  -13034   -17512   -19017   -17529   -14230   -11019    -9198    -8650 
   -8421    -7843    -7002    -6486    -6959    -8720   -11484   -14490 
  -16608   -16470   -13234    -7386     -505     5414     8645     8682 
    6278     2511    -1651    -5259    -7203    -6554    -3598      147 
    3269     5105     5406     4112     1538    -1525    -4102    -5480 
   -5695    -5621    -5988    -6602    -6895    -6684    -6230    -5861 
   -5638    -5496    -5340    -4900    -3950    -2718    -1893    -2197 
   -3907    -6689    -9827   -12649   -14557   -14910   -13496   -10839 
   -7783    -5163    -3689    -3596    -4480    -5591    -6206    -5872 
   -4583    -2689     -669     1000     2103     2808     3328     3679 
    3773     3402     2287      352    -2053    -4202    -5435    -5565 
   -4770    -3392    -2020    -1338    -1714    -3175    -5451    -7872 
   -9757   -10798   -10924   -10352    -9500    -8595    -7802    -7404 
   -7387    -7420    -7305    -6980    -6384    -5583    -4699    -3806 
   -3051    -2638    -2624    -2897    -3324    -3800    -4182    -4323 
   -4176    -3748    -3093    -2389    -1822    -1480    -1390    -1533 
   -1843    -2207    -2483    -2613    -2617    -2521    -2391    -2348 
   -2466    -2756    -3238    -3942    -4850    -5842    -6801    -7716 
   -8494    -8907    -8783    -8074    -6973    -5838    -4848    -4063 
   -3634    -3590    -3775    -4092    -4454    -4710    -4824    -4910 
   -4997    -5066    -5187    -5409    -5627    -5690    -5491    -5007 
   -4345    -3607    -2785    -1907    -1114     -483      -24      138 
    -158     -885    -1877    -3055    -4393    -5706    -6742    -7441 
   -7851    -7947    -7734    -7307    -6748    -6106    -5402    -4667 
   -4026    -3614    -3397    -3250    -3152    -3156    -3221    -3263 
   -3283    -3324    -3430    -3618    -3856    -4182    -4684    -5300 
   -5873    -6283    -6418    -6233    -5780    -5150    -4459    -3857 
   -3461    -3240    -3042    -2814    -2663    -2649    -2680    -2662 
   -2623    -2641    -2749    -2944    -3210    -3549    -4005    -4591 
   -5202    -5724    -6190    -6628    -6930    -7062    -7125    -7171 
   -7202    -7193    -7030    -6679    -6288    -5960    -5643    -5307 
   -4989    -4648    -4166    -3502    -2737    -1975    -1318     -840 
    -554     -481     -650    -1042    -1622    -2339    -3116    -3877 
   -4587    -5207    -5639    -5857    -5981    -6093    -6193    -6294 
   -6383    -6388    -6225    -5798    -5106    -4300    -3498    -2711 
   -2007    -1507    -1281    -1326    -1534    -1753    -1968    -2290 
   -2772    -3397    -4185    -5124    -6100    -6999    -7766    -8351 
   -8739    -8953    -8955    -8702    -8275    -7753    -7125    -6390 
   -5587    -4753    -3953    -3263    -2710    -2269    -1929    -1713 
   -1633    -1654    -1738    -1862    -1994    -2063    -2010    -1865 
   -1737    -1727    -1842    -2039    -2321    -2699    -3156    -3675 
   -4232    -4811    -5390    -5917    -6341    -6660    -6903    -7083 
   -7183    -7201    -7137    -7019    -6887    -6705    -6441    -6142 
   -5841    -5529    -5235    -5007    -4837    -4684    -4517    -4309 
   -4051    -3790    -3596    -3469    -3347    -3185    -2989    -2794 
   -2645    -2558    -2517    -2525    -2568    -2605    -2638    -2708 
   -2811    -2911    -3000    -3092    -3192    -3301    -3423    -3584 
   -3838    -4202    -4616    -5000    -5327    -5624    -5921    -6191 
   -6392    -6550    -6685    -6732    -6649    -6477    -6259    -6014 
   -5738    -5421    -5095    -4817    -4580    -4337    -4081    -3831 
   -3611    -3449    -3364    -3343    -3349    -3360    -3389    -3420 
   -3435    -3471    -3556    -3672    -3807    -3940    -4030    -4059 
   -4045    -4014    -3975    -3932    -3882    -3820    -3775    -3781 
   -3841    -3959    -4150    -4388    -4632    -4865    -5069    -5217 
   -5318    -5403    -5464    -5485    -5468    -5396    -5256    -5064 
   -4845    -4638    -4481    -4382    -4326    -4304    -4298    -4263 
   -4174    -4071    -3979    -3888    -3802    -3743    -3695    -3647 
   -3647    -3723    -3833    -3930    -4001    -4068    -4159    -4240 
   -4254    -4225    -4204    -4184    -4171    -4204    -4285    -4392 
   -4519    -4649    -4772    -4894    -5027    -5153    -5238    -5266 
   -5254    -5220    -5154    -5039    -4890    -4740    -4597    -4453 
   -4306    -4162    -4013    -3846    -3682    -3556    -3469    -3413 
   -3389    -3398    -3444    -3500    -3554    -3659    -3847    -4090 
   -4361    -4608    -4789    -4922    -5004    -5024    -5017    -4999 
   -4953    -4879    -4796    -4711    -4631    -4568    -4529    -4505 
   -4485    -4436    -4360    -4295    -4250    -4209    -4182    -4183 
   -4220    -4292    -4380    -4465    -4535    -4567    -4528    -4421 
   -4299    -4215    -4177    -4160    -4127    -4071    -4016    -3976 
   -3956    -3964    -3993    -4032    -4079    -4110    -4116    -4117 
   -4133    -4178    -4238    -4281    -4301    -4338    -4401    -4465 
   -4514    -4551    -4582    -4606    -4616    -4621    -4649    -4700 
   -4755    -4799    -4820    -4841    -4881    -4903    -4882    -4847 
   -4811    -4755    -4676    -4587    -4502    -4433    -4366    -4251 
   -4094    -3942    -3803    -3682    -3602    -3553    -3521    -3529 
   -3570    -3615    -3654    -3699    -3767    -3864    -3986    -4130 
   -4295    -4473    -4653    -4820    -4958    -5067    -5147    -5197 
   -5221    -5221    -5192    -5128    -5040    -4949    -4840    -4705 
   -4584    -4491    -4392    -4268    -4134    -4029    -3977    -3961 
   -3960    -3966    -3968    -3949    -3906    -3851    -3821    -3833 
   -3862    -3897    -3952    -4015    -4073    -4120    -4142    -4146 
   -4166    -4213    -4273    -4349    -4446    -4539    -4607    -4668 
