Origin Time       2009/12/20 10:06:00
Lat.              34.963
Long.             139.117
Depth. (km)       4
Mag.              2.5
Station Code      SZOH35
Station Lat.      34.9467
Station Long.     139.0855
Station Height(m) -160
Record Time       2009/12/20 10:06:33
Sampling Freq(Hz) 100Hz
Duration Time(s)  120
Dir.              2
Scale Factor      2940(gal)/6170270
Max. Acc. (gal)   2.101
Last Correction   2009/12/20 10:06:18
Memo.             
[...]
   12785    12783    12783    12786    12785    12784    12786    12787 
   12786    12783    12784    12785    12786    12785    12784    12785 
   12785    12784    12783    12783    12784    12786    12787    12786 
   12786    12784    12782    12784    12785    12785    12785    12784 
   12783    12783    12783    12785    12784    12783    12785    12785 
   12782    12783    12784    12783    12783    12784    12783    12783 
   12784    12786    12784    12782    12783    12784    12785    12785 
   12784    12784    12783    12782    12782    12782    12783    12785 
   12784    12781    12782    12783    12783    12786    12786    12784 
   12783    12783    12781    12782    12783    12783    12783    12784 
   12783    12784    12784    12783    12784    12784    12783    12782 
   12783    12783    12783    12784    12785    12784    12783    12784 
   12782    12783    12784    12785    12783    12782    12783    12786 
   12784    12782    12782    12784    12784    12783    12784    12784 
   12783    12783    12783    12782    12783    12784    12783    12782 
   12783    12782    12780    12781    12783    12783    12783    12784 
   12783    12782    12782    12783    12784    12783    12783    12783 
   12783    12784    12785    12783    12782    12782    12784    12785 
   12783    12783    12783    12782    12782    12783    12784    12785 
   12784    12783    12782    12782    12782    12783    12783    12783 
   12783    12784    12784    12784    12784    12784    12783    12783 
   12782    12781    12782    12783    12784    12785    12783    12783 
   12784    12783    12783    12783    12783    12782    12781    12783 
   12785    12783    12781    12784    12784    12782    12785    12785 
   12782    12783    12783    12782    12782    12782    12782    12782 
   12781    12782    12786    12786    12783    12784    12784    12783 
   12784    12785    12783    12782    12783    12785    12785    12784 
   12783    12785    12784    12782    12783    12783    12783    12784 
   12784    12783    12784    12785    12783    12784    12786    12786 
   12786    12785    12784    12783    12783    12785    12786    12785 
   12783    12783    12785    12786    12786    12786    12785    12785 
   12786    12785    12783    12784    12784    12784    12785    12786 
   12784    12783    12784    12784    12782    12783    12785    12784 
   12785    12786    12785    12784    12784    12786    12785    12785 
   12784    12784    12784    12785    12786    12786    12785    12784 
   12785    12786    12785    12786    12786    12785    12784    12785 
   12785    12785    12784    12784    12785    12785    12783    12782 
   12782    12784    12785    12785    12784    12786    12785    12783 
   12785    12788    12787    12786    12784    12784    12786    12786 
   12784    12785    12784    12783    12785    12786    12783    12784 
   12784    12784    12784    12783    12784    12785    12784    12784 
   12785    12786    12785    12783    12783    12784    12784    12783 
   12784    12784    12783    12784    12784    12782    12784    12784 
   12783    12785    12786    12784    12784    12785    12786    12784 
   12783    12784    12784    12784    12784    12785    12785    12783 
   12784    12785    12784    12783    12785    12784    12782    12783 
   12783    12783    12785    12785    12784    12784    12783    12784 
   12785    12784    12785    12785    12783    12784    12785    12782 
   12782    12783    12783    12784    12785    12784    12783    12783 
   12785    12784    12785    12785    12783    12783    12785    12784 
   12783    12783    12782    12782    12783    12782    12783    12784 
   12784    12783    12783    12783    12783    12783    12782    12781 
   12784    12786    12785    12784    12784    12783    12782    12783 
   12784    12785    12784    12784    12784    12783    12783    12783 
   12783    12783    12783    12782    12783    12784    12782    12781 
   12782    12782    12783    12784    12783    12783    12783    12784 
   12783    12783    12783    12785    12784    12782    12785    12787 
   12784    12783    12785    12783    12783    12785    12785    12784 
   12783    12785    12785    12782    12782    12784    12784    12783 
   12784    12783    12783    12784    12786    12786    12784    12784 
   12785    12785    12784    12783    12781    12783    12783    12782 
   12783    12783    12783    12785    12785    12784    12783    12783 
   12783    12784    12784    12782    12782    12784    12783    12782 
   12785    12785    12784    12784    12785    12783    12784    12786 
   12785    12783    12783    12783    12783    12783    12784    12783 
   12784    12786    12784    12781    12784    12785    12781    12781 
   12784    12783    12782    12784    12784    12783    12784    12785 
   12783    12783    12784    12784    12783    12783    12783    12783 
   12783    12782    12782    12782    12782    12783    12782    12782 
   12783    12784    12784    12783    12782    12782    12782    12783 
   12783    12783    12783    12783    12784    12785    12786    12784 
   12783    12785    12783    12783    12784    12783    12782    12783 
   12783    12784    12785    12783    12782    12784    12785    12782 
   12783    12785    12785    12783    12782    12782    12783    12784 
   12783    12782    12784    12785    12784    12783    12784    12782 
   12780    12782    12784    12785    12783    12782    12782    12783 
   12784    12785    12783    12782    12783    12784    12784    12785 
   12784    12784    12784    12784    12784    12784    12783    12783 
   12783    12783    12784    12784    12783    12784    12783    12782 
   12784    12784    12782    12785    12786    12784    12783    12783 
   12784    12784    12785    12784    12784    12784    12784    12785 
   12784    12783    12784    12783    12785    12786    12785    12785 
   12784    12784    12785    12785    12784    12783    12784    12784 
   12783    12783    12784    12785    12783    12783    12784    12785 
   12783    12785    12786    12783    12781    12785    12785    12785 
   12785    12784    12783    12784    12785    12784    12784    12785 
   12785    12783    12783    12784    12783    12783    12785    12785 
   12782    12782    12784    12784    12782    12783    12783    12783 
   12783    12784    12783    12782    12784    12785    12784    12786 
   12786    12783    12784    12786    12784    12783    12784    12784 
   12784    12783    12782    12783    12783    12783    12783    12783 
   12783    12784    12783    12783    12784    12784    12784    12782 
   12782    12783    12784    12783    12784    12785    12782    12783 
   12785    12783    12783    12784    12784    12784    12784    12784 
   12783    12782    12781    12783    12784    12782    12783    12783 
   12783    12783    12784    12783    12784    12783    12782    12783 
   12784    12784    12783    12784    12785    12784    12783    12781 
   12781    12785    12787    12784    12783    12782    12781    12783 
   12785    12784    12783    12784    12785    12783    12783    12785 
   12785    12785    12785    12785    12784    12783    12784    12783 
   12782    12784    12784    12782    12782    12783    12784    12785 
   12784    12782    12782    12784    12783    12782    12784    12784 
   12781    12783    12784    12784    12785    12784    12783    12784 
   12784    12783    12785    12787    12784    12783    12784    12784 
   12783    12783    12782    12783    12785    12785    12783    12783 
   12785    12786    12783    12782    12783    12783    12783    12784 
   12784    12783    12783    12783    12783    12784    12786    12785 
   12783    12782    12784    12784    12783    12783    12784    12783 
   12783    12784    12783    12783    12784    12785    12783    12783 
   12785    12786    12783    12781    12784    12785    12783    12783 
   12782    12782    12784    12784    12784    12784    12782    12783 
   12784    12785    12785    12785    12784    12782    12782    12783 
   12783    12783    12784    12784    12784    12784    12785    12786 
   12785    12785    12785    12784    12783    12783    12782    12782 
   12784    12785    12784    12782    12782    12783    12784    12784 
   12783    12783    12784    12784    12784    12784    12784    12783 
   12784    12784    12784    12785    12784    12781    12782    12784 
   12784    12784    12785    12784    12783    12784    12784    12783 
   12782    12782    12784    12784    12783    12783    12784    12783 
   12782    12784    12784    12783    12784    12785    12783    12783 
   12784    12785    12787    12787    12786    12785    12784    12784 
   12784    12784    12784    12783    12783    12784    12784    12783 
   12783    12783    12783    12783    12783    12784    12783    12784 
   12786    12784    12784    12783    12782    12785    12787    12783 
   12783    12787    12785    12781    12781    12784    12784    12784 
   12786    12787    12786    12784    12782    12783    12783    12781 
   12783    12784    12784    12786    12784    12783    12786    12785 
   12783    12784    12785    12785    12783    12783    12785    12785 
   12784    12784    12784    12784    12784    12782    12781    12784 
   12785    12783    12782    12784    12784    12783    12784    12783 
   12782    12784    12785    12783    12784    12784    12783    12783 
   12783    12783    12783    12783    12785    12785    12782    12783 
   12784    12784    12782    12783    12784    12783    12783    12782 
   12782    12783    12783    12783    12784    12785    12785    12784 
   12783    12782    12783    12784    12784    12783    12784    12784 
   12784    12784    12784    12784    12782    12783    12784    12784 
   12785    12785    12784    12784    12784    12784    12782    12783 
   12783    12784    12784    12782    12782    12784    12783    12782 
   12783    12785    12784    12784    12784    12784    12784    12784 
   12783    12784    12785    12782    12781    12784    12785    12783 
   12784    12783    12782    12783    12783    12781    12783    12784 
   12782    12784    12787    12785    12783    12785    12784    12783 
   12785    12786    12783    12782    12784    12784    12783    12782 
   12783    12784    12784    12784    12784    12782    12781    12782 
   12783    12783    12782    12782    12783    12783    12782    12782 
   12783    12783    12783    12783    12783    12784    12783    12783 
   12783    12784    12784    12782    12783    12784    12783    12784 
   12785    12784    12785    12783    12782    12783    12782    12781 
   12782    12784    12784    12783    12784    12784    12784    12783 
   12784    12785    12783    12782    12783    12783    12783    12784 
   12783    12783    12783    12783    12783    12784    12783    12781 
   12782    12783    12783    12784    12785    12783    12782    12785 
   12785    12782    12783    12784    12784    12785    12785    12784 
   12784    12783    12783    12785    12785    12783    12782    12783 
   12783    12782    12783    12784    12783    12783    12783    12783 
   12785    12785    12784    12783    12785    12785    12784    12784 
   12785    12784    12784    12785    12784    12784    12784    12783 
   12783    12784    12785    12783    12783    12785    12786    12784 
   12784    12785    12785    12785    12784    12784    12784    12782 
   12781    12783    12785    12786    12786    12785    12784    12783 
   12783    12784    12786    12785    12783    12784    12785    12784 
   12783    12784    12784    12784    12784    12784    12783    12783 
   12785    12784    12783    12784    12784    12784    12785    12784 
   12782    12782    12785    12784    12782    12784    12784    12784 
   12785    12784    12784    12784    12784    12784    12784    12783 
   12785    12784    12782    12783    12783    12783    12784    12784 
   12784    12783    12782    12782    12783    12782    12783    12783 
   12782    12783    12783    12784    12783    12781    12782    12784 
   12783    12783    12784    12783    12784    12784    12782    12782 
   12784    12782    12782    12783    12783    12782    12782    12782 
   12783    12784    12784    12783    12782    12782    12783    12784 
   12783    12782    12782    12784    12784    12784    12784    12784 
   12783    12783    12783    12786    12793    12805    12821    12841 
   12861    12883    12921    12971    12955    12810    12607    12496 
   12498    12505    12584    12775    12851    12869    13000    12923 
   12701    12911    13123    12660    12439    13025    13190    12786 
   12668    12527    12457    12823    12919    12610    12465    12496 
   12726    13344    13645    13091    12444    12205    12499    13236 
   13349    12756    12611    12860    12716    12294    12163    12427 
   12983    13527    13381    12710    12470    12841    13237    13120 
   12569    12219    12376    12621    12697    12924    13083    12864 
   12808    12901    12714    12520    12615    13011    13219    12801 
   12422    12673    13118    12989    12454    12560    13003    12794 
   12535    12667    12682    12815    13138    13081    12754    12448 
   12284    12562    13171    13573    13265    12416    11962    11908 
   11490    10966    10720    10380     9907     9944    11195    13539 
   15891    17190    17192    16536    15677    14321    12804    12148 
   12525    13266    13712    14138    14873    14334    11793     9720 
    9881    11582    13461    13904    12234     9865     8940    10078 
   12193    14384    15626    14622    12247    10937    12074    14773 
   15976    14185    11858    11447    12242    12370    11753    11640 
   12000    12084    12393    13347    14117    13964    13198    12699 
   12592    12298    11934    11918    12385    13321    13966    13663 
   12876    12148    11804    12120    12847    13518    13759    13493 
   13241    13351    13589    13843    14017    13693    12921    12467 
   12652    12913    12872    12814    12785    12498    12278    12555 
   12857    12737    12438    12036    11574    11373    11595    12332 
   13209    13446    13146    12858    12526    12299    12600    13136 
   13382    13314    12996    12458    12105    12275    12626    12735 
   12720    12770    12785    12799    12928    12955    12763    12698 
   12921    13040    12864    12703    12592    12447    12563    12881 
   12990    13001    13084    13044    12946    12936    12798    12524 
   12389    12423    12495    12538    12590    12746    12942    13030 
   12915    12710    12705    12834    12901    13128    13473    13529 
   13298    12918    12477    12303    12483    12718    12863    12956 
   12990    12925    12779    12652    12640    12756    12906    12936 
   12820    12745    12852    13019    12977    12662    12435    12581 
   12880    12999    12877    12710    12662    12618    12568    12694 
   12833    12736    12573    12580    12743    12860    12818    12738 
   12750    12883    13016    13007    12926    12844    12784    12746 
   12598    12438    12492    12585    12587    12665    12817    12949 
   12988    12861    12693    12667    12731    12722    12697    12790 
   12910    12974    13010    12975    12921    12906    12807    12707 
   12713    12654    12567    12631    12783    12825    12660    12555 
   12699    12813    12791    12817    12858    12846    12797    12713 
   12677    12710    12792    12897    12885    12863    13009    13098 
   13005    12917    12849    12732    12637    12651    12747    12816 
   12837    12854    12837    12791    12783    12794    12786    12800 
   12832    12759    12634    12671    12792    12773    12707    12757 
   12829    12844    12842    12814    12739    12663    12655    12677 
   12702    12752    12709    12654    12737    12776    12849    13024 
   12920    12662    12634    12739    12865    12876    12758    12807 
   12930    12868    12746    12703    12753    12777    12670    12627 
   12761    12887    12874    12813    12815    12813    12793    12824 
   12788    12682    12665    12721    12777    12827    12859    12863 
   12854    12905    12969    12910    12819    12799    12765    12713 
   12694    12695    12746    12806    12802    12811    12857    12854 
   12823    12823    12807    12760    12739    12726    12699    12727 
   12761    12708    12673    12708    12739    12767    12786    12776 
   12781    12803    12794    12751    12740    12799    12863    12854 
   12793    12778    12832    12861    12840    12810    12791    12813 
   12868    12872    12801    12761    12801    12826    12834    12816 
   12719    12701    12796    12804    12738    12690    12672    12722 
   12741    12706    12740    12772    12731    12678    12661    12737 
   12820    12768    12688    12705    12768    12780    12720    12680 
   12723    12810    12873    12873    12860    12875    12870    12849 
   12833    12811    12808    12799    12772    12790    12807    12767 
   12748    12797    12837    12802    12759    12763    12783    12812 
   12802    12750    12771    12859    12892    12825    12744    12776 
   12864    12843    12748    12752    12834    12830    12760    12748 
   12745    12711    12742    12815    12831    12830    12831    12811 
   12816    12832    12826    12849    12875    12838    12770    12721 
   12688    12654    12640    12686    12745    12737    12713    12771 
   12811    12753    12742    12800    12808    12786    12775    12753 
   12720    12718    12782    12832    12806    12785    12832    12888 
   12871    12793    12740    12743    12785    12837    12849    12814 
   12797    12808    12802    12789    12775    12751    12774    12846 
   12860    12800    12749    12731    12727    12724    12725    12754 
   12799    12841    12870    12838    12779    12782    12812    12835 
   12873    12866    12794    12726    12691    12702    12739    12744 
   12712    12679    12692    12751    12803    12839    12833    12769 
   12756    12798    12788    12787    12860    12888    12832    12809 
   12844    12849    12811    12800    12822    12823    12787    12741 
   12733    12772    12783    12761    12772    12820    12847    12801 
   12756    12793    12806    12753    12734    12766    12792    12772 
   12733    12731    12734    12714    12698    12697    12723    12759 
   12776    12794    12800    12793    12825    12838    12798    12796 
   12828    12827    12829    12848    12835    12795    12784    12810 
   12812    12763    12729    12748    12755    12708    12696    12766 
   12794    12744    12744    12781    12776    12780    12811    12816 
   12802    12794    12802    12821    12832    12811    12760    12738 
   12772    12787    12768    12773    12791    12788    12779    12763 
   12745    12759    12778    12772    12767    12762    12747    12758 
   12795    12810    12816    12830    12823    12800    12813    12828 
   12808    12800    12822    12826    12791    12743    12732    12763 
   12768    12749    12750    12760    12771    12778    12764    12758 
   12791    12832    12833    12821    12838    12848    12824    12790 
