Origin Time       2009/12/20 10:06:00
Lat.              34.963
Long.             139.117
Depth. (km)       4
Mag.              2.5
Station Code      SZOH35
Station Lat.      34.9467
Station Long.     139.0855
Station Height(m) 140
Record Time       2009/12/20 10:06:33
Sampling Freq(Hz) 100Hz
Duration Time(s)  120
Dir.              5
Scale Factor      3920(gal)/6170801
Max. Acc. (gal)   8.444
Last Correction   2009/12/20 10:06:18
Memo.             
[...]
   11278    11319    11313    11294    11308    11319    11318    11291 
   11253    11267    11288    11281    11289    11277    11254    11279 
   11306    11315    11334    11331    11327    11345    11320    11265 
   11241    11234    11228    11228    11254    11301    11315    11310 
   11339    11343    11298    11281    11289    11285    11288    11284 
   11272    11286    11300    11278    11258    11276    11306    11325 
   11351    11348    11284    11239    11247    11254    11271    11284 
   11266    11281    11324    11325    11294    11267    11277    11321 
   11326    11297    11294    11312    11322    11307    11270    11241 
   11230    11246    11294    11314    11299    11316    11337    11325 
   11325    11318    11272    11245    11243    11251    11286    11290 
   11262    11279    11296    11294    11315    11312    11296    11305 
   11294    11293    11328    11326    11297    11299    11291    11240 
   11232    11266    11277    11300    11317    11295    11295    11300 
   11286    11284    11269    11275    11317    11308    11266    11262 
   11262    11270    11307    11329    11334    11331    11310    11304 
   11311    11300    11313    11319    11288    11282    11285    11265 
   11263    11270    11287    11312    11298    11295    11305    11262 
   11243    11273    11255    11240    11283    11294    11289    11329 
   11347    11318    11294    11278    11277    11297    11319    11334 
   11319    11269    11233    11228    11246    11280    11323    11360 
   11358    11328    11311    11293    11268    11264    11276    11277 
   11280    11284    11270    11261    11285    11310    11320    11314 
   11292    11289    11295    11262    11238    11259    11278    11302 
   11325    11301    11278    11281    11267    11267    11299    11315 
   11325    11336    11317    11292    11280    11273    11284    11297 
   11280    11264    11270    11276    11271    11273    11293    11309 
   11311    11316    11311    11291    11288    11307    11304    11270 
   11265    11291    11292    11284    11299    11304    11293    11298 
   11314    11326    11324    11293    11256    11246    11249    11253 
   11270    11277    11270    11290    11322    11331    11334    11329 
   11310    11289    11270    11251    11250    11266    11278    11287 
   11293    11281    11279    11312    11332    11317    11306    11295 
   11270    11256    11256    11255    11275    11317    11350    11367 
   11357    11317    11282    11269    11248    11234    11260    11282 
   11270    11272    11295    11312    11316    11302    11293    11308 
   11309    11295    11288    11273    11255    11251    11252    11253 
   11261    11269    11291    11329    11338    11317    11313    11318 
   11305    11296    11295    11288    11297    11313    11292    11260 
   11262    11283    11305    11320    11303    11270    11257    11266 
   11285    11297    11292    11294    11320    11330    11310    11307 
   11308    11280    11259    11253    11248    11259    11293    11333 
   11345    11323    11301    11293    11297    11302    11294    11286 
   11281    11267    11250    11241    11243    11260    11293    11340 
   11362    11337    11308    11300    11286    11262    11251    11254 
   11267    11291    11300    11286    11282    11294    11308    11337 
   11353    11327    11302    11296    11271    11236    11222    11220 
   11238    11281    11310    11322    11329    11325    11320    11310 
   11287    11284    11318    11342    11325    11287    11246    11221 
   11234    11267    11288    11298    11304    11304    11300    11303 
   11303    11299    11307    11301    11270    11246    11239    11250 
   11281    11305    11298    11282    11297    11332    11340    11311 
   11273    11265    11289    11314    11326    11324    11307    11291 
   11284    11277    11275    11279    11288    11304    11310    11311 
   11313    11303    11284    11269    11256    11242    11240    11269 
   11306    11316    11302    11288    11286    11294    11286    11264 
   11258    11266    11283    11314    11322    11307    11311    11326 
   11333    11340    11337    11310    11282    11274    11258    11222 
   11226    11272    11295    11298    11297    11287    11296    11322 
   11323    11302    11277    11259    11263    11291    11307    11305 
   11321    11345    11338    11307    11275    11253    11257    11287 
   11301    11290    11284    11285    11288    11297    11300    11287 
   11268    11263    11275    11282    11281    11293    11301    11302 
   11315    11309    11273    11258    11277    11289    11289    11288 
   11283    11290    11307    11307    11298    11299    11303    11308 
   11309    11298    11282    11290    11318    11319    11300    11295 
   11279    11254    11260    11270    11260    11260    11292    11343 
   11370    11340    11294    11282    11271    11250    11243    11244 
   11261    11294    11310    11289    11254    11253    11278    11299 
   11321    11331    11314    11305    11303    11283    11261    11271 
   11304    11322    11322    11322    11307    11284    11274    11267 
   11268    11290    11317    11336    11334    11299    11266    11267 
   11278    11282    11290    11290    11283    11282    11287    11288 
   11276    11260    11271    11298    11317    11331    11330    11302 
   11277    11277    11281    11273    11269    11283    11300    11307 
   11295    11277    11286    11307    11306    11303    11300    11281 
   11277    11295    11285    11255    11254    11266    11274    11304 
   11320    11292    11275    11282    11284    11299    11320    11317 
   11313    11317    11300    11273    11267    11279    11303    11328 
   11330    11295    11258    11259    11274    11275    11270    11274 
   11282    11295    11315    11312    11289    11291    11299    11293 
   11288    11269    11254    11271    11294    11309    11325    11329 
   11314    11298    11292    11272    11246    11251    11266    11270 
   11295    11315    11300    11305    11332    11334    11328    11318 
   11299    11297    11296    11271    11260    11274    11278    11286 
   11296    11283    11281    11303    11316    11312    11301    11283 
   11266    11256    11251    11252    11275    11298    11292    11278 
   11276    11265    11249    11271    11313    11335    11341    11340 
   11327    11313    11303    11296    11288    11277    11294    11323 
   11316    11302    11295    11280    11282    11298    11302    11302 
   11294    11272    11248    11233    11233    11253    11291    11319 
   11325    11338    11332    11286    11260    11266    11263    11266 
   11280    11278    11282    11296    11298    11310    11320    11299 
   11294    11319    11320    11307    11306    11292    11277    11283 
   11274    11257    11279    11303    11309    11330    11337    11301 
   11270    11257    11251    11259    11277    11292    11309    11335 
   11336    11300    11272    11265    11262    11278    11296    11283 
   11273    11284    11289    11291    11303    11309    11326    11355 
   11345    11300    11264    11242    11244    11272    11285    11267 
   11258    11268    11283    11303    11321    11311    11286    11283 
   11281    11273    11289    11309    11311    11323    11318    11268 
   11254    11304    11321    11301    11293    11266    11245    11292 
   11319    11269    11270    11312    11277    11253    11299    11320 
   11340    11377    11333    11250    11231    11224    11225    11277 
   11295    11266    11279    11305    11294    11308    11350    11351 
   11336    11320    11262    11226    11258    11282    11282    11292 
   11283    11266    11281    11294    11293    11312    11326    11312 
   11304    11300    11285    11285    11301    11307    11298    11279 
   11271    11292    11316    11311    11296    11284    11271    11276 
   11289    11275    11266    11280    11289    11294    11300    11293 
   11291    11309    11312    11286    11274    11280    11285    11307 
   11318    11293    11284    11290    11287    11299    11318    11317 
   11317    11318    11302    11283    11273    11262    11262    11271 
   11261    11255    11275    11295    11306    11312    11311    11314 
   11313    11297    11280    11270    11258    11248    11261    11297 
   11318    11311    11305    11306    11310    11316    11304    11288 
   11289    11304    11321    11301    11254    11243    11264    11292 
   11320    11320    11293    11282    11297    11305    11296    11279 
   11263    11269    11286    11277    11271    11292    11313    11324 
   11327    11318    11298    11279    11277    11280    11277    11281 
   11285    11282    11290    11292    11267    11265    11305    11329 
   11312    11285    11267    11272    11281    11286    11308    11325 
   11319    11312    11304    11287    11277    11276    11279    11285 
   11292    11294    11294    11304    11319    11314    11299    11294 
   11295    11296    11300    11308    11303    11282    11265    11254 
   11254    11264    11274    11283    11293    11306    11315    11300 
   11280    11280    11285    11290    11300    11301    11284    11283 
   11304    11306    11291    11296    11304    11298    11295    11289 
   11270    11263    11282    11303    11304    11290    11283    11301 
   11324    11318    11288    11272    11279    11282    11278    11283 
   11290    11293    11302    11302    11284    11278    11298    11314 
   11307    11291    11286    11287    11286    11292    11295    11282 
   11275    11286    11301    11304    11282    11263    11274    11296 
   11317    11321    11287    11261    11293    11336    11343    11327 
   11291    11258    11272    11291    11277    11271    11280    11290 
   11302    11290    11257    11266    11312    11330    11316    11295 
   11280    11287    11303    11298    11284    11279    11282    11300 
   11326    11332    11310    11284    11266    11255    11264    11278 
   11273    11272    11292    11314    11328    11330    11320    11304 
   11280    11266    11265    11261    11275    11307    11309    11293 
   11301    11306    11300    11300    11286    11270    11283    11310 
   11318    11317    11310    11260    11217    11245    11284    11300 
   11308    11288    11277    11293    11287    11269    11270    11272 
   11290    11326    11328    11306    11309    11305    11291    11313 
   11309    11260    11273    11313    11294    11284    11303    11286 
   11293    11338    11309    11255    11289    11310    11275    11288 
   11307    11268    11257    11279    11266    11269    11301    11289 
   11266    11288    11290    11265    11279    11303    11307    11327 
   11326    11294    11294    11302    11286    11284    11289    11284 
   11279    11285    11301    11299    11292    11314    11326    11312 
   11300    11280    11266    11297    11329    11310    11278    11260 
   11250    11246    11247    11267    11294    11295    11299    11316 
   11311    11311    11332    11308    11251    11254    11295    11295 
   11292    11310    11292    11285    11323    11316    11286    11306 
   11301    11260    11273    11287    11254    11272    11316    11277 
   11262    11318    11306    11275    11324    11344    11299    11287 
   11282    11230    11224    11280    11290    11276    11295    11294 
   11293    11332    11351    11326    11308    11302    11283    11262 
   11251    11237    11230    11270    11328    11339    11325    11315 
   11298    11305    11329    11302    11264    11262    11248    11237 
   11263    11280    11295    11334    11331    11288    11286    11299 
   11289    11309    11329    11297    11273    11276    11259    11260 
   11295    11301    11288    11309    11333    11334    11332    11309 
   11262    11243    11250    11268    11295    11290    11267    11284 
   11298    11281    11309    11340    11292    11263    11295    11288 
   11275    11311    11319    11297    11297    11292    11287    11301 
   11304    11294    11273    11250    11263    11291    11293    11294 
   11297    11289    11297    11317    11308    11292    11309    11307 
   11262    11252    11278    11278    11289    11316    11286    11256 
   11266    11239    11224    11263    11275    11298    11380    11448 
   11468    11414    11279    11186    11136    11012    10915    10981 
   11185    11474    11629    11465    11290    11298    11096    10688 
   10713    11262    11831    12142    12169    12032    11879    11398 
   10231     8953     8696     9770    11485    13155    14266    14080 
   12534    10982    10459    10407    10276    10534    11403    12323 
   12744    12281    10768     8966     8145     8909    11170    13946 
   15207    13923    11342     9162     8310     9289    11543    13312 
   13417    12252    10781     9650     9143     9233     9939    11567 
   13751    15033    14542    12825    10809     9311     8835     9153 
    9710    10362    11345    12651    13485    12774    10766     9204 
    9138     9998    11300    13126    14778    14850    12921    10350 
    8955     9150     9998    10732    11270    11578    11509    11274 
   11231    11294    11272    11305    11350    11097    10773    11018 
   11851    12745    13583    14511    15087    14617    13312    12093 
   11285    10475     9627     9400    10309    12191    14477    16344 
   16722    15163    12532    10058     8204     6901     6094     5556 
    4646     2826      384    -1602    -2001      -88     4389    10729 
   17106    21772    24005    23588    20699    16506    12490     9275 
    7105     6727     8466    11079    12990    14058    15276    17447 
   20388    22951    23811    22131    17698    11246     4626       72 
    -892     1720     6294    10685    13445    13937    12117     8968 
    6248     5189     5976     7951     9822    10468     9747     8362 
    7242     7253     9059    12504    16461    19725    21422    21011 
   18711    15369    11998     9638     8841     9326    10374    11368 
   12204    12996    13527    13686    13767    13921    13892    13220 
   11543     9046     6584     5126     5163     6696     9250    11836 
   13465    13659    12455    10298     7814     5482     3602     2421 
    2197     3168     5371     8482    11865    14767    16651    17430 
   17303    16542    15544    14740    14305    14276    14754    15712 
   16917    18094    18986    19461    19485    18797    17088    14610 
   12031     9819     8187     7166     6527     6112     5923     5687 
    5067     4234     3559     3103     2854     2958     3412     4060 
    4879     5911     7215     8870    10778    12713    14448    15716 
   16398    16642    16631    16493    16367    16335    16371    16469 
   16733    17085    17133    16578    15477    14024    12357    10595 
    8932     7616     6830     6623     6945     7708     8800    10065 
   11361    12560    13466    14003    14258    14231    13907    13415 
   12863    12294    11760    11251    10707    10132     9605     9179 
    8868     8726     8722     8747     8829     9028     9232     9297 
    9216     9097     9015     8986     9081     9344     9677     9986 
   10263    10539    10934    11560    12361    13195    13962    14548 
   14865    15049    15300    15551    15604    15375    14864    14104 
   13112    11906    10661     9649     8992     8662     8611     8726 
    8837     8865     8862     8865     8894     9066     9485    10130 
   10950    11847    12610    13102    13344    13402    13386    13417 
   13500    13513    13339    12961    12448    11902    11398    10977 
   10638    10338    10097     9984     9967    10032    10254    10551 
   10739    10773    10663    10430    10217    10188    10359    10665 
   11041    11375    11589    11691    11713    11724    11782    11846 
   11826    11636    11272    10850    10493    10292    10354    10691 
   11194    11744    12223    12529    12637    12591    12475    12352 
   12191    11956    11753    11693    11715    11741    11754    11650 
   11341    10925    10508    10120     9834     9693     9627     9603 
    9643     9729     9881    10138    10444    10719    10963    11161 
   11260    11303    11371    11457    11571    11779    12068    12351 
   12551    12612    12518    12329    12138    12004    11942    11941 
   11970    12009    12079    12218    12417    12645    12874    13037 
   13087    13040    12883    12602    12273    11971    11676    11360 
   11040    10708    10321     9880     9399     8889     8431     8078 
    7806     7631     7590     7680     7915     8260     8616     8977 
    9407     9927    10536    11200    11839    12423    12946    13386 
   13761    14101    14409    14667    14798    14745    14558    14287 
   13939    13561    13186    12781    12342    11928    11565    11226 
   10905    10606    10329    10120    10021    10025    10114    10242 
   10343    10395    10375    10275    10172    10129    10129    10167 
   10245    10340    10461    10605    10721    10788    10820    10840 
   10919    11083    11257    11402    11556    11724    11880    12043 
   12233    12404    12519    12599    12624    12581    12509    12417 
   12282    12085    11808    11460    11097    10763    10475    10246 
   10087    10006    10000    10036    10090    10161    10234    10304 
   10391    10503    10640    10809    10999    11192    11391    11607 
   11827    12018    12164    12296    12439    12551    12585    12569 
   12513    12400    12276    12178    12074    11948    11803    11619 
   11384    11142    10934    10757    10604    10482    10368    10242 
   10154    10147    10198    10272    10366    10511    10723    10964 
   11183    11358    11512    11669    11810    11921    12020    12109 
   12195    12256    12243    12173    12106    12063    12029    11956 
   11834    11690    11498    11245    10981    10759    10597    10470 
   10335    10206    10117    10061    10035    10076    10186    10321 
   10443    10539    10616    10681    10733    10796    10917    11101 
   11322    11556    11777    11964    12108    12198    12264    12359 
   12477    12575    12628    12611    12510    12342    12128    11883 
   11641    11442    11287    11141    11003    10888    10797    10756 
   10782    10873    11018    11168    11299    11432    11523    11531 
   11491    11435    11359    11294    11274    11283    11283    11243 
   11150    11038    10951    10897    10874    10882    10914    10957 
   10990    10992    10982    10989    11014    11052    11095    11127 
   11135    11120    11092    11059    11014    10957    10909    10900 
   10928    10959    10967    10950    10918    10904    10944    11058 
   11243    11462    11681    11875    12002    12069    12144    12246 
   12347    12446    12527    12547    12505    12437    12346    12229 
   12108    11975    11813    11628    11410    11168    10954    10782 
   10638    10530    10456    10396    10341    10300    10281    10280 
   10291    10313    10348    10393    10448    10531    10639    10739 
   10842    10960    11086    11228    11369    11468    11531    11579 
   11610    11640    11683    11726    11750    11762    11773    11790 
   11820    11846    11850    11838    11794    11703    11588    11472 
