Origin Time       2015/02/20 13:25:00
Lat.              39.912
Long.             143.732
Depth. (km)       8
Mag.              6.5
Station Code      AKTH04
Station Lat.      39.174
Station Long.     140.7129
Station Height(m) 280
Record Time       2015/02/20 13:26:16
Sampling Freq(Hz) 100Hz
Duration Time(s)  124
Dir.              4
Scale Factor      3920(gal)/6170801
Max. Acc. (gal)   1.817
Last Correction   2015/02/20 13:26:01
Memo.             
[...]
   11000    11162    11299    11435    11533    11545    11476    11365 
   11231    11062    10866    10708    10633    10608    10589    10586 
   10618    10655    10659    10652    10682    10756    10842    10913 
   10986    11081    11132    11091    11029    10994    10927    10819 
   10760    10778    10820    10885    10996    11143    11300    11403 
   11392    11297    11156    10945    10673    10438    10290    10189 
   10147    10224    10404    10625    10863    11098    11301    11478 
   11610    11643    11584    11490    11357    11159    10965    10856 
   10790    10721    10677    10638    10565    10498    10455    10402 
   10353    10317    10253    10178    10185    10292    10441    10620 
   10849    11093    11279    11382    11444    11475    11447    11389 
   11344    11281    11172    11030    10864    10690    10507    10309 
   10133    10025    10005    10086    10248    10446    10658    10862 
   11024    11137    11226    11289    11296    11271    11269    11290 
   11340    11434    11517    11541    11541    11554    11530    11434 
   11308    11166    10993    10838    10742    10665    10582    10549 
   10584    10640    10699    10762    10790    10783    10783    10781 
   10752    10733    10738    10725    10713    10767    10879    11023 
   11178    11261    11236    11148    10999    10781    10556    10389 
   10309    10309    10356    10428    10503    10567    10623    10662 
   10679    10670    10607    10502    10406    10345    10315    10331 
   10413    10522    10611    10696    10792    10878    10943    10981 
   10987    10987    11010    11053    11108    11197    11319    11424 
   11481    11490    11444    11345    11188    10986    10780    10598 
   10447    10328    10254    10259    10333    10448    10630    10853 
   11050    11228    11410    11580    11702    11746    11731    11673 
   11549    11365    11164    10990    10855    10739    10651    10595 
   10542    10501    10491    10491    10503    10542    10592    10649 
   10713    10786    10881    10984    11065    11118    11141    11120 
   11067    11009    10944    10876    10810    10741    10670    10596 
   10505    10418    10395    10444    10524    10636    10798    10971 
   11129    11264    11363    11423    11424    11339    11214    11090 
   10942    10785    10667    10579    10525    10544    10592    10617 
   10634    10630    10610    10617    10637    10656    10700    10768 
   10858    10977    11115    11235    11305    11317    11275    11172 
   11012    10819    10627    10479    10390    10359    10390    10462 
   10574    10733    10879    10983    11078    11159    11213    11255 
   11270    11248    11210    11149    11052    10946    10843    10753 
   10722    10746    10771    10777    10775    10755    10701    10607 
   10482    10362    10299    10314    10411    10569    10740    10897 
   11041    11154    11197    11172    11132    11117    11116    11111 
   11089    11041    10979    10931    10898    10869    10853    10845 
   10826    10809    10818    10876    10976    11068    11125    11160 
   11165    11133    11098    11092    11109    11128    11127    11085 
   10988    10846    10689    10556    10470    10437    10460    10548 
   10692    10872    11062    11232    11362    11408    11338    11193 
   11035    10878    10744    10673    10641    10623    10655    10733 
   10808    10875    10944    10985    10979    10951    10910    10837 
   10751    10696    10671    10653    10666    10731    10817    10895 
   10994    11113    11188    11235    11300    11338    11317    11293 
   11245    11127    11008    10920    10822    10773    10812    10845 
   10872    10958    11046    11102    11181    11246    11265    11285 
   11288    11262    11250    11236    11190    11130    11058    10986 
   10924    10838    10732    10659    10622    10627    10685    10753 
   10817    10889    10931    10910    10840    10732    10605    10490 
   10389    10305    10251    10228    10238    10259    10274    10287 
   10290    10292    10326    10388    10479    10616    10789    10993 
   11206    11371    11457    11454    11359    11196    11013    10841 
   10704    10633    10639    10692    10771    10879    10996    11078 
   11097    11059    11009    10976    10952    10936    10925    10912 
   10900    10873    10801    10690    10584    10509    10465    10467 
   10515    10592    10700    10835    10991    11150    11289    11391 
   11446    11470    11469    11421    11329    11211    11065    10914 
   10784    10669    10567    10497    10462    10460    10479    10498 
   10505    10472    10407    10353    10322    10333    10402    10509 
   10665    10892    11162    11440    11684    11813    11808    11690 
   11449    11134    10831    10565    10371    10291    10312    10415 
   10567    10728    10891    11044    11150    11190    11152    11036 
   10910    10822    10774    10791    10867    10949    11013    11056 
   11080    11094    11100    11109    11124    11119    11094    11054 
   10992    10924    10878    10853    10850    10869    10901    10942 
   11010    11108    11211    11316    11406    11415    11333    11192 
   11014    10824    10639    10469    10331    10223    10163    10170 
   10229    10330    10476    10645    10799    10917    10987    11019 
   11049    11097    11152    11174    11143    11074    10970    10836 
   10717    10633    10580    10577    10613    10641    10658    10679 
   10699    10714    10741    10823    10986    11192    11415    11640 
   11812    11885    11841    11677    11396    11011    10561    10113 
    9728     9441     9270     9240     9348     9551     9813    10090 
   10354    10609    10845    11052    11222    11339    11415    11453 
   11425    11353    11282    11212    11158    11144    11169    11232 
   11314    11377    11405    11370    11243    11047    10811    10534 
   10246    10027     9934     9963    10099    10330    10610    10880 
   11103    11237    11271    11263    11244    11191    11105    11018 
   10936    10864    10811    10743    10642    10537    10424    10300 
   10229    10246    10338    10505    10744    11019    11288    11502 
   11599    11570    11421    11149    10826    10565    10377    10230 
   10155    10176    10270    10419    10610    10816    11020    11200 
   11327    11378    11365    11314    11243    11170    11092    10994 
   10883    10774    10662    10545    10451    10402    10413    10500 
   10675    10919    11196    11451    11642    11752    11763    11662 
   11484    11266    10992    10678    10404    10217    10113    10089 
   10133    10205    10283    10384    10512    10667    10865    11099 
   11360    11642    11868    11956    11916    11753    11449    11081 
   10744    10450    10224    10104    10065    10086    10191    10354 
   10511    10641    10719    10710    10653    10593    10521    10469 
   10459    10425    10351    10320    10361    10446    10592    10823 
   11103    11414    11733    11965    12062    12053    11920    11666 
   11362    11024    10647    10302    10045     9869     9757     9740 
    9832     9997    10211    10460    10716    10970    11213    11443 
   11666    11844    11963    12056    12097    12041    11904    11700 
   11426    11123    10845    10603    10387    10210    10100    10057 
   10052    10098    10203    10304    10344    10355    10383    10430 
   10518    10694    10973    11324    11679    11973    12158    12196 
   12096    11888    11589    11252    10910    10568    10262    10025 
    9852     9756     9782     9932    10180    10516    10902    11281 
   11619    11872    12024    12107    12128    12068    11935    11739 
   11473    11143    10787    10447    10148     9919     9781     9716 
    9722     9819     9981    10175    10398    10644    10903    11146 
   11311    11378    11375    11310    11208    11137    11105    11072 
   11051    11066    11112    11160    11153    11079    10983    10835 
   10615    10405    10245    10129    10102    10156    10229    10311 
   10378    10402    10394    10371    10342    10336    10366    10436 
   10563    10739    10936    11131    11297    11434    11552    11625 
   11652    11643    11582    11491    11437    11437    11437    11394 
   11309    11192    11018    10756    10426    10105     9856     9685 
    9613     9690     9904    10190    10522    10905    11300    11637 
   11883    12007    11996    11877    11656    11358    11063    10832 
   10664    10554    10527    10565    10606    10659    10761    10876 
   10964    11028    11043    10980    10920    10957    11081    11266 
   11518    11787    11955    11956    11811    11533    11161    10799 
   10496    10241    10057     9976     9995    10092    10233    10369 
   10447    10463    10417    10289    10130    10039    10049    10149 
   10321    10534    10741    10909    11033    11132    11238    11350 
   11417    11432    11458    11525    11589    11603    11545    11412 
   11194    10882    10553    10320    10194    10134    10174    10337 
   10571    10844    11160    11452    11646    11738    11715    11561 
   11334    11078    10830    10677    10662    10742    10886    11074 
   11253    11360    11362    11274    11106    10877    10651    10500 
   10462    10536    10668    10767    10786    10751    10681    10561 
   10402    10240    10118    10058    10048    10096    10239    10463 
   10668    10792    10861    10887    10858    10823    10872    11017 
   11209    11432    11651    11781    11793    11743    11677    11596 
   11491    11353    11164    10945    10757    10616    10519    10509 
   10609    10787    11022    11275    11475    11580    11586    11498 
   11322    11094    10864    10641    10429    10287    10259    10351 
   10538    10734    10839    10828    10762    10723    10773    10930 
   11162    11406    11611    11777    11910    11957    11867    11658 
   11393    11125    10892    10734    10693    10765    10881    10981 
   11057    11091    11041    10933    10851    10809    10748    10631 
   10478    10310    10133     9987     9937    10022    10215    10454 
   10715    11008    11317    11603    11798    11838    11700    11419 
   11042    10637    10318    10148    10083    10105    10246    10466 
   10679    10868    11053    11213    11313    11340    11276    11120 
   10901    10645    10370    10084     9794     9555     9426     9418 
    9552     9843    10293    10889    11565    12233    12821    13275 
   13541    13561    13315    12814    12094    11244    10387     9636 
    9066     8734     8663     8822     9162     9618    10081    10484 
   10837    11133    11332    11460    11577    11680    11740    11764 
   11755    11681    11516    11273    10996    10745    10560    10416 
   10302    10270    10326    10404    10499    10655    10853    11050 
   11270    11568    11909    12175    12314    12340    12231    11952 
   11527    11015    10464     9935     9514     9261     9195     9301 
    9539     9858    10205    10535    10811    11003    11096    11101 
   11043    10956    10883    10849    10874    10974    11116    11229 
   11272    11251    11198    11145    11113    11114    11142    11182 
   11235    11292    11335    11362    11389    11398    11322    11154 
   10980    10868    10858    10981    11196    11425    11646    11846 
   11969    11992    11918    11746    11521    11309    11133    10988 
   10863    10757    10688    10622    10500    10317    10084     9836 
    9633     9472     9343     9299     9352     9461     9634     9911 
   10283    10688    11066    11385    11608    11712    11722    11675 
   11585    11447    11251    11019    10793    10572    10354    10161 
   10010     9904     9843     9809     9792     9800     9825     9893 
   10051    10283    10572    10923    11326    11751    12138    12432 
   12622    12695    12614    12322    11799    11168    10562    10024 
    9613     9402     9389     9556     9891    10333    10804    11249 
   11603    11815    11898    11872    11741    11513    11222    10929 
   10675    10424    10148     9859     9568     9266     8985     8799 
    8764     8900     9217     9715    10366    11095    11796    12380 
   12796    12999    12940    12647    12233    11766    11294    10891 
   10571    10303    10083     9907     9795     9820    10000    10307 
   10755    11303    11862    12393    12839    13117    13234    13209 
   13010    12709    12421    12145    11893    11751    11709    11686 
   11656    11566    11339    11000    10584    10090     9607     9247 
    9019     8924     8974     9111     9282     9482     9679     9846 
    9985    10081    10154    10273    10480    10773    11131    11522 
   11903    12197    12335    12299    12130    11896    11634    11360 
   11095    10858    10665    10524    10410    10312    10263    10280 
   10324    10394    10527    10690    10838    10987    11104    11128 
   11074    10992    10922    10918    10992    11103    11223    11331 
   11398    11398    11291    11050    10685    10227     9718     9219 
    8790     8491     8363     8386     8523     8782     9166     9631 
   10174    10830    11539    12186    12694    12992    13022    12800 
   12385    11814    11131    10435     9803     9254     8836     8609 
    8576     8730     9067     9516    10021    10574    11152    11736 
   12309    12829    13266    13589    13736    13671    13403    12960 
   12424    11879    11354    10892    10534    10252    10018     9835 
    9694     9590     9546     9594     9727     9921    10146    10371 
   10578    10755    10883    10956    10972    10933    10884    10858 
   10827    10827    10911    11055    11238    11418    11500    11473 
   11361    11148    10862    10548    10230     9952     9745     9614 
    9585     9657     9805    10036    10337    10688    11094    11491 
   11785    11993    12141    12204    12211    12163    12004    11746 
   11406    10983    10569    10232     9951     9781     9812    10014 
   10324    10687    11042    11367    11631    11776    11799    11738 
   11619    11483    11365    11278    11268    11359    11490    11583 
   11575    11429    11191    10927    10665    10482    10451    10563 
   10785    11067    11334    11544    11666    11683    11567    11271 
   10822    10352     9935     9573     9347     9347     9532     9838 
   10236    10648    11038    11426    11756    11957    12041    11996 
   11804    11539    11275    11013    10760    10534    10313    10054 
    9782     9561     9415     9389     9543     9860    10311    10883 
   11513    12118    12638    13017    13203    13153    12853    12344 
   11719    11070    10483    10038     9764     9648     9661     9720 
    9754     9762     9753     9740     9771     9878    10052    10285 
   10573    10889    11204    11485    11693    11810    11814    11671 
   11392    11034    10663    10366    10206    10187    10291    10479 
   10693    10908    11113    11278    11425    11591    11734    11805 
   11824    11802    11691    11474    11208    10928    10610    10261 
    9942     9705     9575     9552     9657     9937    10374    10891 
   11435    11963    12407    12738    12971    13082    13036    12872 
   12634    12319    11958    11601    11266    10959    10713    10559 
   10491    10478    10490    10511    10566    10666    10753    10781 
   10751    10665    10519    10336    10155    10004     9886     9835 
    9893    10018    10158    10293    10364    10334    10229    10063 
    9868     9709     9607     9571     9656     9882    10186    10527 
   10910    11276    11558    11778    11943    12005    11974    11917 
   11865    11818    11803    11819    11831    11817    11740    11572 
   11338    11088    10856    10679    10606    10626    10686    10770 
   10881    11005    11120    11217    11276    11279    11251    11228 
   11189    11106    10996    10882    10752    10588    10405    10209 
    9997     9823     9723     9683     9705     9790     9914    10051 
   10190    10308    10373    10414    10464    10509    10570    10682 
   10812    10908    10964    10985    10969    10929    10881    10829 
   10774    10723    10674    10626    10617    10704    10905    11190 
   11524    11883    12235    12520    12717    12848    12904    12887 
   12828    12721    12544    12317    12073    11844    11676    11582 
   11518    11451    11375    11255    11089    10930    10782    10632 
   10512    10434    10375    10330    10310    10294    10272    10282 
   10329    10381    10451    10543    10628    10713    10814    10902 
   10936    10914    10847    10750    10646    10551    10472    10428 
   10446    10535    10677    10852    11046    11231    11391    11535 
   11654    11724    11737    11677    11522    11285    10981    10614 
   10223     9853     9516     9259     9129     9087     9099     9188 
    9357     9600     9919    10290    10673    11047    11424    11785 
   12085    12281    12312    12155    11835    11339    10679     9953 
    9260     8673     8294     8196     8368     8762     9327    10000 
   10709    11362    11873    12241    12486    12596    12610    12589 
   12529    12453    12402    12324    12186    11960    11572    11037 
   10418     9759     9140     8647     8358     8336     8581     9061 
    9721    10468    11194    11828    12334    12682    12859    12886 
   12774    12515    12133    11682    11215    10782    10404    10076 
    9835     9734     9769     9912    10162    10517    10948    11403 
   11816    12121    12293    12349    12287    12104    11855    11608 
   11366    11131    10946    10825    10756    10748    10794    10869 
   10948    10983    10944    10842    10686    10472    10248    10095 
   10026    10026    10140    10398    10762    11161    11543    11882 
   12145    12300    12346    12282    12118    11885    11602    11270 
   10922    10618    10385    10232    10170    10212    10357    10557 
   10767    10992    11213    11364    11392    11295    11076    10747 
   10351     9936     9555     9259     9046     8907     8875     8933 
    9035     9206     9485     9834    10216    10639    11070    11451 
   11757    11947    11997    11946    11830    11698    11612    11585 
   11592    11620    11648    11653    11635    11550    11350    11072 
   10771    10459    10174     9985     9941    10030    10219    10467 
   10714    10946    11149    11280    11362    11437    11498    11554 
   11648    11783    11917    12033    12130    12196    12243    12271 
   12224    12102    11951    11767    11546    11309    11043    10752 
   10485    10249    10030     9850     9731     9668     9671     9746 
    9863    10010    10188    10351    10498    10643    10736    10758 
   10709    10580    10377    10131     9892     9715     9624     9624 
    9712     9850     9990    10098    10161    10175    10141    10078 
   10009     9962     9967    10022    10103    10218    10373    10530 
   10690    10882    11066    11182    11259    11319    11321    11276 
   11251    11240    11203    11150    11063    10898    10707    10575 
   10486    10432    10487    10663    10892    11163    11481    11770 
