Origin Time       2015/02/20 13:25:00
Lat.              39.912
Long.             143.732
Depth. (km)       8
Mag.              6.5
Station Code      AKTH04
Station Lat.      39.174
Station Long.     140.7129
Station Height(m) 180
Record Time       2015/02/20 13:26:16
Sampling Freq(Hz) 100Hz
Duration Time(s)  124
Dir.              3
Scale Factor      2940(gal)/6170270
Max. Acc. (gal)   0.590
Last Correction   2015/02/20 13:26:01
Memo.             
[...]
   79875    79880    79881    79872    79860    79852    79854    79856 
   79850    79845    79842    79832    79817    79803    79786    79768 
   79762    79768    79775    79790    79807    79816    79826    79838 
   79846    79852    79860    79870    79875    79870    79873    79894 
   79920    79944    79966    79974    79965    79951    79941    79939 
   79941    79935    79918    79891    79859    79826    79792    79758 
   79728    79706    79693    79677    79658    79645    79636    79629 
   79626    79630    79646    79675    79705    79736    79776    79822 
   79859    79879    79892    79911    79929    79944    79964    79983 
   79997    80011    80022    80033    80046    80045    80030    80022 
   80027    80039    80049    80052    80046    80032    80015    79995 
   79967    79934    79908    79890    79877    79861    79827    79781 
   79742    79701    79648    79593    79551    79522    79507    79490 
   79460    79427    79396    79366    79335    79309    79289    79269 
   79248    79226    79201    79183    79183    79191    79198    79210 
   79229    79246    79265    79295    79323    79336    79338    79339 
   79347    79374    79416    79462    79502    79527    79543    79559 
   79577    79597    79625    79653    79671    79682    79690    79687 
   79677    79668    79659    79654    79657    79658    79659    79666 
   79680    79695    79709    79721    79737    79754    79762    79760 
   79752    79736    79712    79686    79668    79664    79672    79691 
   79713    79732    79751    79763    79765    79764    79765    79771 
   79779    79781    79778    79772    79767    79764    79765    79774 
   79797    79831    79867    79909    79959    80011    80062    80110 
   80152    80171    80160    80131    80105    80080    80043    79996 
   79947    79906    79873    79838    79795    79751    79719    79702 
   79688    79679    79681    79689    79694    79699    79695    79675 
   79660    79667    79692    79731    79776    79808    79829    79854 
   79885    79914    79941    79962    79979    79993    80007    80021 
   80023    80002    79966    79925    79878    79828    79777    79724 
   79675    79641    79621    79608    79607    79620    79640    79668 
   79701    79731    79761    79786    79805    79830    79859    79881 
   79888    79883    79873    79858    79840    79817    79787    79759 
   79739    79727    79725    79729    79722    79701    79681    79668 
   79658    79644    79621    79592    79572    79574    79591    79609 
   79630    79663    79707    79752    79797    79835    79858    79864 
   79862    79854    79835    79811    79787    79768    79765    79773 
   79779    79773    79749    79711    79666    79616    79568    79529 
   79504    79494    79489    79482    79476    79469    79450    79429 
   79421    79423    79429    79444    79470    79503    79545    79588 
   79620    79648    79681    79714    79743    79767    79780    79783 
   79784    79788    79789    79787    79792    79815    79842    79873 
   79921    79976    80022    80064    80106    80138    80162    80185 
   80200    80207    80214    80212    80195    80170    80147    80124 
   80102    80081    80062    80046    80034    80020    79998    79971 
   79937    79891    79837    79787    79746    79714    79685    79654 
   79621    79593    79569    79546    79539    79552    79566    79576 
   79588    79589    79572    79544    79514    79488    79463    79429 
   79392    79355    79327    79313    79313    79326    79354    79391 
   79417    79428    79434    79436    79430    79417    79401    79379 
   79354    79328    79299    79264    79233    79212    79196    79183 
   79178    79186    79204    79223    79243    79272    79309    79353 
   79401    79449    79495    79547    79603    79655    79702    79745 
   79784    79816    79842    79870    79899    79929    79960    79978 
   79976    79967    79952    79928    79906    79888    79861    79822 
   79785    79753    79728    79717    79716    79714    79702    79684 
   79675    79680    79691    79699    79700    79693    79685    79679 
   79677    79678    79685    79698    79720    79753    79787    79812 
   79832    79848    79859    79876    79902    79937    79979    80030 
   80083    80134    80184    80232    80282    80335    80387    80436 
   80485    80541    80601    80652    80694    80732    80770    80803 
   80820    80817    80803    80766    80700    80621    80539    80457 
   80383    80315    80249    80196    80153    80114    80077    80043 
   80016    80001    79993    79983    79964    79935    79906    79885 
   79882    79888    79895    79900    79898    79888    79867    79842 
   79821    79799    79772    79749    79727    79696    79658    79625 
   79588    79548    79527    79529    79550    79585    79628    79670 
   79710    79741    79760    79774    79785    79785    79776    79776 
   79779    79774    79767    79767    79764    79750    79723    79690 
   79654    79626    79612    79604    79596    79587    79572    79551 
   79524    79491    79458    79424    79395    79376    79365    79361 
   79352    79324    79296    79280    79268    79254    79238    79219 
   79205    79196    79181    79158    79141    79138    79146    79165 
   79192    79229    79257    79268    79270    79260    79234    79205 
   79174    79129    79077    79032    78999    78975    78962    78958 
   78964    78986    79017    79041    79059    79078    79101    79137 
   79188    79243    79304    79372    79437    79495    79552    79600 
   79640    79676    79703    79715    79716    79715    79707    79686 
   79655    79618    79581    79548    79521    79505    79502    79507 
   79522    79547    79584    79623    79661    79710    79767    79822 
   79882    79947    80011    80077    80145    80208    80271    80340 
   80410    80485    80568    80642    80700    80748    80784    80809 
   80823    80823    80812    80793    80762    80720    80671    80617 
   80554    80490    80431    80383    80347    80311    80269    80229 
   80189    80140    80091    80039    79985    79939    79900    79865 
   79836    79815    79799    79786    79779    79778    79783    79788 
   79792    79805    79827    79851    79872    79890    79904    79914 
   79919    79918    79908    79892    79885    79879    79863    79843 
   79822    79800    79780    79766    79756    79752    79754    79756 
   79757    79757    79754    79753    79762    79783    79809    79837 
   79859    79866    79860    79854    79854    79858    79860    79857 
   79848    79846    79850    79847    79833    79813    79799    79799 
   79819    79848    79869    79879    79886    79891    79890    79884 
   79874    79862    79843    79818    79784    79737    79683    79634 
   79587    79540    79499    79462    79420    79376    79336    79292 
   79247    79207    79166    79128    79102    79084    79072    79063 
   79056    79049    79045    79040    79032    79028    79036    79054 
   79069    79083    79110    79148    79194    79246    79297    79340 
   79376    79408    79434    79449    79463    79486    79517    79551 
   79589    79622    79646    79672    79709    79752    79805    79866 
   79928    79989    80047    80096    80137    80173    80200    80222 
   80253    80284    80304    80316    80322    80318    80309    80293 
   80263    80221    80175    80128    80081    80032    79976    79917 
   79856    79795    79737    79681    79618    79552    79500    79465 
   79436    79415    79405    79400    79395    79401    79416    79433 
   79458    79488    79519    79552    79584    79612    79637    79665 
   79692    79714    79740    79769    79795    79828    79874    79927 
   79981    80033    80080    80120    80156    80195    80235    80270 
   80297    80314    80329    80349    80368    80373    80366    80358 
   80352    80347    80341    80328    80310    80297    80288    80278 
   80264    80248    80236    80225    80209    80188    80162    80131 
   80099    80072    80045    80016    79990    79956    79910    79863 
   79819    79777    79749    79736    79722    79709    79707    79714 
   79722    79736    79758    79787    79820    79843    79853    79856 
   79859    79857    79845    79830    79819    79804    79784    79763 
   79734    79691    79638    79583    79531    79484    79439    79387 
   79322    79255    79193    79132    79078    79037    79008    78981 
   78953    78930    78917    78912    78913    78927    78953    78991 
   79036    79079    79114    79144    79174    79210    79251    79297 
   79346    79396    79447    79505    79570    79634    79688    79735 
   79782    79826    79863    79896    79923    79941    79952    79951 
   79942    79929    79914    79899    79897    79907    79919    79929 
   79935    79938    79943    79949    79953    79950    79932    79907 
   79883    79860    79841    79829    79823    79817    79808    79795 
   79785    79784    79786    79784    79781    79776    79769    79764 
   79763    79755    79739    79724    79714    79717    79731    79749 
   79766    79783    79799    79810    79816    79814    79801    79782 
   79761    79737    79716    79699    79687    79677    79664    79643 
   79618    79594    79580    79570    79551    79525    79495    79456 
   79405    79343    79275    79211    79157    79109    79072    79048 
   79024    78998    78984    78983    78997    79028    79072    79121 
   79173    79229    79286    79338    79386    79435    79483    79534 
   79594    79651    79696    79737    79778    79814    79847    79881 
   79910    79932    79946    79951    79949    79951    79961    79972 
   79980    79984    79980    79966    79947    79929    79919    79921 
   79939    79963    79981    79992    80000    80006    80015    80026 
   80032    80031    80024    80010    79993    79972    79944    79918 
   79897    79878    79862    79848    79828    79804    79786    79776 
   79773    79778    79791    79806    79817    79825    79828    79833 
   79842    79848    79856    79865    79864    79858    79859    79860 
   79857    79851    79844    79829    79810    79796    79787    79779 
   79779    79786    79793    79800    79809    79813    79813    79819 
   79832    79844    79854    79864    79873    79881    79884    79877 
   79868    79867    79871    79877    79887    79895    79898    79899 
   79897    79892    79884    79876    79864    79850    79829    79796 
   79755    79717    79685    79661    79639    79620    79612    79611 
   79608    79607    79613    79619    79622    79623    79628    79636 
   79650    79671    79695    79723    79764    79813    79856    79891 
   79925    79957    79984    80009    80029    80035    80039    80047 
   80052    80053    80059    80062    80060    80052    80043    80029 
   80001    79964    79925    79881    79842    79804    79759    79706 
   79641    79567    79497    79439    79382    79321    79266    79221 
   79181    79144    79111    79076    79039    79009    78985    78962 
   78941    78929    78928    78935    78945    78958    78976    78993 
   79008    79025    79051    79085    79122    79154    79181    79209 
   79241    79270    79297    79327    79356    79385    79419    79455 
   79495    79538    79583    79634    79686    79737    79794    79855 
   79917    79975    80019    80047    80070    80092    80112    80129 
   80138    80134    80120    80101    80079    80056    80030    80005 
   79987    79981    79982    79985    79993    80006    80026    80054 
   80084    80110    80137    80168    80201    80236    80268    80293 
   80307    80312    80308    80292    80265    80233    80196    80151 
   80095    80029    79957    79882    79806    79726    79641    79556 
   79474    79400    79336    79278    79233    79205    79189    79185 
   79194    79208    79232    79267    79311    79359    79408    79458 
   79518    79582    79644    79707    79767    79820    79869    79908 
   79938    79963    79983    79995    79997    79988    79973    79958 
   79944    79930    79915    79904    79897    79889    79885    79883 
   79880    79878    79879    79881    79878    79874    79871    79865 
   79860    79864    79872    79878    79884    79896    79908    79919 
   79931    79944    79958    79976    79999    80024    80048    80071 
   80087    80092    80087    80078    80070    80064    80058    80051 
   80043    80033    80024    80020    80024    80039    80062    80085 
   80099    80110    80123    80134    80135    80127    80109    80085 
   80057    80027    79992    79949    79898    79841    79780    79718 
   79654    79591    79527    79459    79389    79325    79267    79212 
   79156    79103    79062    79034    79016    79007    79010    79026 
   79052    79087    79125    79161    79202    79252    79300    79346 
   79389    79424    79457    79494    79534    79574    79621    79671 
   79714    79746    79775    79801    79818    79833    79845    79849 
   79841    79820    79791    79756    79719    79682    79648    79621 
   79596    79570    79543    79522    79509    79498    79492    79491 
   79492    79491    79495    79509    79529    79550    79569    79590 
   79617    79651    79691    79732    79767    79803    79846    79893 
   79941    79995    80052    80114    80180    80248    80315    80383 
   80451    80517    80581    80643    80704    80760    80810    80855 
   80897    80937    80967    80981    80979    80965    80948    80928 
   80901    80868    80831    80790    80744    80690    80628    80563 
   80495    80425    80355    80288    80222    80159    80098    80043 
   79995    79949    79903    79857    79816    79780    79743    79707 
   79678    79654    79634    79619    79605    79591    79581    79572 
   79557    79540    79528    79523    79519    79506    79485    79466 
   79457    79451    79445    79440    79427    79409    79396    79384 
   79373    79366    79363    79367    79380    79385    79380    79378 
   79380    79378    79377    79379    79380    79383    79393    79400 
   79401    79404    79408    79414    79422    79434    79449    79464 
   79478    79492    79509    79531    79558    79593    79630    79667 
   79707    79751    79797    79845    79896    79948    80003    80057 
   80105    80153    80201    80245    80288    80327    80359    80383 
   80399    80404    80400    80387    80361    80328    80298    80267 
   80228    80188    80148    80101    80051    80000    79944    79886 
   79827    79766    79705    79646    79582    79511    79439    79368 
   79301    79238    79176    79115    79061    79015    78973    78940 
   78923    78922    78933    78956    78993    79034    79073    79113 
   79150    79182    79212    79237    79262    79293    79324    79351 
   79375    79394    79409    79428    79456    79484    79506    79526 
   79542    79555    79574    79593    79611    79631    79654    79677 
   79696    79709    79720    79732    79745    79758    79771    79781 
   79785    79777    79765    79752    79735    79716    79698    79677 
   79651    79624    79602    79589    79582    79582    79591    79608 
   79624    79635    79642    79649    79659    79675    79696    79725 
   79767    79821    79883    79948    80010    80071    80137    80203 
   80266    80330    80398    80459    80509    80555    80599    80638 
   80669    80697    80724    80743    80751    80752    80749    80739 
   80719    80689    80656    80618    80573    80520    80461    80397 
   80332    80270    80208    80148    80088    80025    79957    79885 
   79813    79745    79680    79618    79561    79509    79465    79423 
   79382    79347    79315    79283    79253    79227    79205    79189 
   79176    79165    79159    79160    79165    79178    79200    79227 
   79259    79297    79340    79384    79431    79476    79513    79546 
   79579    79605    79622    79636    79651    79666    79679    79693 
   79703    79707    79709    79709    79702    79696    79689    79679 
   79665    79645    79616    79582    79550    79523    79499    79469 
   79432    79396    79366    79339    79310    79288    79275    79267 
   79263    79261    79259    79265    79279    79294    79312    79335 
   79357    79374    79388    79403    79418    79430    79438    79447 
   79451    79452    79454    79457    79465    79477    79490    79506 
   79526    79542    79558    79576    79591    79608    79628    79646 
   79658    79666    79669    79668    79660    79648    79632    79608 
   79575    79542    79511    79480    79447    79417    79391    79369 
   79355    79345    79343    79350    79366    79390    79422    79461 
   79510    79566    79630    79702    79779    79857    79926    79985 
   80043    80100    80158    80218    80275    80329    80380    80430 
   80470    80497    80513    80525    80531    80531    80529    80523 
   80510    80490    80460    80420    80369    80311    80252    80189 
   80120    80051    79980    79907    79837    79773    79713    79653 
   79594    79543    79498    79454    79411    79377    79351    79330 
   79314    79301    79293    79288    79283    79275    79274    79279 
   79286    79299    79316    79336    79363    79394    79427    79464 
   79497    79525    79558    79597    79634    79666    79695    79726 
   79755    79780    79799    79813    79829    79845    79862    79878 
   79891    79900    79907    79915    79925    79929    79930    79930 
   79926    79911    79889    79865    79838    79810    79779    79743 
   79704    79658    79611    79563    79511    79464    79427    79394 
   79363    79340    79325    79314    79308    79308    79314    79329 
   79356    79391    79427    79462    79496    79527    79556    79591 
   79627    79664    79703    79744    79786    79828    79864    79896 
   79928    79957    79980    79999    80013    80017    80016    80014 
   80010    80000    79987    79979    79968    79948    79927    79908 
   79885    79862    79841    79814    79783    79757    79733    79707 
   79684    79663    79642    79627    79618    79610    79609    79610 
   79606    79601    79600    79598    79598    79600    79602    79606 
   79611    79614    79620    79634    79653    79676    79701    79724 
   79747    79766    79780    79790    79800    79809    79816    79819 
   79822    79827    79834    79838    79841    79839    79834    79831 
   79833    79832    79829    79830    79834    79838    79844    79854 
   79866    79880    79901    79924    79943    79961    79980    79998 
   80017    80037    80055    80072    80089    80097    80099    80101 
   80096    80084    80068    80046    80017    79985    79956    79927 
   79897    79870    79842    79811    79783    79756    79728    79699 
   79668    79635    79599    79560    79523    79488    79452    79421 
   79393    79363    79332    79301    79269    79238    79207    79177 
   79151    79133    79116    79103    79091    79083    79082    79089 
   79099    79110    79123    79139    79163    79197    79232    79265 
   79296    79325    79357    79390    79422    79455    79488    79520 
   79550    79579    79607    79634    79657    79678    79703    79732 
   79763    79796    79831    79862    79891    79915    79938    79963 
