Origin Time       2015/02/20 13:25:00
Lat.              39.912
Long.             143.732
Depth. (km)       8
Mag.              6.5
Station Code      AKTH04
Station Lat.      39.174
Station Long.     140.7129
Station Height(m) 280
Record Time       2015/02/20 13:26:16
Sampling Freq(Hz) 100Hz
Duration Time(s)  124
Dir.              5
Scale Factor      3920(gal)/6170801
Max. Acc. (gal)   1.795
Last Correction   2015/02/20 13:26:01
Memo.             
[...]
    4597     4373     4173     4026     3966     4003     4137     4359 
    4629     4903     5142     5303     5366     5327     5200     5023 
    4854     4743     4721     4794     4956     5184     5437     5669 
    5855     5966     5980     5889     5701     5467     5233     4994 
    4774     4630     4580     4609     4709     4859     5019     5139 
    5206     5241     5259     5258     5232     5190     5153     5127 
    5107     5091     5099     5167     5297     5455     5611     5742 
    5833     5846     5728     5486     5177     4839     4519     4278 
    4165     4190     4310     4470     4670     4919     5164     5341 
    5436     5448     5372     5216     5024     4836     4677     4573 
    4557     4653     4851     5097     5351     5602     5832     6027 
    6191     6290     6252     6048     5736     5382     5023     4700 
    4465     4333     4293     4345     4492     4703     4934     5166 
    5380     5561     5688     5730     5690     5586     5398     5140 
    4855     4554     4255     4018     3880     3825     3833     3913 
    4071     4270     4471     4666     4851     5011     5136     5210 
    5228     5237     5287     5396     5552     5733     5912     6075 
    6230     6359     6413     6360     6157     5798     5360     4936 
    4574     4285     4072     3959     3949     4002     4099     4252 
    4426     4578     4704     4796     4854     4904     4966     5063 
    5206     5359     5467     5517     5528     5504     5414     5270 
    5115     4966     4844     4794     4814     4883     5002     5136 
    5237     5310     5354     5336     5253     5136     5000     4859 
    4736     4654     4620     4646     4725     4807     4853     4868 
    4860     4832     4795     4777     4797     4834     4865     4893 
    4918     4927     4930     4961     5021     5067     5092     5134 
    5197     5278     5386     5469     5488     5497     5511     5507 
    5516     5533     5492     5381     5213     4975     4704     4469 
    4284     4166     4177     4317     4523     4792     5100     5369 
    5576     5720     5757     5677     5534     5345     5124     4927 
    4764     4616     4546     4599     4692     4765     4837     4883 
    4889     4898     4897     4860     4859     4895     4882     4866 
    4911     4967     5066     5267     5492     5707     5931     6061 
    6050     5978     5842     5579     5252     4948     4628     4273 
    3951     3704     3608     3762     4124     4596     5147     5699 
    6136     6417     6523     6425     6171     5873     5587     5324 
    5121     4996     4916     4892     4942     5035     5136     5235 
    5304     5290     5173     4971     4728     4516     4369     4275 
    4254     4325     4448     4600     4789     5001     5215     5429 
    5648     5844     5951     5947     5875     5741     5514     5204 
    4861     4550     4309     4154     4114     4206     4379     4569 
    4779     5022     5258     5437     5554     5625     5634     5571 
    5460     5327     5198     5093     5005     4927     4893     4911 
    4951     5027     5123     5172     5184     5185     5117     4979 
    4870     4821     4817     4908     5098     5322     5561     5784 
    5880     5779     5493     5045     4517     4043     3710     3560 
    3627     3879     4230     4604     4949     5212     5362     5397 
    5331     5208     5110     5089     5137     5251     5428     5636 
    5842     5996     6053     6004     5831     5556     5240     4905 
    4585     4348     4218     4168     4176     4229     4317     4485 
    4789     5183     5594     5972     6245     6341     6250     6043 
    5802     5552     5315     5118     4976     4898     4846     4737 
    4557     4353     4172     4068     4076     4174     4301     4426 
    4552     4667     4791     4953     5083     5124     5119     5090 
    5044     5060     5192     5377     5533     5623     5611     5495 
    5316     5075     4770     4467     4245     4113     4084     4217 
    4517     4900     5285     5622     5860     5982     6008     5941 
    5799     5653     5540     5434     5319     5184     5042     4925 
    4809     4689     4611     4550     4448     4337     4291     4326 
    4386     4407     4390     4394     4471     4646     4915     5260 
    5625     5901     6013     6005     5940     5776     5482     5180 
    4968     4808     4719     4783     4972     5192     5390     5515 
    5538     5497     5408     5241     5037     4850     4602     4237 
    3912     3775     3792     3914     4120     4387     4731     5125 
    5449     5682     5935     6214     6400     6463     6469     6463 
    6462     6455     6398     6256     6025     5721     5397     5112 
    4847     4539     4224     3990     3834     3691     3566     3533 
    3633     3834     4108     4475     4921     5374     5751     6006 
    6127     6084     5876     5586     5283     4963     4612     4257 
    3970     3808     3753     3772     3873     4065     4293     4478 
    4640     4848     5094     5337     5559     5740     5859     5923 
    5971     6027     6025     5909     5709     5500     5345     5238 
    5138     5021     4884     4777     4754     4768     4746     4689 
    4646     4652     4656     4605     4573     4631     4784     5016 
    5305     5599     5811     5893     5855     5708     5457     5137 
    4821     4579     4418     4301     4271     4409     4672     4951 
    5182     5333     5423     5448     5349     5137     4888     4693 
    4624     4673     4825     5106     5462     5789     6019     6129 
    6120     6006     5824     5613     5353     5036     4748     4553 
    4444     4433     4519     4664     4859     5088     5263     5306 
    5201     5003     4806     4626     4429     4229     4057     3946 
    3945     4064     4248     4435     4632     4855     5052     5172 
    5223     5243     5279     5353     5451     5556     5656     5732 
    5773     5771     5663     5391     5011     4643     4355     4136 
    4001     4010     4185     4522     5007     5545     6021     6372 
    6548     6519     6322     6016     5649     5294     5035     4892 
    4812     4748     4702     4660     4566     4439     4374     4402 
    4483     4630     4887     5216     5536     5821     6055     6186 
    6197     6116     5952     5704     5399     5076     4754     4468 
    4284     4208     4212     4307     4474     4665     4865     5051 
    5192     5297     5390     5424     5354     5237     5107     4950 
    4780     4607     4461     4428     4522     4700     4946     5218 
    5458     5655     5795     5852     5809     5657     5411     5094 
    4746     4415     4157     4021     4013     4093     4222     4371 
    4510     4644     4792     4954     5109     5231     5307     5302 
    5181     4964     4699     4449     4282     4213     4207     4231 
    4281     4365     4459     4525     4556     4564     4602     4752 
    5014     5352     5740     6092     6310     6366     6225     5859 
    5319     4703     4089     3560     3214     3109     3239     3576 
    4068     4630     5180     5647     5967     6134     6202     6216 
    6154     6027     5922     5853     5796     5774     5780     5812 
    5851     5821     5685     5468     5199     4918     4668     4497 
    4456     4584     4888     5294     5683     5966     6094     6061 
    5901     5667     5394     5098     4847     4706     4644     4616 
    4616     4623     4610     4580     4566     4550     4501     4467 
    4503     4611     4793     4996     5160     5294     5389     5419 
    5404     5372     5361     5419     5544     5707     5887     6036 
    6111     6106     6016     5812     5521     5243     5046     4962 
    5009     5113     5208     5338     5465     5487     5419     5286 
    5051     4785     4583     4411     4255     4165     4115     4065 
    4034     3997     3925     3898     3978     4119     4298     4524 
    4734     4871     4930     4870     4676     4423     4172     3959 
    3859     3922     4122     4418     4787     5204     5614     5929 
    6103     6152     6059     5804     5448     5068     4719     4457 
    4291     4192     4177     4292     4541     4900     5344     5805 
    6183     6399     6418     6235     5846     5279     4631     4001 
    3470     3117     2995     3123     3501     4053     4646     5205 
    5705     6093     6321     6422     6439     6378     6273     6160 
    6021     5853     5666     5437     5168     4919     4748     4665 
    4659     4716     4810     4927     5066     5186     5250     5294 
    5355     5421     5493     5566     5608     5623     5633     5597 
    5476     5280     5051     4848     4702     4625     4653     4783 
    4946     5129     5363     5615     5812     5930     5986     6003 
    5990     5947     5871     5760     5624     5488     5369     5278 
    5246     5305     5445     5613     5747     5804     5760     5562 
    5170     4649     4104     3584     3147     2915     2972     3322 
    3913     4628     5371     6086     6675     7039     7165     7081 
    6817     6418     5923     5372     4838     4408     4115     3973 
    3980     4081     4253     4469     4636     4688     4634     4506 
    4365     4266     4224     4245     4338     4477     4627     4770 
    4903     5035     5150     5235     5306     5359     5372     5327 
    5220     5070     4877     4654     4448     4295     4198     4138 
    4128     4191     4293     4392     4481     4539     4552     4544 
    4534     4524     4525     4571     4690     4862     5053     5238 
    5389     5482     5512     5474     5372     5247     5143     5050 
    4949     4853     4764     4694     4682     4718     4769     4890 
    5114     5341     5522     5696     5833     5882     5858     5747 
    5530     5261     4966     4636     4314     4017     3733     3506 
    3377     3363     3502     3816     4264     4787     5372     6008 
    6608     7077     7371     7463     7360     7111     6774     6408 
    6056     5714     5367     5015     4663     4324     4032     3810 
    3647     3529     3472     3458     3441     3432     3436     3415 
    3386     3393     3463     3650     3987     4456     5048     5724 
    6377     6905     7248     7373     7259     6911     6387     5771 
    5127     4535     4086     3830     3763     3856     4102     4470 
    4846     5130     5278     5279     5175     5000     4784     4612 
    4545     4630     4910     5340     5853     6388     6852     7209 
    7450     7498     7317     6991     6576     6080     5595     5224 
    4952     4775     4757     4845     4926     4996     5063     5076 
    5011     4908     4813     4756     4781     4867     4945     5043 
    5193     5321     5382     5400     5362     5262     5145     5024 
    4885     4753     4636     4489     4307     4139     3985     3821 
    3682     3625     3659     3765     3936     4150     4364     4555 
    4716     4846     4937     4973     4956     4925     4910     4911 
    4912     4909     4879     4783     4632     4485     4378     4329 
    4354     4454     4633     4883     5160     5446     5756     6083 
    6400     6684     6902     7020     7023     6906     6677     6382 
    6077     5770     5483     5263     5113     4996     4892     4806 
    4764     4800     4873     4877     4780     4617     4370     4038 
    3690     3385     3164     3088     3172     3367     3633     3952 
    4301     4673     5075     5469     5798     6042     6226     6371 
    6453     6432     6316     6155     5973     5763     5525     5276 
    5029     4794     4565     4333     4119     3945     3829     3808 
    3906     4083     4314     4640     5046     5445     5815     6138 
    6337     6390     6320     6099     5717     5234     4709     4200 
    3771     3442     3204     3048     2977     2993     3087     3231 
    3381     3510     3626     3739     3858     4002     4193     4443 
    4765     5144     5533     5909     6255     6492     6564     6481 
    6252     5893     5478     5091     4794     4646     4666     4820 
    5083     5460     5884     6246     6542     6763     6814     6688 
    6454     6134     5790     5491     5251     5120     5157     5317 
    5481     5599     5681     5704     5660     5574     5453     5327 
    5266     5274     5316     5404     5518     5595     5639     5673 
    5650     5550     5397     5197     4979     4799     4667     4534 
    4373     4209     4059     3938     3877     3848     3821     3852 
    3988     4200     4464     4760     5018     5174     5217     5180 
    5070     4879     4654     4428     4202     4039     3981     3993 
    4082     4292     4618     5018     5451     5860     6195     6428 
    6529     6470     6288     6029     5697     5350     5097     4978 
    4966     5023     5100     5147     5152     5119     5012     4800 
    4531     4266     4035     3884     3851     3919     4097     4401 
    4773     5142     5471     5710     5823     5824     5722     5508 
    5251     4994     4712     4450     4271     4188     4203     4313 
    4505     4747     4954     5054     5048     4982     4903     4817 
    4710     4623     4608     4655     4734     4812     4859     4892 
    4937     5023     5184     5437     5760     6125     6533     6951 
    7312     7601     7799     7869     7829     7663     7342     6957 
    6599     6245     5917     5670     5465     5253     5038     4837 
    4649     4485     4364     4275     4215     4200     4219     4255 
    4322     4413     4515     4640     4802     5008     5239     5436 
    5549     5578     5532     5393     5182     4956     4739     4561 
    4480     4485     4545     4685     4850     4952     5008     5034 
    4973     4846     4721     4573     4380     4212     4106     4047 
    4068     4165     4304     4491     4714     4932     5132     5346 
    5581     5803     6002     6168     6272     6290     6173     5934 
    5665     5356     4958     4566     4262     3997     3759     3609 
    3540     3535     3625     3753     3853     3990     4154     4234 
    4261     4296     4295     4262     4262     4301     4360     4461 
    4625     4804     4961     5115     5228     5274     5328     5403 
    5421     5404     5419     5438     5404     5322     5200     5017 
    4792     4590     4443     4372     4416     4564     4802     5136 
    5521     5873     6147     6357     6499     6513     6409     6281 
    6159     6040     5975     5977     5991     6012     6034     6000 
    5907     5795     5628     5363     5068     4824     4596     4355 
    4190     4138     4148     4219     4367     4558     4772     5021 
    5292     5549     5779     5972     6083     6105     6096     6061 
    5942     5756     5596     5488     5379     5297     5286     5284 
    5280     5359     5506     5669     5855     6012     6068     6036 
    5917     5677     5341     4988     4678     4406     4162     3960 
    3795     3663     3602     3637     3751     3928     4133     4313 
    4480     4656     4788     4862     4944     5032     5069     5067 
    5062     5033     4969     4876     4744     4584     4423     4284 
    4163     4049     3976     3964     3962     3949     3958     3976 
    3976     3984     4042     4148     4282     4443     4632     4823 
    5004     5173     5314     5420     5485     5503     5504     5529 
    5584     5637     5670     5683     5652     5574     5468     5297 
    5039     4753     4487     4234     4008     3872     3863     3950 
    4107     4349     4664     4994     5312     5610     5829     5914 
    5891     5791     5618     5408     5207     5041     4939     4926 
    5008     5154     5304     5431     5563     5693     5761     5774 
    5789     5827     5891     5979     6101     6264     6417     6542 
    6672     6790     6844     6820     6710     6507     6222     5879 
    5505     5127     4757     4427     4191     4062     4007     4027 
    4147     4354     4613     4900     5178     5409     5570     5644 
    5625     5533     5380     5169     4916     4635     4351     4096 
    3887     3741     3676     3688     3757     3871     4020     4194 
    4391     4602     4801     4989     5179     5348     5443     5464 
    5459     5428     5342     5223     5115     5033     4963     4917 
    4930     5005     5104     5210     5344     5486     5596     5660 
    5673     5637     5559     5438     5294     5140     4967     4793 
    4641     4496     4345     4197     4051     3901     3771     3691 
    3625     3554     3555     3680     3897     4154     4424     4698 
    4966     5196     5355     5433     5449     5402     5264     5065 
    4885     4745     4618     4523     4513     4549     4569     4579 
    4593     4588     4573     4567     4572     4620     4738     4891 
    5054     5252     5484     5678     5789     5855     5903     5909 
    5872     5827     5807     5812     5816     5828     5843     5785 
    5632     5441     5233     4993     4742     4521     4348     4242 
    4226     4269     4356     4529     4774     5017     5222     5405 
    5568     5669     5692     5703     5720     5695     5652     5634 
    5630     5608     5547     5454     5351     5252     5159     5073 
    4988     4905     4841     4794     4736     4671     4648     4667 
    4699     4777     4948     5187     5448     5745     6075     6362 
    6533     6600     6581     6442     6161     5795     5426     5085 
    4752     4460     4256     4110     3982     3897     3878     3915 
    3991     4102     4239     4376     4512     4650     4764     4856 
    4981     5153     5320     5473     5643     5791     5828     5760 
    5643     5472     5226     4945     4671     4401     4155     3991 
    3935     3963     4038     4154     4310     4477     4616     4737 
    4851     4927     4951     4958     4971     4974     4958     4958 
    4993     5024     5023     5032     5096     5181     5237     5272 
    5304     5323     5312     5274     5219     5132     4997     4842 
    4719     4642     4576     4501     4462     4497     4556     4600 
    4690     4836     4977     5093     5205     5332     5477     5635 
    5802     5966     6128     6283     6397     6440     6408     6299 
    6112     5859     5577     5281     4980     4739     4610     4560 
    4559     4614     4727     4866     4995     5105     5207     5291 
    5329     5313     5281     5283     5321     5375     5464     5597 
    5707     5742     5732     5734     5737     5676     5555     5458 
    5403     5327     5210     5121     5104     5104     5054     4961 
    4888     4840     4754     4650     4617     4664     4747     4865 
    5045     5285     5507     5650     5748     5840     5894     5867 
    5781     5693     5604     5475     5348     5294     5281     5223 
    5131     5075     5047     4956     4766     4549     4373     4214 
    4036     3892     3844     3853     3842     3843     3924     4030 
    4077     4082     4120     4203     4241     4181     4100     4066 
    4050     4029     4046     4154     4317     4437     4512     4627 
