Origin Time       2015/02/20 13:25:00
Lat.              39.912
Long.             143.732
Depth. (km)       8
Mag.              6.5
Station Code      AKTH04
Station Lat.      39.174
Station Long.     140.7129
Station Height(m) 180
Record Time       2015/02/20 13:26:16
Sampling Freq(Hz) 100Hz
Duration Time(s)  124
Dir.              1
Scale Factor      2940(gal)/6170270
Max. Acc. (gal)   0.518
Last Correction   2015/02/20 13:26:01
Memo.             
[...]
  -50832   -50866   -50919   -50975   -51012   -51023   -51005   -50965 
  -50911   -50837   -50756   -50685   -50632   -50601   -50585   -50583 
  -50603   -50638   -50678   -50726   -50778   -50823   -50860   -50883 
  -50892   -50900   -50896   -50864   -50823   -50797   -50798   -50822 
  -50852   -50879   -50908   -50945   -50994   -51038   -51051   -51033 
  -51002   -50966   -50939   -50941   -50967   -51005   -51040   -51050 
  -51019   -50964   -50914   -50876   -50839   -50794   -50732   -50661 
  -50605   -50572   -50555   -50540   -50514   -50477   -50442   -50426 
  -50433   -50449   -50458   -50464   -50474   -50480   -50472   -50449 
  -50427   -50414   -50421   -50455   -50518   -50596   -50670   -50724 
  -50757   -50770   -50767   -50758   -50754   -50767   -50791   -50814 
  -50837   -50867   -50906   -50943   -50968   -50986   -50996   -51005 
  -51022   -51043   -51062   -51084   -51125   -51182   -51241   -51289 
  -51328   -51362   -51381   -51380   -51362   -51331   -51301   -51280 
  -51268   -51266   -51272   -51267   -51243   -51214   -51180   -51128 
  -51051   -50966   -50891   -50838   -50817   -50834   -50879   -50937 
  -50984   -51007   -51022   -51039   -51053   -51047   -51006   -50935 
  -50860   -50798   -50762   -50753   -50748   -50743   -50750   -50766 
  -50785   -50807   -50841   -50895   -50966   -51040   -51115   -51190 
  -51253   -51302   -51330   -51335   -51323   -51296   -51255   -51202 
  -51139   -51081   -51038   -51011   -51002   -51004   -51013   -51019 
  -51012   -50994   -50982   -50985   -50998   -51010   -51015   -51004 
  -50964   -50897   -50812   -50721   -50644   -50592   -50552   -50520 
  -50494   -50459   -50413   -50369   -50324   -50271   -50216   -50164 
  -50124   -50101   -50096   -50109   -50140   -50182   -50235   -50299 
  -50361   -50405   -50433   -50454   -50467   -50480   -50505   -50535 
  -50568   -50603   -50632   -50656   -50694   -50751   -50813   -50866 
  -50907   -50946   -50979   -51000   -51025   -51055   -51080   -51092 
  -51098   -51113   -51128   -51126   -51116   -51101   -51080   -51048 
  -51005   -50960   -50921   -50894   -50893   -50918   -50945   -50955 
  -50946   -50920   -50886   -50856   -50828   -50798   -50773   -50764 
  -50775   -50795   -50820   -50855   -50911   -50994   -51088   -51172 
  -51243   -51294   -51325   -51345   -51349   -51330   -51296   -51255 
  -51210   -51165   -51124   -51097   -51091   -51106   -51148   -51220 
  -51301   -51377   -51441   -51485   -51520   -51555   -51587   -51616 
  -51631   -51621   -51586   -51529   -51450   -51354   -51250   -51143 
  -51048   -50984   -50934   -50875   -50811   -50748   -50691   -50659 
  -50658   -50664   -50668   -50669   -50672   -50680   -50689   -50707 
  -50737   -50761   -50773   -50785   -50786   -50757   -50702   -50644 
  -50605   -50583   -50572   -50583   -50629   -50692   -50756   -50824 
  -50888   -50939   -50981   -51016   -51023   -50993   -50949   -50922 
  -50916   -50924   -50949   -50986   -51030   -51079   -51119   -51145 
  -51165   -51179   -51181   -51162   -51124   -51075   -51014   -50947 
  -50898   -50886   -50906   -50942   -50971   -50988   -51000   -51005 
  -51007   -51017   -51028   -51020   -50984   -50933   -50882   -50826 
  -50766   -50710   -50662   -50636   -50633   -50634   -50632   -50631 
  -50623   -50603   -50576   -50550   -50531   -50516   -50505   -50503 
  -50509   -50513   -50504   -50493   -50489   -50485   -50480   -50475 
  -50462   -50452   -50458   -50472   -50490   -50517   -50547   -50573 
  -50614   -50677   -50748   -50801   -50826   -50831   -50823   -50806 
  -50785   -50764   -50747   -50737   -50741   -50760   -50782   -50804 
  -50823   -50833   -50835   -50834   -50830   -50829   -50840   -50857 
  -50879   -50911   -50951   -50994   -51038   -51071   -51078   -51059 
  -51023   -50969   -50899   -50826   -50760   -50713   -50694   -50708 
  -50747   -50788   -50811   -50815   -50810   -50803   -50799   -50805 
  -50821   -50838   -50865   -50902   -50943   -50982   -51011   -51028 
  -51041   -51050   -51053   -51058   -51065   -51064   -51049   -51037 
  -51032   -51020   -50989   -50957   -50942   -50947   -50956   -50954 
  -50934   -50906   -50883   -50874   -50870   -50856   -50819   -50767 
  -50720   -50690   -50670   -50656   -50660   -50684   -50713   -50735 
  -50736   -50715   -50689   -50671   -50655   -50643   -50636   -50631 
  -50625   -50621   -50611   -50590   -50556   -50517   -50483   -50456 
  -50438   -50428   -50417   -50403   -50395   -50403   -50422   -50442 
  -50469   -50506   -50540   -50569   -50603   -50634   -50645   -50633 
  -50614   -50603   -50599   -50602   -50626   -50668   -50712   -50758 
  -50810   -50858   -50893   -50921   -50961   -51014   -51076   -51148 
  -51225   -51295   -51358   -51411   -51449   -51474   -51480   -51468 
  -51457   -51450   -51433   -51394   -51335   -51269   -51211   -51166 
  -51136   -51117   -51092   -51065   -51047   -51030   -51003   -50969 
  -50933   -50894   -50856   -50816   -50773   -50729   -50686   -50638 
  -50582   -50522   -50463   -50413   -50373   -50345   -50335   -50338 
  -50349   -50365   -50394   -50443   -50493   -50531   -50568   -50618 
  -50680   -50752   -50825   -50884   -50920   -50947   -50981   -51035 
  -51099   -51158   -51209   -51252   -51287   -51318   -51337   -51335 
  -51329   -51329   -51324   -51314   -51309   -51312   -51321   -51333 
  -51341   -51341   -51331   -51308   -51273   -51228   -51173   -51104 
  -51020   -50927   -50840   -50768   -50704   -50640   -50577   -50523 
  -50478   -50435   -50385   -50329   -50278   -50243   -50214   -50180 
  -50143   -50105   -50069   -50040   -50018   -50004   -49997   -49998 
  -50011   -50029   -50040   -50042   -50043   -50045   -50050   -50070 
  -50099   -50125   -50150   -50187   -50247   -50317   -50388   -50456 
  -50513   -50564   -50616   -50658   -50695   -50731   -50758   -50782 
  -50813   -50844   -50859   -50854   -50844   -50840   -50848   -50866 
  -50880   -50882   -50875   -50869   -50864   -50867   -50888   -50926 
  -50972   -51024   -51073   -51110   -51133   -51149   -51160   -51167 
  -51170   -51173   -51178   -51183   -51189   -51198   -51202   -51206 
  -51219   -51236   -51257   -51292   -51345   -51407   -51469   -51527 
  -51583   -51634   -51668   -51674   -51648   -51601   -51548   -51492 
  -51433   -51377   -51335   -51312   -51290   -51263   -51236   -51207 
  -51170   -51127   -51090   -51060   -51024   -50983   -50947   -50915 
  -50888   -50873   -50878   -50887   -50887   -50880   -50865   -50835 
  -50788   -50732   -50668   -50596   -50528   -50482   -50456   -50440 
  -50450   -50491   -50555   -50630   -50700   -50758   -50806   -50842 
  -50868   -50887   -50893   -50882   -50863   -50843   -50817   -50782 
  -50745   -50715   -50700   -50693   -50686   -50685   -50687   -50685 
  -50682   -50680   -50669   -50655   -50651   -50652   -50650   -50645 
  -50636   -50627   -50629   -50647   -50665   -50676   -50678   -50670 
  -50655   -50635   -50605   -50573   -50552   -50536   -50514   -50485 
  -50468   -50468   -50476   -50489   -50515   -50555   -50601   -50642 
  -50672   -50691   -50696   -50684   -50652   -50607   -50557   -50510 
  -50469   -50439   -50427   -50434   -50456   -50495   -50553   -50626 
  -50709   -50796   -50879   -50941   -50987   -51029   -51066   -51099 
  -51138   -51184   -51238   -51302   -51366   -51425   -51489   -51559 
  -51623   -51676   -51711   -51724   -51718   -51690   -51633   -51555 
  -51466   -51378   -51298   -51226   -51158   -51100   -51059   -51031 
  -51002   -50966   -50929   -50898   -50862   -50813   -50758   -50702 
  -50649   -50607   -50576   -50553   -50541   -50536   -50536   -50538 
  -50536   -50534   -50534   -50524   -50498   -50461   -50424   -50393 
  -50371   -50364   -50374   -50389   -50397   -50390   -50366   -50339 
  -50327   -50330   -50345   -50366   -50392   -50420   -50452   -50485 
  -50517   -50548   -50576   -50605   -50642   -50691   -50754   -50834 
  -50919   -50992   -51050   -51102   -51163   -51234   -51305   -51366 
  -51406   -51422   -51423   -51420   -51426   -51446   -51471   -51495 
  -51516   -51538   -51561   -51569   -51560   -51545   -51529   -51517 
  -51511   -51504   -51486   -51459   -51428   -51408   -51407   -51415 
  -51423   -51430   -51428   -51417   -51400   -51375   -51348   -51323 
  -51292   -51247   -51187   -51117   -51039   -50962   -50903   -50858 
  -50819   -50792   -50776   -50758   -50733   -50703   -50671   -50640 
  -50613   -50587   -50560   -50539   -50522   -50507   -50500   -50500 
  -50514   -50552   -50601   -50634   -50652   -50659   -50665   -50678 
  -50698   -50723   -50751   -50779   -50808   -50837   -50860   -50872 
  -50874   -50873   -50875   -50876   -50869   -50846   -50820   -50800 
  -50780   -50755   -50734   -50714   -50688   -50668   -50664   -50673 
  -50685   -50688   -50684   -50680   -50675   -50663   -50648   -50635 
  -50632   -50642   -50664   -50685   -50700   -50715   -50732   -50742 
  -50749   -50756   -50754   -50744   -50741   -50739   -50728   -50725 
  -50746   -50780   -50824   -50878   -50937   -50993   -51045   -51101 
  -51158   -51209   -51248   -51274   -51294   -51311   -51325   -51341 
  -51357   -51370   -51380   -51393   -51406   -51401   -51380   -51361 
  -51345   -51329   -51320   -51316   -51307   -51290   -51265   -51237 
  -51197   -51143   -51081   -51012   -50942   -50880   -50822   -50765 
  -50712   -50661   -50617   -50585   -50562   -50545   -50522   -50482 
  -50430   -50387   -50361   -50341   -50309   -50267   -50229   -50201 
  -50180   -50171   -50177   -50194   -50222   -50257   -50299   -50349 
  -50400   -50449   -50503   -50564   -50630   -50688   -50728   -50757 
  -50787   -50827   -50880   -50938   -50986   -51022   -51052   -51082 
  -51105   -51122   -51141   -51165   -51184   -51196   -51205   -51210 
  -51208   -51202   -51201   -51208   -51209   -51203   -51198   -51193 
  -51184   -51164   -51130   -51091   -51057   -51026   -50998   -50968 
  -50935   -50907   -50885   -50871   -50863   -50865   -50878   -50888 
  -50890   -50890   -50894   -50895   -50899   -50911   -50932   -50959 
  -50976   -50976   -50964   -50948   -50932   -50916   -50899   -50873 
  -50835   -50795   -50766   -50752   -50748   -50747   -50756   -50776 
  -50799   -50830   -50864   -50894   -50918   -50936   -50954   -50979 
  -51011   -51043   -51067   -51075   -51067   -51053   -51034   -51018 
  -51006   -50980   -50937   -50895   -50865   -50838   -50808   -50772 
  -50725   -50672   -50628   -50604   -50593   -50579   -50555   -50527 
  -50501   -50484   -50476   -50472   -50467   -50464   -50466   -50470 
  -50480   -50502   -50542   -50590   -50630   -50663   -50690   -50704 
  -50708   -50717   -50732   -50752   -50773   -50793   -50812   -50833 
  -50853   -50872   -50887   -50896   -50894   -50873   -50841   -50801 
  -50749   -50695   -50649   -50614   -50594   -50594   -50608   -50632 
  -50664   -50694   -50721   -50753   -50792   -50830   -50861   -50883 
  -50901   -50916   -50932   -50954   -50982   -51010   -51038   -51071 
  -51100   -51125   -51148   -51172   -51194   -51223   -51262   -51308 
  -51350   -51382   -51409   -51433   -51450   -51457   -51458   -51464 
  -51479   -51498   -51514   -51524   -51531   -51533   -51530   -51526 
  -51523   -51515   -51500   -51479   -51446   -51401   -51352   -51302 
  -51256   -51214   -51170   -51122   -51075   -51028   -50982   -50934 
  -50878   -50814   -50746   -50680   -50621   -50565   -50510   -50460 
  -50415   -50376   -50346   -50330   -50313   -50283   -50244   -50202 
  -50159   -50126   -50106   -50094   -50088   -50098   -50128   -50164 
  -50207   -50262   -50319   -50379   -50449   -50521   -50588   -50656 
  -50730   -50812   -50899   -50982   -51049   -51103   -51151   -51196 
  -51241   -51282   -51320   -51361   -51402   -51444   -51484   -51518 
  -51543   -51559   -51567   -51570   -51564   -51538   -51494   -51436 
  -51364   -51284   -51204   -51120   -51031   -50939   -50847   -50755 
  -50669   -50591   -50511   -50425   -50342   -50269   -50206   -50148 
  -50093   -50046   -50015   -50000   -49992   -49986   -49996   -50022 
  -50054   -50088   -50118   -50144   -50168   -50189   -50219   -50264 
  -50320   -50387   -50461   -50536   -50622   -50722   -50826   -50935 
  -51044   -51145   -51227   -51292   -51355   -51414   -51456   -51478 
  -51484   -51485   -51493   -51499   -51500   -51501   -51497   -51487 
  -51480   -51473   -51464   -51456   -51442   -51416   -51383   -51350 
  -51320   -51298   -51283   -51272   -51261   -51258   -51271   -51289 
  -51297   -51284   -51251   -51207   -51164   -51125   -51093   -51075 
  -51073   -51081   -51094   -51103   -51104   -51102   -51095   -51080 
  -51061   -51039   -51007   -50974   -50941   -50905   -50873   -50850 
  -50828   -50803   -50779   -50755   -50721   -50679   -50641   -50610 
  -50577   -50534   -50486   -50443   -50408   -50376   -50336   -50290 
  -50251   -50220   -50189   -50155   -50122   -50092   -50061   -50035 
  -50016   -49998   -49977   -49965   -49959   -49952   -49949   -49956 
  -49972   -49990   -50004   -50015   -50037   -50071   -50110   -50155 
  -50207   -50259   -50309   -50363   -50428   -50500   -50570   -50640 
  -50711   -50777   -50840   -50905   -50973   -51034   -51088   -51150 
  -51218   -51292   -51377   -51471   -51560   -51640   -51711   -51776 
  -51833   -51878   -51910   -51932   -51947   -51949   -51937   -51917 
  -51891   -51862   -51828   -51795   -51765   -51724   -51668   -51612 
  -51561   -51514   -51481   -51456   -51438   -51430   -51428   -51431 
  -51437   -51433   -51415   -51389   -51364   -51347   -51341   -51345 
  -51348   -51347   -51337   -51316   -51295   -51282   -51276   -51268 
  -51247   -51212   -51174   -51141   -51108   -51076   -51046   -51016 
  -50977   -50929   -50877   -50824   -50768   -50711   -50654   -50599 
  -50546   -50497   -50451   -50396   -50336   -50284   -50239   -50197 
  -50154   -50115   -50091   -50077   -50072   -50076   -50082   -50087 
  -50092   -50096   -50106   -50123   -50142   -50164   -50190   -50221 
  -50260   -50300   -50342   -50388   -50428   -50461   -50494   -50530 
  -50567   -50605   -50644   -50685   -50725   -50763   -50807   -50859 
  -50912   -50964   -51013   -51057   -51088   -51107   -51115   -51121 
  -51135   -51148   -51144   -51122   -51092   -51061   -51038   -51027 
  -51020   -51010   -50995   -50980   -50967   -50960   -50959   -50962 
  -50967   -50964   -50953   -50943   -50941   -50949   -50960   -50970 
  -50973   -50965   -50956   -50952   -50949   -50949   -50947   -50938 
  -50927   -50919   -50916   -50913   -50910   -50912   -50918   -50924 
  -50936   -50954   -50970   -50975   -50975   -50974   -50977   -50980 
  -50985   -50986   -50982   -50981   -50985   -50990   -50998   -51006 
  -51010   -51019   -51036   -51057   -51074   -51086   -51102   -51130 
  -51165   -51199   -51226   -51249   -51267   -51277   -51282   -51284 
  -51277   -51260   -51234   -51204   -51183   -51176   -51172   -51164 
  -51153   -51141   -51125   -51109   -51098   -51095   -51101   -51114 
  -51129   -51143   -51152   -51155   -51155   -51145   -51126   -51108 
  -51093   -51082   -51075   -51069   -51060   -51041   -51013   -50985 
  -50963   -50949   -50938   -50918   -50892   -50862   -50831   -50806 
  -50785   -50765   -50741   -50709   -50674   -50641   -50604   -50558 
  -50508   -50462   -50427   -50399   -50368   -50341   -50325   -50319 
  -50316   -50315   -50315   -50316   -50317   -50322   -50334   -50349 
  -50370   -50403   -50440   -50471   -50504   -50534   -50552   -50564 
  -50572   -50573   -50576   -50585   -50602   -50620   -50632   -50640 
  -50648   -50665   -50693   -50726   -50765   -50802   -50826   -50846 
  -50868   -50887   -50903   -50923   -50945   -50970   -51001   -51033 
  -51062   -51084   -51104   -51122   -51137   -51149   -51157   -51155 
  -51149   -51140   -51129   -51124   -51125   -51125   -51120   -51109 
  -51094   -51075   -51052   -51029   -51011   -50994   -50969   -50941 
  -50910   -50881   -50866   -50862   -50862   -50870   -50886   -50899 
  -50904   -50908   -50913   -50915   -50921   -50929   -50937   -50945 
  -50949   -50947   -50948   -50951   -50946   -50931   -50912   -50887 
  -50858   -50833   -50815   -50797   -50783   -50771   -50756   -50747 
  -50749   -50762   -50786   -50813   -50832   -50847   -50863   -50878 
  -50893   -50915   -50936   -50955   -50975   -51004   -51042   -51078 
  -51118   -51168   -51224   -51275   -51322   -51372   -51427   -51480 
  -51521   -51555   -51583   -51604   -51617   -51623   -51622   -51619 
  -51614   -51608   -51603   -51597   -51583   -51556   -51520   -51483 
  -51444   -51394   -51340   -51286   -51229   -51167   -51107   -51045 
  -50980   -50919   -50871   -50839   -50812   -50781   -50752   -50726 
  -50697   -50660   -50618   -50574   -50533   -50499   -50470   -50445 
  -50420   -50389   -50356   -50321   -50285   -50250   -50215   -50179 
  -50145   -50116   -50089   -50065   -50049   -50037   -50030   -50026 
  -50019   -50011   -50012   -50013   -50010   -50011   -50019   -50038 
  -50061   -50080   -50100   -50123   -50138   -50151   -50173   -50204 
  -50238   -50275   -50315   -50351   -50380   -50401   -50421   -50447 
  -50474   -50500   -50520   -50527   -50531   -50542   -50551   -50558 
  -50572   -50587   -50602   -50620   -50640   -50661   -50686   -50715 
  -50747   -50780   -50815   -50855   -50898   -50941   -50987   -51035 
  -51082   -51127   -51171   -51219   -51263   -51307   -51357   -51406 
  -51449   -51488   -51520   -51547   -51580   -51613   -51630   -51635 
  -51636   -51627   -51615   -51604   -51589   -51574   -51563   -51549 
  -51533   -51518   -51501   -51474   -51443   -51417   -51390   -51356 
  -51321   -51284   -51242   -51199   -51159   -51120   -51079   -51043 
  -51016   -50989   -50964   -50941   -50918   -50903   -50893   -50882 
  -50873   -50866   -50862   -50864   -50867   -50865   -50860   -50854 
  -50847   -50839   -50829   -50817   -50816   -50819   -50811   -50796 
  -50786   -50781   -50782   -50785   -50786   -50788   -50795   -50803 
  -50812   -50827   -50848   -50871   -50895   -50913   -50921   -50924 
  -50922   -50920   -50923   -50925   -50922   -50917   -50910   -50905 
  -50900   -50894   -50886   -50881   -50878   -50870   -50857   -50843 
  -50827   -50809   -50789   -50764   -50738   -50714   -50688   -50659 
  -50629   -50595   -50556   -50520   -50488   -50455   -50428   -50408 
  -50389   -50371   -50356   -50349   -50351   -50351   -50349   -50351 
  -50356   -50365   -50376   -50385   -50400   -50424   -50452   -50491 
  -50536   -50576   -50614   -50652   -50687   -50720   -50755   -50788 
  -50817   -50842   -50865   -50892   -50916   -50935   -50954   -50972 
  -50988   -50999   -51006   -51002   -50990   -50975   -50967   -50967 
  -50967   -50963   -50957   -50950   -50936   -50918   -50903   -50897 
  -50893   -50881   -50865   -50850   -50835   -50826   -50817   -50807 
  -50801   -50796   -50792   -50791   -50791   -50795   -50803   -50813 
  -50830   -50857   -50890   -50925   -50955   -50983   -51016   -51047 
  -51074   -51103   -51135   -51167   -51200   -51228   -51243   -51253 
