Origin Time       2015/02/20 13:25:00
Lat.              39.912
Long.             143.732
Depth. (km)       8
Mag.              6.5
Station Code      AKTH04
Station Lat.      39.174
Station Long.     140.7129
Station Height(m) 280
Record Time       2015/02/20 13:26:16
Sampling Freq(Hz) 100Hz
Duration Time(s)  124
Dir.              6
Scale Factor      3920(gal)/6170801
Max. Acc. (gal)   0.719
Last Correction   2015/02/20 13:26:01
Memo.             
[...]
  -13745   -13704   -13662   -13681   -13774   -13872   -13925   -13942 
  -13953   -13966   -13978   -13966   -13897   -13791   -13714   -13690 
  -13693   -13700   -13715   -13751   -13820   -13913   -13978   -13975 
  -13926   -13869   -13813   -13765   -13737   -13724   -13723   -13755 
  -13832   -13920   -13980   -14026   -14070   -14079   -14010   -13871 
  -13723   -13601   -13498   -13444   -13493   -13635   -13820   -13983 
  -14086   -14175   -14264   -14255   -14123   -13983   -13895   -13805 
  -13692   -13635   -13696   -13812   -13889   -13937   -14021   -14112 
  -14130   -14059   -13952   -13878   -13850   -13800   -13713   -13656 
  -13641   -13621   -13588   -13592   -13648   -13701   -13718   -13722 
  -13720   -13693   -13645   -13638   -13706   -13770   -13762   -13726 
  -13728   -13771   -13792   -13746   -13677   -13673   -13745   -13846 
  -13979   -14155   -14299   -14330   -14268   -14198   -14153   -14075 
  -13948   -13889   -13965   -14053   -14027   -13976   -14059   -14256 
  -14402   -14439   -14454   -14520   -14593   -14581   -14498   -14420 
  -14356   -14309   -14282   -14207   -14062   -13948   -13902   -13856 
  -13789   -13762   -13808   -13885   -13980   -14148   -14350   -14479 
  -14523   -14531   -14524   -14458   -14303   -14118   -13951   -13796 
  -13667   -13600   -13605   -13641   -13684   -13772   -13908   -14029 
  -14100   -14145   -14171   -14160   -14132   -14105   -14052   -13961 
  -13889   -13891   -13923   -13920   -13904   -13921   -13962   -13992 
  -13998   -13978   -13921   -13848   -13801   -13779   -13759   -13763 
  -13829   -13937   -14046   -14168   -14283   -14312   -14233   -14102 
  -13971   -13834   -13676   -13534   -13449   -13409   -13388   -13395 
  -13448   -13527   -13603   -13672   -13735   -13771   -13766   -13752 
  -13761   -13787   -13803   -13793   -13776   -13797   -13845   -13848 
  -13790   -13755   -13820   -13964   -14085   -14136   -14169   -14231 
  -14292   -14276   -14171   -14036   -13910   -13819   -13765   -13704 
  -13623   -13553   -13534   -13595   -13711   -13794   -13796   -13776 
  -13817   -13888   -13913   -13889   -13826   -13727   -13649   -13676 
  -13813   -13966   -14065   -14140   -14244   -14346   -14365   -14272 
  -14097   -13901   -13743   -13641   -13574   -13530   -13527   -13561 
  -13599   -13623   -13635   -13652   -13686   -13729   -13786   -13877 
  -13974   -14042   -14104   -14182   -14252   -14278   -14249   -14184 
  -14109   -14030   -13951   -13892   -13844   -13784   -13735   -13722 
  -13746   -13807   -13868   -13895   -13921   -13988   -14055   -14094 
  -14131   -14156   -14124   -14051   -14018   -14065   -14086   -14007 
  -13933   -13919   -13871   -13755   -13656   -13651   -13717   -13821 
  -13969   -14125   -14246   -14347   -14445   -14511   -14501   -14424 
  -14339   -14259   -14168   -14058   -13938   -13840   -13765   -13700 
  -13647   -13610   -13603   -13625   -13668   -13739   -13827   -13929 
  -14058   -14173   -14211   -14206   -14238   -14266   -14202   -14070 
  -13943   -13816   -13649   -13471   -13347   -13294   -13291   -13322 
  -13391   -13503   -13615   -13712   -13827   -13930   -13967   -13950 
  -13904   -13830   -13729   -13633   -13577   -13556   -13561   -13610 
  -13713   -13856   -14006   -14130   -14223   -14249   -14185   -14084 
  -13977   -13844   -13704   -13611   -13579   -13572   -13572   -13597 
  -13661   -13760   -13883   -14016   -14142   -14217   -14228   -14215 
  -14196   -14155   -14122   -14141   -14227   -14366   -14501   -14574 
  -14575   -14508   -14388   -14235   -14065   -13903   -13795   -13781 
  -13850   -13964   -14105   -14277   -14459   -14599   -14651   -14614 
  -14514   -14413   -14358   -14319   -14272   -14259   -14303   -14369 
  -14410   -14424   -14425   -14395   -14320   -14214   -14082   -13924 
  -13735   -13531   -13349   -13218   -13164   -13198   -13306   -13477 
  -13691   -13905   -14069   -14165   -14238   -14313   -14354   -14345 
  -14290   -14185   -14025   -13850   -13717   -13643   -13612   -13601 
  -13601   -13609   -13606   -13593   -13614   -13709   -13863   -14032 
  -14205   -14408   -14606   -14715   -14676   -14496   -14256   -14040 
  -13865   -13717   -13623   -13602   -13604   -13608   -13655   -13730 
  -13775   -13772   -13722   -13623   -13469   -13279   -13102   -12994 
  -12984   -13041   -13138   -13266   -13381   -13441   -13426   -13340 
  -13235   -13133   -13033   -12964   -12935   -12937   -12990   -13110 
  -13280   -13464   -13628   -13763   -13863   -13896   -13844   -13738 
  -13624   -13508   -13386   -13277   -13234   -13308   -13453   -13577 
  -13706   -13886   -14065   -14200   -14280   -14280   -14208   -14094 
  -13968   -13857   -13757   -13669   -13633   -13660   -13711   -13777 
  -13864   -13961   -14059   -14156   -14254   -14308   -14269   -14188 
  -14129   -14070   -13985   -13923   -13914   -13911   -13882   -13834 
  -13794   -13802   -13860   -13933   -13975   -13970   -13949   -13948 
  -13962   -13975   -13988   -14008   -14037   -14084   -14130   -14146 
  -14146   -14140   -14112   -14079   -14047   -14006   -13991   -14032 
  -14115   -14213   -14317   -14400   -14438   -14457   -14488   -14525 
  -14553   -14555   -14523   -14473   -14427   -14380   -14293   -14162 
  -14051   -14026   -14079   -14156   -14215   -14250   -14286   -14313 
  -14299   -14281   -14311   -14377   -14459   -14569   -14703   -14835 
  -14943   -14990   -14925   -14770   -14595   -14435   -14269   -14074 
  -13895   -13816   -13839   -13884   -13907   -13944   -14031   -14125 
  -14165   -14151   -14111   -14050   -13978   -13909   -13840   -13788 
  -13775   -13806   -13885   -13974   -14026   -14067   -14133   -14176 
  -14160   -14106   -14050   -14007   -13970   -13939   -13929   -13935 
  -13924   -13902   -13900   -13897   -13893   -13887   -13788   -13596 
  -13448   -13367   -13244   -13050   -12924   -12959   -13032   -13031 
  -13029   -13096   -13183   -13243   -13305   -13390   -13457   -13499 
  -13550   -13603   -13625   -13615   -13598   -13565   -13497   -13473 
  -13548   -13618   -13619   -13630   -13701   -13771   -13777   -13744 
  -13741   -13773   -13791   -13777   -13759   -13752   -13745   -13730 
  -13705   -13662   -13612   -13592   -13617   -13661   -13720   -13799 
  -13858   -13848   -13784   -13727   -13688   -13622   -13526   -13457 
  -13457   -13508   -13591   -13719   -13868   -14009   -14139   -14229 
  -14245   -14209   -14160   -14106   -14041   -13963   -13874   -13802 
  -13777   -13784   -13813   -13868   -13925   -13958   -13972   -13985 
  -14012   -14041   -14019   -13926   -13828   -13807   -13873   -13961 
  -14010   -14037   -14084   -14141   -14164   -14115   -14013   -13918 
  -13857   -13811   -13751   -13681   -13638   -13636   -13673   -13741 
  -13816   -13873   -13924   -14015   -14132   -14208   -14232   -14250 
  -14282   -14311   -14322   -14327   -14339   -14355   -14360   -14354 
  -14363   -14376   -14378   -14384   -14390   -14395   -14413   -14414 
  -14378   -14345   -14341   -14356   -14362   -14356   -14367   -14409 
  -14443   -14431   -14388   -14351   -14327   -14303   -14266   -14192 
  -14077   -13974   -13916   -13888   -13882   -13889   -13903   -13917 
  -13916   -13878   -13788   -13663   -13547   -13448   -13351   -13272 
  -13240   -13258   -13312   -13389   -13486   -13580   -13625   -13597 
  -13526   -13459   -13404   -13342   -13280   -13262   -13321   -13464 
  -13661   -13871   -14073   -14259   -14404   -14488   -14534   -14562 
  -14546   -14478   -14401   -14359   -14343   -14314   -14264   -14224 
  -14205   -14179   -14108   -13996   -13873   -13754   -13627   -13509 
  -13465   -13494   -13536   -13626   -13816   -14038   -14186   -14244 
  -14264   -14261   -14179   -14014   -13825   -13644   -13459   -13277 
  -13136   -13038   -12969   -12944   -12969   -13019   -13081   -13161 
  -13257   -13348   -13401   -13442   -13557   -13713   -13774   -13781 
  -13875   -14014   -14079   -14048   -13959   -13849   -13730   -13597 
  -13461   -13345   -13260   -13233   -13297   -13430   -13566   -13683 
  -13798   -13898   -13967   -14025   -14080   -14113   -14135   -14167 
  -14212   -14256   -14279   -14282   -14255   -14160   -14014   -13872 
  -13746   -13614   -13485   -13417   -13436   -13522   -13647   -13799 
  -13986   -14197   -14384   -14520   -14591   -14579   -14488   -14355 
  -14236   -14144   -14054   -14001   -14046   -14182   -14364   -14556 
  -14710   -14808   -14870   -14891   -14813   -14630   -14452   -14324 
  -14178   -14022   -13923   -13909   -13949   -13982   -14018   -14093 
  -14172   -14217   -14242   -14251   -14232   -14188   -14131   -14062 
  -13964   -13837   -13718   -13630   -13561   -13517   -13519   -13568 
  -13656   -13783   -13935   -14065   -14138   -14165   -14156   -14093 
  -13988   -13891   -13789   -13641   -13493   -13426   -13443   -13487 
  -13535   -13614   -13737   -13871   -13962   -14002   -14030   -14055 
  -14056   -14029   -13989   -13950   -13914   -13894   -13888   -13893 
  -13906   -13909   -13930   -13996   -14057   -14069   -14046   -14006 
  -13964   -13930   -13905   -13880   -13838   -13786   -13753   -13756 
  -13782   -13816   -13851   -13888   -13933   -13982   -14016   -14029 
  -14033   -14038   -14050   -14078   -14117   -14152   -14171   -14188 
  -14222   -14262   -14303   -14349   -14368   -14368   -14390   -14424 
  -14451   -14472   -14478   -14462   -14425   -14375   -14320   -14268 
  -14237   -14228   -14227   -14228   -14231   -14240   -14239   -14193 
  -14109   -14022   -13918   -13789   -13679   -13605   -13541   -13493 
  -13503   -13554   -13606   -13660   -13735   -13827   -13897   -13901 
  -13849   -13792   -13743   -13681   -13621   -13588   -13588   -13626 
  -13692   -13750   -13795   -13848   -13904   -13940   -13958   -13970 
  -13971   -13960   -13939   -13887   -13807   -13730   -13674   -13635 
  -13621   -13645   -13697   -13782   -13892   -14004   -14113   -14205 
  -14255   -14247   -14193   -14130   -14081   -14045   -14007   -13953 
  -13890   -13833   -13776   -13719   -13677   -13647   -13618   -13586 
  -13565   -13578   -13623   -13669   -13714   -13776   -13835   -13874 
  -13899   -13918   -13928   -13927   -13904   -13841   -13756   -13676 
  -13605   -13565   -13586   -13647   -13723   -13818   -13934   -14050 
  -14147   -14213   -14236   -14221   -14166   -14065   -13942   -13820 
  -13703   -13602   -13526   -13484   -13496   -13558   -13642   -13744 
  -13873   -14013   -14137   -14229   -14279   -14278   -14245   -14198 
  -14123   -14009   -13875   -13784   -13769   -13797   -13839   -13882 
  -13933   -13986   -13998   -13966   -13915   -13846   -13767   -13696 
  -13640   -13589   -13534   -13475   -13416   -13386   -13403   -13443 
  -13496   -13577   -13677   -13768   -13841   -13888   -13912   -13913 
  -13887   -13852   -13819   -13798   -13811   -13833   -13855   -13922 
  -14038   -14166   -14278   -14367   -14432   -14485   -14544   -14598 
  -14615   -14584   -14547   -14549   -14565   -14552   -14510   -14455 
  -14416   -14408   -14424   -14443   -14444   -14445   -14475   -14509 
  -14508   -14502   -14538   -14585   -14581   -14537   -14482   -14419 
  -14341   -14247   -14153   -14065   -13988   -13938   -13906   -13872 
  -13866   -13897   -13936   -13959   -13969   -13966   -13941   -13905 
  -13884   -13867   -13842   -13818   -13797   -13776   -13732   -13666 
  -13618   -13611   -13628   -13626   -13593   -13577   -13590   -13601 
  -13616   -13647   -13680   -13699   -13709   -13733   -13764   -13768 
  -13728   -13670   -13618   -13560   -13486   -13417   -13377   -13356 
  -13334   -13306   -13295   -13315   -13347   -13377   -13413   -13455 
  -13507   -13582   -13663   -13734   -13807   -13891   -13995   -14102 
  -14193   -14274   -14346   -14408   -14469   -14534   -14580   -14583 
  -14555   -14519   -14485   -14433   -14350   -14253   -14151   -14057 
  -13990   -13952   -13923   -13887   -13858   -13853   -13840   -13813 
  -13795   -13798   -13820   -13844   -13853   -13845   -13833   -13839 
  -13857   -13871   -13891   -13932   -13976   -13978   -13935   -13886 
  -13828   -13731   -13618   -13530   -13484   -13481   -13514   -13584 
  -13667   -13727   -13778   -13834   -13871   -13882   -13893   -13905 
  -13888   -13861   -13876   -13917   -13919   -13870   -13801   -13733 
  -13663   -13593   -13545   -13520   -13501   -13492   -13514   -13553 
  -13603   -13687   -13808   -13895   -13918   -13936   -13968   -13962 
  -13900   -13815   -13741   -13666   -13560   -13464   -13443   -13469 
  -13481   -13494   -13552   -13642   -13728   -13800   -13876   -13949 
  -13993   -14004   -14009   -14037   -14085   -14128   -14178   -14247 
  -14335   -14441   -14521   -14563   -14592   -14596   -14573   -14541 
  -14492   -14431   -14377   -14337   -14311   -14282   -14236   -14179 
  -14131   -14100   -14067   -14007   -13933   -13886   -13884   -13906 
  -13929   -13948   -13971   -13982   -13972   -13950   -13914   -13879 
  -13856   -13837   -13827   -13831   -13863   -13929   -14013   -14105 
  -14186   -14223   -14220   -14181   -14113   -14049   -14002   -13971 
  -13985   -14048   -14128   -14183   -14217   -14244   -14240   -14194 
  -14122   -14036   -13940   -13848   -13780   -13739   -13683   -13597 
  -13522   -13488   -13486   -13491   -13470   -13418   -13364   -13340 
  -13345   -13336   -13296   -13258   -13244   -13228   -13182   -13106 
  -13015   -12929   -12854   -12799   -12785   -12813   -12862   -12924 
  -13002   -13095   -13206   -13325   -13429   -13510   -13576   -13627 
  -13663   -13683   -13689   -13689   -13698   -13718   -13747   -13799 
  -13865   -13918   -13971   -14037   -14091   -14108   -14084   -14029 
  -13967   -13910   -13859   -13826   -13827   -13868   -13930   -13991 
  -14051   -14105   -14136   -14131   -14094   -14049   -14011   -13980 
  -13954   -13929   -13903   -13883   -13891   -13935   -13992   -14023 
  -14033   -14059   -14110   -14159   -14184   -14193   -14209   -14249 
  -14286   -14284   -14257   -14252   -14265   -14259   -14234   -14221 
  -14221   -14227   -14243   -14265   -14283   -14276   -14238   -14196 
  -14162   -14112   -14044   -13996   -13984   -13987   -14003   -14026 
  -14040   -14045   -14033   -13979   -13890   -13788   -13674   -13546 
  -13429   -13353   -13320   -13307   -13308   -13343   -13414   -13495 
  -13559   -13602   -13634   -13635   -13607   -13575   -13552   -13527 
  -13495   -13468   -13472   -13520   -13595   -13682   -13779   -13891 
  -13997   -14074   -14110   -14102   -14066   -14043   -14061   -14111 
  -14163   -14204   -14268   -14383   -14499   -14563   -14574   -14556 
  -14548   -14555   -14549   -14535   -14522   -14509   -14484   -14451 
  -14431   -14403   -14343   -14277   -14210   -14140   -14068   -13996 
  -13959   -13963   -13987   -14017   -14041   -14063   -14097   -14137 
  -14162   -14151   -14110   -14066   -14035   -14000   -13957   -13914 
  -13875   -13862   -13890   -13919   -13921   -13903   -13890   -13905 
  -13938   -13970   -14000   -14036   -14086   -14143   -14182   -14191 
  -14172   -14149   -14136   -14117   -14096   -14078   -14048   -14015 
  -13982   -13944   -13916   -13896   -13866   -13837   -13815   -13798 
  -13794   -13790   -13754   -13706   -13678   -13657   -13616   -13556 
  -13492   -13437   -13383   -13328   -13284   -13259   -13234   -13194 
  -13166   -13163   -13157   -13153   -13161   -13162   -13159   -13161 
  -13169   -13197   -13239   -13281   -13325   -13372   -13430   -13482 
  -13506   -13538   -13585   -13627   -13668   -13722   -13797   -13885 
  -13952   -14004   -14064   -14112   -14138   -14147   -14135   -14107 
  -14082   -14070   -14069   -14086   -14118   -14162   -14227   -14308 
  -14378   -14431   -14485   -14536   -14566   -14564   -14525   -14474 
  -14424   -14358   -14270   -14174   -14083   -14000   -13919   -13847 
  -13806   -13790   -13775   -13768   -13784   -13827   -13885   -13936 
  -13976   -14018   -14056   -14065   -14033   -13995   -13965   -13941 
  -13932   -13933   -13942   -13973   -14021   -14082   -14149   -14195 
  -14223   -14249   -14258   -14247   -14234   -14234   -14255   -14283 
  -14291   -14286   -14300   -14330   -14333   -14303   -14280   -14276 
  -14266   -14243   -14223   -14213   -14199   -14168   -14137   -14143 
  -14176   -14201   -14215   -14232   -14241   -14232   -14213   -14187 
  -14144   -14087   -14028   -13971   -13924   -13899   -13895   -13901 
  -13918   -13945   -13966   -13965   -13940   -13927   -13946   -13971 
  -13996   -14037   -14081   -14116   -14150   -14195   -14248   -14279 
  -14283   -14280   -14281   -14289   -14288   -14262   -14214   -14153 
  -14101   -14051   -13965   -13860   -13764   -13674   -13589   -13514 
  -13460   -13423   -13385   -13351   -13333   -13333   -13342   -13334 
  -13307   -13298   -13315   -13341   -13355   -13343   -13329   -13346 
  -13382   -13407   -13419   -13431   -13449   -13472   -13508   -13563 
  -13642   -13741   -13843   -13947   -14055   -14144   -14191   -14214 
  -14228   -14224   -14213   -14196   -14169   -14162   -14180   -14209 
  -14252   -14298   -14339   -14372   -14382   -14365   -14333   -14297 
  -14259   -14215   -14182   -14174   -14184   -14196   -14197   -14187 
  -14162   -14118   -14066   -14006   -13937   -13862   -13786   -13724 
  -13693   -13696   -13723   -13753   -13792   -13847   -13886   -13877 
  -13841   -13808   -13772   -13729   -13688   -13667   -13681   -13714 
  -13749   -13787   -13818   -13848   -13892   -13929   -13933   -13923 
  -13943   -13992   -14035   -14073   -14124   -14179   -14226   -14261 
  -14296   -14342   -14379   -14387   -14369   -14338   -14309   -14285 
  -14240   -14175   -14112   -14064   -14040   -14020   -13985   -13964 
  -13954   -13931   -13897   -13864   -13838   -13820   -13801   -13775 
  -13749   -13733   -13717   -13704   -13712   -13729   -13740   -13742 
  -13735   -13735   -13756   -13775   -13771   -13751   -13723   -13706 
  -13714   -13737   -13765   -13811   -13875   -13940   -13985   -14004 
  -14010   -14020   -14026   -14006   -13966   -13932   -13914   -13915 
  -13926   -13931   -13928   -13928   -13940   -13956   -13974   -13990 
  -13988   -13965   -13939   -13932   -13941   -13939   -13926   -13923 
  -13935   -13951   -13945   -13915   -13902   -13902   -13892   -13885 
  -13896   -13919   -13943   -13955   -13956   -13961   -13956   -13921 
  -13869   -13821   -13787   -13769   -13761   -13756   -13762   -13795 
  -13851   -13907   -13945   -13956   -13944   -13933   -13929   -13907 
  -13860   -13803   -13756   -13727   -13705   -13689   -13688   -13697 
  -13703   -13708   -13710   -13699   -13688   -13691   -13700   -13706 
  -13718   -13740   -13768   -13812   -13871   -13924   -13954   -13968 
  -13980   -13980   -13967   -13954   -13943   -13937   -13940   -13960 
  -14010   -14071   -14129   -14192   -14260   -14313   -14346   -14372 
  -14395   -14412   -14416   -14411   -14409   -14416   -14423   -14420 
  -14398   -14351   -14302   -14274   -14235   -14169   -14109   -14080 
  -14068   -14064   -14083   -14115   -14137   -14164   -14203   -14232 
  -14231   -14202   -14158   -14110   -14045   -13969   -13913   -13874 
  -13842   -13839   -13862   -13891   -13918   -13950   -13972   -13953 
