Origin Time       2015/02/20 13:25:00
Lat.              39.912
Long.             143.732
Depth. (km)       8
Mag.              6.5
Station Code      AKTH04
Station Lat.      39.174
Station Long.     140.7129
Station Height(m) 180
Record Time       2015/02/20 13:26:16
Sampling Freq(Hz) 100Hz
Duration Time(s)  124
Dir.              2
Scale Factor      2940(gal)/6170270
Max. Acc. (gal)   0.545
Last Correction   2015/02/20 13:26:01
Memo.             
[...]
  158938   158896   158874   158864   158870   158882   158891   158908 
  158933   158957   158980   158996   159001   158998   158992   158988 
  158990   159005   159040   159089   159134   159168   159196   159219 
  159240   159261   159265   159256   159245   159223   159195   159181 
  159178   159186   159210   159245   159280   159310   159333   159350 
  159360   159363   159358   159340   159314   159291   159271   159246 
  159220   159200   159194   159208   159240   159275   159305   159321 
  159317   159299   159281   159256   159207   159140   159072   159011 
  158964   158944   158948   158964   158993   159032   159068   159098 
  159121   159144   159174   159202   159225   159248   159263   159260 
  159236   159204   159184   159179   159185   159202   159230   159263 
  159305   159354   159397   159420   159427   159420   159387   159328 
  159262   159192   159116   159047   158991   158947   158912   158888 
  158881   158891   158900   158889   158859   158827   158813   158813 
  158815   158817   158823   158832   158842   158852   158865   158886 
  158916   158943   158962   158982   159011   159036   159044   159048 
  159071   159107   159138   159169   159204   159234   159245   159242 
  159236   159230   159226   159224   159223   159224   159218   159198 
  159182   159171   159155   159129   159089   159033   158976   158923 
  158890   158889   158908   158928   158941   158942   158933   158924 
  158928   158954   158999   159038   159057   159067   159079   159094 
  159103   159100   159088   159059   159014   158981   158971   158970 
  158967   158965   158958   158946   158940   158944   158953   158956 
  158954   158950   158940   158936   158947   158962   158973   158981 
  158984   158984   158990   159006   159026   159041   159045   159040 
  159038   159056   159085   159110   159128   159136   159130   159120 
  159109   159098   159094   159100   159106   159111   159133   159179 
  159222   159248   159253   159238   159216   159195   159175   159158 
  159139   159113   159081   159047   159022   159011   159014   159024 
  159029   159024   159018   159012   158993   158962   158935   158924 
  158927   158939   158956   158982   159013   159048   159094   159148 
  159184   159176   159130   159072   159020   158973   158933   158914 
  158918   158937   158967   158999   159035   159082   159137   159187 
  159223   159253   159279   159290   159277   159255   159243   159243 
  159245   159241   159232   159222   159216   159218   159221   159233 
  159268   159315   159358   159389   159403   159397   159369   159330 
  159291   159256   159226   159208   159211   159229   159250   159264 
  159265   159255   159237   159215   159189   159147   159094   159047 
  159006   158960   158920   158902   158898   158901   158914   158938 
  158973   159028   159094   159149   159188   159218   159238   159246 
  159233   159191   159128   159068   159024   158994   158976   158976 
  158988   158997   158999   159001   159004   159001   159004   159026 
  159063   159108   159161   159214   159255   159276   159279   159263 
  159230   159192   159161   159148   159146   159139   159144   159166 
  159175   159164   159155   159154   159143   159121   159102   159089 
  159069   159035   158997   158956   158911   158868   158840   158840 
  158870   158918   158968   159008   159030   159030   159011   158985 
  158967   158957   158958   158976   159011   159055   159094   159121 
  159136   159141   159149   159163   159176   159191   159206   159210 
  159212   159224   159242   159255   159254   159236   159208   159166 
  159115   159086   159085   159095   159110   159126   159145   159174 
  159206   159209   159168   159112   159064   159038   159041   159054 
  159057   159049   159020   158967   158911   158874   158853   158841 
  158843   158863   158889   158907   158908   158901   158897   158899 
  158914   158943   158972   158998   159027   159054   159081   159110 
  159121   159116   159115   159118   159114   159104   159087   159070 
  159069   159081   159081   159066   159055   159061   159071   159080 
  159095   159115   159132   159139   159117   159070   159023   158990 
  158970   158971   158985   158988   158972   158947   158917   158885 
  158866   158876   158914   158958   158993   159027   159073   159119 
  159153   159183   159220   159260   159293   159314   159320   159314 
  159295   159250   159190   159146   159115   159085   159062   159058 
  159076   159098   159108   159108   159102   159100   159108   159126 
  159151   159176   159200   159223   159253   159286   159302   159297 
  159293   159301   159310   159318   159338   159365   159388   159396 
  159385   159351   159300   159254   159236   159232   159232   159238 
  159243   159229   159183   159101   159002   158906   158826   158773 
  158749   158739   158735   158741   158749   158763   158788   158809 
  158805   158780   158771   158805   158860   158907   158937   158947 
  158939   158923   158902   158884   158885   158905   158930   158956 
  158989   159033   159085   159127   159152   159169   159182   159183 
  159177   159187   159219   159256   159295   159334   159358   159359 
  159340   159317   159310   159314   159307   159283   159251   159215 
  159171   159124   159087   159056   159030   159022   159038   159061 
  159069   159059   159053   159049   159039   159033   159041   159051 
  159046   159027   159008   158996   158995   159010   159029   159045 
  159056   159060   159067   159088   159117   159140   159159   159175 
  159182   159188   159203   159222   159238   159246   159241   159227 
  159221   159226   159227   159203   159162   159125   159088   159040 
  158980   158918   158862   158815   158772   158741   158728   158730 
  158742   158764   158783   158793   158817   158857   158905   158954 
  158980   158978   158967   158962   158959   158951   158934   158920 
  158920   158931   158960   159004   159048   159097   159157   159217 
  159264   159291   159297   159302   159311   159319   159320   159316 
  159303   159275   159232   159185   159151   159137   159148   159190 
  159249   159307   159353   159374   159374   159370   159369   159357 
  159337   159323   159310   159291   159267   159233   159193   159145 
  159088   159038   159011   159002   159009   159044   159108   159185 
  159255   159303   159318   159302   159267   159223   159178   159140 
  159107   159074   159045   159029   159023   159029   159047   159072 
  159109   159158   159202   159235   159263   159276   159260   159224 
  159176   159107   159024   158952   158909   158901   158923   158952 
  158961   158953   158938   158915   158886   158865   158850   158830 
  158814   158818   158830   158834   158820   158789   158745   158691 
  158633   158585   158553   158531   158521   158536   158578   158648 
  158737   158819   158863   158861   158833   158794   158748   158693 
  158633   158584   158559   158560   158575   158601   158648   158718 
  158786   158837   158881   158922   158954   158981   158994   158987 
  158978   158979   158983   158993   159010   159022   159026   159029 
  159038   159057   159090   159143   159215   159292   159368   159438 
  159499   159559   159609   159636   159649   159656   159659   159658 
  159646   159623   159600   159577   159543   159498   159448   159393 
  159331   159271   159227   159206   159212   159234   159257   159276 
  159277   159250   159204   159142   159068   159000   158954   158935 
  158952   159005   159071   159121   159145   159147   159133   159112 
  159097   159093   159111   159159   159223   159276   159320   159366 
  159412   159447   159475   159503   159530   159563   159613   159668 
  159718   159760   159774   159747   159687   159598   159496   159396 
  159314   159254   159204   159150   159102   159062   159023   158978 
  158926   158858   158782   158713   158645   158573   158498   158430 
  158382   158352   158328   158303   158282   158275   158289   158333 
  158398   158451   158480   158485   158459   158414   158377   158361 
  158385   158457   158553   158642   158716   158773   158818   158867 
  158926   158993   159056   159103   159132   159141   159117   159062 
  159003   158959   158929   158900   158872   158853   158849   158865 
  158900   158940   158986   159037   159082   159114   159117   159097 
  159083   159085   159097   159116   159126   159121   159111   159102 
  159098   159110   159136   159171   159215   159256   159292   159332 
  159367   159386   159397   159418   159443   159468   159494   159514 
  159517   159487   159436   159387   159347   159314   159296   159301 
  159317   159329   159345   159381   159439   159500   159543   159566 
  159561   159524   159468   159409   159371   159365   159382   159417 
  159468   159528   159591   159647   159689   159714   159726   159734 
  159729   159695   159633   159557   159489   159435   159383   159335 
  159299   159281   159283   159300   159319   159333   159337   159328 
  159312   159297   159284   159265   159239   159213   159191   159173 
  159162   159165   159173   159175   159183   159200   159209   159190 
  159146   159091   159030   158960   158895   158842   158800   158768 
  158746   158734   158723   158702   158668   158622   158569   158529 
  158516   158524   158549   158578   158601   158621   158635   158628 
  158612   158606   158605   158607   158630   158671   158709   158735 
  158742   158728   158696   158651   158614   158600   158598   158595 
  158597   158611   158632   158649   158650   158641   158643   158670 
  158710   158757   158812   158869   158913   158937   158941   158938 
  158941   158951   158967   158984   159007   159036   159063   159089 
  159119   159135   159121   159085   159041   158989   158931   158879 
  158848   158839   158844   158863   158886   158910   158943   158984 
  159023   159057   159084   159102   159120   159142   159161   159161 
  159138   159114   159113   159137   159175   159221   159268   159302 
  159332   159364   159387   159395   159391   159371   159332   159282 
  159221   159146   159063   158983   158916   158864   158819   158776 
  158740   158712   158691   158671   158643   158613   158597   158602 
  158616   158633   158653   158680   158720   158770   158826   158893 
  158975   159069   159165   159243   159287   159303   159302   159294 
  159292   159289   159282   159280   159286   159303   159333   159364 
  159383   159386   159376   159365   159366   159390   159437   159503 
  159574   159640   159690   159730   159769   159811   159855   159901 
  159947   159981   160002   160010   159995   159961   159918   159858 
  159785   159717   159654   159596   159546   159502   159452   159387 
  159312   159235   159157   159074   158992   158925   158871   158821 
  158784   158769   158763   158766   158782   158794   158781   158748 
  158704   158659   158608   158545   158484   158439   158412   158395 
  158375   158351   158330   158313   158302   158297   158295   158294 
  158293   158300   158324   158369   158427   158487   158553   158632 
  158730   158843   158944   159015   159070   159121   159164   159201 
  159233   159264   159304   159362   159429   159500   159563   159604 
  159627   159634   159626   159618   159620   159627   159635   159637 
  159611   159550   159468   159369   159263   159167   159083   159013 
  158959   158915   158874   158832   158778   158715   158653   158603 
  158568   158547   158541   158552   158577   158613   158657   158698 
  158729   158754   158789   158837   158891   158941   158982   159024 
  159077   159138   159193   159246   159300   159355   159413   159458 
  159479   159484   159471   159441   159397   159332   159256   159182 
  159121   159076   159042   159015   159000   158995   158985   158959 
  158927   158886   158827   158760   158694   158628   158571   158521 
  158470   158426   158397   158381   158369   158346   158310   158269 
  158238   158224   158222   158229   158256   158306   158370   158460 
  158575   158694   158814   158936   159048   159146   159232   159307 
  159374   159433   159483   159529   159561   159576   159581   159594 
  159619   159643   159656   159663   159672   159687   159716   159747 
  159763   159761   159759   159764   159766   159758   159747   159733 
  159713   159699   159693   159691   159689   159681   159662   159642 
  159626   159606   159572   159527   159478   159425   159365   159307 
  159246   159176   159108   159057   159021   158988   158952   158912 
  158856   158783   158710   158638   158564   158499   158459   158445 
  158449   158462   158476   158489   158514   158563   158617   158658 
  158681   158695   158707   158715   158720   158727   158735   158744 
  158763   158803   158859   158921   158979   159021   159042   159054 
  159058   159057   159060   159071   159092   159127   159168   159208 
  159239   159250   159231   159190   159140   159088   159040   159000 
  158965   158945   158938   158923   158896   158878   158881   158901 
  158934   158986   159043   159088   159120   159139   159140   159120 
  159094   159071   159044   159009   158975   158944   158928   158929 
  158942   158964   158983   159006   159039   159067   159091   159134 
  159193   159254   159314   159367   159417   159474   159544   159618 
  159678   159722   159765   159818   159876   159944   160021   160099 
  160169   160212   160223   160214   160199   160184   160168   160145 
  160110   160065   160017   159961   159889   159804   159710   159614 
  159527   159449   159375   159301   159232   159179   159139   159094 
  159044   159000   158972   158961   158959   158963   158967   158964 
  158964   158968   158963   158950   158940   158930   158912   158881 
  158830   158776   158733   158701   158679   158679   158696   158714 
  158728   158742   158758   158770   158781   158790   158806   158834 
  158868   158900   158927   158951   158969   158969   158948   158922 
  158908   158902   158897   158895   158890   158871   158831   158777 
  158726   158680   158631   158583   158541   158504   158471   158428 
  158376   158330   158299   158286   158287   158299   158332   158387 
  158446   158505   158559   158603   158638   158661   158671   158678 
  158694   158712   158730   158751   158768   158777   158791   158815 
  158846   158884   158928   158983   159040   159090   159135   159177 
  159218   159257   159292   159332   159386   159446   159505   159559 
  159606   159649   159687   159714   159730   159740   159745   159738 
  159722   159695   159660   159630   159614   159611   159618   159624 
  159622   159612   159600   159591   159576   159557   159539   159522 
  159509   159500   159493   159491   159488   159481   159480   159498 
  159530   159566   159604   159641   159669   159687   159697   159706 
  159709   159706   159694   159675   159650   159622   159593   159566 
  159529   159475   159414   159343   159268   159205   159150   159096 
  159046   159001   158951   158895   158837   158775   158712   158650 
  158586   158531   158494   158467   158449   158445   158448   158450 
  158452   158448   158441   158431   158418   158405   158400   158398 
  158394   158388   158379   158370   158367   158366   158358   158348 
  158338   158320   158300   158289   158287   158299   158324   158350 
  158381   158426   158477   158528   158579   158636   158696   158752 
  158811   158870   158916   158952   158983   159008   159035   159066 
  159097   159119   159129   159127   159120   159111   159094   159065 
  159033   159001   158961   158917   158888   158872   158866   158867 
  158863   158860   158866   158883   158917   158968   159032   159110 
  159186   159251   159312   159370   159426   159483   159541   159603 
  159671   159742   159808   159863   159913   159957   159987   160002 
  160013   160019   160011   159999   159993   159991   159992   159994 
  159999   160007   160017   160022   160014   159989   159956   159910 
  159848   159787   159729   159664   159586   159500   159411   159323 
  159238   159157   159076   159001   158939   158887   158836   158790 
  158760   158745   158728   158693   158653   158630   158617   158610 
  158602   158584   158562   158543   158530   158529   158548   158588 
  158649   158724   158794   158856   158914   158969   159024   159083 
  159138   159184   159213   159228   159230   159217   159198   159179 
  159149   159105   159051   158996   158950   158907   158866   158832 
  158796   158749   158695   158644   158609   158599   158600   158598 
  158590   158573   158542   158507   158476   158452   158439   158431 
  158426   158428   158439   158451   158456   158453   158455   158463 
  158471   158487   158505   158520   158541   158569   158604   158643 
  158679   158714   158744   158764   158787   158819   158855   158891 
  158932   158981   159031   159076   159113   159148   159191   159239 
  159290   159341   159382   159413   159444   159469   159484   159498 
  159509   159516   159516   159507   159496   159482   159463   159440 
  159412   159379   159342   159301   159265   159234   159208   159185 
  159170   159163   159162   159169   159182   159185   159181   159181 
  159183   159184   159175   159155   159136   159122   159109   159097 
  159087   159081   159080   159085   159104   159140   159184   159226 
  159263   159294   159321   159343   159355   159351   159340   159336 
  159337   159332   159323   159325   159341   159359   159372   159379 
  159379   159376   159374   159373   159367   159356   159341   159322 
  159307   159294   159272   159244   159224   159202   159169   159131 
  159097   159072   159045   159011   158980   158956   158931   158911 
  158888   158863   158853   158860   158867   158875   158879   158876 
  158869   158857   158841   158818   158789   158758   158732   158716 
  158709   158708   158715   158728   158744   158754   158762   158771 
  158789   158814   158837   158849   158862   158874   158873   158866 
  158862   158858   158852   158850   158858   158879   158905   158931 
  158954   158967   158975   158980   158980   158974   158970   158973 
  158982   159004   159037   159067   159096   159127   159156   159177 
  159196   159221   159250   159278   159306   159336   159372   159412 
  159448   159477   159497   159504   159509   159519   159531   159539 
  159550   159563   159572   159575   159570   159557   159536   159513 
  159485   159452   159420   159390   159368   159353   159341   159336 
  159342   159352   159358   159357   159351   159345   159339   159332 
  159323   159315   159314   159320   159330   159337   159345   159350 
  159346   159341   159341   159333   159317   159304   159301   159302 
  159305   159308   159313   159316   159323   159345   159369   159383 
  159393   159402   159407   159407   159404   159400   159386   159356 
  159319   159282   159249   159223   159198   159171   159142   159102 
  159046   158979   158907   158830   158749   158670   158593   158522 
  158452   158380   158317   158272   158239   158218   158206   158195 
  158182   158169   158162   158158   158158   158168   158184   158201 
  158217   158230   158250   158280   158323   158374   158429   158495 
