Origin Time       2015/02/17 08:06:00
Lat.              39.872
Long.             143.192
Depth. (km)       13
Mag.              6.9
Station Code      NIGH02
Station Lat.      38.2799
Station Long.     139.5486
Station Height(m) 34
Record Time       2015/02/17 08:07:28
Sampling Freq(Hz) 100Hz
Duration Time(s)  273
Dir.              4
Scale Factor      3920(gal)/6170801
Max. Acc. (gal)   2.826
Last Correction   2015/02/17 08:07:13
Memo.             
[...]
   20629    20544    20468    20395    20325    20297    20316    20361 
   20440    20540    20637    20743    20858    20963    21071    21183 
   21251    21280    21307    21307    21291    21304    21335    21378 
   21433    21469    21485    21491    21482    21460    21440    21437 
   21450    21477    21515    21555    21604    21642    21653    21659 
   21659    21646    21641    21643    21634    21610    21579    21539 
   21502    21495    21515    21555    21620    21690    21732    21739 
   21718    21679    21633    21603    21611    21646    21691    21737 
   21764    21747    21686    21601    21498    21391    21298    21220 
   21160    21107    21053    21008    20954    20895    20865    20842 
   20806    20795    20806    20784    20725    20660    20575    20464 
   20365    20279    20202    20149    20096    20029    19963    19888 
   19817    19773    19744    19725    19733    19750    19744    19730 
   19717    19686    19654    19635    19603    19574    19573    19548 
   19475    19421    19375    19279    19172    19083    18989    18888 
   18780    18658    18532    18395    18256    18138    18035    17948 
   17879    17813    17761    17730    17712    17720    17767    17851 
   17968    18109    18259    18394    18511    18622    18728    18828 
   18941    19079    19216    19343    19473    19570    19635    19718 
   19789    19831    19882    19931    19960    19959    19918    19844 
   19729    19575    19413    19242    19055    18881    18716    18527 
   18323    18125    17925    17726    17550    17396    17246    17109 
   16976    16834    16706    16591    16488    16423    16399    16399 
   16422    16482    16557    16614    16674    16752    16820    16887 
   16986    17095    17191    17304    17444    17576    17709    17884 
   18082    18290    18534    18802    19064    19331    19608    19860 
   20075    20281    20471    20615    20718    20789    20821    20812 
   20770    20713    20637    20541    20457    20377    20263    20137 
   20021    19901    19773    19649    19545    19467    19414    19376 
   19346    19348    19382    19414    19466    19543    19616    19683 
   19752    19826    19890    19932    19986    20043    20073    20111 
   20163    20195    20218    20254    20301    20338    20366    20405 
   20444    20471    20494    20512    20516    20504    20481    20443 
   20402    20375    20350    20330    20331    20329    20309    20288 
   20264    20227    20196    20185    20186    20183    20171    20150 
   20111    20041    19944    19845    19751    19653    19570    19506 
   19451    19399    19347    19305    19280    19267    19274    19309 
   19363    19427    19477    19499    19520    19548    19564    19596 
   19676    19790    19928    20066    20187    20300    20394    20470 
   20539    20610    20725    20862    20969    21068    21152    21183 
   21167    21122    21056    20968    20866    20769    20659    20534 
   20412    20288    20156    20022    19914    19840    19783    19762 
   19786    19817    19844    19880    19904    19906    19912    19912 
   19893    19887    19902    19909    19920    19953    19985    19997 
   19990    19972    19943    19909    19882    19858    19838    19838 
   19847    19856    19882    19927    19984    20073    20188    20301 
   20418    20531    20613    20673    20700    20694    20707    20727 
   20736    20788    20868    20928    20986    21036    21048    21041 
   21030    21010    20983    20959    20930    20876    20800    20713 
   20604    20477    20360    20278    20226    20190    20171    20157 
   20132    20099    20058    19995    19940    19913    19878    19833 
   19809    19770    19710    19668    19617    19559    19529    19500 
   19459    19422    19372    19306    19238    19165    19097    19047 
   19017    19013    19029    19057    19103    19158    19206    19274 
   19358    19425    19490    19568    19631    19650    19636    19616 
   19578    19524    19492    19469    19426    19398    19377    19316 
   19234    19144    19041    18953    18876    18787    18705    18621 
   18524    18440    18369    18322    18330    18366    18425    18527 
   18643    18769    18934    19127    19339    19588    19872    20177 
   20492    20792    21050    21271    21464    21623    21765    21915 
   22068    22237    22419    22576    22707    22827    22934    23040 
   23144    23240    23358    23484    23579    23644    23692    23725 
   23725    23708    23692    23649    23584    23498    23354    23170 
   22968    22742    22505    22266    22038    21822    21610    21413 
   21220    21028    20864    20719    20582    20470    20385    20321 
   20272    20228    20182    20139    20118    20116    20126    20162 
   20207    20249    20300    20351    20405    20465    20529    20609 
   20703    20792    20862    20924    20980    21004    21006    21023 
   21030    20996    20948    20901    20827    20712    20582    20463 
   20328    20172    20047    19950    19853    19767    19681    19574 
   19443    19296    19139    18963    18786    18634    18491    18337 
   18182    18026    17868    17690    17491    17303    17128    16953 
   16803    16680    16565    16464    16394    16346    16313    16271 
   16222    16212    16237    16260    16310    16415    16545    16695 
   16878    17085    17299    17507    17697    17856    17961    18016 
   18049    18053    18029    17996    17953    17900    17840    17766 
   17679    17589    17490    17383    17288    17209    17137    17096 
   17089    17100    17127    17164    17213    17274    17325    17385 
   17479    17587    17702    17832    17986    18156    18318    18491 
   18693    18894    19095    19317    19538    19737    19913    20075 
   20224    20342    20428    20500    20557    20588    20602    20604 
   20604    20608    20603    20595    20605    20616    20627    20662 
   20704    20747    20814    20890    20963    21055    21159    21262 
   21362    21433    21469    21484    21471    21439    21404    21369 
   21336    21318    21312    21299    21282    21278    21264    21221 
   21159    21077    20980    20880    20767    20650    20540    20418 
   20291    20186    20080    19976    19907    19854    19809    19787 
   19777    19790    19822    19855    19913    19986    20054    20131 
   20218    20291    20340    20376    20407    20421    20434    20462 
   20495    20531    20559    20565    20545    20485    20402    20324 
   20239    20145    20066    20014    19951    19860    19777    19697 
   19597    19502    19428    19382    19351    19314    19296    19284 
   19237    19175    19114    19025    18911    18802    18704    18601 
   18490    18370    18225    18059    17880    17681    17487    17320 
   17157    17016    16918    16826    16739    16676    16620    16582 
   16588    16631    16696    16783    16901    17026    17140    17253 
   17354    17439    17521    17605    17696    17787    17890    18019 
   18145    18262    18389    18507    18597    18670    18742    18809 
   18873    18955    19042    19129    19236    19342    19444    19561 
   19671    19785    19911    20028    20142    20267    20389    20499 
   20616    20744    20861    20975    21100    21224    21337    21429 
   21490    21527    21544    21550    21544    21534    21541    21538 
   21512    21484    21447    21400    21353    21298    21250    21196 
   21122    21066    21025    20970    20938    20956    20988    21037 
   21122    21224    21346    21491    21634    21772    21921    22087 
   22255    22412    22572    22738    22886    23018    23134    23224 
   23303    23389    23477    23566    23656    23735    23794    23815 
   23798    23766    23720    23651    23592    23542    23467    23384 
   23299    23168    23003    22830    22629    22399    22176    21960 
   21735    21525    21340    21137    20920    20721    20523    20324 
   20152    20017    19916    19849    19809    19781    19759    19752 
   19753    19755    19763    19783    19802    19799    19782    19760 
   19715    19655    19588    19496    19370    19213    19037    18835 
   18596    18358    18125    17870    17616    17356    17076    16820 
   16597    16389    16221    16097    16005    15946    15906    15892 
   15915    15949    16003    16091    16194    16310    16444    16604 
   16790    16975    17146    17314    17460    17575    17677    17758 
   17827    17903    17973    18036    18104    18171    18233    18305 
   18388    18462    18520    18574    18624    18665    18694    18729 
   18782    18834    18887    18956    19013    19060    19120    19177 
   19234    19300    19354    19418    19514    19610    19702    19830 
   19991    20154    20333    20530    20722    20898    21040    21137 
   21206    21236    21225    21206    21199    21209    21247    21308 
   21378    21451    21521    21567    21575    21574    21566    21532 
   21513    21511    21474    21422    21373    21303    21221    21145 
   21076    21032    21011    20999    21002    21018    21026    21031 
   21046    21054    21047    21033    21010    20960    20880    20792 
   20691    20566    20438    20319    20180    20024    19881    19741 
   19585    19429    19289    19149    18998    18851    18707    18555 
   18409    18268    18133    18028    17950    17900    17899    17934 
   17991    18072    18162    18249    18345    18451    18557    18690 
   18868    19060    19254    19459    19654    19823    19970    20098 
   20216    20332    20434    20517    20581    20610    20599    20564 
   20510    20431    20344    20272    20198    20118    20040    19956 
   19872    19790    19690    19592    19505    19415    19326    19238 
   19149    19073    19007    18952    18920    18913    18927    18953 
   18993    19035    19057    19069    19075    19065    19050    19033 
   19021    19021    19021    19025    19025    18996    18958    18929 
   18886    18830    18784    18739    18688    18648    18611    18564 
   18524    18508    18507    18504    18511    18539    18566    18579 
   18601    18634    18657    18678    18700    18710    18723    18737 
   18747    18782    18837    18885    18944    19023    19108    19210 
   19324    19445    19582    19718    19850    19983    20110    20237 
   20368    20500    20633    20761    20878    20982    21067    21128 
   21169    21199    21225    21254    21289    21332    21382    21420 
   21436    21430    21394    21330    21254    21172    21097    21034 
   20967    20898    20831    20762    20697    20641    20601    20591 
   20601    20615    20631    20641    20640    20643    20649    20630 
   20610    20622    20633    20617    20613    20621    20610    20581 
   20548    20527    20517    20503    20512    20566    20630    20698 
   20784    20864    20927    20993    21054    21106    21162    21210 
   21246    21277    21298    21296    21269    21230    21173    21088 
   20984    20868    20723    20554    20368    20149    19897    19641 
   19387    19143    18914    18694    18491    18314    18151    17991 
   17860    17752    17639    17542    17479    17425    17381    17367 
   17359    17350    17358    17378    17411    17469    17558    17684 
   17848    18025    18198    18374    18542    18695    18850    18998 
   19132    19272    19410    19518    19606    19687    19762    19831 
   19898    19972    20038    20080    20124    20159    20153    20145 
   20149    20150    20178    20234    20298    20381    20479    20558 
   20613    20668    20730    20795    20875    20969    21077    21206 
   21336    21458    21569    21669    21767    21859    21947    22037 
   22126    22226    22326    22395    22446    22496    22536    22562 
   22577    22586    22591    22589    22582    22558    22512    22474 
   22440    22384    22324    22267    22191    22086    21959    21801 
   21605    21399    21202    20998    20793    20611    20440    20262 
   20084    19922    19767    19624    19493    19351    19214    19087 
   18944    18808    18695    18584    18475    18372    18263    18147 
   18022    17892    17761    17643    17542    17460    17405    17377 
   17375    17398    17427    17458    17495    17531    17567    17605 
   17638    17673    17716    17749    17762    17758    17735    17693 
   17642    17589    17542    17504    17468    17449    17445    17435 
   17419    17399    17372    17337    17295    17241    17176    17122 
   17079    17029    16986    16972    16977    16999    17053    17124 
   17192    17265    17345    17418    17488    17567    17659    17753 
   17852    17948    18032    18102    18151    18190    18230    18251 
   18282    18338    18383    18429    18487    18523    18536    18542 
   18545    18549    18554    18566    18590    18627    18669    18703 
   18729    18748    18759    18772    18786    18809    18857    18923 
   19000    19078    19155    19230    19287    19326    19357    19361 
   19343    19326    19313    19306    19294    19287    19294    19285 
   19261    19246    19236    19232    19241    19266    19320    19394 
   19478    19584    19708    19836    19970    20108    20247    20391 
   20554    20740    20941    21155    21371    21583    21805    22029 
   22242    22460    22678    22884    23079    23266    23438    23576 
   23695    23822    23925    23996    24074    24142    24180    24220 
   24258    24270    24261    24234    24203    24173    24118    24052 
   24006    23962    23916    23890    23877    23866    23860    23854 
   23842    23808    23770    23738    23672    23588    23515    23422 
   23319    23220    23109    22998    22884    22758    22621    22463 
   22296    22116    21908    21696    21502    21315    21130    20962 
   20821    20701    20599    20504    20400    20301    20214    20104 
   19975    19861    19747    19613    19480    19368    19260    19127 
   18992    18868    18720    18582    18471    18342    18218    18123 
   18005    17874    17757    17619    17456    17302    17142    16965 
   16806    16675    16547    16415    16300    16212    16125    16048 
   16017    16012    16006    16020    16076    16160    16251    16372 
   16539    16713    16894    17099    17301    17489    17667    17852 
   18065    18255    18418    18601    18767    18897    19025    19143 
   19245    19354    19469    19576    19690    19811    19913    20016 
   20130    20208    20265    20336    20397    20439    20483    20530 
   20567    20610    20674    20733    20777    20838    20905    20951 
   20992    21037    21068    21076    21064    21039    21003    20949 
   20880    20819    20765    20686    20604    20540    20456    20360 
   20291    20220    20138    20078    20019    19943    19878    19807 
   19723    19652    19580    19516    19477    19436    19407    19414 
   19404    19386    19398    19396    19380    19391    19404    19400 
   19390    19387    19379    19349    19324    19307    19272    19252 
   19258    19266    19300    19374    19474    19585    19705    19844 
   19983    20126    20292    20454    20619    20801    20976    21145 
   21301    21432    21548    21643    21710    21765    21810    21843 
   21872    21897    21912    21920    21923    21897    21845    21794 
   21725    21626    21529    21441    21349    21259    21178    21105 
   21041    20978    20902    20822    20738    20642    20540    20434 
   20332    20237    20133    20030    19929    19799    19654    19517 
   19378    19232    19107    19017    18927    18828    18757    18695 
   18607    18523    18448    18357    18275    18218    18165    18123 
   18103    18095    18097    18108    18116    18122    18133    18137 
   18124    18109    18098    18086    18080    18070    18042    18015 
   17992    17947    17897    17864    17837    17811    17803    17814 
   17835    17871    17920    17973    18041    18115    18178    18255 
   18349    18434    18524    18619    18703    18779    18852    18918 
   18982    19047    19099    19135    19168    19197    19209    19205 
   19204    19209    19218    19226    19228    19235    19247    19251 
   19251    19259    19279    19310    19344    19391    19444    19504 
   19589    19666    19720    19781    19831    19861    19896    19925 
   19936    19950    19976    19979    19950    19917    19882    19818 
   19733    19666    19616    19550    19492    19457    19413    19359 
   19308    19252    19205    19178    19147    19118    19130    19165 
   19190    19240    19320    19394    19478    19581    19677    19770 
   19872    19966    20045    20113    20180    20241    20281    20311 
   20347    20387    20430    20474    20532    20615    20697    20788 
   20907    21031    21161    21313    21465    21605    21737    21873 
   22013    22137    22262    22411    22560    22704    22852    22994 
   23126    23245    23350    23455    23562    23652    23714    23760 
   23781    23765    23716    23632    23524    23410    23279    23129 
   22985    22843    22685    22528    22365    22177    21981    21789 
   21582    21369    21164    20965    20768    20575    20385    20200 
   20031    19872    19720    19582    19454    19329    19212    19105 
   19013    18932    18859    18809    18780    18757    18748    18753 
   18761    18776    18806    18851    18901    18959    19028    19093 
   19148    19192    19220    19234    19255    19281    19309    19358 
   19426    19496    19564    19630    19696    19754    19790    19819 
   19852    19889    19933    19991    20070    20153    20248    20363 
   20471    20578    20699    20810    20915    21021    21111    21190 
   21263    21329    21388    21440    21487    21522    21548    21577 
   21597    21603    21611    21609    21603    21606    21606    21594 
   21573    21553    21523    21457    21381    21323    21252    21160 
   21081    21013    20938    20855    20764    20674    20589    20494 
   20397    20308    20217    20124    20029    19928    19828    19735 
   19641    19539    19445    19361    19271    19182    19106    19023 
   18928    18849    18781    18703    18641    18609    18586    18573 
   18568    18574    18592    18611    18634    18666    18705    18766 
   18840    18910    18994    19087    19172    19260    19352    19441 
   19536    19631    19717    19789    19853    19914    19963    19995 
   20025    20052    20073    20092    20101    20088    20063    20025 
   19960    19882    19797    19708    19630    19567    19515    19476 
   19445    19430    19413    19389    19375    19366    19360    19363 
   19364    19361    19348    19323    19298    19253    19194    19138 
   19066    18983    18914    18852    18795    18736    18684    18650 
   18601    18535    18473    18397    18299    18189    18067    17941 
   17815    17697    17600    17518    17452    17402    17355    17326 
   17311    17298    17314    17357    17426    17535    17648    17761 
   17893    18007    18110    18218    18310    18393    18474    18544 
   18607    18667    18719    18748    18762    18773    18763    18746 
   18741    18732    18711    18692    18689    18697    18704    18733 
   18788    18849    18920    19001    19080    19169    19270    19365 
