Origin Time       2015/02/17 08:06:00
Lat.              39.872
Long.             143.192
Depth. (km)       13
Mag.              6.9
Station Code      NIGH02
Station Lat.      38.2799
Station Long.     139.5486
Station Height(m) 34
Record Time       2015/02/17 08:07:28
Sampling Freq(Hz) 100Hz
Duration Time(s)  273
Dir.              5
Scale Factor      3920(gal)/6170801
Max. Acc. (gal)   3.032
Last Correction   2015/02/17 08:07:13
Memo.             
[...]
   -5171    -5230    -5300    -5371    -5407    -5427    -5464    -5488 
   -5480    -5473    -5482    -5481    -5464    -5463    -5479    -5481 
   -5477    -5486    -5490    -5467    -5433    -5411    -5381    -5335 
   -5316    -5320    -5297    -5235    -5170    -5105    -5017    -4915 
   -4836    -4770    -4686    -4598    -4517    -4422    -4332    -4272 
   -4220    -4182    -4168    -4136    -4088    -4068    -4056    -4031 
   -4022    -4025    -4018    -4001    -3982    -3966    -3945    -3919 
   -3910    -3905    -3890    -3895    -3919    -3944    -3989    -4047 
   -4107    -4180    -4245    -4289    -4341    -4391    -4424    -4452 
   -4471    -4469    -4452    -4414    -4363    -4292    -4192    -4091 
   -3986    -3845    -3704    -3601    -3509    -3429    -3374    -3340 
   -3318    -3291    -3271    -3289    -3325    -3340    -3342    -3340 
   -3322    -3284    -3252    -3258    -3286    -3300    -3316    -3338 
   -3347    -3360    -3409    -3498    -3602    -3707    -3825    -3933 
   -4008    -4101    -4212    -4293    -4376    -4466    -4526    -4570 
   -4619    -4680    -4744    -4775    -4805    -4849    -4847    -4822 
   -4828    -4849    -4865    -4866    -4864    -4875    -4878    -4869 
   -4878    -4892    -4898    -4886    -4841    -4780    -4729    -4677 
   -4626    -4611    -4621    -4607    -4575    -4548    -4523    -4503 
   -4492    -4485    -4483    -4477    -4464    -4451    -4441    -4459 
   -4527    -4603    -4665    -4741    -4823    -4884    -4930    -4973 
   -5020    -5055    -5059    -5050    -5033    -5012    -5021    -5051 
   -5083    -5127    -5171    -5211    -5259    -5304    -5349    -5398 
   -5432    -5444    -5445    -5453    -5480    -5519    -5546    -5560 
   -5570    -5551    -5473    -5391    -5357    -5321    -5266    -5252 
   -5253    -5215    -5168    -5131    -5083    -5031    -4995    -4988 
   -4999    -5024    -5079    -5144    -5197    -5259    -5332    -5382 
   -5405    -5434    -5461    -5462    -5460    -5470    -5471    -5464 
   -5458    -5454    -5453    -5469    -5493    -5507    -5525    -5546 
   -5543    -5544    -5564    -5568    -5556    -5545    -5512    -5432 
   -5328    -5227    -5112    -4982    -4879    -4795    -4691    -4584 
   -4510    -4443    -4355    -4278    -4233    -4182    -4123    -4095 
   -4084    -4070    -4074    -4112    -4166    -4211    -4259    -4319 
   -4367    -4408    -4459    -4494    -4498    -4497    -4498    -4482 
   -4442    -4398    -4373    -4359    -4342    -4340    -4379    -4443 
   -4503    -4580    -4687    -4776    -4839    -4897    -4941    -4967 
   -4989    -5006    -5009    -5005    -4983    -4921    -4820    -4686 
   -4522    -4355    -4197    -4038    -3877    -3723    -3585    -3455 
   -3326    -3227    -3166    -3131    -3141    -3187    -3232    -3298 
   -3404    -3516    -3638    -3795    -3977    -4158    -4334    -4510 
   -4691    -4872    -5053    -5232    -5401    -5556    -5686    -5800 
   -5918    -6025    -6121    -6205    -6253    -6252    -6199    -6108 
   -6006    -5888    -5753    -5627    -5497    -5328    -5124    -4911 
   -4703    -4487    -4258    -4045    -3854    -3674    -3509    -3384 
   -3323    -3295    -3276    -3284    -3296    -3299    -3318    -3358 
   -3428    -3537    -3669    -3813    -3939    -4031    -4127    -4235 
   -4323    -4415    -4536    -4641    -4706    -4760    -4811    -4839 
   -4847    -4843    -4832    -4823    -4811    -4791    -4785    -4797 
   -4792    -4754    -4696    -4634    -4571    -4511    -4471    -4452 
   -4436    -4422    -4398    -4352    -4311    -4284    -4241    -4190 
   -4142    -4067    -3968    -3867    -3751    -3628    -3508    -3373 
   -3228    -3078    -2908    -2740    -2584    -2426    -2284    -2168 
   -2061    -1968    -1890    -1818    -1758    -1725    -1739    -1799 
   -1900    -2040    -2189    -2337    -2498    -2658    -2828    -3024 
   -3224    -3418    -3616    -3806    -3972    -4124    -4275    -4393 
   -4478    -4592    -4709    -4774    -4833    -4891    -4887    -4833 
   -4771    -4714    -4675    -4650    -4621    -4608    -4627    -4641 
   -4642    -4684    -4773    -4853    -4905    -4951    -4989    -5005 
   -4991    -4961    -4937    -4912    -4855    -4787    -4772    -4795 
   -4805    -4831    -4871    -4875    -4852    -4832    -4814    -4820 
   -4848    -4877    -4911    -4937    -4947    -4969    -5010    -5068 
   -5157    -5256    -5326    -5384    -5446    -5482    -5501    -5532 
   -5566    -5590    -5599    -5593    -5571    -5533    -5479    -5396 
   -5287    -5179    -5069    -4944    -4847    -4792    -4739    -4694 
   -4662    -4593    -4493    -4410    -4328    -4236    -4188    -4173 
   -4133    -4079    -4042    -4012    -3987    -3977    -3962    -3923 
   -3866    -3780    -3655    -3537    -3455    -3385    -3321    -3281 
   -3256    -3235    -3232    -3263    -3302    -3337    -3398    -3473 
   -3537    -3616    -3710    -3807    -3924    -4035    -4128    -4231 
   -4339    -4456    -4592    -4713    -4832    -4954    -5034    -5101 
   -5190    -5261    -5327    -5419    -5497    -5552    -5605    -5636 
   -5636    -5637    -5660    -5677    -5674    -5695    -5726    -5716 
   -5684    -5640    -5550    -5428    -5303    -5175    -5068    -5002 
   -4967    -4956    -4968    -4993    -5028    -5080    -5144    -5229 
   -5346    -5467    -5561    -5653    -5757    -5835    -5887    -5935 
   -5947    -5903    -5825    -5737    -5665    -5614    -5588    -5584 
   -5564    -5510    -5427    -5316    -5206    -5124    -5067    -5025 
   -4995    -4965    -4927    -4896    -4881    -4876    -4881    -4894 
   -4901    -4887    -4855    -4820    -4773    -4706    -4632    -4547 
   -4441    -4326    -4212    -4084    -3947    -3818    -3695    -3577 
   -3496    -3449    -3423    -3422    -3429    -3424    -3410    -3382 
   -3342    -3309    -3308    -3349    -3414    -3486    -3562    -3631 
   -3704    -3787    -3888    -4027    -4196    -4374    -4569    -4762 
   -4913    -5046    -5195    -5336    -5451    -5553    -5649    -5723 
   -5764    -5776    -5753    -5695    -5616    -5509    -5370    -5240 
   -5136    -5029    -4920    -4815    -4703    -4595    -4501    -4429 
   -4407    -4426    -4453    -4483    -4531    -4596    -4686    -4807 
   -4947    -5108    -5297    -5461    -5575    -5698    -5829    -5928 
   -6023    -6137    -6251    -6341    -6406    -6451    -6473    -6472 
   -6446    -6401    -6346    -6289    -6218    -6114    -5978    -5821 
   -5638    -5419    -5185    -4963    -4752    -4548    -4374    -4241 
   -4138    -4054    -3975    -3901    -3834    -3754    -3666    -3603 
   -3578    -3572    -3577    -3605    -3649    -3666    -3647    -3623 
   -3588    -3504    -3395    -3303    -3214    -3130    -3078    -3054 
   -3040    -3038    -3031    -3017    -3030    -3059    -3068    -3092 
   -3140    -3172    -3198    -3244    -3289    -3344    -3434    -3534 
   -3621    -3723    -3855    -3987    -4099    -4212    -4317    -4383 
   -4441    -4507    -4548    -4584    -4649    -4706    -4745    -4806 
   -4882    -4953    -5030    -5112    -5192    -5259    -5326    -5397 
   -5430    -5436    -5455    -5448    -5396    -5343    -5295    -5225 
   -5132    -5030    -4939    -4846    -4746    -4672    -4625    -4565 
   -4503    -4459    -4421    -4394    -4378    -4359    -4359    -4356 
   -4305    -4247    -4215    -4171    -4103    -4051    -4007    -3937 
   -3858    -3803    -3753    -3699    -3669    -3642    -3578    -3496 
   -3429    -3373    -3318    -3274    -3259    -3264    -3248    -3208 
   -3168    -3121    -3059    -2982    -2884    -2796    -2727    -2632 
   -2526    -2450    -2378    -2295    -2242    -2235    -2258    -2316 
   -2432    -2588    -2753    -2951    -3178    -3389    -3584    -3784 
   -3973    -4144    -4307    -4463    -4607    -4724    -4790    -4820 
   -4845    -4851    -4834    -4849    -4895    -4924    -4954    -5036 
   -5138    -5236    -5359    -5491    -5607    -5714    -5814    -5904 
   -5986    -6086    -6206    -6308    -6400    -6514    -6624    -6722 
   -6814    -6876    -6919    -6953    -6941    -6898    -6874    -6861 
   -6832    -6805    -6793    -6766    -6705    -6630    -6553    -6460 
   -6347    -6245    -6159    -6054    -5938    -5825    -5702    -5583 
   -5471    -5349    -5230    -5112    -4979    -4846    -4742    -4668 
   -4602    -4547    -4522    -4525    -4542    -4584    -4640    -4694 
   -4753    -4796    -4794    -4794    -4820    -4820    -4792    -4778 
   -4754    -4699    -4645    -4602    -4549    -4494    -4442    -4381 
   -4314    -4253    -4195    -4128    -4027    -3891    -3753    -3602 
   -3415    -3245    -3125    -3010    -2897    -2839    -2826    -2807 
   -2796    -2819    -2834    -2824    -2837    -2884    -2935    -3015 
   -3150    -3294    -3430    -3589    -3764    -3943    -4135    -4335 
   -4528    -4722    -4905    -5048    -5180    -5316    -5404    -5451 
   -5509    -5567    -5616    -5682    -5757    -5813    -5858    -5887 
   -5885    -5875    -5873    -5872    -5869    -5855    -5820    -5767 
   -5687    -5575    -5452    -5313    -5144    -4957    -4761    -4552 
   -4339    -4130    -3928    -3745    -3592    -3459    -3343    -3255 
   -3189    -3137    -3107    -3105    -3126    -3175    -3242    -3307 
   -3377    -3466    -3545    -3631    -3770    -3926    -4068    -4233 
   -4428    -4620    -4796    -4978    -5171    -5334    -5456    -5564 
   -5661    -5740    -5814    -5894    -5970    -6006    -5997    -5993 
   -5988    -5965    -5972    -6011    -6047    -6095    -6141    -6154 
   -6150    -6150    -6145    -6119    -6083    -6045    -5989    -5922 
   -5869    -5812    -5746    -5706    -5680    -5634    -5602    -5606 
   -5601    -5564    -5505    -5415    -5286    -5138    -4990    -4853 
   -4754    -4704    -4667    -4620    -4590    -4584    -4581    -4592 
   -4634    -4716    -4815    -4911    -5018    -5131    -5231    -5322 
   -5405    -5469    -5508    -5520    -5511    -5493    -5467    -5426 
   -5377    -5326    -5271    -5213    -5152    -5089    -5029    -4966 
   -4896    -4824    -4751    -4687    -4633    -4575    -4513    -4448 
   -4357    -4226    -4070    -3923    -3811    -3708    -3593    -3500 
   -3430    -3338    -3220    -3122    -3059    -3010    -2970    -2945 
   -2920    -2899    -2893    -2883    -2864    -2877    -2931    -2994 
   -3057    -3137    -3243    -3372    -3494    -3609    -3738    -3858 
   -3951    -4041    -4148    -4273    -4403    -4549    -4735    -4932 
   -5101    -5271    -5467    -5660    -5812    -5925    -6022    -6097 
   -6140    -6170    -6202    -6236    -6259    -6250    -6199    -6122 
   -6030    -5904    -5764    -5621    -5445    -5247    -5056    -4845 
   -4618    -4409    -4198    -3959    -3721    -3487    -3246    -3024 
   -2835    -2677    -2540    -2403    -2277    -2173    -2078    -1988 
   -1921    -1910    -1935    -1964    -2033    -2154    -2280    -2421 
   -2584    -2733    -2862    -2989    -3115    -3226    -3331    -3448 
   -3569    -3678    -3773    -3855    -3922    -3981    -4023    -4058 
   -4103    -4157    -4219    -4270    -4286    -4281    -4255    -4189 
   -4097    -3992    -3868    -3724    -3574    -3424    -3268    -3116 
   -2981    -2841    -2691    -2555    -2435    -2327    -2249    -2186 
   -2105    -2018    -1935    -1832    -1739    -1704    -1715    -1739 
   -1763    -1798    -1843    -1883    -1917    -1966    -2037    -2112 
   -2175    -2236    -2307    -2379    -2423    -2441    -2463    -2480 
   -2479    -2491    -2532    -2593    -2649    -2675    -2684    -2686 
   -2681    -2689    -2709    -2742    -2807    -2904    -3015    -3137 
   -3286    -3449    -3582    -3695    -3815    -3937    -4061    -4204 
   -4363    -4544    -4753    -4978    -5207    -5448    -5690    -5930 
   -6193    -6463    -6725    -7006    -7291    -7556    -7813    -8052 
   -8274    -8491    -8678    -8825    -8938    -9004    -9040    -9077 
   -9123    -9179    -9230    -9269    -9287    -9259    -9207    -9167 
   -9107    -9020    -8944    -8857    -8728    -8594    -8468    -8326 
   -8176    -8029    -7867    -7686    -7493    -7291    -7086    -6871 
   -6659    -6480    -6306    -6121    -5952    -5791    -5623    -5460 
   -5298    -5148    -5036    -4948    -4865    -4813    -4791    -4763 
   -4740    -4743    -4755    -4774    -4800    -4841    -4908    -4987 
   -5064    -5139    -5218    -5304    -5371    -5422    -5475    -5489 
   -5437    -5343    -5213    -5051    -4870    -4694    -4542    -4404 
   -4258    -4107    -3963    -3831    -3703    -3568    -3446    -3348 
   -3243    -3123    -3020    -2927    -2803    -2662    -2525    -2366 
   -2183    -2009    -1848    -1678    -1502    -1334    -1173    -1014 
    -865     -729     -609     -538     -510     -489     -501     -558 
    -626     -704     -808     -942    -1101    -1261    -1417    -1577 
   -1709    -1806    -1899    -1988    -2078    -2186    -2303    -2430 
   -2574    -2739    -2923    -3107    -3291    -3478    -3637    -3784 
   -3945    -4103    -4265    -4455    -4644    -4810    -4969    -5117 
   -5236    -5366    -5528    -5693    -5853    -6016    -6171    -6303 
   -6423    -6557    -6694    -6822    -6956    -7073    -7161    -7263 
   -7375    -7481    -7618    -7794    -7958    -8091    -8221    -8359 
   -8484    -8608    -8759    -8915    -9044    -9142    -9215    -9263 
   -9289    -9301    -9299    -9276    -9243    -9189    -9085    -8945 
   -8803    -8667    -8523    -8364    -8197    -8033    -7863    -7681 
   -7502    -7343    -7197    -7050    -6908    -6775    -6621    -6439 
   -6255    -6066    -5849    -5615    -5373    -5121    -4864    -4601 
   -4330    -4063    -3795    -3507    -3205    -2907    -2607    -2303 
   -2030    -1788    -1552    -1321    -1102     -901     -729     -575 
    -447     -368     -322     -290     -280     -305     -356     -419 
    -506     -616     -730     -851     -989    -1140    -1301    -1475 
   -1660    -1852    -2025    -2169    -2300    -2418    -2508    -2575 
   -2605    -2581    -2515    -2418    -2285    -2135    -2000    -1896 
   -1825    -1780    -1776    -1821    -1888    -1980    -2101    -2232 
   -2390    -2582    -2772    -2979    -3223    -3466    -3702    -3946 
   -4184    -4411    -4630    -4826    -5003    -5194    -5397    -5594 
   -5802    -6034    -6237    -6391    -6534    -6651    -6700    -6727 
   -6760    -6753    -6700    -6622    -6506    -6345    -6157    -5957 
   -5742    -5519    -5287    -5031    -4751    -4470    -4195    -3928 
   -3703    -3544    -3437    -3365    -3327    -3319    -3322    -3331 
   -3357    -3412    -3493    -3582    -3688    -3817    -3948    -4073 
   -4193    -4321    -4463    -4604    -4753    -4910    -5040    -5145 
   -5242    -5300    -5328    -5344    -5321    -5286    -5266    -5232 
   -5194    -5175    -5153    -5122    -5089    -5048    -5001    -4947 
   -4889    -4845    -4810    -4756    -4678    -4599    -4513    -4403 
   -4284    -4185    -4102    -4024    -3955    -3901    -3849    -3807 
   -3788    -3770    -3766    -3798    -3835    -3870    -3928    -4006 
   -4096    -4196    -4300    -4422    -4555    -4676    -4804    -4938 
   -5048    -5133    -5195    -5224    -5223    -5194    -5146    -5097 
   -5041    -4978    -4920    -4854    -4773    -4688    -4588    -4486 
   -4413    -4349    -4269    -4201    -4145    -4063    -3970    -3905 
   -3849    -3793    -3758    -3736    -3700    -3651    -3608    -3559 
   -3487    -3410    -3331    -3233    -3139    -3049    -2943    -2847 
   -2773    -2709    -2665    -2653    -2683    -2753    -2860    -2996 
   -3144    -3292    -3441    -3587    -3730    -3881    -4054    -4251 
   -4453    -4649    -4844    -5032    -5196    -5349    -5517    -5687 
   -5846    -6000    -6148    -6300    -6462    -6603    -6728    -6874 
   -7018    -7124    -7220    -7316    -7382    -7421    -7454    -7462 
   -7436    -7394    -7343    -7267    -7172    -7084    -7002    -6902 
   -6791    -6698    -6612    -6514    -6431    -6393    -6373    -6352 
   -6358    -6385    -6402    -6413    -6431    -6454    -6457    -6433 
   -6402    -6361    -6312    -6254    -6167    -6077    -6004    -5903 
   -5768    -5647    -5542    -5426    -5286    -5144    -5030    -4914 
   -4784    -4674    -4590    -4522    -4451    -4364    -4289    -4225 
   -4138    -4041    -3951    -3865    -3777    -3673    -3565    -3482 
   -3420    -3354    -3297    -3274    -3269    -3262    -3264    -3291 
   -3333    -3369    -3393    -3419    -3448    -3468    -3495    -3555 
   -3644    -3751    -3889    -4067    -4259    -4454    -4666    -4888 
   -5092    -5283    -5466    -5625    -5782    -5952    -6104    -6240 
   -6364    -6452    -6489    -6490    -6458    -6379    -6269    -6153 
   -6006    -5810    -5603    -5397    -5164    -4921    -4689    -4456 
   -4236    -4040    -3857    -3704    -3566    -3423    -3301    -3183 
   -3038    -2902    -2781    -2655    -2542    -2441    -2338    -2253 
   -2183    -2108    -2040    -2012    -2026    -2043    -2056    -2097 
   -2159    -2209    -2260    -2342    -2436    -2514    -2572    -2598 
   -2584    -2548    -2499    -2438    -2381    -2326    -2256    -2167 
   -2074    -1988    -1898    -1807    -1732    -1666    -1599    -1543 
   -1508    -1486    -1474    -1482    -1499    -1511    -1533    -1581 
   -1659    -1769    -1902    -2050    -2186    -2307    -2421    -2509 
   -2592    -2717    -2862    -3010    -3201    -3424    -3646    -3873 
   -4103    -4323    -4540    -4764    -4981    -5176    -5373    -5576 
   -5743    -5885    -6037    -6181    -6301    -6423    -6555    -6677 
   -6781    -6858    -6903    -6934    -6958    -6964    -6950    -6943 
   -6963    -6980    -6980    -6999    -7033    -7049    -7055    -7064 
   -7061    -7023    -6956    -6883    -6809    -6723    -6631    -6552 
   -6468    -6346    -6216    -6102    -5982    -5874    -5780    -5681 
   -5609    -5554    -5463    -5364    -5295    -5225    -5145    -5060 
   -4978    -4906    -4823    -4722    -4629    -4540    -4443    -4344 
   -4237    -4133    -4040    -3934    -3828    -3742    -3649    -3556 
   -3488    -3413    -3325    -3264    -3220    -3176    -3149    -3129 
   -3101    -3070    -3041    -3012    -2970    -2916    -2874    -2831 
   -2769    -2708    -2681    -2681    -2671    -2664    -2693    -2713 
   -2706    -2730    -2794    -2860    -2925    -3000    -3088    -3179 
   -3269    -3375    -3493    -3610    -3736    -3848    -3939    -4042 
   -4133    -4197    -4259    -4310    -4337    -4373    -4426    -4460 
   -4478    -4513    -4545    -4543    -4548    -4576    -4582    -4559 
   -4532    -4498    -4442    -4364    -4289    -4242    -4195    -4134 
   -4090    -4070    -4053    -4039    -4034    -4029    -4017    -4003 
   -3982    -3938    -3903    -3884    -3839    -3785    -3741    -3691 
   -3646    -3600    -3552    -3532    -3523    -3507    -3507    -3529 
   -3569    -3625    -3687    -3758    -3850    -3959    -4061    -4142 
   -4228    -4326    -4413    -4491    -4595    -4717    -4827    -4935 
   -5040    -5119    -5183    -5239    -5276    -5319    -5373    -5404 
   -5438    -5492    -5508    -5500    -5518    -5526    -5520    -5534 
