Origin Time       2015/02/17 08:06:00
Lat.              39.872
Long.             143.192
Depth. (km)       13
Mag.              6.9
Station Code      NIGH02
Station Lat.      38.2799
Station Long.     139.5486
Station Height(m) -70.5
Record Time       2015/02/17 08:07:28
Sampling Freq(Hz) 100Hz
Duration Time(s)  273
Dir.              2
Scale Factor      2940(gal)/6170270
Max. Acc. (gal)   2.612
Last Correction   2015/02/17 08:07:13
Memo.             
[...]
   49876    49852    49815    49763    49699    49627    49552    49478 
   49406    49337    49276    49227    49191    49175    49180    49201 
   49232    49264    49287    49303    49314    49316    49313    49305 
   49290    49269    49248    49228    49208    49188    49170    49152 
   49132    49112    49092    49074    49055    49036    49023    49010 
   48988    48958    48924    48887    48848    48808    48771    48739 
   48714    48697    48689    48691    48703    48719    48739    48765 
   48802    48845    48896    48952    49016    49093    49181    49269 
   49353    49432    49500    49562    49628    49694    49755    49814 
   49867    49908    49937    49956    49966    49974    49986    49999 
   50009    50017    50024    50028    50027    50026    50026    50024 
   50017    50008    49998    49993    49993    49996    50005    50018 
   50029    50032    50029    50023    50012    49995    49978    49960 
   49940    49920    49906    49898    49896    49903    49919    49944 
   49979    50025    50080    50141    50201    50257    50306    50352 
   50391    50423    50456    50485    50504    50527    50556    50592 
   50635    50686    50739    50790    50837    50880    50920    50952 
   50970    50975    50963    50933    50885    50815    50733    50649 
   50561    50472    50381    50289    50198    50104    50007    49914 
   49830    49757    49697    49653    49620    49591    49564    49536 
   49509    49479    49442    49398    49351    49301    49250    49206 
   49167    49137    49122    49117    49122    49135    49152    49167 
   49180    49191    49200    49200    49200    49206    49217    49233 
   49256    49283    49310    49328    49339    49345    49349    49359 
   49373    49382    49386    49391    49389    49377    49356    49328 
   49297    49266    49240    49222    49217    49229    49256    49291 
   49328    49367    49404    49438    49475    49516    49558    49601 
   49645    49688    49727    49770    49821    49879    49942    50008 
   50078    50157    50244    50343    50446    50539    50622    50696 
   50759    50809    50848    50881    50909    50931    50947    50958 
   50965    50974    50987    51010    51040    51073    51108    51143 
   51170    51190    51204    51210    51206    51188    51151    51096 
   51032    50961    50887    50814    50747    50689    50641    50602 
   50570    50544    50524    50511    50511    50528    50556    50586 
   50615    50639    50659    50671    50668    50649    50622    50591 
   50562    50541    50523    50502    50485    50472    50463    50463 
   50474    50495    50520    50538    50544    50538    50521    50498 
   50470    50442    50410    50367    50312    50252    50183    50105 
   50023    49943    49860    49773    49683    49588    49487    49388 
   49291    49197    49111    49039    48985    48949    48928    48921 
   48920    48922    48923    48922    48918    48911    48903    48890 
   48873    48853    48830    48811    48798    48788    48791    48805 
   48825    48853    48884    48910    48934    48952    48957    48950 
   48936    48914    48888    48865    48845    48828    48814    48797 
   48778    48755    48728    48697    48665    48637    48620    48604 
   48585    48571    48567    48571    48583    48610    48653    48706 
   48759    48804    48835    48852    48859    48855    48845    48837 
   48828    48820    48818    48818    48814    48808    48803    48807 
   48828    48865    48920    48993    49080    49175    49274    49373 
   49466    49550    49622    49678    49715    49737    49748    49743 
   49722    49688    49643    49594    49544    49498    49455    49409 
   49359    49311    49263    49218    49175    49139    49115    49104 
   49112    49138    49172    49213    49265    49325    49388    49448 
   49502    49541    49564    49574    49568    49552    49533    49514 
   49507    49508    49505    49495    49483    49471    49464    49469 
   49492    49536    49602    49690    49796    49906    50010    50102 
   50182    50245    50297    50341    50376    50401    50414    50415 
   50409    50401    50393    50384    50371    50352    50323    50280 
   50224    50161    50091    50009    49926    49855    49790    49727 
   49669    49612    49551    49483    49404    49319    49246    49202 
   49191    49216    49269    49338    49409    49469    49516    49560 
   49612    49674    49746    49825    49907    49986    50060    50128 
   50188    50229    50247    50242    50214    50166    50107    50043 
   49978    49916    49854    49793    49738    49691    49649    49619 
   49606    49600    49597    49596    49592    49588    49590    49597 
   49608    49623    49641    49662    49685    49706    49721    49726 
   49724    49727    49736    49755    49791    49848    49922    49998 
   50073    50146    50213    50274    50325    50358    50379    50391 
   50391    50383    50366    50346    50328    50314    50306    50308 
   50312    50320    50334    50351    50378    50423    50488    50570 
   50665    50769    50878    50986    51086    51180    51266    51342 
   51405    51447    51469    51474    51461    51435    51394    51346 
   51295    51234    51167    51100    51031    50966    50914    50875 
   50847    50830    50821    50818    50816    50816    50814    50815 
   50825    50848    50880    50918    50962    51007    51052    51091 
   51116    51127    51129    51118    51098    51071    51036    50997 
   50956    50918    50890    50873    50863    50857    50850    50842 
   50833    50821    50795    50752    50692    50614    50531    50456 
   50381    50300    50214    50120    50022    49925    49836    49759 
   49698    49652    49620    49601    49595    49596    49601    49612 
   49625    49633    49626    49601    49557    49497    49423    49342 
   49258    49173    49098    49038    48997    48973    48958    48944 
   48924    48895    48862    48829    48804    48797    48807    48833 
   48871    48919    48972    49031    49096    49164    49233    49300 
   49365    49425    49479    49533    49594    49661    49731    49804 
   49869    49923    49969    50006    50027    50033    50029    50018 
   50006    49994    49983    49975    49973    49970    49966    49962 
   49953    49932    49901    49858    49802    49740    49681    49628 
   49583    49546    49515    49488    49466    49441    49416    49401 
   49396    49400    49416    49438    49458    49477    49496    49510 
   49516    49514    49501    49485    49478    49485    49508    49535 
   49558    49569    49571    49575    49588    49605    49623    49636 
   49636    49626    49617    49604    49588    49569    49549    49527 
   49500    49470    49438    49407    49376    49347    49319    49294 
   49268    49233    49197    49167    49140    49112    49085    49052 
   49012    48961    48896    48824    48755    48691    48631    48582 
   48549    48532    48535    48558    48591    48638    48698    48765 
   48846    48941    49044    49156    49276    49399    49523    49640 
   49751    49862    49971    50073    50162    50229    50282    50320 
   50340    50344    50340    50333    50327    50326    50323    50316 
   50304    50286    50267    50244    50212    50169    50121    50063 
   49995    49924    49853    49787    49727    49673    49621    49570 
   49522    49477    49437    49404    49377    49354    49337    49327 
   49327    49338    49355    49374    49392    49407    49420    49429 
   49434    49435    49423    49395    49354    49304    49240    49158 
   49062    48956    48838    48708    48573    48432    48280    48124 
   47977    47841    47718    47611    47523    47452    47403    47373 
   47355    47350    47361    47382    47418    47480    47565    47668 
   47788    47922    48067    48226    48403    48596    48797    48994 
   49184    49365    49524    49653    49762    49859    49949    50035 
   50117    50189    50249    50296    50326    50347    50368    50391 
   50417    50446    50480    50520    50566    50617    50671    50723 
   50775    50821    50860    50889    50909    50920    50926    50928 
   50926    50921    50918    50921    50935    50961    50998    51042 
   51092    51142    51179    51197    51198    51189    51178    51170 
   51171    51178    51178    51168    51155    51141    51123    51102 
   51077    51052    51029    51007    50982    50956    50926    50888 
   50842    50790    50734    50670    50598    50527    50454    50375 
   50289    50191    50082    49966    49846    49724    49607    49493 
   49380    49267    49155    49043    48939    48845    48764    48703 
   48664    48647    48656    48692    48750    48823    48907    49001 
   49100    49202    49301    49399    49498    49593    49677    49750 
   49815    49874    49923    49957    49976    49982    49978    49966 
   49946    49931    49931    49952    50000    50071    50167    50283 
   50410    50547    50693    50841    50992    51141    51286    51422 
   51543    51646    51736    51814    51874    51914    51934    51932 
   51912    51879    51838    51789    51731    51672    51619    51574 
   51533    51500    51470    51435    51388    51323    51234    51122 
   50993    50851    50692    50524    50354    50187    50026    49877 
   49748    49646    49571    49515    49474    49446    49424    49398 
   49368    49334    49295    49253    49207    49158    49116    49082 
   49050    49021    48993    48957    48909    48854    48798    48742 
   48684    48629    48581    48533    48490    48457    48435    48421 
   48416    48414    48413    48413    48412    48413    48417    48421 
   48423    48419    48408    48395    48383    48374    48369    48367 
   48366    48368    48374    48385    48410    48447    48496    48558 
   48629    48702    48775    48848    48916    48977    49033    49083 
   49125    49158    49185    49206    49221    49233    49244    49258 
   49282    49321    49372    49438    49517    49603    49690    49775 
   49858    49933    49999    50063    50125    50186    50249    50309 
   50361    50411    50455    50486    50512    50532    50550    50566 
   50576    50574    50562    50542    50520    50504    50491    50478 
   50463    50446    50425    50395    50354    50301    50236    50162 
   50078    49985    49887    49793    49701    49605    49503    49397 
   49281    49165    49056    48956    48865    48780    48704    48642 
   48595    48563    48545    48540    48547    48557    48565    48566 
   48563    48561    48564    48579    48604    48636    48674    48722 
   48778    48841    48912    48988    49068    49141    49203    49254 
   49297    49332    49362    49388    49415    49449    49493    49549 
   49618    49693    49768    49839    49907    49969    50025    50078 
   50128    50179    50233    50278    50313    50341    50360    50378 
   50408    50447    50493    50543    50596    50648    50697    50741 
   50785    50830    50871    50901    50919    50921    50902    50858 
   50786    50677    50536    50381    50222    50073    49942    49833 
   49743    49664    49584    49501    49413    49314    49203    49086 
   48969    48850    48726    48598    48470    48338    48194    48043 
   47896    47753    47614    47481    47357    47246    47150    47064 
   46983    46912    46857    46820    46810    46832    46876    46929 
   46994    47071    47166    47279    47407    47552    47711    47880 
   48053    48228    48408    48588    48765    48945    49124    49294 
   49459    49624    49780    49923    50056    50176    50287    50393 
   50495    50592    50690    50791    50889    50972    51043    51103 
   51139    51153    51156    51146    51125    51092    51039    50969 
   50892    50810    50729    50654    50583    50515    50450    50386 
   50322    50258    50198    50143    50084    50021    49961    49908 
   49857    49810    49773    49741    49706    49665    49620    49573 
   49533    49506    49496    49505    49533    49575    49633    49705 
   49786    49873    49970    50070    50164    50253    50341    50419 
   50481    50528    50558    50573    50572    50556    50527    50487 
   50438    50381    50327    50272    50211    50149    50091    50039 
   49992    49953    49923    49903    49895    49904    49928    49961 
   50006    50063    50132    50212    50304    50406    50516    50634 
   50762    50895    51027    51153    51272    51376    51466    51545 
   51614    51671    51719    51759    51796    51829    51856    51874 
   51873    51855    51834    51816    51804    51800    51804    51815 
   51832    51856    51895    51954    52039    52148    52274    52413 
   52560    52703    52837    52966    53084    53183    53264    53325 
   53363    53379    53372    53345    53304    53258    53208    53160 
   53126    53105    53088    53075    53063    53046    53024    53003 
   52986    52975    52977    52989    53002    53006    52988    52950 
   52897    52831    52754    52670    52577    52475    52362    52233 
   52091    51945    51796    51645    51491    51332    51169    51006 
   50834    50648    50440    50207    49949    49672    49386    49098 
   48815    48542    48274    48012    47757    47510    47273    47049 
   46839    46637    46439    46248    46061    45874    45687    45504 
   45322    45143    44974    44818    44678    44559    44461    44388 
   44340    44317    44317    44337    44376    44432    44504    44598 
   44712    44843    44990    45152    45327    45510    45697    45887 
   46081    46272    46467    46668    46874    47090    47316    47545 
   47777    48012    48252    48494    48730    48957    49172    49368 
   49540    49689    49816    49922    50005    50067    50108    50127 
   50125    50106    50081    50056    50031    50009    49993    49978 
   49957    49933    49910    49888    49866    49850    49848    49861 
   49884    49911    49937    49966    49998    50030    50068    50115 
   50167    50223    50285    50354    50427    50501    50567    50626 
   50684    50746    50808    50868    50924    50968    50992    50995 
   50985    50968    50950    50942    50943    50951    50967    50988 
   51011    51033    51058    51094    51139    51187    51234    51282 
   51325    51359    51390    51418    51447    51480    51519    51564 
   51609    51658    51715    51773    51828    51878    51920    51951 
   51965    51962    51945    51914    51868    51807    51729    51636 
   51536    51437    51338    51237    51129    51011    50885    50753 
   50619    50490    50361    50233    50107    49983    49854    49719 
   49583    49448    49311    49170    49022    48865    48701    48534 
   48366    48200    48031    47855    47670    47479    47279    47075 
   46873    46679    46498    46325    46157    45997    45852    45725 
   45615    45524    45457    45408    45375    45358    45351    45350 
   45361    45386    45420    45472    45543    45626    45724    45838 
   45963    46099    46245    46401    46568    46745    46928    47118 
   47322    47535    47749    47965    48181    48398    48615    48829 
   49042    49256    49473    49695    49915    50129    50336    50536 
   50725    50902    51072    51236    51383    51510    51621    51714 
   51791    51857    51909    51949    51982    52009    52031    52052 
   52071    52089    52112    52145    52195    52263    52349    52449 
   52555    52661    52760    52843    52911    52963    53002    53030 
   53051    53068    53078    53078    53064    53029    52977    52910 
   52825    52727    52622    52510    52393    52272    52153    52037 
   51921    51804    51680    51548    51413    51277    51144    51013 
   50885    50765    50658    50564    50489    50439    50419    50422 
   50438    50462    50493    50530    50569    50601    50632    50664 
   50687    50697    50695    50676    50639    50585    50514    50430 
   50340    50246    50150    50054    49966    49885    49804    49725 
   49649    49570    49489    49407    49323    49231    49126    49013 
   48902    48800    48708    48630    48572    48535    48519    48519 
   48531    48556    48590    48634    48691    48758    48834    48924 
   49026    49138    49255    49372    49483    49583    49672    49746 
   49808    49865    49923    49974    50014    50044    50064    50080 
   50099    50123    50149    50173    50196    50221    50251    50284 
   50321    50359    50401    50451    50503    50553    50603    50645 
   50669    50676    50671    50652    50621    50588    50561    50546 
   50548    50563    50577    50588    50593    50591    50587    50585 
   50585    50590    50596    50594    50578    50545    50494    50429 
   50354    50270    50180    50086    49988    49887    49785    49687 
   49602    49533    49476    49433    49404    49390    49387    49392 
   49403    49422    49450    49479    49511    49553    49601    49639 
   49665    49686    49698    49704    49715    49734    49763    49798 
   49830    49859    49884    49901    49912    49923    49936    49951 
   49968    49989    50009    50023    50029    50031    50028    50019 
   50003    49978    49943    49895    49833    49758    49671    49581 
   49493    49407    49325    49251    49181    49115    49049    48984 
   48919    48855    48795    48741    48693    48647    48595    48530 
   48454    48364    48257    48135    48004    47870    47742    47619 
   47501    47392    47296    47210    47133    47066    47008    46966 
   46944    46933    46928    46929    46936    46948    46966    46994 
   47039    47107    47194    47292    47402    47518    47638    47763 
   47893    48028    48170    48316    48469    48627    48786    48945 
   49101    49250    49389    49520    49641    49757    49876    50001 
   50124    50241    50352    50449    50533    50614    50700    50788 
   50878    50964    51035    51092    51132    51146    51135    51101 
   51042    50962    50866    50756    50637    50506    50361    50209 
   50055    49904    49764    49638    49529    49438    49365    49308 
   49265    49234    49213    49201    49198    49201    49204    49203 
   49197    49178    49152    49126    49096    49062    49031    49004 
   48983    48969    48961    48962    48967    48972    48981    48996 
   49014    49042    49078    49115    49154    49197    49245    49303 
   49370    49446    49537    49637    49740    49847    49957    50077 
   50213    50367    50538    50729    50937    51154    51378    51604 
   51826    52040    52244    52437    52619    52786    52943    53088 
   53217    53331    53424    53493    53537    53563    53572    53568 
   53551    53520    53478    53423    53351    53267    53177    53086 
   53000    52920    52844    52770    52698    52625    52547    52471 
   52399    52326    52247    52165    52082    52001    51919    51832 
   51744    51659    51572    51483    51393    51308    51226    51140 
   51050    50957    50860    50763    50672    50594    50529    50469 
   50409    50350    50292    50234    50176    50121    50063    49997 
   49926    49852    49776    49697    49612    49521    49429    49333 
   49230    49120    49011    48898    48779    48661    48540    48411 
