Origin Time       2015/02/17 08:06:00
Lat.              39.872
Long.             143.192
Depth. (km)       13
Mag.              6.9
Station Code      NIGH02
Station Lat.      38.2799
Station Long.     139.5486
Station Height(m) 34
Record Time       2015/02/17 08:07:28
Sampling Freq(Hz) 100Hz
Duration Time(s)  273
Dir.              6
Scale Factor      3920(gal)/6170801
Max. Acc. (gal)   2.892
Last Correction   2015/02/17 08:07:13
Memo.             
[...]
  -28717   -28776   -28836   -28898   -28967   -29041   -29105   -29149 
  -29175   -29193   -29202   -29186   -29164   -29147   -29113   -29067 
  -29027   -28971   -28886   -28793   -28696   -28578   -28454   -28332 
  -28194   -28042   -27893   -27729   -27546   -27361   -27170   -26976 
  -26793   -26609   -26417   -26236   -26062   -25885   -25711   -25539 
  -25375   -25224   -25081   -24948   -24836   -24746   -24677   -24636 
  -24616   -24611   -24628   -24658   -24693   -24753   -24837   -24932 
  -25041   -25165   -25295   -25432   -25573   -25711   -25838   -25958 
  -26076   -26179   -26262   -26321   -26356   -26381   -26382   -26353 
  -26311   -26255   -26182   -26110   -26036   -25960   -25885   -25801 
  -25708   -25626   -25550   -25468   -25395   -25338   -25288   -25248 
  -25227   -25212   -25195   -25187   -25194   -25218   -25264   -25329 
  -25409   -25513   -25637   -25760   -25887   -26030   -26176   -26330 
  -26501   -26673   -26840   -27003   -27154   -27299   -27446   -27589 
  -27732   -27880   -28016   -28151   -28292   -28419   -28529   -28628 
  -28710   -28783   -28859   -28943   -29029   -29108   -29179   -29243 
  -29298   -29336   -29354   -29366   -29378   -29386   -29393   -29406 
  -29416   -29408   -29391   -29373   -29330   -29256   -29174   -29080 
  -28972   -28867   -28748   -28608   -28466   -28323   -28164   -27998 
  -27841   -27688   -27534   -27388   -27240   -27094   -26972   -26862 
  -26746   -26640   -26555   -26478   -26394   -26298   -26199   -26112 
  -26030   -25960   -25919   -25896   -25885   -25906   -25952   -26003 
  -26064   -26143   -26230   -26308   -26382   -26453   -26510   -26550 
  -26570   -26572   -26568   -26555   -26525   -26499   -26477   -26436 
  -26386   -26343   -26306   -26277   -26242   -26196   -26166   -26139 
  -26096   -26058   -26038   -26020   -25999   -25986   -25981   -25971 
  -25958   -25955   -25949   -25927   -25896   -25859   -25814   -25760 
  -25702   -25651   -25593   -25516   -25445   -25385   -25316   -25247 
  -25196   -25159   -25125   -25090   -25055   -25021   -24992   -24962 
  -24930   -24900   -24871   -24841   -24809   -24768   -24727   -24693 
  -24656   -24633   -24638   -24647   -24658   -24689   -24733   -24790 
  -24864   -24945   -25028   -25126   -25232   -25334   -25446   -25571 
  -25686   -25794   -25899   -25990   -26062   -26111   -26143   -26174 
  -26205   -26224   -26245   -26278   -26303   -26305   -26308   -26316 
  -26310   -26304   -26311   -26320   -26337   -26356   -26365   -26381 
  -26405   -26422   -26447   -26496   -26545   -26580   -26611   -26635 
  -26638   -26623   -26608   -26586   -26545   -26495   -26447   -26384 
  -26289   -26176   -26059   -25938   -25814   -25701   -25601   -25505 
  -25407   -25314   -25235   -25169   -25109   -25056   -25014   -24980 
  -24968   -24985   -25011   -25034   -25076   -25139   -25207   -25294 
  -25405   -25534   -25682   -25829   -25965   -26101   -26229   -26348 
  -26479   -26618   -26760   -26907   -27052   -27191   -27323   -27444 
  -27557   -27670   -27797   -27927   -28043   -28150   -28256   -28351 
  -28436   -28519   -28607   -28697   -28793   -28882   -28951   -29006 
  -29040   -29040   -29016   -28974   -28918   -28845   -28749   -28638 
  -28500   -28321   -28130   -27934   -27716   -27490   -27277   -27072 
  -26876   -26696   -26543   -26414   -26294   -26179   -26089   -26027 
  -25982   -25965   -25974   -25991   -26018   -26053   -26084   -26122 
  -26181   -26241   -26300   -26371   -26445   -26505   -26558   -26616 
  -26677   -26728   -26773   -26825   -26873   -26909   -26945   -26985 
  -27013   -27030   -27037   -27035   -27031   -27023   -27006   -26991 
  -26965   -26912   -26850   -26789   -26720   -26646   -26563   -26477 
  -26396   -26308   -26220   -26155   -26104   -26059   -26026   -26005 
  -25995   -25999   -26013   -26044   -26089   -26142   -26205   -26272 
  -26329   -26379   -26433   -26481   -26518   -26552   -26591   -26634 
  -26680   -26726   -26775   -26830   -26879   -26915   -26948   -26989 
  -27027   -27054   -27096   -27151   -27194   -27227   -27259   -27296 
  -27342   -27389   -27434   -27483   -27530   -27560   -27574   -27580 
  -27577   -27574   -27576   -27569   -27549   -27521   -27479   -27425 
  -27377   -27317   -27239   -27162   -27074   -26966   -26854   -26744 
  -26628   -26518   -26410   -26291   -26178   -26095   -26026   -25959 
  -25911   -25879   -25847   -25816   -25788   -25748   -25703   -25660 
  -25613   -25562   -25508   -25462   -25428   -25391   -25349   -25313 
  -25282   -25248   -25222   -25214   -25221   -25230   -25258   -25306 
  -25348   -25388   -25438   -25484   -25525   -25572   -25609   -25638 
  -25666   -25685   -25699   -25710   -25711   -25715   -25728   -25746 
  -25776   -25826   -25879   -25926   -25973   -26015   -26049   -26085 
  -26117   -26140   -26161   -26180   -26189   -26181   -26154   -26113 
  -26074   -26038   -26006   -25973   -25938   -25908   -25878   -25834 
  -25785   -25726   -25652   -25582   -25513   -25438   -25375   -25314 
  -25237   -25160   -25093   -25027   -24965   -24920   -24891   -24877 
  -24886   -24901   -24917   -24944   -24982   -25020   -25059   -25110 
  -25161   -25197   -25238   -25290   -25321   -25325   -25334   -25362 
  -25395   -25421   -25449   -25488   -25530   -25579   -25642   -25710 
  -25786   -25880   -25990   -26114   -26252   -26398   -26551   -26712 
  -26881   -27054   -27223   -27393   -27563   -27724   -27871   -28009 
  -28138   -28255   -28372   -28492   -28614   -28731   -28834   -28933 
  -29029   -29100   -29154   -29198   -29224   -29245   -29271   -29290 
  -29306   -29315   -29306   -29276   -29234   -29175   -29107   -29042 
  -28974   -28896   -28813   -28719   -28618   -28514   -28394   -28264 
  -28138   -28018   -27893   -27762   -27635   -27513   -27395   -27290 
  -27206   -27135   -27070   -27026   -27002   -26975   -26952   -26942 
  -26935   -26929   -26927   -26923   -26911   -26901   -26893   -26888 
  -26886   -26884   -26880   -26871   -26858   -26845   -26838   -26837 
  -26834   -26832   -26836   -26841   -26849   -26864   -26876   -26886 
  -26904   -26908   -26897   -26894   -26893   -26871   -26839   -26815 
  -26791   -26764   -26744   -26736   -26742   -26759   -26772   -26778 
  -26783   -26782   -26777   -26770   -26765   -26767   -26769   -26765 
  -26757   -26747   -26736   -26726   -26717   -26702   -26694   -26696 
  -26691   -26674   -26659   -26649   -26628   -26586   -26540   -26492 
  -26419   -26322   -26217   -26104   -25976   -25841   -25704   -25556 
  -25390   -25230   -25081   -24929   -24782   -24646   -24507   -24372 
  -24258   -24160   -24067   -23981   -23910   -23853   -23801   -23749 
  -23705   -23677   -23659   -23653   -23670   -23707   -23748   -23790 
  -23846   -23906   -23963   -24027   -24098   -24170   -24248   -24330 
  -24404   -24475   -24566   -24666   -24754   -24842   -24932   -25007 
  -25060   -25097   -25135   -25185   -25236   -25290   -25357   -25419 
  -25468   -25531   -25613   -25693   -25771   -25856   -25951   -26056 
  -26161   -26263   -26369   -26484   -26599   -26703   -26804   -26903 
  -26980   -27048   -27121   -27183   -27230   -27276   -27319   -27349 
  -27374   -27401   -27421   -27435   -27450   -27465   -27470   -27464 
  -27466   -27475   -27466   -27446   -27446   -27456   -27455   -27461 
  -27479   -27485   -27477   -27474   -27466   -27437   -27410   -27396 
  -27363   -27321   -27295   -27271   -27239   -27205   -27161   -27125 
  -27103   -27071   -27041   -27033   -27028   -27016   -27017   -27028 
  -27034   -27044   -27069   -27108   -27153   -27197   -27239   -27285 
  -27320   -27353   -27399   -27440   -27473   -27511   -27549   -27585 
  -27618   -27652   -27697   -27749   -27798   -27852   -27903   -27927 
  -27932   -27941   -27942   -27928   -27921   -27910   -27886   -27866 
  -27841   -27802   -27767   -27738   -27701   -27671   -27652   -27624 
  -27596   -27585   -27581   -27582   -27587   -27588   -27580   -27573 
  -27568   -27555   -27537   -27522   -27501   -27473   -27447   -27425 
  -27411   -27404   -27399   -27403   -27424   -27456   -27490   -27530 
  -27579   -27627   -27688   -27770   -27854   -27939   -28038   -28133 
  -28220   -28311   -28399   -28480   -28559   -28629   -28692   -28761 
  -28816   -28854   -28892   -28910   -28908   -28914   -28912   -28895 
  -28887   -28874   -28846   -28819   -28784   -28746   -28714   -28670 
  -28609   -28547   -28482   -28399   -28294   -28186   -28075   -27940 
  -27796   -27649   -27483   -27306   -27123   -26935   -26743   -26541 
  -26337   -26137   -25934   -25731   -25527   -25332   -25143   -24955 
  -24784   -24627   -24459   -24295   -24143   -23979   -23806   -23642 
  -23475   -23306   -23147   -22997   -22854   -22724   -22608   -22504 
  -22415   -22338   -22270   -22208   -22154   -22119   -22099   -22078 
  -22067   -22080   -22114   -22153   -22192   -22243   -22308   -22373 
  -22421   -22473   -22547   -22621   -22689   -22771   -22867   -22956 
  -23047   -23159   -23270   -23364   -23470   -23588   -23694   -23804 
  -23927   -24048   -24174   -24311   -24446   -24573   -24700   -24827 
  -24956   -25081   -25198   -25318   -25453   -25579   -25689   -25800 
  -25907   -26003   -26096   -26190   -26284   -26384   -26490   -26590 
  -26693   -26809   -26922   -27030   -27146   -27270   -27387   -27502 
  -27617   -27731   -27852   -27981   -28106   -28234   -28370   -28497 
  -28625   -28771   -28906   -29035   -29178   -29316   -29437   -29554 
  -29661   -29756   -29850   -29938   -30016   -30094   -30166   -30220 
  -30273   -30341   -30408   -30469   -30532   -30588   -30636   -30690 
  -30744   -30792   -30840   -30889   -30937   -30977   -31011   -31037 
  -31053   -31064   -31065   -31039   -30991   -30928   -30841   -30729 
  -30607   -30473   -30317   -30159   -29999   -29816   -29625   -29440 
  -29243   -29023   -28794   -28565   -28337   -28111   -27888   -27661 
  -27436   -27216   -26998   -26775   -26559   -26351   -26147   -25954 
  -25770   -25582   -25395   -25217   -25044   -24874   -24711   -24560 
  -24423   -24292   -24164   -24051   -23944   -23829   -23718   -23619 
  -23521   -23423   -23340   -23270   -23203   -23150   -23120   -23096 
  -23076   -23072   -23072   -23077   -23097   -23122   -23152   -23188 
  -23226   -23264   -23296   -23327   -23372   -23422   -23474   -23537 
  -23603   -23660   -23716   -23779   -23844   -23911   -23989   -24070 
  -24154   -24243   -24334   -24425   -24512   -24601   -24696   -24782 
  -24861   -24949   -25033   -25110   -25188   -25263   -25335   -25404 
  -25473   -25547   -25625   -25701   -25772   -25843   -25925   -26003 
  -26066   -26136   -26222   -26312   -26394   -26473   -26562   -26649 
  -26725   -26802   -26880   -26955   -27024   -27093   -27175   -27264 
  -27340   -27410   -27491   -27569   -27639   -27712   -27787   -27852 
  -27909   -27964   -28011   -28048   -28068   -28079   -28089   -28089 
  -28081   -28076   -28071   -28064   -28060   -28065   -28077   -28088 
  -28105   -28130   -28162   -28202   -28246   -28297   -28353   -28406 
  -28452   -28491   -28538   -28589   -28627   -28662   -28707   -28738 
  -28742   -28732   -28718   -28700   -28669   -28627   -28582   -28530 
  -28473   -28407   -28327   -28248   -28169   -28080   -27982   -27885 
  -27793   -27701   -27605   -27511   -27419   -27328   -27232   -27134 
  -27041   -26951   -26863   -26780   -26697   -26605   -26511   -26420 
  -26326   -26233   -26142   -26057   -25985   -25924   -25866   -25815 
  -25772   -25732   -25692   -25659   -25642   -25633   -25622   -25620 
  -25628   -25633   -25640   -25648   -25656   -25672   -25696   -25716 
  -25732   -25746   -25763   -25781   -25798   -25819   -25842   -25863 
  -25895   -25934   -25963   -25988   -26015   -26039   -26058   -26069 
  -26080   -26102   -26122   -26139   -26160   -26174   -26181   -26182 
  -26165   -26132   -26088   -26035   -25975   -25904   -25822   -25729 
  -25626   -25522   -25418   -25301   -25176   -25057   -24940   -24826 
  -24718   -24612   -24513   -24425   -24344   -24262   -24183   -24115 
  -24049   -23984   -23932   -23895   -23865   -23849   -23842   -23842 
  -23865   -23907   -23952   -24007   -24082   -24161   -24231   -24311 
  -24409   -24507   -24607   -24723   -24845   -24975   -25118   -25256 
  -25384   -25527   -25681   -25831   -25982   -26144   -26305   -26460 
  -26618   -26770   -26906   -27044   -27183   -27308   -27434   -27560 
  -27681   -27802   -27918   -28036   -28159   -28267   -28364   -28468 
  -28565   -28646   -28722   -28799   -28859   -28905   -28955   -29004 
  -29042   -29079   -29116   -29146   -29179   -29207   -29214   -29215 
  -29225   -29234   -29237   -29238   -29235   -29231   -29229   -29219 
  -29202   -29190   -29183   -29168   -29160   -29163   -29154   -29140 
  -29128   -29107   -29080   -29051   -29011   -28971   -28928   -28871 
  -28813   -28771   -28725   -28671   -28626   -28593   -28555   -28514 
  -28478   -28433   -28371   -28312   -28252   -28174   -28090   -28010 
  -27918   -27816   -27713   -27602   -27478   -27354   -27221   -27074 
  -26928   -26776   -26610   -26448   -26289   -26123   -25961   -25802 
  -25636   -25464   -25289   -25117   -24948   -24769   -24583   -24400 
  -24217   -24026   -23828   -23635   -23446   -23255   -23072   -22901 
  -22743   -22601   -22467   -22345   -22246   -22159   -22086   -22034 
  -21989   -21961   -21965   -21981   -22002   -22046   -22103   -22157 
  -22212   -22274   -22343   -22417   -22491   -22572   -22663   -22757 
  -22855   -22959   -23065   -23175   -23290   -23410   -23535   -23660 
  -23787   -23922   -24053   -24178   -24305   -24433   -24565   -24706 
  -24846   -24991   -25150   -25316   -25478   -25650   -25839   -26032 
  -26226   -26425   -26632   -26834   -27029   -27224   -27417   -27608 
  -27798   -27978   -28147   -28316   -28484   -28636   -28776   -28912 
  -29046   -29175   -29290   -29395   -29499   -29597   -29688   -29771 
  -29847   -29922   -29986   -30044   -30100   -30146   -30179   -30208 
  -30226   -30238   -30237   -30224   -30211   -30186   -30144   -30102 
  -30062   -30004   -29933   -29864   -29791   -29702   -29606   -29511 
  -29409   -29299   -29184   -29070   -28959   -28844   -28724   -28599 
  -28474   -28362   -28253   -28143   -28036   -27928   -27819   -27714 
  -27604   -27493   -27393   -27298   -27195   -27090   -26987   -26880 
  -26770   -26654   -26537   -26424   -26316   -26214   -26108   -26003 
  -25903   -25797   -25692   -25599   -25503   -25406   -25326   -25256 
  -25179   -25098   -25019   -24941   -24862   -24783   -24710   -24642 
  -24575   -24510   -24441   -24370   -24304   -24233   -24162   -24107 
  -24062   -24020   -23990   -23972   -23955   -23945   -23940   -23922 
  -23908   -23908   -23903   -23899   -23902   -23902   -23903   -23907 
  -23906   -23911   -23931   -23952   -23973   -24009   -24058   -24110 
  -24172   -24243   -24307   -24381   -24473   -24558   -24645   -24753 
  -24864   -24970   -25085   -25202   -25308   -25415   -25533   -25635 
  -25711   -25793   -25884   -25960   -26023   -26085   -26153   -26217 
  -26261   -26293   -26333   -26379   -26414   -26437   -26467   -26503 
  -26523   -26530   -26540   -26549   -26550   -26555   -26560   -26554 
  -26554   -26564   -26568   -26566   -26569   -26573   -26579   -26586 
  -26586   -26594   -26617   -26634   -26645   -26663   -26683   -26707 
  -26744   -26784   -26816   -26856   -26907   -26944   -26973   -27012 
  -27053   -27095   -27138   -27175   -27216   -27267   -27316   -27356 
  -27398   -27454   -27512   -27558   -27608   -27670   -27729   -27791 
  -27853   -27911   -27983   -28061   -28127   -28198   -28280   -28352 
  -28415   -28472   -28512   -28537   -28565   -28585   -28580   -28574 
  -28578   -28565   -28531   -28502   -28477   -28440   -28386   -28329 
  -28282   -28240   -28189   -28136   -28091   -28046   -27998   -27955 
  -27920   -27888   -27858   -27836   -27816   -27796   -27784   -27784 
  -27778   -27774   -27779   -27784   -27791   -27797   -27786   -27772 
  -27768   -27753   -27720   -27685   -27650   -27606   -27539   -27450 
  -27361   -27271   -27166   -27052   -26936   -26815   -26695   -26574 
  -26447   -26319   -26192   -26061   -25923   -25777   -25632   -25494 
  -25360   -25231   -25103   -24972   -24849   -24734   -24609   -24481 
  -24364   -24253   -24142   -24039   -23939   -23834   -23733   -23641 
  -23558   -23491   -23440   -23398   -23372   -23360   -23350   -23348 
  -23350   -23351   -23366   -23397   -23433   -23484   -23552   -23623 
  -23696   -23784   -23882   -23980   -24077   -24176   -24272   -24369 
  -24471   -24566   -24660   -24770   -24883   -24991   -25101   -25207 
  -25312   -25418   -25512   -25609   -25717   -25814   -25903   -25995 
  -26082   -26150   -26216   -26284   -26334   -26369   -26408   -26445 
  -26474   -26493   -26503   -26508   -26505   -26498   -26497   -26501 
  -26501   -26496   -26501   -26510   -26513   -26516   -26524   -26530 
  -26534   -26547   -26562   -26571   -26588   -26615   -26639   -26661 
  -26691   -26729   -26770   -26808   -26849   -26898   -26952   -27003 
  -27046   -27091   -27140   -27186   -27225   -27254   -27286   -27325 
  -27349   -27357   -27375   -27399   -27410   -27417   -27431   -27448 
  -27464   -27474   -27482   -27497   -27510   -27522   -27535   -27534 
  -27536   -27555   -27562   -27558   -27564   -27572   -27574   -27571 
  -27567   -27579   -27598   -27593   -27588   -27598   -27593   -27579 
  -27579   -27569   -27544   -27533   -27521   -27492   -27467   -27447 
  -27427   -27402   -27362   -27321   -27287   -27244   -27192   -27146 
  -27101   -27059   -27021   -26975   -26932   -26899   -26864   -26829 
  -26803   -26786   -26774   -26766   -26758   -26749   -26744   -26742 
  -26731   -26712   -26696   -26687   -26677   -26660   -26651   -26657 
  -26656   -26644   -26639   -26644   -26651   -26660   -26669   -26673 
  -26681   -26691   -26684   -26672   -26667   -26659   -26650   -26637 
  -26619   -26609   -26597   -26578   -26562   -26545   -26529   -26518 
  -26506   -26492   -26481   -26466   -26445   -26425   -26403   -26376 
  -26351   -26316   -26268   -26219   -26175   -26129   -26066   -25999 
  -25948   -25895   -25825   -25755   -25696   -25640   -25576   -25508 
  -25453   -25405   -25348   -25297   -25257   -25222   -25200   -25184 
  -25166   -25151   -25136   -25122   -25120   -25118   -25118   -25127 
  -25142   -25160   -25182   -25206   -25236   -25268   -25300   -25341 
  -25394   -25452   -25512   -25569   -25629   -25697   -25771   -25840 
  -25909   -25988   -26074   -26151   -26231   -26316   -26390   -26463 
  -26542   -26610   -26673   -26746   -26815   -26869   -26911   -26955 
  -26995   -27022   -27053   -27084   -27101   -27123   -27144   -27152 
  -27165   -27175   -27173   -27185   -27205   -27212   -27212   -27221 
  -27230   -27231   -27230   -27233   -27228   -27212   -27199   -27192 
  -27180   -27162   -27144   -27127   -27108   -27082   -27059   -27042 
  -27020   -27000   -26991   -26977   -26960   -26950   -26937   -26921 
  -26910   -26910   -26916   -26921   -26933   -26953   -26972   -26995 
  -27022   -27044   -27067   -27097   -27129   -27167   -27207   -27242 
