Origin Time       2015/02/17 08:06:00
Lat.              39.872
Long.             143.192
Depth. (km)       13
Mag.              6.9
Station Code      NIGH02
Station Lat.      38.2799
Station Long.     139.5486
Station Height(m) -70.5
Record Time       2015/02/17 08:07:28
Sampling Freq(Hz) 100Hz
Duration Time(s)  273
Dir.              3
Scale Factor      2940(gal)/6170270
Max. Acc. (gal)   3.014
Last Correction   2015/02/17 08:07:13
Memo.             
[...]
  -12134   -12109   -12087   -12060   -12024   -11982   -11927   -11857 
  -11781   -11709   -11641   -11575   -11513   -11454   -11394   -11326 
  -11247   -11156   -11062   -10968   -10881   -10810   -10757   -10722 
  -10706   -10706   -10718   -10739   -10758   -10767   -10771   -10768 
  -10754   -10740   -10728   -10715   -10706   -10703   -10702   -10696 
  -10679   -10651   -10621   -10593   -10563   -10540   -10529   -10530 
  -10543   -10561   -10584   -10609   -10630   -10648   -10666   -10682 
  -10695   -10702   -10700   -10692   -10680   -10661   -10636   -10608 
  -10574   -10544   -10525   -10518   -10533   -10557   -10584   -10620 
  -10656   -10689   -10723   -10755   -10784   -10813   -10845   -10882 
  -10926   -10979   -11039   -11104   -11168   -11230   -11293   -11353 
  -11408   -11465   -11528   -11597   -11664   -11725   -11775   -11813 
  -11845   -11873   -11900   -11930   -11966   -12004   -12045   -12088 
  -12134   -12182   -12227   -12270   -12312   -12353   -12387   -12415 
  -12449   -12492   -12540   -12594   -12660   -12734   -12808   -12885 
  -12970   -13066   -13176   -13302   -13440   -13588   -13747   -13915 
  -14083   -14247   -14404   -14551   -14684   -14807   -14918   -15014 
  -15089   -15144   -15179   -15193   -15190   -15178   -15161   -15138 
  -15111   -15080   -15045   -15003   -14955   -14899   -14831   -14755 
  -14670   -14574   -14470   -14357   -14235   -14103   -13970   -13840 
  -13708   -13581   -13463   -13353   -13244   -13127   -13008   -12893 
  -12776   -12658   -12550   -12454   -12365   -12280   -12203   -12140 
  -12087   -12039   -11996   -11955   -11917   -11884   -11849   -11818 
  -11797   -11789   -11790   -11807   -11838   -11876   -11910   -11940 
  -11964   -11986   -12005   -12020   -12035   -12049   -12062   -12072 
  -12084   -12098   -12109   -12114   -12109   -12095   -12070   -12038 
  -12002   -11967   -11926   -11879   -11835   -11792   -11748   -11702 
  -11651   -11594   -11537   -11479   -11416   -11349   -11282   -11218 
  -11162   -11120   -11093   -11071   -11055   -11049   -11053   -11063 
  -11077   -11097   -11129   -11168   -11214   -11269   -11334   -11409 
  -11483   -11555   -11623   -11683   -11739   -11798   -11854   -11906 
  -11955   -12002   -12048   -12093   -12137   -12178   -12216   -12247 
  -12271   -12288   -12294   -12288   -12272   -12247   -12216   -12187 
  -12158   -12124   -12085   -12044   -12004   -11967   -11930   -11890 
  -11848   -11808   -11774   -11747   -11729   -11719   -11716   -11718 
  -11729   -11746   -11768   -11790   -11803   -11806   -11796   -11780 
  -11763   -11751   -11741   -11727   -11709   -11691   -11675   -11657 
  -11642   -11625   -11606   -11587   -11567   -11547   -11529   -11517 
  -11508   -11504   -11508   -11524   -11554   -11597   -11653   -11718 
  -11793   -11876   -11963   -12045   -12124   -12201   -12272   -12333 
  -12384   -12424   -12452   -12468   -12466   -12448   -12420   -12380 
  -12320   -12243   -12153   -12054   -11944   -11827   -11700   -11564 
  -11423   -11275   -11124   -10974   -10824   -10669   -10505   -10335 
  -10162    -9989    -9821    -9657    -9497    -9345    -9195    -9047 
   -8912    -8786    -8665    -8554    -8452    -8360    -8282    -8215 
   -8163    -8134    -8126    -8135    -8161    -8202    -8257    -8320 
   -8389    -8462    -8540    -8627    -8722    -8828    -8944    -9071 
   -9207    -9350    -9496    -9648    -9817   -10003   -10200   -10409 
  -10630   -10856   -11083   -11307   -11526   -11741   -11951   -12155 
  -12358   -12556   -12749   -12943   -13136   -13326   -13513   -13695 
  -13872   -14049   -14223   -14392   -14558   -14728   -14903   -15076 
  -15244   -15404   -15561   -15717   -15867   -16012   -16154   -16294 
  -16422   -16528   -16618   -16696   -16761   -16818   -16863   -16891 
  -16907   -16911   -16900   -16869   -16812   -16725   -16611   -16472 
  -16308   -16121   -15912   -15688   -15447   -15184   -14907   -14622 
  -14331   -14036   -13743   -13458   -13180   -12910   -12648   -12391 
  -12146   -11912   -11689   -11483   -11298   -11135   -10992   -10871 
  -10775   -10700   -10647   -10617   -10601   -10596   -10604   -10624 
  -10662   -10711   -10761   -10814   -10871   -10931   -10990   -11042 
  -11087   -11124   -11150   -11163   -11163   -11146   -11118   -11085 
  -11044   -10999   -10950   -10894   -10841   -10793   -10743   -10686 
  -10625   -10559   -10492   -10421   -10349   -10283   -10210   -10132 
  -10059    -9980    -9897    -9821    -9743    -9666    -9600    -9541 
   -9490    -9449    -9419    -9401    -9397    -9408    -9436    -9483 
   -9550    -9636    -9740    -9862    -9998   -10145   -10304   -10477 
  -10663   -10860   -11068   -11283   -11508   -11744   -11992   -12249 
  -12505   -12756   -13002   -13241   -13479   -13717   -13950   -14184 
  -14416   -14642   -14858   -15060   -15247   -15419   -15570   -15701 
  -15823   -15936   -16038   -16124   -16195   -16251   -16284   -16292 
  -16279   -16245   -16193   -16135   -16071   -16001   -15931   -15869 
  -15811   -15749   -15685   -15615   -15536   -15447   -15352   -15256 
  -15162   -15066   -14970   -14874   -14777   -14677   -14573   -14465 
  -14348   -14224   -14096   -13958   -13818   -13683   -13548   -13411 
  -13273   -13130   -12979   -12820   -12655   -12484   -12311   -12142 
  -11974   -11808   -11647   -11494   -11348   -11210   -11082   -10966 
  -10864   -10776   -10699   -10635   -10590   -10557   -10531   -10512 
  -10496   -10486   -10487   -10494   -10504   -10520   -10539   -10555 
  -10572   -10587   -10596   -10597   -10589   -10570   -10541   -10504 
  -10461   -10416   -10375   -10340   -10312   -10292   -10283   -10291 
  -10308   -10323   -10341   -10366   -10391   -10415   -10439   -10463 
  -10483   -10497   -10507   -10512   -10513   -10511   -10505   -10495 
  -10483   -10474   -10469   -10473   -10489   -10516   -10552   -10597 
  -10653   -10719   -10791   -10864   -10936   -11011   -11090   -11174 
  -11255   -11329   -11395   -11455   -11509   -11554   -11585   -11596 
  -11590   -11566   -11530   -11485   -11434   -11384   -11338   -11295 
  -11255   -11219   -11189   -11164   -11141   -11125   -11121   -11129 
  -11148   -11184   -11228   -11280   -11342   -11407   -11472   -11538 
  -11598   -11648   -11690   -11723   -11743   -11751   -11755   -11750 
  -11737   -11716   -11682   -11637   -11584   -11524   -11457   -11384 
  -11309   -11233   -11151   -11063   -10976   -10891   -10803   -10707 
  -10606   -10506   -10412   -10328   -10255   -10194   -10151   -10126 
  -10121   -10134   -10164   -10212   -10278   -10360   -10456   -10566 
  -10697   -10845   -11006   -11186   -11381   -11588   -11806   -12035 
  -12267   -12500   -12733   -12966   -13203   -13439   -13664   -13880 
  -14087   -14284   -14468   -14633   -14785   -14933   -15078   -15209 
  -15319   -15408   -15476   -15523   -15549   -15557   -15552   -15538 
  -15514   -15477   -15419   -15341   -15248   -15142   -15021   -14888 
  -14746   -14600   -14446   -14287   -14127   -13958   -13778   -13591 
  -13397   -13197   -12996   -12802   -12617   -12437   -12261   -12094 
  -11934   -11781   -11635   -11500   -11379   -11271   -11171   -11088 
  -11022   -10962   -10901   -10850   -10814   -10791   -10774   -10764 
  -10765   -10778   -10801   -10832   -10869   -10910   -10955   -11012 
  -11079   -11145   -11206   -11261   -11309   -11346   -11378   -11410 
  -11441   -11475   -11511   -11546   -11582   -11615   -11641   -11661 
  -11673   -11680   -11684   -11685   -11686   -11687   -11688   -11696 
  -11713   -11737   -11767   -11811   -11868   -11934   -12009   -12095 
  -12188   -12289   -12400   -12520   -12642   -12764   -12887   -13004 
  -13113   -13214   -13303   -13386   -13465   -13533   -13587   -13625 
  -13647   -13660   -13662   -13647   -13617   -13581   -13540   -13494 
  -13446   -13400   -13359   -13326   -13295   -13268   -13246   -13226 
  -13204   -13180   -13156   -13132   -13103   -13068   -13030   -12991 
  -12948   -12902   -12850   -12793   -12734   -12675   -12615   -12558 
  -12500   -12438   -12369   -12291   -12209   -12127   -12040   -11945 
  -11847   -11750   -11648   -11539   -11432   -11329   -11221   -11114 
  -11012   -10911   -10813   -10725   -10647   -10574   -10509   -10452 
  -10399   -10350   -10305   -10267   -10234   -10210   -10200   -10201 
  -10214   -10238   -10261   -10289   -10333   -10384   -10437   -10501 
  -10577   -10657   -10741   -10825   -10905   -10982   -11052   -11118 
  -11183   -11249   -11315   -11385   -11455   -11526   -11596   -11657 
  -11707   -11750   -11789   -11822   -11852   -11873   -11877   -11869 
  -11848   -11807   -11749   -11676   -11582   -11474   -11360   -11236 
  -11102   -10959   -10808   -10649   -10487   -10323   -10158    -9993 
   -9831    -9678    -9532    -9391    -9261    -9148    -9051    -8965 
   -8891    -8831    -8786    -8745    -8711    -8692    -8679    -8674 
   -8689    -8721    -8766    -8826    -8898    -8981    -9081    -9196 
   -9319    -9452    -9604    -9768    -9947   -10143   -10353   -10573 
  -10805   -11049   -11307   -11573   -11843   -12115   -12386   -12652 
  -12909   -13154   -13389   -13619   -13839   -14055   -14274   -14489 
  -14699   -14906   -15110   -15301   -15472   -15625   -15760   -15882 
  -15988   -16076   -16147   -16206   -16252   -16282   -16297   -16299 
  -16292   -16279   -16258   -16230   -16203   -16174   -16135   -16089 
  -16035   -15975   -15915   -15855   -15793   -15727   -15655   -15581 
  -15505   -15431   -15369   -15315   -15264   -15217   -15172   -15123 
  -15071   -15016   -14953   -14882   -14804   -14725   -14647   -14570 
  -14493   -14415   -14338   -14257   -14165   -14066   -13966   -13863 
  -13759   -13652   -13538   -13420   -13303   -13186   -13070   -12958 
  -12849   -12744   -12635   -12521   -12407   -12297   -12186   -12068 
  -11948   -11829   -11716   -11615   -11526   -11451   -11387   -11335 
  -11293   -11258   -11231   -11216   -11207   -11204   -11211   -11224 
  -11239   -11252   -11262   -11272   -11281   -11285   -11285   -11281 
  -11276   -11268   -11253   -11232   -11205   -11167   -11114   -11054 
  -10991   -10920   -10846   -10766   -10677   -10591   -10509   -10423 
  -10330   -10227   -10113    -9992    -9863    -9732    -9602    -9470 
   -9339    -9211    -9087    -8966    -8846    -8729    -8619    -8519 
   -8427    -8346    -8283    -8231    -8192    -8171    -8168    -8179 
   -8202    -8236    -8284    -8337    -8388    -8440    -8495    -8553 
   -8617    -8688    -8765    -8846    -8931    -9017    -9106    -9201 
   -9301    -9403    -9507    -9604    -9700    -9805    -9918   -10035 
  -10158   -10287   -10423   -10568   -10719   -10869   -11014   -11154 
  -11290   -11423   -11555   -11685   -11812   -11939   -12067   -12190 
  -12306   -12417   -12522   -12626   -12738   -12850   -12956   -13062 
  -13169   -13267   -13358   -13456   -13558   -13653   -13745   -13838 
  -13923   -14000   -14072   -14138   -14201   -14259   -14308   -14351 
  -14390   -14428   -14464   -14493   -14515   -14530   -14535   -14536 
  -14535   -14528   -14517   -14509   -14505   -14501   -14494   -14483 
  -14466   -14439   -14407   -14371   -14324   -14266   -14204   -14141 
  -14074   -14005   -13931   -13849   -13762   -13670   -13569   -13461 
  -13354   -13245   -13131   -13018   -12906   -12794   -12690   -12593 
  -12507   -12434   -12373   -12318   -12271   -12234   -12205   -12180 
  -12155   -12131   -12115   -12106   -12102   -12109   -12123   -12140 
  -12159   -12182   -12205   -12226   -12243   -12254   -12263   -12270 
  -12279   -12289   -12301   -12319   -12344   -12370   -12400   -12433 
  -12468   -12507   -12550   -12593   -12642   -12695   -12747   -12803 
  -12863   -12924   -12990   -13055   -13116   -13177   -13244   -13311 
  -13376   -13443   -13513   -13587   -13664   -13742   -13824   -13908 
  -13990   -14067   -14142   -14217   -14294   -14369   -14444   -14522 
  -14603   -14680   -14753   -14821   -14882   -14930   -14968   -15000 
  -15027   -15049   -15064   -15071   -15071   -15060   -15038   -15011 
  -14974   -14926   -14873   -14816   -14746   -14665   -14578   -14484 
  -14383   -14276   -14164   -14048   -13930   -13805   -13665   -13519 
  -13366   -13196   -13014   -12824   -12624   -12416   -12195   -11962 
  -11723   -11480   -11230   -10976   -10719   -10461   -10201    -9941 
   -9682    -9426    -9182    -8953    -8735    -8531    -8344    -8171 
   -8012    -7868    -7736    -7609    -7492    -7382    -7280    -7193 
   -7121    -7063    -7020    -6990    -6973    -6966    -6966    -6974 
   -6991    -7018    -7049    -7079    -7116    -7166    -7222    -7284 
   -7356    -7437    -7527    -7622    -7721    -7826    -7939    -8055 
   -8175    -8301    -8436    -8579    -8725    -8873    -9021    -9171 
   -9323    -9470    -9607    -9737    -9866    -9995   -10119   -10238 
  -10353   -10461   -10560   -10656   -10753   -10850   -10948   -11052 
  -11161   -11275   -11395   -11515   -11632   -11750   -11873   -12002 
  -12134   -12268   -12406   -12551   -12703   -12862   -13024   -13187 
  -13351   -13518   -13691   -13867   -14042   -14226   -14417   -14607 
  -14797   -14989   -15182   -15372   -15553   -15728   -15899   -16068 
  -16232   -16393   -16553   -16713   -16870   -17023   -17167   -17303 
  -17432   -17556   -17676   -17789   -17891   -17984   -18073   -18153 
  -18222   -18280   -18328   -18362   -18379   -18374   -18352   -18313 
  -18255   -18182   -18094   -17989   -17864   -17719   -17556   -17379 
  -17192   -16990   -16768   -16528   -16282   -16030   -15762   -15487 
  -15212   -14933   -14649   -14367   -14082   -13793   -13503   -13212 
  -12921   -12636   -12354   -12070   -11785   -11510   -11238   -10964 
  -10697   -10442   -10196    -9962    -9744    -9539    -9346    -9169 
   -9004    -8848    -8703    -8570    -8447    -8333    -8231    -8144 
   -8061    -7984    -7917    -7854    -7796    -7747    -7706    -7669 
   -7637    -7610    -7588    -7572    -7558    -7547    -7544    -7551 
   -7559    -7573    -7593    -7620    -7656    -7699    -7747    -7803 
   -7866    -7929    -7993    -8064    -8145    -8230    -8313    -8399 
   -8494    -8595    -8702    -8817    -8940    -9069    -9201    -9335 
   -9472    -9614    -9757    -9900   -10043   -10186   -10334   -10483 
  -10626   -10762   -10899   -11039   -11171   -11293   -11410   -11522 
  -11630   -11731   -11823   -11909   -11991   -12063   -12128   -12193 
  -12259   -12327   -12397   -12465   -12533   -12603   -12677   -12746 
  -12807   -12864   -12921   -12977   -13029   -13082   -13137   -13194 
  -13250   -13308   -13368   -13427   -13481   -13536   -13593   -13650 
  -13708   -13769   -13829   -13891   -13957   -14024   -14091   -14158 
  -14222   -14281   -14333   -14379   -14421   -14462   -14506   -14546 
  -14585   -14623   -14656   -14683   -14707   -14733   -14757   -14776 
  -14790   -14799   -14799   -14795   -14786   -14771   -14752   -14729 
  -14700   -14665   -14624   -14575   -14519   -14456   -14382   -14300 
  -14210   -14111   -14006   -13896   -13784   -13672   -13561   -13445 
  -13332   -13224   -13118   -13017   -12921   -12829   -12748   -12679 
  -12614   -12547   -12482   -12421   -12362   -12304   -12249   -12197 
  -12148   -12106   -12067   -12027   -11995   -11968   -11938   -11912 
  -11888   -11861   -11831   -11800   -11770   -11743   -11720   -11694 
  -11670   -11655   -11649   -11641   -11631   -11621   -11608   -11595 
  -11580   -11556   -11528   -11500   -11468   -11429   -11383   -11332 
  -11275   -11206   -11126   -11035   -10936   -10829   -10714   -10592 
  -10467   -10344   -10221   -10097    -9972    -9848    -9724    -9599 
   -9477    -9363    -9257    -9161    -9067    -8975    -8890    -8812 
   -8733    -8657    -8589    -8531    -8483    -8443    -8413    -8394 
   -8387    -8389    -8401    -8420    -8448    -8483    -8521    -8562 
   -8611    -8672    -8746    -8827    -8911    -9007    -9116    -9234 
   -9360    -9496    -9638    -9787    -9941   -10096   -10255   -10424 
  -10594   -10759   -10925   -11097   -11277   -11456   -11635   -11822 
  -12014   -12205   -12396   -12589   -12790   -12994   -13194   -13391 
  -13588   -13787   -13983   -14167   -14341   -14511   -14677   -14830 
  -14969   -15104   -15233   -15350   -15458   -15558   -15653   -15749 
  -15837   -15909   -15974   -16036   -16094   -16143   -16179   -16211 
  -16242   -16266   -16277   -16276   -16273   -16268   -16255   -16234 
  -16213   -16194   -16171   -16141   -16109   -16083   -16058   -16028 
  -15997   -15970   -15946   -15921   -15893   -15862   -15832   -15806 
  -15778   -15738   -15689   -15632   -15565   -15482   -15382   -15274 
  -15158   -15027   -14884   -14733   -14570   -14397   -14215   -14018 
  -13813   -13611   -13404   -13181   -12952   -12723   -12496   -12266 
  -12032   -11796   -11559   -11322   -11086   -10843   -10604   -10371 
  -10138    -9906    -9682    -9469    -9266    -9068    -8870    -8681 
   -8504    -8332    -8158    -7988    -7829    -7679    -7530    -7380 
   -7233    -7096    -6966    -6843    -6726    -6620    -6530    -6447 
   -6363    -6287    -6225    -6176    -6139    -6111    -6098    -6099 
   -6113    -6140    -6179    -6231    -6302    -6381    -6467    -6569 
   -6687    -6820    -6966    -7123    -7293    -7476    -7669    -7865 
   -8062    -8267    -8481    -8696    -8914    -9140    -9373    -9611 
   -9849   -10087   -10330   -10581   -10834   -11083   -11336   -11597 
  -11859   -12115   -12368   -12623   -12881   -13135   -13377   -13612 
  -13849   -14085   -14313   -14528   -14738   -14946   -15144   -15332 
  -15511   -15683   -15851   -16008   -16145   -16273   -16397   -16509 
  -16601   -16676   -16740   -16797   -16846   -16878   -16898   -16918 
  -16937   -16942   -16933   -16918   -16894   -16856   -16804   -16737 
  -16665   -16587   -16494   -16386   -16267   -16143   -16013   -15873 
  -15722   -15567   -15415   -15259   -15097   -14935   -14782   -14634 
  -14481   -14325   -14173   -14027   -13883   -13737   -13589   -13447 
  -13311   -13174   -13034   -12896   -12761   -12627   -12489   -12346 
  -12207   -12077   -11949   -11817   -11691   -11577   -11468   -11357 
  -11250   -11154   -11065   -10977   -10887   -10797   -10711   -10628 
  -10541   -10449   -10358   -10274   -10190   -10097    -9999    -9905 
   -9818    -9726    -9628    -9531    -9444    -9362    -9279    -9193 
   -9112    -9034    -8955    -8877    -8808    -8755    -8713    -8677 
   -8649    -8636    -8640    -8652    -8664    -8680    -8712    -8755 
   -8799    -8844    -8898    -8963    -9032    -9096    -9160    -9231 
   -9310    -9384    -9451    -9519    -9592    -9669    -9744    -9813 
   -9881    -9958   -10037   -10109   -10175   -10247   -10326   -10402 
  -10472   -10543   -10618   -10699   -10776   -10846   -10920   -11000 
  -11079   -11151   -11219   -11289   -11363   -11428   -11487   -11550 
  -11619   -11684   -11742   -11799   -11860   -11923   -11980   -12027 
  -12075   -12129   -12180   -12225   -12267   -12311   -12364   -12418 
  -12466   -12515   -12573   -12636   -12690   -12736   -12786   -12842 
  -12892   -12930   -12971   -13021   -13072   -13117   -13152   -13187 
