Origin Time       2015/02/17 08:06:00
Lat.              39.872
Long.             143.192
Depth. (km)       13
Mag.              6.9
Station Code      NIGH02
Station Lat.      38.2799
Station Long.     139.5486
Station Height(m) -70.5
Record Time       2015/02/17 08:07:28
Sampling Freq(Hz) 100Hz
Duration Time(s)  273
Dir.              1
Scale Factor      2940(gal)/6170270
Max. Acc. (gal)   2.125
Last Correction   2015/02/17 08:07:13
Memo.             
[...]
    2162     2083     2010     1939     1869     1807     1760     1730 
    1718     1723     1740     1769     1803     1835     1863     1881 
    1890     1896     1903     1906     1905     1901     1890     1872 
    1855     1840     1829     1818     1805     1788     1776     1774 
    1779     1791     1808     1825     1841     1861     1887     1921 
    1965     2014     2064     2111     2149     2174     2189     2199 
    2211     2227     2249     2282     2327     2376     2423     2465 
    2501     2531     2558     2584     2606     2628     2652     2678 
    2699     2715     2721     2714     2699     2677     2654     2638 
    2630     2628     2635     2652     2679     2720     2772     2834 
    2892     2936     2966     2984     3000     3020     3040     3058 
    3069     3074     3075     3076     3081     3089     3098     3100 
    3091     3071     3039     2998     2956     2916     2877     2837 
    2798     2767     2748     2741     2741     2738     2733     2726 
    2712     2698     2690     2689     2696     2713     2735     2752 
    2764     2775     2788     2806     2823     2840     2856     2866 
    2869     2874     2885     2904     2931     2962     2993     3029 
    3068     3106     3150     3201     3255     3309     3359     3403 
    3444     3486     3521     3545     3565     3582     3595     3608 
    3625     3643     3656     3665     3667     3657     3635     3606 
    3576     3546     3513     3477     3435     3384     3324     3251 
    3172     3095     3021     2958     2908     2864     2822     2787 
    2759     2736     2726     2736     2767     2815     2876     2942 
    3004     3055     3094     3125     3150     3176     3207     3245 
    3290     3332     3376     3423     3474     3525     3575     3623 
    3666     3698     3723     3740     3744     3728     3692     3644 
    3583     3508     3423     3329     3226     3120     3020     2927 
    2842     2767     2699     2640     2595     2560     2533     2510 
    2483     2454     2427     2403     2384     2372     2366     2368 
    2380     2401     2434     2481     2536     2598     2659     2713 
    2756     2786     2794     2784     2763     2737     2706     2667 
    2628     2591     2554     2524     2511     2516     2534     2561 
    2591     2621     2652     2678     2694     2696     2683     2658 
    2625     2585     2542     2493     2444     2394     2338     2275 
    2212     2154     2101     2060     2040     2043     2067     2109 
    2167     2232     2297     2357     2415     2473     2530     2583 
    2627     2662     2690     2714     2740     2770     2806     2855 
    2920     2994     3074     3152     3225     3291     3349     3397 
    3435     3463     3482     3490     3492     3489     3478     3451 
    3406     3343     3263     3173     3082     2995     2910     2827 
    2745     2658     2567     2475     2382     2293     2209     2127 
    2051     1984     1926     1884     1855     1837     1831     1834 
    1846     1868     1904     1948     1994     2040     2086     2131 
    2172     2216     2266     2323     2376     2424     2467     2496 
    2513     2522     2521     2512     2495     2473     2446     2413 
    2375     2328     2271     2201     2118     2022     1923     1833 
    1755     1696     1651     1611     1574     1542     1518     1504 
    1503     1518     1545     1574     1598     1612     1617     1618 
    1619     1623     1631     1640     1650     1656     1656     1653 
    1644     1629     1612     1595     1581     1574     1570     1566 
    1567     1573     1576     1574     1569     1565     1567     1579 
    1598     1626     1663     1701     1739     1778     1812     1843 
    1870     1890     1896     1891     1885     1877     1864     1851 
    1834     1807     1769     1717     1655     1589     1520     1448 
    1380     1318     1268     1225     1188     1158     1128     1096 
    1067     1044     1031     1023     1018     1016     1020     1034 
    1062     1100     1144     1198     1257     1315     1366     1411 
    1448     1484     1526     1575     1630     1695     1771     1850 
    1935     2025     2109     2186     2259     2323     2383     2445 
    2507     2573     2640     2703     2756     2803     2846     2884 
    2917     2944     2959     2959     2944     2914     2876     2838 
    2807     2786     2771     2761     2749     2728     2705     2682 
    2655     2625     2597     2578     2570     2577     2601     2640 
    2688     2738     2781     2819     2858     2903     2952     2999 
    3040     3079     3114     3148     3184     3220     3248     3266 
    3279     3286     3286     3278     3262     3250     3250     3263 
    3284     3314     3351     3395     3447     3504     3558     3605 
    3645     3681     3723     3777     3847     3929     4021     4115 
    4201     4273     4317     4331     4316     4274     4215     4152 
    4091     4029     3964     3897     3829     3762     3705     3660 
    3617     3568     3515     3458     3391     3315     3235     3162 
    3108     3078     3073     3088     3115     3150     3190     3233 
    3279     3324     3364     3399     3438     3490     3560     3652 
    3768     3900     4038     4179     4320     4450     4560     4648 
    4717     4769     4806     4834     4863     4894     4931     4976 
    5023     5063     5092     5110     5118     5117     5106     5083 
    5051     5008     4962     4929     4915     4919     4939     4969 
    4994     5006     5002     4983     4954     4921     4893     4876 
    4874     4889     4923     4970     5023     5071     5103     5122 
    5128     5120     5103     5079     5047     5007     4965     4919 
    4875     4840     4812     4790     4775     4760     4737     4704 
    4660     4609     4555     4508     4464     4419     4374     4326 
    4273     4214     4143     4059     3961     3861     3763     3670 
    3588     3516     3454     3401     3362     3338     3327     3320 
    3315     3310     3301     3282     3253     3218     3178     3127 
    3072     3012     2940     2859     2769     2667     2559     2453 
    2354     2262     2174     2090     2009     1929     1853     1786 
    1737     1702     1676     1660     1649     1640     1633     1632 
    1635     1643     1658     1684     1717     1750     1778     1799 
    1811     1819     1831     1845     1852     1852     1846     1824 
    1783     1726     1647     1546     1429     1304     1180     1060 
     944      834      727      625      533      455      386      324 
     265      205      144       82       17      -44      -95     -133 
    -155     -155     -138     -107      -65      -12       49      113 
     180      246      306      358      400      434      460      477 
     485      489      493      501      517      538      561      591 
     632      683      749      834      931     1031     1124     1206 
    1275     1329     1368     1393     1404     1402     1389     1369 
    1342     1314     1287     1258     1233     1218     1210     1208 
    1216     1234     1267     1312     1370     1442     1523     1612 
    1717     1840     1974     2117     2263     2408     2550     2689 
    2826     2953     3069     3179     3282     3372     3453     3527 
    3595     3657     3710     3750     3771     3773     3762     3739 
    3709     3675     3634     3579     3518     3452     3379     3303 
    3231     3157     3082     3015     2952     2889     2828     2769 
    2710     2652     2593     2535     2481     2429     2381     2343 
    2312     2289     2268     2244     2218     2194     2174     2162 
    2159     2167     2185     2212     2248     2292     2341     2396 
    2454     2515     2583     2650     2716     2788     2864     2938 
    3008     3072     3137     3204     3273     3343     3410     3475 
    3534     3581     3616     3635     3629     3601     3554     3492 
    3413     3321     3216     3099     2984     2874     2775     2692 
    2632     2600     2602     2630     2673     2733     2809     2887 
    2958     3027     3088     3146     3208     3270     3325     3372 
    3410     3438     3456     3464     3461     3444     3411     3368 
    3318     3262     3213     3177     3147     3127     3118     3121 
    3132     3149     3170     3194     3211     3216     3212     3200 
    3184     3175     3188     3229     3295     3385     3491     3598 
    3699     3791     3871     3941     4006     4062     4105     4138 
    4156     4154     4134     4095     4040     3980     3917     3855 
    3798     3739     3673     3596     3509     3416     3325     3243 
    3167     3100     3042     2987     2930     2871     2806     2738 
    2670     2603     2543     2488     2439     2397     2361     2326 
    2289     2246     2200     2160     2130     2113     2112     2125 
    2147     2181     2223     2267     2315     2366     2418     2467 
    2508     2536     2554     2569     2589     2617     2650     2685 
    2718     2744     2765     2779     2785     2778     2754     2711 
    2650     2576     2492     2406     2322     2242     2166     2095 
    2031     1972     1920     1878     1851     1845     1865     1914 
    1991     2093     2221     2376     2549     2721     2881     3019 
    3132     3223     3296     3351     3392     3423     3446     3466 
    3490     3519     3556     3604     3653     3702     3755     3803 
    3836     3858     3875     3893     3912     3926     3932     3934 
    3927     3914     3897     3886     3884     3895     3919     3959 
    4018     4102     4212     4340     4480     4624     4765     4902 
    5031     5147     5252     5346     5422     5477     5509     5524 
    5531     5535     5544     5558     5575     5602     5635     5673 
    5718     5762     5803     5844     5879     5904     5916     5916 
    5903     5880     5846     5800     5738     5658     5560     5444 
    5313     5176     5032     4882     4736     4599     4477     4369 
    4266     4158     4039     3911     3770     3614     3451     3288 
    3125     2965     2813     2666     2524     2384     2235     2081 
    1928     1774     1624     1478     1337     1202     1074      959 
     862      778      703      639      582      532      491      455 
     429      412      406      416      445      487      539      591 
     630      648      638      594      522      428      315      186 
      45     -103     -260     -421     -583     -750     -915    -1078 
   -1241    -1388    -1507    -1600    -1666    -1698    -1700    -1674 
   -1623    -1556    -1474    -1373    -1266    -1151    -1023     -888 
    -743     -588     -435     -282     -123       41      208      374 
     535      687      833      976     1113     1241     1362     1472 
    1570     1663     1757     1848     1931     2005     2070     2125 
    2167     2194     2207     2213     2220     2229     2242     2266 
    2304     2355     2416     2485     2559     2631     2698     2762 
    2824     2884     2940     2997     3059     3121     3181     3236 
    3280     3310     3325     3318     3288     3241     3182     3118 
    3050     2979     2909     2850     2807     2780     2773     2792 
    2834     2893     2961     3039     3127     3211     3288     3371 
    3463     3557     3655     3745     3820     3888     3950     3999 
    4046     4095     4141     4181     4210     4225     4221     4194 
    4146     4086     4019     3945     3867     3789     3713     3640 
    3572     3510     3459     3421     3388     3357     3331     3320 
    3322     3339     3370     3412     3458     3498     3533     3570 
    3614     3657     3694     3717     3722     3704     3661     3593 
    3505     3407     3301     3184     3053     2915     2773     2625 
    2470     2311     2147     1983     1827     1685     1552     1420 
    1289     1161     1037      916      795      674      562      463 
     374      291      216      140       59      -28     -124     -233 
    -347     -460     -573     -689     -800     -903     -999    -1089 
   -1179    -1262    -1331    -1385    -1424    -1446    -1447    -1431 
   -1399    -1348    -1275    -1181    -1066     -927     -764     -581 
    -390     -193        6      200      389      580      771      956 
    1147     1344     1546     1758     1977     2200     2426     2650 
    2862     3062     3248     3420     3583     3744     3904     4065 
    4229     4396     4562     4724     4885     5044     5200     5351 
    5491     5618     5734     5837     5926     6007     6082     6152 
    6216     6273     6323     6362     6391     6417     6444     6468 
    6490     6509     6525     6544     6563     6584     6610     6638 
    6655     6662     6665     6662     6656     6649     6639     6625 
    6610     6601     6597     6599     6610     6628     6649     6673 
    6697     6716     6729     6738     6742     6744     6745     6743 
    6730     6710     6687     6656     6616     6571     6519     6459 
    6394     6320     6232     6130     6011     5878     5731     5564 
    5377     5168     4936     4682     4407     4105     3780     3433 
    3063     2681     2297     1914     1534     1164      810      475 
     156     -143     -419     -675     -909    -1118    -1303    -1458 
   -1582    -1672    -1728    -1757    -1764    -1752    -1723    -1685 
   -1641    -1588    -1533    -1480    -1427    -1378    -1333    -1290 
   -1250    -1209    -1163    -1117    -1074    -1036     -999     -961 
    -920     -874     -825     -766     -692     -611     -520     -410 
    -285     -152       -5      154      319      493      672      857 
    1047     1245     1445     1641     1833     2023     2211     2392 
    2560     2708     2831     2928     2997     3040     3070     3099 
    3131     3171     3219     3271     3325     3372     3409     3442 
    3472     3494     3509     3514     3508     3486     3449     3403 
    3356     3313     3281     3258     3242     3239     3250     3273 
    3306     3352     3420     3513     3623     3749     3891     4039 
    4178     4300     4405     4489     4556     4607     4642     4662 
    4670     4667     4658     4644     4624     4600     4568     4526 
    4474     4407     4331     4244     4143     4038     3937     3836 
    3742     3660     3584     3514     3444     3369     3293     3219 
    3150     3085     3031     2993     2962     2936     2916     2895 
    2869     2844     2817     2785     2747     2702     2644     2574 
    2494     2411     2324     2228     2128     2026     1916     1799 
    1681     1560     1440     1321     1202     1092      997      916 
     852      803      768      742      721      716      729      749 
     777      817      863      914      968     1016     1057     1095 
    1129     1155     1181     1210     1236     1255     1264     1266 
    1261     1250     1237     1222     1200     1180     1165     1151 
    1145     1147     1151     1160     1182     1212     1246     1288 
    1336     1381     1419     1451     1483     1514     1541     1573 
    1615     1662     1711     1770     1843     1925     2008     2095 
    2188     2279     2363     2445     2521     2590     2654     2711 
    2761     2806     2850     2892     2930     2971     3020     3070 
    3116     3161     3203     3239     3277     3319     3360     3401 
    3441     3477     3511     3544     3569     3582     3581     3566 
    3543     3520     3496     3469     3443     3425     3412     3402 
    3398     3405     3419     3435     3456     3484     3517     3556 
    3601     3653     3711     3776     3843     3910     3975     4034 
    4087     4130     4160     4174     4173     4159     4141     4115 
    4083     4054     4029     4008     3991     3975     3958     3944 
    3936     3935     3941     3948     3958     3970     3979     3987 
    3993     3994     3985     3971     3952     3926     3892     3846 
    3785     3713     3630     3542     3460     3383     3303     3220 
    3141     3070     3001     2932     2856     2771     2678     2581 
    2483     2389     2301     2220     2141     2056     1966     1873 
    1778     1682     1594     1516     1446     1379     1312     1251 
    1198     1151     1108     1070     1034      988      931      869 
     806      743      687      642      609      586      577      580 
     597      629      676      737      813      905     1013     1138 
    1278     1422     1561     1698     1836     1972     2111     2257 
    2408     2563     2726     2895     3067     3240     3416     3597 
    3778     3960     4141     4323     4511     4698     4880     5054 
    5223     5385     5538     5680     5806     5912     5997     6059 
    6098     6118     6120     6110     6091     6063     6030     5994 
    5951     5891     5815     5729     5631     5523     5406     5284 
    5160     5041     4931     4824     4723     4627     4531     4438 
    4345     4242     4131     4010     3879     3747     3620     3489 
    3359     3233     3104     2973     2842     2710     2579     2455 
    2331     2207     2092     1985     1884     1792     1703     1616 
    1531     1443     1348     1247     1148     1051      956      866 
     780      693      609      531      461      402      352      314 
     282      247      210      171      126       70        7      -62 
    -140     -224     -307     -391     -475     -552     -618     -673 
    -718     -759     -791     -813     -829     -843     -854     -864 
    -871     -870     -862     -849     -833     -810     -788     -773 
    -760     -748     -742     -736     -722     -701     -682     -667 
    -658     -650     -634     -607     -567     -515     -451     -383 
    -312     -234     -154      -80       -5       75      165      268 
     383      509      646      792      945     1099     1252     1398 
    1535     1664     1784     1887     1975     2047     2101     2142 
    2174     2196     2218     2240     2259     2275     2292     2311 
    2331     2357     2389     2420     2459     2511     2571     2640 
    2717     2800     2892     2996     3108     3228     3348     3464 
    3581     3701     3822     3955     4096     4242     4393     4545 
    4689     4826     4955     5074     5182     5283     5376     5455 
    5523     5589     5652     5710     5764     5810     5842     5866 
    5891     5919     5950     5988     6042     6108     6182     6264 
    6352     6439     6521     6597     6672     6739     6791     6833 
    6866     6886     6893     6890     6885     6879     6868     6852 
    6833     6803     6763     6714     6656     6589     6516     6442 
    6373     6301     6224     6148     6079     6012     5944     5875 
    5800     5714     5621     5524     5420     5314     5212     5107 
    5001     4895     4788     4674     4554     4426     4290     4144 
    3983     3811     3629     3434     3231     3019     2797     2567 
    2331     2089     1846     1601     1358     1118      879      638 
     399      167      -52     -260     -454     -632     -792     -931 
