Origin Time       2019/08/04 19:23:00
Lat.              37.707
Long.             141.632
Depth. (km)       45
Mag.              6.4
Station Code      TCGH10
Station Lat.      36.8578
Station Long.     140.0225
Station Height(m) 203
Record Time       2019/08/04 19:23:29
Sampling Freq(Hz) 100Hz
Duration Time(s)  254
Dir.              6
Scale Factor      7845(gal)/8223790
Max. Acc. (gal)   8.910
Last Correction   2019/08/04 19:23:14
Memo.             
[...]
   -5094    -2960    -1800    -2127    -3775    -5938    -6763    -5490 
   -3790    -3275    -3793    -4542    -4573    -3339    -1933    -1584 
   -1919    -2381    -2871    -2986    -2837    -3199    -4257    -5537 
   -6104    -5058    -2772     -606       18    -1641    -4401    -5919 
   -5132    -3221    -2319    -3083    -4425    -5317    -5297    -4486 
   -3767    -3819    -4471    -5175    -5440    -5445    -5705    -5778 
   -5026    -4153    -3925    -3771    -3370    -3514    -4224    -4387 
   -3975    -4168    -5123    -5908    -6016    -5408    -4318    -3466 
   -3565    -4571    -5464    -5379    -4918    -5067    -5606    -5887 
   -5884    -5672    -5128    -4214    -3006    -1912    -1597    -2043 
   -2705    -3407    -3785    -3323    -2797    -3350    -4465    -5049 
   -5012    -4322    -3117    -2698    -3735    -5533    -7033    -6697 
   -4754    -3622    -3782    -4010    -3784    -2921    -2241    -2818 
   -4180    -5767    -7021    -6525    -4595    -3260    -3028    -3312 
   -3898    -4396    -4460    -4105    -3415    -2785    -2814    -3430 
   -3894    -4052    -4260    -4309    -4078    -4001    -4234    -4517 
   -4509    -4287    -4226    -4241    -4199    -4345    -5009    -6093 
   -6249    -4220    -1296       24    -1080    -3456    -5352    -5927 
   -5152    -3138    -1166    -1102    -2899    -5009    -6412    -6932 
   -6592    -4920    -2035     -198    -1291    -4114    -6347    -6791 
   -5544    -3796    -2887    -3435    -5279    -7302    -7902    -6840 
   -5725    -5393    -5012    -4502    -4247    -3713    -3117    -3580 
   -5023    -6146    -6000    -4635    -2997    -2539    -3554    -4600 
   -4573    -3356    -1574     -951    -2378    -4652    -6247    -6207 
   -4341    -2168    -1825    -3375    -4973    -5440    -5076    -4704 
   -4727    -4912    -4962    -4785    -4653    -4716    -4396    -3701 
   -3456    -3298    -2419    -1588    -1904    -3087    -4234    -4818 
   -4428    -2928    -1408    -1444    -2987    -4575    -5551    -6170 
   -5904    -4340    -2725    -1926    -1449    -1487    -2505    -3738 
   -4234    -3939    -3281    -2735    -3121    -5080    -7249    -7423 
   -5707    -3798    -2968    -3724    -5053    -5418    -4995    -4606 
   -4326    -4248    -4464    -4652    -4369    -3383    -2439    -2781 
   -4121    -4932    -4411    -3056    -2069    -1921    -2018    -2216 
   -2771    -3269    -3565    -4311    -5422    -6008    -6084    -6200 
   -6440    -6754    -6635    -5447    -3758    -2660    -2465    -3281 
   -5356    -7630    -7920    -5614    -2292       28       49    -1782 
   -3754    -4973    -5283    -4611    -3645    -3042    -2824    -3312 
   -4513    -5607    -6205    -6223    -5684    -5458    -5800    -5645 
   -4864    -4433    -4417    -3921    -2886    -2605    -3736    -5440 
   -6687    -6637    -5468    -4733    -4808    -4685    -4183    -3542 
   -3021    -3231    -4143    -5201    -6026    -5946    -4652    -3315 
   -3146    -3703    -4201    -4731    -5325    -5730    -5832    -5605 
   -5367    -5516    -5923    -6318    -6592    -6434    -5412    -3801 
   -2448    -1556    -1206    -2033    -3767    -5012    -4881    -3736 
   -2651    -2178    -2079    -2376    -3261    -4253    -4608    -4105 
   -3424    -3708    -4966    -5745    -4881    -2909    -1597    -1950 
   -3030    -3719    -4244    -4819    -5089    -5012    -4550    -4075 
   -4739    -6377    -7269    -6673    -5283    -4085    -3858    -4531 
   -5151    -5314    -5335    -5059    -4374    -4000    -4378    -4841 
   -4668    -3921    -3095    -2720    -2605    -1761     -418      -76 
    -795    -1451    -1915    -2575    -3361    -4224    -5001    -5281 
   -5100    -4639    -3917    -3511    -3906    -4234    -3638    -3149 
   -4126    -5779    -6215    -5188    -4189    -4102    -4326    -4245 
   -3861    -3449    -3576    -4320    -4999    -5151    -4565    -3396 
   -2668    -3149    -4202    -4464    -3709    -3203    -3083    -2385 
   -2269    -3966    -5760    -6196    -5755    -4873    -4039    -3856 
   -3902    -3415    -2673    -2521    -2999    -3763    -4807    -5587 
   -5586    -5216    -4542    -3489    -2744    -2772    -3526    -4299 
   -4121    -3588    -3685    -3816    -3596    -3766    -4761    -6207 
   -7020    -6243    -4402    -3160    -3628    -5132    -5791    -5044 
   -4364    -4540    -4966    -5340    -5471    -5505    -6060    -6351 
   -5348    -3850    -2755    -1863     -814      -83     -638    -1899 
   -2403    -2241    -2022    -1749    -1896    -3187    -4978    -5560 
   -4634    -3287    -2038    -1516    -2431    -4033    -5186    -5526 
   -4941    -4021    -4271    -6068    -7368    -6581    -4993    -3931 
   -3059    -2616    -3554    -5675    -7275    -6974    -5813    -5652 
   -6177    -5894    -4631    -3636    -3616    -3586    -2972    -2945 
   -3586    -3565    -3364    -4190    -4919    -4144    -3038    -3457 
   -5115    -6462    -6949    -6806    -5871    -4144    -2623    -2874 
   -5278    -7797    -7987    -5819    -3334    -2574    -3924    -5570 
   -5533    -3969    -2180    -1283    -1819    -2459    -1792     -905 
    -750     -986    -1852    -3165    -4104    -4280    -3357    -2035 
   -1941    -3187    -4594    -5201    -4585    -3465    -3515    -5317 
   -7574    -8802    -8429    -6551    -3994    -2177    -2065    -3310 
   -5043    -6554    -6598    -4723    -2722    -2282    -3419    -5147 
   -5850    -5036    -3916    -3125    -2790    -3445    -4432    -4630 
   -4896    -5871    -5999    -4583    -2907    -2035    -2342    -3750 
   -5366    -6231    -6115    -4962    -3144    -2251    -3006    -3886 
   -4000    -4137    -4644    -5179    -5490    -5378    -4824    -3647 
   -2047    -1626    -3295    -5957    -8158    -8295    -5678    -2390 
   -1156    -3013    -7096   -10150    -8927    -4455    -1032     -959 
   -2852    -5038    -7061    -7993    -7349    -6110    -4650    -2933 
   -1919    -2282    -3839    -5756    -6666    -6295    -5487    -4356 
   -2880    -2037    -2436    -3396    -4179    -4652    -4700    -4253 
   -3554    -2752    -1788     -757     -291    -1102    -2755    -4121 
   -4799    -4922    -4753    -4617    -4409    -3983    -3889    -4499 
   -5134    -5217    -5227    -5624    -5956    -5539    -4498    -3659 
   -3554    -4090    -4553    -4016    -2817    -2330    -2997    -4255 
   -5397    -5845    -5437    -4212    -2556    -1607    -2123    -3643 
   -5271    -6400    -6750    -6187    -4851    -3492    -3038    -3443 
   -3624    -3481    -4243    -5583    -5823    -5116    -4428    -3595 
   -2839    -2995    -4059    -5385    -6025    -5310    -3958    -3173 
   -3337    -4149    -5012    -5320    -4303    -1831      549     1455 
     685    -1574    -3951    -4725    -4136    -3469    -3551    -4698 
   -6349    -7396    -7276    -6307    -5356    -5067    -5347    -5857 
   -6114    -5405    -3851    -2794    -3060    -3813    -4243    -4718 
   -5115    -4891    -4498    -4112    -3303    -2396    -2003    -2385 
   -3231    -3793    -4064    -4364    -4440    -4406    -4293    -3632 
   -3269    -4178    -4905    -4075    -2867    -2652    -3208    -4009 
   -5080    -6247    -6594    -5526    -3716    -2340    -2128    -3289 
   -5402    -7196    -7574    -6586    -4642    -2708    -2359    -3273 
   -3835    -4067    -4563    -4753    -3931    -3090    -3871    -5436 
   -6237    -6586    -6477    -5494    -4118    -2916    -2845    -4413 
   -6242    -7024    -7047    -7200    -7704    -7651    -6393    -4492 
   -2492     -927     -735    -1594    -2197    -2295    -2415    -2646 
   -2463    -1841    -1509    -1308    -1003    -1387    -2046    -2076 
   -2204    -2625    -2810    -3334    -4167    -4216    -3161    -1680 
   -1082    -2000    -3227    -3730    -3956    -4409    -4985    -5428 
   -5522    -5136    -4522    -4325    -4365    -3948    -3869    -4938 
   -5522    -4149    -2108    -1439    -2729    -4866    -6505    -7641 
   -8051    -6848    -4945    -3932    -3699    -3623    -3654    -4172 
   -5726    -7279    -6408    -3375    -1607    -2808    -5308    -7069 
   -7457    -6451    -4214    -2592    -3781    -6494    -7739    -6826 
   -4808    -2907    -2004    -2386    -4010    -6170    -7098    -5562 
   -2998    -1637    -1263    -1144    -2101    -3716    -4082    -3088 
   -2263    -2447    -3063    -2743    -1451    -1125    -2312    -3045 
   -2542    -2262    -3403    -5728    -7722    -7929    -6511    -4283 
   -2133    -1667    -3265    -4907    -5188    -4814    -4905    -5580 
   -5722    -4999    -4864    -5494    -5529    -4961    -4203    -2602 
    -224      954     -896    -4564    -6944    -6583    -4336    -1908 
    -303      338     -598    -3087    -4816    -4112    -2430    -1949 
   -3196    -5333    -7296    -8476    -8168    -5904    -3402    -3353 
   -5375    -6639    -6390    -5953    -5768    -5406    -4401    -2740 
   -1750    -2540    -4218    -5514    -6228    -6582    -6683    -6739 
   -7211    -7734    -6809    -4567    -3100    -3167    -4257    -6054 
   -7387    -7032    -5563    -4487    -4467    -4943    -5076    -4418 
   -3172    -2355    -2641    -3674    -5146    -6524    -6627    -5881 
   -6033    -6373    -5138    -3254    -2103    -1467    -1445    -2254 
   -3037    -2860    -1690     -444     -303    -1695    -4098    -6372 
   -7346    -6538    -4368    -2320    -2211    -4025    -5601    -5070 
   -2809    -1048    -1382    -3450    -6442    -9228    -9656    -6943 
   -3414    -1594    -1715    -3025    -4912    -6490    -6602    -4966 
   -3163    -2762    -3574    -5120    -6612    -6786    -5929    -4854 
   -3605    -2798    -2690    -2695    -3132    -4552    -6250    -7040 
   -6899    -6918    -7375    -7273    -6160    -4702    -3491    -2813 
   -2995    -3771    -4475    -4923    -5067    -4905    -4704    -4340 
   -3913    -4126    -4245    -2809     -824     -588    -2120    -3519 
   -3743    -2917    -1409      -91       93    -1061    -3366    -5505 
   -4965    -1973      356     1148     1121     -352    -2889    -4698 
   -5166    -4693    -4182    -4639    -5200    -4131    -1815      400 
    1926     1213    -3222    -9082   -12006   -10708    -7379    -4770 
   -4278    -5036    -5769    -6728    -7669    -7626    -6890    -6119 
   -5962    -6979    -7665    -6110    -2936      -72      468    -1749 
   -3969    -4043    -2906    -1827    -1420    -2111    -3522    -4504 
   -4577    -4212    -3037     -972     -340    -2421    -5140    -6349 
   -5093    -1722      967     1146      249     -862    -2408    -3480 
   -3707    -3854    -4806    -6999    -8351    -6062    -1536     1185 
    -126    -4406    -8100    -9126    -8488    -7335    -6110    -5157 
   -4918    -5944    -7591    -8438    -7836    -5674    -2749     -869 
   -1246    -3582    -6165    -7202    -6581    -5092    -3543    -3192 
   -4199    -5201    -5190    -3562    -1233     -988    -3200    -5452 
   -7018    -8530    -9180    -8276    -6579    -4234    -1026     1567 
    1501    -1545    -6023    -9591   -10319    -7762    -3079     1173 
    2493     1156    -1260    -3997    -5250    -4329    -3661    -3793 
   -2988    -1665    -1467    -2862    -4842    -5491    -3850     -589 
    2173     2019     -842    -4311    -6575    -5728    -2481     -915 
   -2515    -4854    -5760    -5053    -4078    -3636    -3797    -5907 
   -9972   -12341   -10368    -5778    -1977    -1028    -3044    -6285 
   -7765    -6351    -4746    -5015    -5783    -6065    -6463    -7269 
   -7716    -6269    -3717    -3653    -6867    -9448    -8467    -5817 
   -3743    -1003     2547     3339       91    -3377    -4234    -3855 
   -3834    -3875    -3167    -1582     -772    -2505    -5540    -6849 
   -5489    -3354    -1980    -1196    -1394    -3063    -5076    -6385 
   -7047    -6808    -5323    -4183    -5292    -6615    -4642     -603 
     895    -1178    -2241      360     2178      430    -2108    -5105 
   -8900   -10416    -8619    -5811    -4542    -5680    -7183    -6637 
   -4564    -3276    -3453    -4120    -5242    -6809    -7167    -5432 
   -3634    -4132    -5541    -4947    -3335    -3331    -4571    -5255 
   -4953    -4592    -4371    -3674    -3067    -2403     -765      549 
     654      -66    -2285    -5437    -7928    -9462    -9630    -8255 
   -6569    -5949    -6718    -7801    -8055    -7484    -6625    -6265 
   -6646    -6783    -5904    -4210    -2285     -965     -873    -1848 
   -3379    -4838    -5360    -4824    -4217    -4432    -5810    -7744 
   -8417    -7257    -6307    -6966    -7821    -7049    -5185    -4463 
   -5568    -6685    -6165    -4002    -1321      530     1624     2529 
    2305      733     -642    -1178    -1269    -1108     -741     -195 
     417     1093     1289     -311    -3273    -5023    -4934    -4742 
   -4865    -4949    -5414    -5726    -4837    -3599    -3834    -5059 
   -5367    -4708    -3361     -800      954     -658    -3604    -5004 
   -5373    -4865    -3434    -3898    -6794    -7410    -3697     -311 
    -982    -3256    -4576    -5914    -6654    -5725    -4877    -5142 
   -7017    -9856    -9757    -6536    -4706    -5011    -5192    -4630 
   -3360    -1637     -237      514      129    -2768    -7079    -8575 
   -6308    -3038     -226     1366      549    -3009    -7665    -9833 
   -7828    -3504      475     1626       -4    -1202    -1148    -1624 
   -2228    -1607     -486     -294     -947    -1769    -2992    -4571 
   -5713    -5907    -5115    -4472    -5649    -8619   -11884   -13502 
  -12405    -9922    -7708    -6133    -5624    -5948    -5844    -5080 
   -4538    -4314    -3553    -2917    -4233    -6532    -7388    -6490 
   -4249    -1917    -1979    -4430    -6790    -7308    -5320    -2550 
   -2604    -5043    -6042    -5189    -5043    -6443    -7130    -4588 
    -274     1632       13    -2257    -3171    -3194    -2335     -500 
     838      371    -2525    -7419   -11410   -12063    -9748    -5701 
   -1563      781     1012       82    -1394    -3006    -3997    -4077 
   -3700    -3631    -4765    -6465    -6664    -5273    -3728    -2041 
    -137      122    -2249    -5108    -6320    -5844    -4233    -2648 
   -2282    -2925    -4637    -7159    -8046    -6608    -4980    -3877 
   -3535    -4884    -6585    -6342    -4529    -3349    -3915    -5394 
   -6455    -6354    -5474    -5467    -6914    -7884    -6902    -5221 
   -4541    -4380    -3715    -3333    -3977    -4418    -3192     -924 
     479      353     -527     -540      989     2034      947    -1890 
   -5198    -6930    -6461    -5135    -4293    -4992    -6991    -8233 
   -7076    -3920     -990       16     -325    -1232    -2496    -3358 
   -3578    -3253    -1933     -942    -2226    -4195    -4672    -4421 
   -3794    -2412    -2026    -3731    -5791    -7011    -7538    -7051 
   -6112    -5825    -4974    -2666    -2006    -5684   -10174   -10249 
   -7195    -5584    -6079    -6960    -6964    -6102    -6219    -7414 
   -7739    -7738    -8613    -9224    -8136    -5822    -4716    -5686 
   -6899    -7655    -7253    -3977      391     1622    -1657    -6804 
   -9429    -7709    -4637    -3920    -5517    -7133    -7650    -7308 
   -6204    -4480    -2991    -2451    -3040    -4171    -4225    -3260 
   -3433    -4573    -4772    -3912    -1979      892     2215      878 
    -912    -1926    -2011     -456     1364     1209     -183     -810 
    -287       56    -1163    -3078    -3855    -3802    -3642    -2659 
   -1154     -305     -378    -1540    -2971    -3302    -3434    -4186 
   -4303    -3441    -2710    -2907    -3987    -5613    -7319    -8156 
   -7871    -6940    -5537    -4719    -5348    -6018    -5254    -3740 
   -3295    -4483    -5836    -6122    -5362    -4240    -4711    -7408 
   -9394    -8567    -6031    -3385    -1663    -1404    -2331    -3146 
   -2355     -675     -621    -3292    -7177    -8857    -5942     -810 
    1475     -603    -3793    -5022    -4997    -5456    -5077    -2648 
   -1718    -4608    -7044    -6254    -5287    -6249    -8375   -10365 
  -10273    -7603    -5185    -5343    -6756    -7133    -5776    -3225 
   -1262    -1927    -4367    -5140    -2982     -314      556     -221 
   -1517    -2994    -4456    -4691    -3300    -1813    -1663    -2934 
   -3821    -2035      916     1333     -383    -1362    -1166    -1370 
   -3434    -5732    -4984    -2385    -1170    -1499    -2627    -3709 
   -3970    -4828    -7302    -9167    -8089    -5555    -5049    -6878 
   -8210    -7561    -6407    -6065    -5702    -5161    -5454    -6655 
   -8792   -11011   -11242    -9807    -7938    -5250    -3191    -3936 
   -6350    -8507    -8980    -6747    -4453    -4226    -3402    -1705 
   -2265    -4530    -5401    -3666     -568     1066     -168    -2635 
   -4367    -4769    -3983    -2076     1036     3855     3867     1741 
     394      -39     -689     -962     -679     -237      105    -1044 
   -3268    -3554    -1957    -1294    -2589    -4997    -6272    -4716 
   -2490    -1907    -2335    -3936    -6663    -7847    -6833    -5991 
   -5699    -4549    -3092    -2465    -2334    -2934    -4290    -4376 
   -2377     -409     -953    -4145    -7257    -7731    -5439    -2335 
   -1351    -3084    -5356    -7009    -8135    -8082    -6207    -3665 
   -2926    -4696    -6886    -7380    -6205    -4861    -4826    -6617 
   -8310    -6793    -2941     -900    -1827    -3677    -4533    -3510 
   -1900    -2122    -3619    -3979    -3168    -2544    -2722    -3603 
   -4407    -5154    -6652    -8091    -8370    -7713    -6515    -6107 
   -7366    -8112    -7203    -6362    -6083    -6740    -9595   -12375 
  -11352    -7464    -4375    -4006    -5752    -6878    -5787    -4028 
   -2720    -1968    -2733    -5040    -7634    -9445    -9576    -8010 
   -6041    -4657    -3973    -4189    -4807    -4602    -3730    -2756 
   -1424     -583    -1480    -3510    -5316    -5875    -4517    -2145 
    -677     -540    -1062    -2103    -3311    -3811    -3526    -3019 
   -2320    -1598    -1444    -1652    -1680    -1387    -1275    -2578 
   -4808    -5522    -4163    -2536    -2363    -4074    -6567    -8060 
   -7202    -4064     -715      544     -868    -4033    -6879    -7219 
   -5691    -4756    -4635    -4915    -6073    -6756    -5665    -4302 
   -4122    -5169    -7188    -8533    -7689    -6394    -6259    -6158 
   -5883    -6550    -7707    -7731    -5665    -2587     -862    -1491 
   -4001    -6790    -7060    -4093     -337     1975     2052      562 
     -86      731      432    -1636    -3424    -4368    -4175    -2781 
   -2884    -4908    -5228    -3036     -140     2350     2582      276 
   -1876    -2590    -2475    -1683     -452      140     -236     -866 
   -1800    -3059    -3931    -4326    -4618    -4865    -4527    -3500 
   -2894    -3281    -4149    -4483    -3192    -1140     -724    -2459 
   -4310    -4318    -3148    -3025    -4612    -6659    -7047    -4837 
   -1983     -382     -278    -2193    -5013    -5778    -4172    -2116 
   -1204    -2282    -4344    -5522    -5147    -4197    -4266    -5071 
   -5335    -5301    -5740    -6531    -6721    -5790    -4730    -4515 
   -5094    -6269    -7538    -7955    -6983    -5204    -4245    -4826 
   -5472    -4931    -3977    -3591    -3681    -3942    -3969    -3376 
