Origin Time       2019/08/04 19:23:00
Lat.              37.707
Long.             141.632
Depth. (km)       45
Mag.              6.4
Station Code      TCGH10
Station Lat.      36.8578
Station Long.     140.0225
Station Height(m) 71
Record Time       2019/08/04 19:23:29
Sampling Freq(Hz) 100Hz
Duration Time(s)  254
Dir.              1
Scale Factor      2942(gal)/8224139
Max. Acc. (gal)   7.150
Last Correction   2019/08/04 19:23:14
Memo.             
[...]
  164347   164558   164708   164643   164601   164687   164849   165075 
  165044   164891   165208   165654   165559   165141   164852   164698 
  164520   164338   164270   164370   164748   165518   166252   166333 
  165897   165474   165188   165045   165154   165311   165273   165307 
  165538   165549   165226   164972   164879   164724   164519   164370 
  164126   163719   163595   164033   164566   164906   165306   165655 
  165508   165052   164826   164790   164907   165385   165680   165303 
  164930   165152   165545   165659   165713   165921   166002   165856 
  165777   165769   165657   165516   165499   165596   165630   165492 
  165264   165106   165145   165268   165190   164821   164470   164447 
  164593   164589   164462   164582   165114   165609   165708   165643 
  165613   165445   165122   164933   165006   165161   165275   165404 
  165497   165508   165530   165582   165748   165977   166017   165990 
  166027   165778   165164   164700   164600   164644   164828   165076 
  164976   164629   164566   164650   164424   164128   164323   164855 
  165153   165175   165100   164983   164916   164901   165015   165431 
  165967   166232   166226   166290   166379   166132   165631   165318 
  165264   165202   165121   165153   165095   164863   164774   164844 
  164948   165156   165163   164821   164620   164709   164803   164764 
  164592   164355   164127   164020   164145   164367   164629   164959 
  165199   165333   165423   165449   165523   165565   165450   165491 
  165730   165821   165738   165561   165292   165125   165105   165090 
  165129   165214   165238   165192   165122   165176   165323   165375 
  165457   165551   165314   164909   164678   164498   164401   164570 
  164949   165285   165165   164659   164255   163998   163769   163733 
  163918   164204   164532   164814   165075   165396   165719   166067 
  166482   166811   166760   166220   165624   165296   165126   165226 
  165624   165909   165844   165609   165485   165412   165187   165010 
  164960   164832   164833   165010   164870   164523   164550   164830 
  164862   164555   164215   164020   163869   163807   163891   164008 
  164201   164479   164679   164867   165292   165786   165978   166155 
  166626   166860   166496   166062   165935   165835   165542   165253 
  165129   165134   165260   165391   165354   165169   164911   164718 
  164785   164836   164451   164050   164160   164448   164791   165592 
  166396   166442   166216   166306   166225   165704   165148   164808 
  164786   164937   164829   164430   164151   164300   164749   165014 
  165034   165152   165323   165484   165839   166203   166284   166248 
  166183   166059   166014   165969   165693   165265   164990   164906 
  164798   164776   164953   165038   164902   164802   164995   165362 
  165584   165589   165511   165511   165646   165755   165666   165361 
  165061   164943   164695   164246   164114   164370   164721   165119 
  165246   164866   164570   164785   165159   165500   165851   166021 
  165919   165657   165357   165218   165353   165597   165697   165640 
  165595   165493   165200   164916   164778   164617   164408   164353 
  164450   164505   164423   164192   164022   164290   164937   165468 
  165674   165780   165923   165873   165568   165464   165501   165083 
  164528   164524   164879   165179   165424   165658   165763   165767 
  165813   165888   165874   165662   165404   165470   165856   166078 
  165743   165053   164536   164438   164747   165300   165703   165736 
  165545   165168   164604   164249   164458   164806   164702   164388 
  164300   164112   163564   163148   163285   163756   164288   164866 
  165252   165345   165577   165974   166128   165998   165852   165726 
  165361   164911   164647   164332   163987   163914   163976   163923 
  163833   163865   163950   164004   164216   164610   164884   164987 
  164995   164714   164281   164276   164714   165138   165489   165707 
  165585   165342   165187   165098   165094   164971   164735   164727 
  164876   165095   165589   166351   167082   167412   167417   167432 
  167408   167256   166912   166282   165697   165524   165537   165357 
  164960   164459   164085   164057   164153   164114   164011   163945 
  163922   164015   164417   165082   165632   165923   166087   166023 
  165694   165596   165948   166333   166496   166521   166460   166217 
  165761   165416   165294   165045   164737   164763   164994   165065 
  164840   164488   164396   164563   164525   164101   163676   163764 
  164272   164542   164447   164512   164905   165345   165601   165543 
  165235   164948   164932   165256   165559   165576   165638   166006 
  166430   166592   166567   166714   167063   167184   166770   165962 
  165195   164893   164974   164974   164675   164154   163629   163320 
  163220   163213   163325   163756   164467   165056   165352   165531 
  165678   165715   165541   165153   164741   164524   164523   164592 
  164556   164578   164941   165365   165531   165659   165905   166095 
  166155   166152   165923   165352   164835   164559   164315   164191 
  164232   164241   164332   164633   164864   164816   164632   164504 
  164577   164836   164920   164585   164015   163483   163171   163200 
  163548   164002   164278   164462   164934   165547   165777   165794 
  166023   166329   166573   166708   166635   166522   166549   166649 
  166567   166166   165604   165024   164566   164454   164625   164705 
  164629   164728   165011   165127   165087   165231   165376   165184 
  165063   165295   165435   165092   164490   164435   165206   165888 
  165951   165875   165821   165703   165871   166442   166854   166816 
  166815   167019   167015   166787   166477   166117   165913   165796 
  165609   165586   165906   166463   166835   166708   166257   165585 
  164764   164030   163377   162841   162751   163194   163890   164570 
  165229   165831   166137   166160   166067   165838   165588   165476 
  165592   165883   166012   165900   165778   165732   165815   165842 
  165430   164686   164207   164169   164142   164169   164490   164428 
  163809   163701   164258   164446   164135   164064   164269   164467 
  164739   164798   164239   163645   163772   164145   164127   164189 
  164544   164678   164795   165156   165087   164498   164199   164280 
  164255   164297   164646   164824   164758   165132   165898   166185 
  165877   165700   165716   165395   164853   164413   163972   163563 
  163453   163795   164327   164619   164801   165227   165665   165780 
  165825   165970   165942   165784   165654   165418   165200   165213 
  165171   164836   164612   164943   165558   165942   166081   166179 
  166210   166109   165886   165445   164729   163858   163035   162629 
  162931   163626   164025   163941   163948   164479   165342   166136 
  166550   166641   166725   166841   166977   167161   167115   166784 
  166558   166619   166688   166465   166081   165836   165705   165488 
  165110   164666   164245   163809   163429   163220   163003   162704 
  162600   162832   163256   163614   163649   163363   163146   163314 
  163737   164180   164760   165595   166361   166739   166818   166734 
  166444   166108   165962   165645   164951   164477   164461   164515 
  164656   165150   165723   165929   165878   165825   165597   165165 
  165017   165222   165354   165400   165458   165357   165200   165082 
  164828   164597   164498   164205   163684   163213   162847   162633 
  162851   163444   164000   164632   165557   166472   167167   167486 
  167189   166656   166527   166669   166612   166471   166402   166105 
  165585   165238   165036   164716   164492   164717   165163   165335 
  165211   165042   164853   164590   164479   164731   165110   165299 
  165493   165998   166426   166276   165910   165761   165649   165483 
  165408   165416   165399   165330   165258   165215   165150   165010 
  164795   164529   164172   163732   163413   163317   163345   163512 
  163744   163869   164043   164521   165222   165797   165981   165873 
  165854   166206   166773   167024   166661   165905   165092   164430 
  163964   163636   163437   163262   163147   163556   164485   165238 
  165537   165640   165773   166083   166603   167042   166923   166201 
  165487   165240   165225   165059   164783   164735   164978   165176 
  165046   164543   163999   163926   164301   164776   165096   165025 
  164770   164740   164824   164768   164637   164629   164879   165298 
  165547   165430   165132   164971   165053   165292   165666   166109 
  166391   166461   166309   165829   165338   165157   165028   164794 
  164743   165030   165510   165974   166363   166706   166988   167216 
  167252   166819   166066   165373   164658   164018   163979   164539 
  165245   165844   166153   165996   165485   164903   164417   164100 
  163894   163773   163902   164268   164454   164101   163752   164299 
  165424   166120   166085   165564   165073   165268   165817   165635 
  164814   164338   164339   164292   164045   163896   164052   164559 
  165528   166716   167659   168536   169570   170340   170665   170679 
  170133   168901   167570   166743   166395   166283   166086   165574 
  165246   165708   166325   166193   165748   165507   165159   164833 
  164832   164864   164721   164412   163702   162579   161671   161553 
  162036   162557   162850   162785   162365   162167   162616   163413 
  164158   164502   164355   164450   165376   166584   167445   168058 
  168659   169146   169315   169191   168816   168309   168187   168488 
  168461   167873   167154   166580   166418   166621   166626   166229 
  165742   165477   165639   166191   166638   166311   165100   163734 
  163020   162885   162683   162132   161399   160901   161071   161649 
  162051   162434   163197   164305   165541   166556   166864   166360 
  165796   165927   166414   166711   167023   167535   168046   168358 
  168212   167647   166986   166118   165060   164280   163841   163678 
  163960   164571   165380   166456   167539   168180   168304   168245 
  168174   167822   166995   165813   164567   163533   162727   162125 
  161611   160945   160479   160636   160924   160902   160956   161358 
  161788   162174   162858   163570   163696   163406   163192   163221 
  163462   163637   163555   163547   163999   164671   165017   165105 
  165518   166340   167098   167697   168211   168404   168416   168824 
  169658   170444   170773   170364   169321   168230   167354   166279 
  164739   162934   160999   159038   157458   156504   156158   156581 
  157503   158298   159051   159846   160239   160535   161325   162417 
  163598   164781   165669   166232   166527   166426   166029   165735 
  165843   166283   166766   166927   166440   165600   165087   165130 
  165661   166325   166654   166702   166594   166193   165446   164374 
  163204   162228   161416   160583   159435   157882   156681   156776 
  158187   159921   160986   161493   161881   161873   161446   161183 
  161404   162333   164023   165558   166252   167143   169246   171815 
  173549   173962   173109   171468   170156   169641   168947   167528 
  166116   165341   165198   165096   164145   162333   160620   159748 
  159738   160338   161285   161970   161948   161682   161512   161265 
  161403   162523   164039   164764   164307   163169   161910   160932 
  160650   161248   162638   164479   166199   167518   168690   170186 
  172231   174366   175909   176786   177161   176967   176165   174908 
  173642   173001   172893   172251   170680   169055   167790   166730 
  166067   165690   165279   164944   164725   164562   164559   164586 
  164331   163467   161761   159799   158417   157549   156712   155625 
  154577   154207   154461   155098   156396   158214   160122   162216 
  164494   166541   168007   168768   169013   169076   169294   169812 
  170394   170954   171691   172423   172890   173488   174563   175851 
  176913   177134   176130   174310   172266   170345   168752   167806 
  167825   168061   167448   166311   165188   163926   162834   162429 
  162518   162592   162361   161856   161411   161231   161180   161127 
  161146   161420   161852   162137   162253   162183   162128   162723 
  163827   164582   164798   164662   164207   163919   164243   164928 
  165817   166955   168115   169182   170002   170244   169979   169979 
  171108   172966   173982   173469   172138   170816   169747   168488 
  166421   163691   160984   158923   158001   158151   158998   160589 
  162457   163578   163975   164300   164728   165342   166190   167154 
  168238   169499   170712   171188   170529   169285   168137   167424 
  167287   167015   165782   164434   164600   166657   169443   171625 
  173044   173904   173767   172270   169472   165723   161904   159194 
  158306   158903   160165   161777   163790   166216   168694   170047 
  169261   167058   165200   164308   163368   161399   158568   156057 
  155507   157250   159409   160118   159544   159270   160466   162870 
  165704   168332   169821   169391   167244   164560   162626   161927 
  162452   163900   165538   166853   167780   168642   169902   171235 
  171756   171131   169654   167807   166094   164884   164033   163408 
  163669   165002   166175   166259   165754   165555   165809   165797 
  164817   163173   161827   160948   159648   157300   154064   150346 
  146989   145204   145161   146053   147441   148971   150326   151765 
  153200   154033   154512   155645   157677   159714   161049   162282 
  164263   166846   169676   172465   174386   175201   175986   177292 
  178086   177508   176476   176293   176463   175752   174463   173686 
  173932   175028   175745   174771   172683   170885   169153   166486 
  163074   159763   157081   155348   154171   152694   151224   150561 
  150561   151204   152550   153634   153763   153692   154720   156941 
  159200   161276   163814   166390   168195   169312   170344   171551 
  172539   173151   173915   174756   174907   174344   173827   173693 
  173678   174168   175774   177554   178351   178552   178561   178058 
  177175   176160   174874   173616   172786   171984   170496   168185 
  165375   162348   159376   156616   154471   154134   156168   159328 
  162128   164338   166280   167895   169226   170710   171995   171748 
  169738   167364   165658   164655   164334   164689   165558   166882 
  168234   168851   168972   169306   169812   170488   171235   171418 
  171705   173529   175861   176085   173742   170386   167281   165507 
  165711   166542   166112   164467   162658   160905   158965   157316 
  156721   157172   158268   159914   162044   164131   165657   167013 
  168967   171524   173476   173256   171022   168524   166835   165937 
  165886   166490   166518   165234   163285   161036   158576   156774 
  156764   158930   162328   165500   167375   167328   165889   164624 
  164207   164114   164008   163561   161735   157723   152300   147648 
  145497   145683   146784   147893   149285   151120   152471   153002 
  154121   156876   160652   163868   165133   165195   165858   166846 
  166942   166172   165034   164061   164000   165038   166415   166877 
  165538   163011   161376   161732   162475   162226   162147   162904 
  163309   162920   162336   161862   161886   162757   163618   163119 
  161624   160898   161419   162353   163339   164018   163927   163842 
  164705   166017   166989   167611   168025   168153   168239   168843 
  170158   172000   173758   174401   173935   173557   173668   173446 
  172318   170824   169805   169144   168124   166683   165545   164986 
  164297   162765   160066   156351   152664   150151   149158   149943 
  152787   156807   160261   162388   163795   165476   168131   171481 
  174556   176944   178673   179871   180856   181612   181683   180944 
  179861   178393   175425   170452   164983   161049   159048   158174 
  157862   157639   156887   155649   154646   154566   155862   158307 
  160849   162621   163368   162955   161522   160137   159841   159781 
  158626   157022   156062   155718   156432   159472   164972   171023 
  175230   176740   176296   175244   174744   174834   174753   174640 
  175521   176874   176531   174182   171645   169352   166232   162186 
  158148   154920   152911   151974   151572   151468   151704   152622 
  155150   159170   162618   164285   165190   166241   167194   167667 
  167309   166016   164783   164745   165897   168091   171185   174190 
  176192   176870   176204   174799   173186   171099   168575   166257 
  164073   161249   157574   153866   151483   151195   152374   153797 
  154907   156139   158222   161076   163688   165079   165570   166475 
  167737   167976   167217   166823   167539   169407   171879   173678 
  174158   173799   173076   172228   171440   170754   170349   170338 
  170376   169765   167672   163977   160010   157389   156420   156622 
  157801   159494   160945   161527   160774   159675   160099   161866 
  163397   164064   164003   163476   163142   164064   166819   170876 
  175041   177911   178659   178117   178143   179558   180866   179632 
  175778   171633   168605   166533   165122   163934   162973   163119 
  164381   165545   165739   165015   164134   163807   163721   163119 
  162392   162831   164230   164632   163466   162550   163501   166085 
  168754   169753   168701   167259   167265   168736   170492   171844 
  172894   173666   173855   173160   171309   168682   166480   165080 
  164106   163939   164353   164045   163291   163651   165786   169371 
  173400   176617   178125   177385   174433   170193   166141   163579 
  162626   161917   160528   159398   159671   161091   162753   164336 
  166152   168324   170202   170669   168840   164932   160655   157697 
  156791   158290   161443   164416   166143   166776   166734   166249 
  165681   165586   165477   163965   161119   158521   157545   158495 
  160008   160385   159860   159771   160415   161288   162365   164064 
  166531   169074   170629   171186   171433   171695   171693   170839 
  169460   168446   167495   165635   163062   160901   159476   158873 
  159615   161206   163101   165539   167934   169758   171136   171477 
  170390   168678   167059   165879   165146   163810   161638   160812 
  162949   166630   169338   170197   169929   169473   169360   169125 
  167800   165678   163641   161747   160381   160313   161343   163003 
  165240   167481   168389   167331   165011   162294   160128   159390 
  159079   157508   155189   153546   152747   153149   155946   160647 
  164910   167417   168578   169163   169549   169769   169901   169801 
  168658   166214   163313   160346   157206   154240   152211   152153 
  154310   157385   159969   161736   163074   164077   164412   164338 
  164243   163788   162957   161952   160558   159391   159744   161730 
  164010   165057   164674   163869   163201   162297   160768   159066 
  158442   159646   161975   163815   164072   163350   162884   163059 
  164231   166504   168258   167749   165387   162846   161365   161015 
  160768   159830   158579   157756   157689   158136   158458   158604 
  159552   161932   164836   166681   167231   168054   170128   172245 
