Origin Time       2019/08/04 19:23:00
Lat.              37.707
Long.             141.632
Depth. (km)       45
Mag.              6.4
Station Code      TCGH10
Station Lat.      36.8578
Station Long.     140.0225
Station Height(m) 71
Record Time       2019/08/04 19:23:29
Sampling Freq(Hz) 100Hz
Duration Time(s)  254
Dir.              2
Scale Factor      2942(gal)/8224139
Max. Acc. (gal)   9.022
Last Correction   2019/08/04 19:23:14
Memo.             
[...]
  257428   257863   258133   257976   257901   258053   257970   257728 
  257608   257272   256818   256670   256614   256505   256344   256120 
  256144   256466   256759   256906   256932   256986   257088   256917 
  256470   256111   255807   255530   255591   255804   255775   255750 
  255949   256236   256468   256390   256036   255827   256039   256516 
  256844   257130   257658   258138   258379   258310   257833   257466 
  257654   258066   258207   258036   257802   257389   256770   256460 
  256466   256478   256578   256572   256315   256250   256618   257112 
  257488   257588   257318   257069   256941   256401   255661   255199 
  254743   254469   254886   255510   255784   256096   256633   256876 
  256913   257268   257683   257962   258547   259272   259409   259009 
  258697   258402   257724   257088   256788   256547   256618   256967 
  257000   256964   257204   257434   257557   257592   257392   257002 
  256690   256641   256632   256576   256849   257261   257300   257148 
  257153   257319   257266   256582   255742   255325   255093   255019 
  255136   255202   255536   256254   256937   257574   258310   259198 
  260223   260946   260936   260300   259565   259033   258427   257701 
  257154   256775   256463   256352   256608   256933   256878   256753 
  256925   257045   257011   257100   257326   257530   257509   257343 
  257175   256818   256412   256054   255557   255286   255390   255421 
  255442   255772   256142   256335   256752   257609   258356   258682 
  259227   260111   260428   260059   259664   259252   258593   257864 
  257342   257083   256833   256366   255783   255302   255110   255320 
  255899   256495   256501   256014   255865   256042   256049   256161 
  256498   256628   256595   256711   256787   256711   256707   256532 
  256228   256328   256366   256042   255927   255924   256014   256554 
  257184   257524   257451   257118   257239   257652   257706   257698 
  257607   257235   256987   256655   255825   254836   254191   254059 
  254179   254495   255131   255729   256316   257062   257364   257280 
  257378   257399   257235   257148   256938   256543   256300   256382 
  256626   256883   257322   257928   258325   258396   258323   258205 
  257967   257611   257304   257181   257233   257354   257582   257859 
  257887   257534   256860   256220   255941   255922   256159   256622 
  256991   257238   257504   257701   257840   258047   258268   258493 
  258761   258593   257810   257249   257052   256616   256181   256027 
  255884   255741   255765   255895   255834   255731   255989   256354 
  256558   256566   256328   256397   256987   257496   257829   258076 
  258107   258203   258496   258574   258145   257720   257910   258211 
  258067   257812   257611   257521   257871   258394   258504   258217 
  257868   257497   257011   256647   256540   256458   256294   256224 
  256163   255741   255282   255426   255857   256001   255985   256212 
  256676   257003   257027   256770   256371   256265   256539   256744 
  256632   256386   256261   256163   255931   255765   255640   255634 
  256224   256910   256940   256771   256818   256926   257281   258002 
  258487   258223   257673   257358   256909   256130   255694   255742 
  255737   255852   256227   256319   256250   256278   256227   256402 
  256909   257342   257577   257698   257690   257361   256911   256791 
  256919   257044   257056   256965   256832   256606   256324   256239 
  256571   257042   257272   257385   257289   256672   256038   255876 
  255889   256026   256325   256603   256842   256942   257072   257413 
  257639   257837   258248   258502   258485   258577   258720   258592 
  258163   257588   257281   257316   257278   257208   257034   256560 
  256181   255769   255177   255152   255572   255741   255833   255892 
  255796   255692   255667   255970   256386   256446   256428   256610 
  256805   256714   256470   256710   257413   258024   258399   258669 
  258869   258873   258763   258699   258708   258908   258971   258527 
  257972   257504   256979   256663   256529   256174   255714   255476 
  255355   255015   254580   254661   255120   255410   255965   256948 
  257716   258261   258549   258168   257508   257061   256805   256554 
  255961   255244   255132   255494   255700   255793   255974   256203 
  256487   256765   256915   257053   257233   257115   256852   256960 
  256986   256706   256911   257454   257497   257156   256998   257164 
  257551   257913   257770   257134   256495   255795   254956   254452 
  254357   254481   254981   255849   256828   257839   258893   259916 
  260720   261129   261098   260693   260365   260363   260099   259505 
  259179   258776   257939   257318   257073   256779   256444   256196 
  255958   255744   255800   256117   256417   256802   257092   256770 
  256360   256656   257265   257482   257296   257157   257017   256238 
  255340   255307   255579   255735   256545   257955   258878   259128 
  259401   259522   259175   259197   259509   259059   258322   257890 
  257412   257119   257053   256725   256242   256127   256490   256586 
  256097   255753   255591   255384   255503   255694   255725   255876 
  256108   256587   257378   257935   258276   258815   259128   258882 
  258592   258238   257573   257150   257011   256768   256724   256865 
  256729   256416   256371   256529   256390   256338   256956   257199 
  256539   256177   256204   256059   256254   256921   257501   257800 
  258076   258282   258051   257863   258072   257937   257423   257331 
  257584   257458   256961   256532   255949   255303   255324   255587 
  255525   255730   256190   256436   256666   256744   256416   256059 
  255935   255976   255957   255800   255640   255216   254782   255004 
  255376   255532   255700   255509   255105   255185   255680   256254 
  256846   257416   257928   258330   258553   258755   259139   259571 
  259699   259382   258946   258552   257895   257100   256616   256417 
  256266   256158   256062   255783   255355   254865   254236   253760 
  253767   254026   254375   254865   255438   255997   256578   257364 
  258043   258437   259127   259854   259974   259856   259830   259780 
  259744   259803   259645   258861   257971   257759   257939   258086 
  258250   258215   257719   256981   256427   255995   255355   254716 
  254265   253972   254126   254515   254520   254480   254799   254928 
  254881   255363   255927   255904   255992   256495   256686   256603 
  256612   256579   256905   257746   258130   257836   257656   257563 
  257342   257625   258298   258368   257909   257625   257428   256925 
  256513   256682   256933   256922   256859   256452   255729   255248 
  254862   254439   254534   255263   256080   256537   256649   256570 
  256427   256576   256977   257139   257312   257813   257885   257161 
  256514   256332   256153   256032   256346   256860   257251   257609 
  257740   257528   257743   258530   258943   258873   258782   258527 
  258083   257833   257770   257415   256917   256926   257083   256892 
  256952   257305   257254   257106   257643   258623   259225   259380 
  259594   259781   259607   259168   258419   257469   256888   256524 
  255926   255633   255941   256173   256151   256113   255846   255514 
  255637   255955   256045   256127   256284   256329   256626   257428 
  258222   258777   259416   260008   260100   259622   258766   257791 
  256834   255789   254927   254709   254970   255355   255627   255617 
  255792   256547   257376   257867   258236   258766   259154   258761 
  257916   257391   257087   256718   256197   255530   255164   255260 
  255476   255722   256077   256510   256933   257266   257578   257851 
  257810   257690   258114   258908   259557   259937   259935   259529 
  258892   258245   257546   256655   255842   255124   254514   254637 
  255430   256231   256845   257129   257214   257328   257242   257253 
  257808   258464   258774   258682   258502   258734   258984   258664 
  258045   257434   257052   257099   257423   257767   257732   257415 
  257501   257862   257902   257736   257559   257110   256358   255764 
  255638   255548   255035   254533   254195   253685   253409   253505 
  253534   253592   253809   254022   253948   253805   254345   255159 
  255542   255973   256594   257211   257948   258525   258861   259278 
  259740   260058   260107   260072   260289   260502   260502   260491 
  260259   259688   259178   258832   258438   258103   258136   258133 
  257694   257620   258043   257921   257431   257332   257233   256599 
  255795   255226   254889   254765   254565   254168   254070   254380 
  254758   255206   255903   256570   256848   256923   256801   256294 
  255885   255765   255607   255754   256350   256801   257195   258053 
  259120   259765   259920   259862   259595   259232   259177   259336 
  259148   258870   259127   259164   258349   257490   256903   256255 
  255860   255951   256024   255873   255899   256092   256234   256466 
  256802   256876   256535   256286   256135   255480   254759   254568 
  254716   255282   256282   257107   257420   257602   257859   257743 
  257362   257527   258044   258002   257301   256501   256219   256667 
  257372   257856   258233   258897   259808   260512   260876   260960 
  260732   260381   260203   260104   259552   258606   257999   257839 
  257894   258219   258426   257993   257366   257108   257007   256969 
  256830   255989   254844   254404   254377   254215   254333   254888 
  255401   255685   256077   256433   256246   255884   255546   254892 
  254340   254214   254260   254722   256022   257902   259997   262252 
  264037   264644   264749   265075   264853   263457   261642   260126 
  258753   257778   257918   258462   257968   256734   255694   254533 
  253134   252097   251436   251170   251780   252995   253737   253824 
  254319   255565   256663   257405   258178   258561   258534   258580 
  258174   257044   256130   256051   256163   255795   255249   254553 
  253813   254213   255830   257312   258228   259017   259800   260594 
  261247   260820   259129   257781   257562   257490   256992   256161 
  255113   254338   254056   254024   254232   254657   255186   255729 
  256065   256054   255757   255733   256587   257473   257374   256728 
  255896   255310   255614   256005   256046   256787   258186   259233 
  259688   259519   258546   257312   256657   256198   255202   254134 
  253678   253831   254302   254773   254934   255059   256170   257960 
  258545   257427   255911   255059   254861   254942   255259   255852 
  256824   258012   258827   259371   260038   260527   260740   260637 
  259823   258542   257337   256278   255378   254944   255564   257419 
  260070   262728   264246   264234   263494   262662   261531   259880 
  258140   256716   255617   254988   255024   255117   254434   253492 
  253142   253342   253774   253971   253748   253650   254300   255630 
  256718   256691   255594   254037   252482   251114   250119   249708 
  249718   249709   249763   250214   250782   251097   251131   251077 
  251648   253377   255505   257112   258369   259282   259264   258564 
  258142   258094   257662   256630   255364   254321   253948   254265 
  255081   256258   257430   258350   259065   259317   258886   258276 
  258052   258111   258024   257548   256857   256049   254637   252479 
  250148   247976   246262   245474   245512   245929   246526   247025 
  246960   246636   247440   249760   252043   253578   255108   256454 
  257431   258529   259297   259276   258836   258287   257467   256393 
  256178   257384   259100   261061   263062   264150   264795   266018 
  267129   266993   265553   263633   261814   259791   257453   255295 
  253296   251124   249088   247846   247812   248699   249675   250391 
  251320   253077   255295   257088   258460   259287   259044   258229 
  257717   257635   257899   258977   261551   265253   268446   270171 
  270658   270039   268833   267642   266292   265098   264590   264571 
  264602   263984   262264   260084   258616   258620   259740   260871 
  261293   260527   258427   255671   252644   249432   247020   246391 
  247170   248269   249245   250973   254512   258854   261866   263098 
  263086   262233   261507   261459   261258   260695   261219   262939 
  264281   264975   265006   263763   262400   262313   262772   263244 
  264049   264514   263999   262768   261193   259857   259324   259308 
  258641   256417   253521   251702   251343   251924   252806   253038 
  252547   251957   251368   251139   252059   254529   258313   262087 
  264359   264956   264489   263872   263871   263772   262678   261200 
  259902   258680   257462   256070   254701   253644   252809   252632 
  253227   253343   252036   250180   249482   250408   252190   253944 
  254940   255194   255136   255048   255326   255540   254885   253970 
  253467   253307   253912   254834   254538   253206   252147   251853 
  252572   254226   256196   258059   259389   260099   260776   261210 
  260791   259528   257238   254784   253544   252567   251014   249718 
  248533   247058   245555   244235   243569   243476   243657   244620 
  246285   248132   249779   250763   251533   252347   252988   253820 
  254047   253212   252610   252200   251668   252121   254051   257022 
  260127   262336   263198   262990   263023   264168   265889   268051 
  270803   273816   277096   280288   282190   281965   280207   277865 
  274225   269230   264795   261009   256722   252312   247885   243372 
  239827   237870   237799   240237   244788   250391   256054   260567 
  263281   264451   265110   266484   268154   268686   267722   265420 
  262845   262421   264697   267933   271036   273485   274614   273967 
  271825   269427   266838   263190   259552   256807   254200   252364 
  251950   251630   251133   251495   252869   254646   255596   254988 
  253420   251341   249184   247671   246721   246337   246943   248348 
  250310   252798   255407   257702   259525   260732   261226   261094 
  260757   260631   259933   257380   253438   249964   248408   249062 
  250989   252817   253972   254735   255048   254716   254238   253941 
  254160   255568   257380   258009   257499   256753   255515   253087 
  250533   249458   249581   250165   251141   251792   251353   250137 
  248876   248575   250072   252405   253474   253089   253029   253813 
  254516   255302   256749   258587   260428   261505   261135   259918 
  258102   254947   250924   247178   243861   241739   242657   246526 
  251375   256697   262739   268674   273939   278194   280164   278509 
  273508   267057   260801   255584   252163   250254   248752   247916 
  248674   251124   255218   260659   265769   268326   268014   266220 
  263925   261453   258624   255577   253654   253014   252150   251471 
  252624   255436   258597   260246   259436   258280   258660   259924 
  261426   262570   262689   262622   262980   262955   262145   260647 
  259070   258892   259717   259437   258187   257247   256687   256728 
  257355   257540   257058   256635   256686   257270   258007   258552 
  259212   260169   260913   260703   259522   258109   256221   252937 
  248989   246283   246138   248765   252988   256909   258952   258734 
  257752   257661   258624   260572   262773   263297   261879   260204 
  259104   258071   256142   252937   249424   246767   244984   243395 
  241856   241494   243375   246381   248786   250380   251307   252032 
  253720   256165   258021   259225   261126   264419   267463   268142 
  266485   263611   260541   257985   256024   254986   255060   255892 
  257335   258439   258003   256720   256080   256637   257523   256959 
  254465   250963   246925   242812   239689   238534   239484   241220 
  242703   244383   245913   246522   246847   247426   248255   249458 
  251159   253561   256462   259233   261716   264582   268436   272411 
  275046   276093   275871   274711   273589   272911   271969   270202 
  267341   263807   260583   258097   256582   256184   256544   257427 
  258793   259965   259816   258106   256173   255771   257399   260436 
  263763   266048   266481   265019   262487   260282   259120   258670 
  258380   258126   258303   259428   261678   264782   268250   271567 
  273881   273925   271875   269882   269028   268704   268639   268647 
  268089   266228   263150   260010   257029   253619   250326   247868 
  246379   245710   244946   243831   242989   242003   241128   242318 
  246150   251040   255204   257748   258407   257287   255511   254323 
  253230   251333   249428   248705   249361   250933   252543   253890 
  255403   256822   257496   257701   258111   258427   257935   256921 
  255987   255117   254465   254099   253501   252752   252486   252977 
  254194   255383   255494   254807   254664   255571   256805   257867 
  258934   259672   259942   261013   263293   265532   267250   268380 
  268382   266934   263834   259572   255451   252324   250369   249412 
  248759   247185   244163   241324   240665   241816   243244   244220 
  244594   244881   245947   247567   249092   250854   253265   256347 
  259934   263460   266904   270265   272648   273983   274735   274874 
  274739   273827   271046   267054   262878   258866   256231   255717 
  255753   254497   251818   248950   246974   245517   243850   242161 
  241173   241343   241775   240761   237978   235164   234264   235921 
  239649   243479   245578   246665   248205   250658   254155   258439 
  263007   267641   271282   272612   272691   273315   274718   276953 
  279846   281863   281630   279761   277560   275391   273663   272933 
  272687   271973   270437   268011   264882   262070   260635   260155 
  259741   259340   258518   256635   254233   252285   251334   251267 
  251657   252760   254762   256965   258611   258946   257874   256902 
  257328   258786   260003   259775   257924   255093   252455   251939 
  253652   255445   256748   257671   257098   255279   253400   251627 
  250744   251738   253469   253974   252699   250647   249184   248910 
  249535   249519   247409   244552   243194   243405   244256   245609 
  248013   251367   254117   255135   255168   254936   254236   253609 
  253847   254556   255314   256062   256379   256829   258650   261037 
  262244   262074   261009   259403   257418   254638   251289   248795 
  248348   250045   252467   254103   255379   257041   259094   261648 
  264132   265848   266735   265827   262595   259186   257408   256763 
  256721   257019   257041   256707   256429   256158   255595   255164 
  254839   253716   252489   252745   254491   257220   260456   263016 
  264482   265665   266868   267675   267807   267231   266009   264570 
  263399   262624   262530   263286   264130   264016   263322   263387 
  264082   264257   263754   262624   260726   259270   259653   261076 
  261549   260223   258126   256828   256641   256358   254377   251093 
  249123   249403   250527   251980   253581   254021   252830   250835 
  248408   246095   245192   245937   247688   249791   251035   250896 
  250568   250917   250851   249289   247041   245605   245895   247720 
  249639   250666   251706   253777   256433   258858   260509   261243 
