Origin Time       2019/08/04 19:23:00
Lat.              37.707
Long.             141.632
Depth. (km)       45
Mag.              6.4
Station Code      TCGH10
Station Lat.      36.8578
Station Long.     140.0225
Station Height(m) 203
Record Time       2019/08/04 19:23:29
Sampling Freq(Hz) 100Hz
Duration Time(s)  254
Dir.              5
Scale Factor      7845(gal)/8223790
Max. Acc. (gal)   22.908
Last Correction   2019/08/04 19:23:14
Memo.             
[...]
   -2131    -2135    -2384    -2461    -2219    -2199    -2602    -2701 
   -2280    -2384    -3510    -4509    -4410    -3904    -4087    -4860 
   -5243    -4706    -3569    -2241     -981     -592    -1867    -3982 
   -5124    -4853    -4205    -3709    -2856    -1329      132      409 
    -619    -2074    -3318    -4113    -4048    -2961    -1648    -1182 
   -1733    -2577    -2971    -2848    -2897    -3557    -4063    -3592 
   -2739    -2523    -2864    -2998    -2763    -2785    -3456    -4382 
   -5030    -5390    -5656    -5583    -4838    -3638    -2407    -1344 
    -668     -569    -1026    -2014    -3276    -4029    -3820    -3264 
   -3272    -3797    -3870    -2988    -1976    -1777    -1900    -1453 
   -1034    -1678    -2889    -3368    -2984    -2817    -3372    -3893 
   -3823    -3782    -4248    -4369    -3464    -2581    -2937    -3878 
   -3875    -2829    -2012    -2143    -2764    -3383    -4155    -5135 
   -5566    -4819    -3461    -2209     -761     1090     2439     2432 
    1305     -153    -1421    -2546    -3605    -4047    -3366    -2118 
   -1348    -1309    -1624    -2307    -3424    -4554    -5413    -5995 
   -5945    -4769    -2735    -1066     -680    -1171    -1744    -2232 
   -2655    -2720    -2362    -2118    -2282    -2353    -2022    -2081 
   -3342    -4996    -5441    -4665    -3901    -3335    -2502    -1845 
   -1809    -1915    -1864    -1949    -2303    -2855    -3331    -3253 
   -2635    -1987    -1525    -1169     -989    -1208    -2023    -3461 
   -5058    -6137    -6450    -5941    -4375    -2178     -707     -604 
   -1078    -1458    -1948    -2616    -3044    -2957    -2463    -1837 
   -1321    -1228    -1927    -3352    -4780    -5476    -5391    -5049 
   -4907    -4908    -4625    -3904    -2999    -2115    -1486    -1449 
   -1975    -2806    -3564    -3603    -2909    -2241    -1895    -1686 
   -1748    -2111    -2280    -2100    -2135    -2671    -3330    -3678 
   -3586    -3198    -2667    -2160    -2234    -3153    -3848    -3256 
   -2312    -2739    -4291    -5150    -4788    -4487    -4936    -5319 
   -5132    -4878    -4531    -3462    -1921    -1009    -1399    -2643 
   -3651    -3893    -3831    -3977    -4062    -3597    -2624    -1426 
    -255      384        2    -1204    -2394    -2790    -2413    -2128 
   -2501    -3204    -3888    -4479    -4772    -4781    -4792    -4716 
   -4259    -3360    -2323    -1869    -2554    -4082    -5552    -6068 
   -5216    -3585    -2358    -1856    -1503    -1053     -625     -330 
    -382     -766    -1131    -1220     -939     -340      183      199 
    -279    -1093    -2324    -3993    -5613    -6411    -6038    -4985 
   -4041    -3473    -2938    -2350    -2119    -2344    -2893    -3805 
   -4625    -4629    -3963    -3388    -3469    -4206    -4882    -4841 
   -4290    -3519    -2531    -1879    -2012    -2116    -1390     -654 
   -1081    -2261    -2925    -2797    -2558    -2477    -2251    -2087 
   -2520    -3073    -2720    -1695    -1445    -2743    -4553    -5286 
   -4769    -3877    -2916    -1962    -1975    -3650    -5886    -7014 
   -6670    -5481    -4135    -3011    -1980     -785      278      546 
    -295    -1768    -2821    -2934    -2702    -2648    -2612    -2774 
   -3464    -3901    -3269    -2400    -2540    -3538    -4248    -3975 
   -3203    -2790    -2570    -1809     -602      321      519      -72 
   -1232    -2304    -2641    -2374    -2106    -2037    -2146    -2685 
   -3469    -3618    -3072    -2934    -3423    -3402    -2481    -1737 
   -1923    -2525    -3006    -3562    -4252    -4642    -4523    -4278 
   -4413    -4780    -4618    -3798    -3254    -3558    -3993    -3735 
   -3125    -2972    -3191    -2997    -2234    -1602    -1421    -1198 
    -826     -778    -1127    -1678    -2340    -2852    -3234    -3824 
   -4399    -4548    -4382    -4136    -3996    -3958    -3627    -3029 
   -2737    -2504    -1529     -371     -429    -1595    -2412    -2320 
   -2057    -2015    -1755    -1170     -977    -1765    -3190    -4341 
   -4918    -5383    -5648    -4957    -3462    -2312    -2110    -2430 
   -2735    -2964    -3067    -2531    -1204     -207     -693    -2045 
   -2681    -2158    -1431    -1389    -1879    -2317    -2636    -2933 
   -2978    -2770    -2836    -3605    -4742    -5201    -4610    -3947 
   -3666    -2894    -1436     -263      284      556      329     -735 
   -2195    -3306    -3761    -3754    -3507    -2933    -2110    -1510 
   -1539    -2236    -3273    -4186    -4816    -5227    -5611    -6268 
   -6808    -6372    -5208    -4398    -4342    -4908    -5869    -6775 
   -7334    -7604    -7568    -6918    -5607    -4207    -2959    -1490 
    -220     -149     -909    -1139     -596     -168     -226     -346 
    -305     -243     -233     -199       43      453      558       47 
    -877    -1736    -2261    -2705    -2959    -2251     -774       35 
    -457    -1277    -1248     -615     -876    -2632    -4644    -5775 
   -6226    -6308    -5821    -4830    -4006    -4074    -4919    -5452 
   -5103    -4830    -5510    -6172    -5516    -4301    -4052    -4448 
   -4225    -3397    -2791    -2489    -1965    -1178     -517      140 
    1100     1856     1906     1682     1370      324    -1393    -2573 
   -2570    -2201    -2539    -3361    -3650    -3379    -3339    -3584 
   -3500    -3167    -3380    -3998    -3796    -2509    -1440    -1771 
   -3071    -3804    -3416    -3199    -4228    -5607    -6049    -5711 
   -5138    -4282    -3379    -3200    -4176    -5626    -6035    -4801 
   -3150    -2241    -1776    -1200     -751     -994    -1953    -2974 
   -3307    -2616    -1343     -333      294     1057     1811     1696 
     565     -504     -823    -1278    -2704    -4167    -4257    -3254 
   -2897    -3865    -4731    -4572    -4437    -4835    -4645    -3558 
   -2932    -3408    -3600    -2166     -264     -338    -2444    -3904 
   -3253    -2106    -2037    -2347    -2232    -2396    -3437    -4564 
   -4806    -4529    -4563    -4207    -2081     1117     3142     3433 
    3226     2980     2195      945     -361    -1768    -3381    -4985 
   -6058    -6023    -4942    -3596    -2893    -3434    -5190    -7570 
   -9780   -11057   -11059   -10102    -8868    -7739    -6245    -4085 
   -2416    -2250    -2664    -2481    -1910    -1641    -1848    -2178 
   -2155    -1634     -757      282      787     -392    -3250    -5908 
   -6774    -6415    -5957    -4965    -2604      442     2758     3570 
    2755      688    -1822    -3788    -4307    -3439    -2497    -2388 
   -2609    -2641    -2621    -2384    -1607     -770     -749    -1668 
   -2840    -3604    -3761    -3514    -3099    -2538    -2235    -2797 
   -3858    -4503    -4438    -3915    -3141    -2139    -1113     -529 
    -669    -1745    -3883    -6453    -8244    -8461    -7298    -5852 
   -5148    -5117    -5119    -4938    -4513    -3689    -2878    -2488 
   -2046    -1551    -1848    -2662    -2727    -1912    -1397    -1626 
   -1968    -2413    -3086    -3712    -4293    -4014    -2288     -546 
     218      310     -531    -2373    -4014    -3588     -195     4473 
    7892     9240     8476     5197     -271    -5887    -9085    -9386 
   -8457    -7248    -5447    -3720    -3385    -4264    -5192    -5769 
   -6420    -7411    -8333    -8174    -6431    -4353    -3388    -3148 
   -2803    -2808    -4587    -8495   -12900   -16254   -17635   -16708 
  -14003    -9799    -5904    -5308    -7528    -9823   -10832   -10239 
   -8433    -5872    -2465     1062     3546     4939     5582     5165 
    3458     1333      259      499      976     1383     2494     4309 
    6023     7102     7283     6474     4642     1872    -1005    -2677 
   -2736    -2091    -1651    -1780    -2732    -4351    -6376    -8876 
  -11254   -12424   -12255   -11628   -11361   -11601   -11893   -11399 
   -9784    -7832    -6829    -7446    -8213    -7096    -4773    -2702 
    -876      410      233    -1291    -2816    -3345    -3393    -3508 
   -2497      546     4199     6817     7994     7618     5841     3375 
    1213      -12     -657    -1540    -2560    -2421     -859     -149 
   -1954    -4924    -7812   -10949   -13760   -14898   -13743   -10611 
   -6677    -2470     1864     4417     3651     1071     -953    -1516 
    -665     1314     3944     7237    11169    14292    15449    14652 
   11462     5861     -508    -5232    -6376    -4552    -2822    -2686 
   -3289    -4801    -7680   -10307   -11317   -11064    -9996    -8409 
   -6430    -4340    -3874    -5902    -8348    -9605   -10011    -9670 
   -8430    -6763    -5090    -3001       20     3439     6745     9910 
   11106     8225     2961    -1313    -3373    -3646    -3134    -2700 
   -1875       32     1213     -252    -2589    -4090    -5089    -4986 
   -3927    -3235    -2751    -2249    -1965    -1251      -40      444 
   -1115    -4477    -7001    -7171    -6408    -4700    -1328     1059 
     580    -1074    -3244    -6411    -8382    -6582    -2239     1541 
    3159     2862     1574     -884    -4576    -6961    -6944    -8212 
  -11483   -12059   -10212    -9759    -9506    -8444    -7391    -4892 
   -2018     -834      189      252    -2169    -4818    -7333    -9693 
   -9360    -6990    -4263     -963     1721     3091     3257     1485 
   -1066    -3041    -5173    -6797    -6289    -4445    -3133    -2532 
   -1632     -629     -621     -945       20     1966     3372     3666 
    2835     1024    -1232    -3963    -7011    -9393   -11090   -12532 
  -13517   -14553   -16436   -18735   -20700   -21930   -20999   -16621 
  -10683    -6421    -4185    -2380    -1329    -2374    -4291    -4384 
   -1965     1514     4920     8704    12815    14845    13315    10554 
    8796     7137     4467     1711      656     1917     4266     6434 
    8511    10945    13262    14274    13595    11664     8272     3632 
    -371    -2424    -3268    -4232    -6043    -8916   -12676   -16575 
  -19564   -20842   -19593   -14985    -7816     -756     4148     6336 
    5537     2334     -749    -1593    -1166     -907     -476       60 
     727     2255     3434     3017     2475     2236      438    -2621 
   -4641    -5617    -7873   -10808   -10442    -7843    -8075   -10658 
  -11715    -9914    -6964    -6304    -7840    -7638    -6539    -7778 
   -8235    -6046    -5746    -8278   -10571   -11196    -8525    -2991 
    1526     3676     4398     3801     1883    -1336    -4137    -3750 
   -1034      935     1297      722     -355    -2351    -5516    -7933 
   -7781    -6301    -5566    -5468    -4509    -2450     -801     -495 
    -846    -1267    -2061    -3786    -6266    -7650    -6238    -2610 
    1120     2556      838    -2516    -6025    -9617   -12451   -12294 
   -9205    -6189    -5035    -4915    -3991    -2423    -3159    -5597 
   -4951    -1300     1140     2150     3627     4799     4247     1852 
   -1449    -4210    -6685    -9909   -12623   -13032   -10825    -6214 
    -410     4633     8857    12843    15201    14519    11115     5780 
    -731    -6689   -10497   -12333   -12090    -9620    -7465    -7337 
   -6883    -4232     -630     2435     5027     7622     9078     7148 
    2027    -3643    -8579   -12802   -15807   -17127   -16291   -13336 
   -9755    -6376    -2459     1498     3470     3667     4637     6831 
    8491     9049     9065     8078     4537    -1892    -9315   -15084 
  -17558   -16976   -14037    -9016    -3858    -1433    -1787    -2479 
   -2401    -2790    -4347    -5462    -4526    -2573    -1879    -2120 
   -1156      557     1152      407    -1117    -2760    -4561    -7160 
   -9076    -7906    -3920     1580     7661    12079    13263    11600 
    6929      218    -5146    -7669    -8411    -8094    -6751    -4773 
   -4136    -6727   -11369   -15487   -17613   -18011   -18720   -20403 
  -20996   -19485   -16141   -11321    -6916    -3824     -977     1563 
    3435     4618     5063     6018     8729    12052    13494    12492 
    9707     5051       72    -3206    -5340    -6331    -4787    -2662 
   -3159    -4654    -5416    -7402    -9861   -10420    -9163    -6361 
   -3996    -4018    -4494    -4919    -5873    -4900    -2444    -1668 
   -1954    -2184    -2932    -3719    -4591    -5620    -4938    -2712 
   -2236    -4395    -6496    -5907    -1710     4564    10577    15291 
   16978    14283     9396     5472     3492     2766     2517     2596 
    2674     1911     -283    -3555    -6257    -7344    -8492   -11304 
  -14211   -14601   -11979    -8773    -7944    -8410    -6170    -1036 
    2870     3100     1366     -499    -3843    -8383   -10143    -8761 
   -6663    -3380      693     3782     6372     9101    10993    10548 
    8198     6377     5117     2452     -633    -1113     1486     4013 
    3329     -144    -5416   -12885   -20128   -23075   -21527   -18468 
  -15398   -11673    -7803    -5001    -2951    -1458    -1155    -1945 
   -3119    -4480    -5633    -4648     -886     2808     4001     3561 
    3350     2492     -984    -5211    -6864    -5914    -4499    -4585 
   -6442    -8164    -8221    -7577    -7450    -7519    -7696    -8229 
   -8984    -9232    -7612    -5152    -3835    -2046     1516     4784 
    6195     5548     2967     -345    -2712    -3046    -1192     1548 
    3373     3681     2920     2315     3426     6323     9088     9632 
    7520     3504    -1379    -5975   -10165   -13779   -16117   -17875 
  -19141   -20182   -23152   -26700   -26886   -23009   -16718   -11164 
   -8210    -5454    -2523    -2467    -4436    -4607    -2158      722 
    2519     4256     7194    10247    11654    11581    11763    13007 
   12947     9177     3240    -2801    -8295   -11569   -11726   -10038 
   -7616    -5247    -4540    -6145    -8170    -8904    -9294   -10004 
   -9117    -6336    -4048    -2417     -228     2416     5532     8031 
    7762     5860     5030     4336     2407     1007     1518     3026 
    3545     2118      479      153     -171    -1228     -538     3291 
    7341     8864     8669     7939     6046     2871     -425    -2889 
   -3802    -3964    -5803    -9328   -11805   -12333   -12704   -13462 
  -13647   -14332   -16993   -20304   -21797   -20524   -17647   -14052 
   -9309    -4406    -1046      835     2052     2907     3400     3847 
    4606     5305     5852     6376     5709     3295      847     -704 
   -2627    -5324    -7302    -7499    -6708    -6494    -6555    -4847 
   -1436     1398     2729     3338     3735     3200      911    -2223 
   -4419    -5333    -6582    -9455   -12106   -11541    -8203    -5007 
   -3522    -4040    -6481   -10139   -13918   -16086   -15314   -12696 
  -10341    -8569    -6696    -4818    -3445    -2592    -1456      384 
    2396     4677     6470     5624     2662      249      -81     1817 
    4418     5629     4757     2031    -1883    -5049    -5169    -2243 
    1858     5755     8426     8904     6983     3146    -1453    -4959 
   -6062    -5058    -3115    -1480     -984    -1541    -3114    -5794 
   -8348    -9065    -7566    -4602    -1057     2413     5243     6629 
    5655     2292    -2243    -6978   -11286   -13559   -12622    -9208 
   -4430      465     3946     5952     7168     6940     4410      139 
   -4248    -7738   -10719   -13128   -14165   -14223   -14477   -14841 
  -14021   -12287   -11704   -12472   -12533   -10647    -7574    -4202 
      81     5368     9263     9065     5005      -44    -4604    -9690 
  -13991   -14611   -12380    -8249    -1756     4090     6330     5725 
    3574      750    -2381    -5790    -8430    -9521    -9213    -6851 
   -1894     3488     6851     8237     7385     4757     2870     2509 
    3183     3480     2228     1645     2316     2492     2951     2604 
   -1155    -6054    -9070   -10558   -10632    -8804    -6494    -4853 
   -3215    -1719    -1151    -2324    -6297   -11551   -15211   -17005 
  -17163   -15010   -11631    -8896    -7630    -7946    -8580    -8760 
   -8866    -7716    -4399      124     4095     6158     7611     9119 
    8951     7781     6998     5848     4496     4351     5644     7032 
    7900     8618     7912     4731      649    -2162    -3156    -3572 
   -3690    -2832    -2494    -3974    -6039    -8035   -10372   -12448 
  -13136   -12155   -10270    -8540    -7330    -6323    -5462    -4646 
   -3851    -4268    -5848    -6574    -5865    -3419     1077     5255 
    7271     8004     7886     6517     4379     2751     2675     3774 
    3989     1822    -1663    -4741    -6917    -7939    -7619    -6675 
   -6176    -6740    -8209    -9595   -10297   -10296    -8661    -4642 
     345     4055     5240     3642     -159    -4507    -7323    -8216 
   -8378    -8017    -7074    -6072    -4525    -2043      650     2821 
    3862     4086     4712     5601     5648     5013     3933     1764 
    -970    -3430    -6527   -10685   -14165   -15739   -16321   -16173 
  -14092   -10129    -5304     -843     1595     1830      758    -1317 
   -3411    -4356    -4471    -4383    -4893    -6791    -8432    -8110 
   -7318    -7292    -7020    -5204    -2230      -72     1051     1837 
     677    -3103    -6733    -7790    -7095    -6552    -6382    -5502 
   -3624    -1999    -1102     -326     -500    -1938    -3423    -4968 
   -6215    -5787    -4203    -3026    -2721    -3118    -4095    -5148 
   -5571    -5067    -3580    -1584      378     2686     5401     7442 
    8027     7695     6937     4718      585    -3758    -6739    -7882 
   -7001    -4711    -2131      333     2092     2254     1341      379 
    -783    -2597    -4591    -5655    -5510    -4927    -3925    -2189 
   -1017    -2065    -5016    -7811    -8951    -8810    -7881    -5899 
   -3241     -773     1328     3296     4718     5005     4321     2806 
     376    -2467    -4762    -5757    -5915    -6404    -7003    -6964 
   -7049    -7816    -7950    -6160    -3061     -737     -494    -1463 
   -2629    -4195    -5894    -6643    -5977    -4980    -5398    -6940 
   -7310    -6183    -5871    -6922    -7161    -5668    -3825    -2681 
   -2084    -1903    -2439    -3904    -5898    -7237    -7123    -6232 
   -5660    -5670    -5724    -5328    -4452    -2749      422     4652 
    8293     9975     9753     8561     6752     3775        9    -2716 
   -3856    -4722    -5363    -4255    -1588      383      577      -35 
    -481     -850    -1449    -1939    -1957    -2053    -3082    -4903 
   -6766    -8843   -11566   -13990   -14601   -13564   -12641   -11755 
   -9467    -6230    -2706      619     2552     3404     3684     2859 
    1755     1147      190    -1170    -2382    -3468    -3450    -1944 
    -753     -791    -1193     -615     1343     3345     4985     6169 
    5389     3381     1891     -170    -2982    -4500    -4576    -4355 
   -3789    -2929    -3310    -5717    -8004    -8472    -8181    -7890 
   -7445    -6613    -5031    -3184    -1424      594     1973     1437 
    -768    -4158    -8148   -10839   -10894    -8968    -6548    -4679 
   -3011    -1146       90      456      548      110    -1413    -3559 
   -5417    -6655    -7319    -7140    -5995    -4576    -3217    -1599 
    -494     -911    -1957    -2146    -1309      137     1780     2910 
    2880     1524     -548    -2208    -3144    -3940    -4743    -4810 
