Origin Time       2019/08/04 19:23:00
Lat.              37.707
Long.             141.632
Depth. (km)       45
Mag.              6.4
Station Code      TCGH10
Station Lat.      36.8578
Station Long.     140.0225
Station Height(m) 203
Record Time       2019/08/04 19:23:29
Sampling Freq(Hz) 100Hz
Duration Time(s)  254
Dir.              4
Scale Factor      7845(gal)/8223790
Max. Acc. (gal)   23.231
Last Correction   2019/08/04 19:23:14
Memo.             
[...]
   -2632    -2455    -1962    -1202     -434     -194     -716    -1701 
   -2629    -3003    -2704    -2047    -1328     -618       27      363 
     210     -297     -962    -1628    -2243    -2859    -3222    -2802 
   -1556     -278      174     -274     -973    -1273    -1291    -1760 
   -2709    -3137    -2538    -1574     -753      103      769      585 
    -444    -1728    -2786    -3308    -3322    -3225    -3063    -2323 
    -861      471      843      519       36     -766    -2034    -3099 
   -3179    -2390    -1553    -1216    -1112     -783     -449     -727 
   -1733    -2820    -3014    -2022     -773      -90      469     1210 
    1285      270    -1042    -1927    -2420    -2700    -2743    -2517 
   -1939    -1097     -631     -904    -1359    -1474    -1331    -1271 
   -1526    -1887    -1962    -1688    -1204     -720     -637    -1107 
   -1744    -2111    -2150    -2128    -2145    -1771     -808      193 
     710      638       81     -561     -994    -1348    -1672    -1852 
   -1749    -1296     -870     -953    -1270    -1170     -839    -1165 
   -2189    -2914    -2826    -2355    -1844    -1332     -946     -693 
    -542     -711    -1194    -1556    -1529    -1263     -936     -488 
      98      403      -28     -984    -1854    -2327    -2431    -2176 
   -1462     -529      -71     -298     -615     -746    -1093    -1775 
   -2398    -2660    -2504    -2116    -1921    -1833    -1321     -602 
    -460    -1098    -2033    -2755    -2926    -2335    -1381     -797 
    -607     -494     -718    -1371    -1737    -1453    -1023     -868 
   -1024    -1259    -1098     -643     -646    -1277    -2116    -2890 
   -3141    -2500    -1433     -479      238      221     -745    -1586 
   -1460     -997    -1046    -1568    -1977    -1865    -1275     -583 
    -220     -329     -901    -2015    -3325    -3971    -3470    -2131 
    -764     -213     -531     -872     -657      -72      553      892 
     473     -739    -1968    -2498    -2425    -2162    -1946    -1810 
   -1599    -1163     -734     -943    -1830    -2555    -2610    -2196 
   -1528     -739     -125      -28     -585    -1493    -1987    -1875 
   -1877    -2172    -2207    -1853    -1279     -758     -953    -2070 
   -3086    -2832    -1470     -140      315      -87     -672     -807 
    -527     -410     -967    -2020    -2808    -2729    -1844     -562 
     658     1067      149    -1410    -2455    -2704    -2601    -2423 
   -2235    -2151    -1981    -1323     -337      342      337     -386 
   -1601    -2852    -3669    -3809    -3314    -2331    -1116      -60 
     522      556      179     -444    -1109    -1432    -1237     -842 
    -576     -422     -338     -535    -1032    -1416    -1422    -1370 
   -1611    -1906    -1872    -1599    -1263     -958     -977    -1259 
   -1124     -430       48     -256    -1013    -1507    -1529    -1435 
   -1425    -1324    -1256    -1648    -2342    -2771    -2597    -1960 
   -1586    -1877    -2245    -1939     -986     -176     -249    -1071 
   -1849    -2101    -1896    -1248     -321      310      268     -309 
    -940    -1217    -1189    -1113    -1152    -1385    -1719    -1941 
   -2070    -2362    -2731    -2689    -2045    -1362    -1221    -1327 
   -1185     -918     -834    -1030    -1397    -1607    -1393     -916 
    -607     -611     -746     -882    -1009    -1088    -1128    -1115 
    -905     -631     -735    -1317    -1979    -2370    -2434    -2192 
   -1777    -1412    -1061     -618     -249      -10      280      500 
     256     -513    -1406    -1927    -1868    -1611    -1767    -2471 
   -3451    -4185    -3950    -2610     -877      452      796      -31 
   -1313    -1903    -1591    -1084     -882     -972     -909     -361 
      58     -468    -1719    -2856    -3395    -3180    -2046     -387 
     691      622     -190    -1109    -1613    -1405     -900    -1094 
   -2238    -3366    -3693    -3441    -2991    -2346    -1609    -1174 
   -1065     -838     -506     -614    -1189    -1663    -1759    -1729 
   -1798    -2096    -2868    -3743    -3640    -2363    -1050     -469 
    -143      461      977      765      -71     -665     -630     -666 
   -1243    -1733    -1593    -1378    -1807    -2461    -2382    -1777 
   -1817    -2706    -3304    -2867    -1783     -440      988     1732 
    1135     -276    -1625    -2597    -2903    -2339    -1555    -1221 
    -985     -449     -103     -373     -801     -807     -525     -436 
    -706     -996     -857     -468     -170      209      541      144 
   -1183    -2930    -4347    -4734    -3989    -2876    -2083    -1499 
    -942     -557     -324      -83        9     -395    -1285    -2101 
   -2393    -2255    -1925    -1516    -1075     -679     -398     -186 
    -166     -621    -1445    -1995    -1651     -606      237      284 
    -330    -1170    -1907    -2488    -3065    -3573    -3411    -2296 
   -1015     -387     -394     -800    -1486    -2249    -2810    -2895 
   -2439    -1672     -891     -288       62      216      346      346 
    -209    -1128    -1603    -1468    -1308    -1479    -1695    -1421 
    -514      521      897      383     -502    -1263    -1962    -2853 
   -3609    -3464    -2482    -1760    -2029    -2694    -2756    -2359 
   -2386    -2785    -2612    -1582     -427      143      228      376 
     531      116     -800    -1505    -1744    -2014    -2735    -3576 
   -3778    -3025    -1806     -650      407     1269     1487      861 
    -171    -1013    -1606    -2371    -3341    -3755    -3275    -2710 
   -2606    -2455    -1864    -1328    -1485    -2177    -2668    -2559 
   -2133    -1741    -1404    -1098     -838     -589     -395     -379 
    -627    -1069    -1605    -2093    -2131    -1422     -391      187 
     278      475      841     1036     1046      878      414     -163 
    -699    -1393    -2204    -2844    -3366    -3815    -3785    -3056 
   -1992     -936      105      915     1162     1190     1431     1394 
     432    -1258    -2857    -3543    -3067    -2176    -1694    -1333 
    -564      184      294     -268    -1242    -2134    -2374    -1841 
    -743      557     1327      916     -576    -2411    -3717    -4112 
   -3886    -3377    -2492    -1013      689     1520      877     -511 
   -1854    -3130    -4236    -4698    -4193    -2878    -1421     -341 
     301      355     -440    -1926    -3427    -4214    -3839    -2296 
    -352     1036     1755     2068     1767      534    -1305    -2955 
   -4031    -4585    -4446    -3345    -1576     -110      311      -33 
    -514     -850    -1128    -1599    -2224    -2623    -2505    -2053 
   -1880    -2178    -2389    -2263    -2269    -2474    -2192    -1254 
    -434     -414    -1136    -1906    -1860    -1000     -322     -378 
    -793    -1169    -1327    -1111     -662     -430     -529     -693 
   -1046    -1857    -2521    -2276    -1526     -951     -467       17 
     139     -356    -1271    -1934    -1611     -468      419      298 
    -707    -2034    -2987    -3080    -2540    -1956    -1598    -1476 
   -1512    -1517    -1518    -1772    -2201    -2239    -1567     -585 
     105      140     -662    -2128    -3557    -4070    -3287    -1777 
    -589     -298     -670    -1078    -1007     -361      306      292 
    -367    -1038    -1136     -625      -12      398      684      738 
     345     -456    -1378    -2092    -2700    -3688    -4904    -5182 
   -3896    -1807      172     1418     1382      382     -881    -2457 
   -4282    -5512    -5748    -5424    -4608    -3149    -1493     -152 
     708     1174     1598     2084     2265     1962     1335      510 
    -256     -700    -1071    -1807    -2920    -4047    -4797    -4887 
   -3975    -2330    -1305    -1601    -1954    -1183       -6      368 
    -284    -1451    -2317    -2332    -1622     -699      -64     -117 
    -974    -2193    -3132    -3516    -3350    -2903    -2513    -1910 
    -672      754     1659     2031     1749      214    -2011    -3152 
   -2582    -1394     -646     -471     -481     -387     -387     -870 
   -1621    -1903    -1502     -893     -403       48      445      519 
      41     -896    -1741    -1956    -1961    -2509    -3130    -2925 
   -2122    -1456    -1023     -602     -445     -993    -1954    -2523 
   -2409    -1975    -1678    -1595    -1364     -974    -1102    -1961 
   -2701    -2824    -2837    -2971    -2817    -2311    -1964    -2118 
   -2367    -2119    -1412     -580      147      353     -153     -800 
   -1020     -954     -854     -745     -785    -1138    -1657    -2164 
   -2670    -3200    -3434    -2910    -1667     -125     1397     2717 
    3362     2650      874     -629    -1147    -1142    -1185    -1291 
   -1355    -1447    -1686    -2015    -2142    -1976    -1881    -2141 
   -2292    -1478      152     1420     1668     1124       70    -1412 
   -3029    -4256    -4927    -5378    -5877    -6069    -5282    -3539 
   -1555       81     1042     1368     1491     1462      930       87 
    -592    -1256    -2141    -2940    -3360    -3306    -2728    -1883 
   -1128     -560     -102      248      378      477      870     1236 
    1021      378     -195     -781    -1601    -2251    -2444    -2392 
   -2145    -1634     -977     -336      -32     -533    -1796    -2868 
   -2874    -1942     -724        6     -126     -650    -1213    -2015 
   -2972    -3577    -3578    -3275    -3034    -2983    -2890    -2263 
   -1098     -132      -95     -959    -2080    -2837    -2667    -1408 
     255     1768     3172     4249     4556     4156     3615     2967 
    1501     -878    -2979    -3720    -3470    -3148    -2658    -1259 
     842     2215     1854      297    -1387    -2727    -3650    -4104 
   -3963    -3091    -1894    -1432    -2091    -2978    -3520    -4328 
   -5571    -6297    -6011    -5362    -4978    -4639    -3831    -2509 
    -881      816     2135     2700     2346     1086     -411    -1101 
    -595      513     1202     1213     1374     2045     2365     1617 
     132    -1236    -1783    -1611    -1324     -869       17     1000 
    1684     2004     2045     1607      163    -2142    -4027    -4243 
   -3005    -1475     -427     -341    -1382    -2833    -3805    -4180 
   -4171    -3765    -3379    -3620    -3928    -3304    -1968     -918 
    -633     -589      -36      670      554     -295    -1074    -1715 
   -2652    -3642    -3955    -3727    -3654    -3631    -3308    -2808 
   -2002     -579     1070     2463     3867     5267     5884     5386 
    4079     2016     -893    -4168    -6822    -8029    -7762    -6921 
   -6215    -5428    -4476    -3854    -3662    -3443    -3057    -2764 
   -2577    -2489    -2844    -3562    -3859    -3218    -2038    -1270 
   -1663    -3022    -4147    -3937    -2533     -892      537     1899 
    3044     3549     3485     3334     3264     3046     2571     2029 
    1610     1206      648       47     -531    -1291    -2335    -3384 
   -4182    -4889    -5587    -5923    -5663    -4815    -3597    -2570 
   -2139    -2259    -2674    -3191    -4028    -5252    -5918    -5061 
   -3063     -982      336      557      487     1020     1408      792 
    -113     -810    -2007    -3780    -5009    -5143    -4645    -3813 
   -2644    -1416     -556     -395    -1000    -2083    -3408    -4649 
   -4831    -3412    -1503     -648    -1094    -2061    -2825    -3067 
   -2685    -1864    -1270    -1611    -2872    -4175    -4417    -3215 
   -1282      572     2228     3568     4471     5350     6315     6681 
    5864     3958     1663      -86     -954    -1471    -2091    -2548 
   -2442    -1807    -1217    -1607    -3279    -5159    -5913    -5327 
   -3986    -2369     -723      839     1834     1412     -155    -1966 
   -3959    -5994    -7641    -8883    -9506    -9232    -8208    -6693 
   -5061    -3331     -924     1933     4268     5570     5830     5879 
    6601     7476     7761     7770     7533     6189     3836     2008 
    1609     1983     2332     2419     2104     1586     1229      915 
     615      352     -205     -633     -224      280      244      248 
    -665    -3917    -7859   -11265   -14706   -16784   -16679   -15655 
  -13965   -12085   -10650    -8460    -5286    -2566     -627      565 
     778      508       79     -288     -195     -468    -1730    -2398 
   -1374      422     2340     4387     6392     8036     8816     8846 
    9018     9598     9814     8715     6281     3667     2146     2131 
    3019     3801     3898     3149     1300    -1584    -4266    -5101 
   -3547     -603     1807     2890     3680     4488     4014     1884 
    -976    -4419    -8444   -12313   -15518   -16767   -14785   -10922 
   -7133    -3897    -1416     -129     -568    -3001    -6345    -8505 
   -8240    -5541    -1761      734     1320      788    -1009    -3331 
   -4401    -3971    -2157     1283     4914     6624     6251     4915 
    3132      957    -1252    -3458    -5960    -8399    -9899    -9416 
   -6837    -4029    -2258     -567     1706     3888     5648     7846 
   10987    14000    15565    14974    12125     7500     1324    -5633 
  -11074   -13054   -11473    -7497    -2412     2924     7420    10042 
   10894     9919     5803    -1433    -9115   -14840   -17752   -17425 
  -14227    -8841    -1973     4752     9992    12853    11765     6442 
    -496    -5638    -7250    -5603    -2633     -727    -1094    -3758 
   -7570   -11041   -14138   -18002   -22736   -25663   -24044   -17918 
   -8603     1305     8824    12617    12390     8891     2651    -5131 
  -10999   -13630   -13383    -9618    -3690     2555     8887    14315 
   16949    15222     9914     4441      758    -1603    -1750     1634 
    5458     5977     5092     5220     4226      572    -3731    -7061 
   -9224    -9871    -8974    -6963    -5046    -5062    -6432    -6956 
   -7900   -10854   -13354   -14432   -15157   -15140   -14851   -14166 
  -12133   -10108    -8353    -5413    -2249      -89     2019     4357 
    6627     9124    10419     8985     5756     1949    -1120    -1603 
     720     4845     9798    13757    14968    13753    11619     9946 
    9518     9601     9282     9182     9200     7828     4851      865 
   -3933    -8733   -12328   -13883   -13393   -11426    -8181    -4568 
   -2342    -2138    -3894    -7072    -9339    -8815    -6760    -5201 
   -4212    -3412    -3468    -4604    -5938    -6972    -7832    -8141 
   -7179    -5078    -2805    -1007      279     1147     1669     2411 
    4063     6151     7607     7898     6728     4347     1753     -252 
   -1220     -884      758     3700     7487    11048    13238    12679 
    8421     1470    -5529   -10207   -11734   -10480    -7164    -2389 
    3333     8961    13441    16383    16717    13170     6535     -665 
   -5859    -8067    -8506    -8170    -6756    -4584    -2253     -253 
    -819    -4926    -9304   -11723   -12800   -11566    -7152    -1405 
    3955     8205    10808    10921     7119      716    -4105    -6142 
   -7414    -8104    -7441    -6875    -7762    -9096    -8218    -4109 
     334     2924     4351     4515     2799      -94    -3268    -5493 
   -5088    -2560     -433     -199    -2042    -5324    -8650   -10825 
  -10844    -8252    -4650    -2857    -4340    -8237   -12569   -15363 
  -15030   -11117    -4471     3388    10574    14731    14355    10710 
    6228     2133    -1767    -5910    -9063    -9697    -8804    -8371 
   -8849    -9221    -8243    -5748    -3049    -1568    -1128     -643 
     423     2833     7030    10548     9840     5395      537    -3923 
   -7994   -10056    -9911    -8276    -5580    -3323    -2324    -1718 
    -905     -373     -765    -2038    -3078    -2991    -3204    -4808 
   -6597    -8808   -12170   -14620   -14913   -13478    -9734    -4371 
     726     5364     9613    12534    13751    13979    14073    14485 
   14731    13421    10038     5482      839    -2884    -4669    -3870 
    -947     2322     4491     5373     4858     2627     -791    -4294 
   -7133    -8644    -8833    -8000    -5525    -1984      831     2567 
    3036      996    -3878    -9801   -14426   -16694   -16162   -12518 
   -6440      476     6280     9699    10611     9188     6357     3682 
    1173    -1748    -3338    -2110      -37     1320     3141     5201 
    6081     5435     1972    -4021    -9161   -12075   -13072   -12167 
  -10891   -10304    -9391    -7782    -5852    -3879    -2816    -2214 
    -847     -765    -3531    -6434    -7612    -7063    -4599    -2293 
   -1953    -2031    -1082     1108     4297     7399    10058    12765 
   15106    15996    14013     8482     1471    -3682    -4838    -2474 
     980     4322     6223     4263     -909    -6621   -11473   -14303 
  -14573   -13428   -11688    -8926    -5591    -3105    -1035     2247 
    5744     6812     5863     5008     3701     1687      778      922 
     946      193    -1911    -4033    -4764    -5032    -5028    -4005 
   -2431     -978     -976    -3559    -6512    -7330    -7079    -7771 
   -9958   -13205   -16100   -16919   -15295   -12160    -8810    -5525 
    -707     5678    10789    13581    15165    15708    14655    11476 
    6627     1645    -2721    -6003    -7315    -6501    -4001     -202 
    4460     8127     8205     5680     3989     3770     3393     2096 
     955      612    -1304    -6011   -10886   -14575   -17523   -18387 
  -16174   -11318    -4378     2155     5692     6507     5686     4626 
    4302     2705    -1320    -4310    -3584     -874     1941     5231 
    8702    10585    10400     8675     6029     4190     4245     5618 
    7435     8811     9051     7719     4849     1912      398     -994 
   -3623    -5310    -5508    -7021    -9096    -9540    -9327    -8186 
   -5213    -1846      982     2891     3252     2322       36    -3592 
   -6868    -8758   -10197   -11618   -12441   -11538    -7391     -710 
    5359     8448     7785     4077     -650    -4907    -8473   -10968 
  -11250    -9301    -6748    -3758      824     6205    10971    14451 
   15626    14789    13230    10114     4608    -1242    -5363    -7611 
   -8164    -7253    -6070    -6173    -7658    -8819    -7865    -5121 
   -2299      589     3500     5121     5634     4548      796    -3304 
   -5332    -5449    -4110    -1448     1783     3200     1688     -353 
   -1669    -3198    -4781    -5752    -5811    -4326    -1443      784 
     642    -1779    -5614    -9757   -13651   -16341   -15934   -12433 
   -7030     -110     6520    10184    10709    10056     9526     8394 
    5391     1077    -2866    -5780    -7360    -7014    -5525    -3877 
   -1134     2411     4621     5832     7207     7948     7470     5842 
    3423     1231     -881    -3996    -7364    -9470   -10363   -10386 
   -9181    -6999    -4760    -2932    -1827    -1525     -653     1541 
    3113     2991     2439     1202    -2122    -6430    -9472   -11352 
  -12771   -12440   -10062    -7485    -5443    -3169      -33     3366 
    5471     5599     4085     1526    -1317    -3666    -4411    -2844 
     446     4114     6540     6840     5512     3424     1564      542 
    -496    -2844    -6752   -11615   -16309   -19283   -19534   -17173 
  -12737    -7558    -3453    -1132    -1016    -3294    -6112    -7196 
