Origin Time       2019/08/04 19:23:00
Lat.              37.707
Long.             141.632
Depth. (km)       45
Mag.              6.4
Station Code      TCGH10
Station Lat.      36.8578
Station Long.     140.0225
Station Height(m) 71
Record Time       2019/08/04 19:23:29
Sampling Freq(Hz) 100Hz
Duration Time(s)  254
Dir.              3
Scale Factor      2942(gal)/8224139
Max. Acc. (gal)   4.547
Last Correction   2019/08/04 19:23:14
Memo.             
[...]
  156501   157551   158113   158009   156874   155046   153196   151908 
  151869   153010   154618   155931   156224   156068   156810   157944 
  158321   158485   158674   157985   156606   155529   155283   156076 
  157152   157431   157229   157098   156760   156169   155673   155456 
  155109   154549   154692   155189   154961   154931   155891   156998 
  157520   156826   154935   153011   151686   150805   150315   150437 
  151380   152937   154818   156321   156753   156737   156339   154715 
  152915   152770   154303   156081   157077   157539   157883   158091 
  157847   157168   156500   155196   152709   150562   149924   150373 
  151870   154278   156668   158449   159220   158911   157712   155572 
  153427   152298   151845   152050   153457   155830   158379   160355 
  161422   161607   160967   159935   159102   158858   159489   160502 
  161391   162475   163232   162673   161628   161647   162413   162631 
  162079   161131   159633   157738   156833   157307   157858   158240 
  158584   158120   156875   155536   154395   153797   153630   152990 
  151961   151741   152258   152278   152042   153204   156007   158691 
  159880   159459   158036   156816   156163   155453   154935   154530 
  153226   151825   151862   152597   152720   152428   151903   151368 
  152119   154087   155653   156753   157735   157248   155132   153338 
  152775   153848   156776   159511   160404   160118   159343   158612 
  158338   158241   157960   157411   157341   158635   160672   162172 
  162722   162576   161928   161160   160957   161007   160373   159383 
  158714   158130   157415   156492   155367   154502   153995   153380 
  152824   153253   154750   155872   155515   154440   153935   154013 
  153843   153065   151749   150056   148421   147501   147997   149863 
  151891   153416   154980   156586   157543   157725   157499   156945 
  156051   155394   155449   155586   155398   155781   157243   158946 
  159952   160227   160361   160501   160096   159279   158951   158784 
  157948   156932   156050   155218   154985   155310   155954   157090 
  157923   157566   156514   155557   154755   154003   153623   153909 
  154716   155557   156099   156617   157551   158691   159154   158843 
  158633   158198   156635   154773   153960   154349   155055   154932 
  154611   155530   156392   156019   156381   158118   159158   158815 
  157971   157005   156220   155895   155700   155123   153659   151483 
  149831   149284   149246   149320   149713   150758   152377   153978 
  154801   154531   153827   153531   153964   154788   155082   154990 
  155769   157161   158086   159105   160875   162905   164762   165589 
  164496   162105   159683   157906   156878   156386   156201   156396 
  157300   158539   159034   158714   158375   158170   158039   157937 
  157666   157647   157991   157670   156469   155810   156362   156982 
  157335   157781   157308   156192   155719   154769   153300   153296 
  154145   154751   155626   156118   155825   155729   155880   155790 
  154926   152730   150375   149698   150646   151603   151443   150800 
  150870   151538   151734   151339   151344   151696   151721   151827 
  152184   152633   153770   155410   156660   157275   156689   154797 
  153327   153563   154753   155641   155844   155339   154453   154415 
  155572   156528   156594   156304   155698   154815   154325   154144 
  153500   152460   151583   151303   152221   154113   155920   157500 
  158885   159472   159648   159983   160057   160346   161943   164258 
  165859   166303   165666   164139   162244   160454   159399   159402 
  159696   159759   159939   160382   160722   160524   159440   157628 
  156041   155399   155696   156575   157191   157279   157634   158170 
  158043   157432   156946   156736   156625   156289   155517   153998 
  152061   151274   152282   153805   154770   155204   155024   154033 
  152909   152863   154213   155366   154543   152535   151730   152959 
  154788   155692   155659   155077   153912   153052   154062   156562 
  158330   158487   157981   157468   157296   157909   158957   159518 
  158834   157378   156708   156872   156682   156134   155853   155767 
  155629   155709   155918   155482   154402   153385   152838   152645 
  151672   149446   147812   147922   148832   150195   152350   154678 
  156415   158160   160666   162751   163046   162194   161383   160945 
  160721   160278   159632   159669   160267   160016   159366   159555 
  159513   158843   158877   159158   158800   158329   157700   156544 
  155051   153360   152070   152001   152965   153995   154332   154136 
  154191   155025   156672   158448   159436   159583   159160   158152 
  156701   155097   154095   154489   155790   156681   156452   155838 
  155628   154930   153789   153640   153585   152514   152089   153121 
  154377   155331   155979   156686   158294   159935   160123   159344 
  158575   158144   158152   158384   159035   160043   160307   159696 
  158912   157792   156342   154710   152818   151870   152529   153423 
  154460   156604   159112   161187   162490   162076   160683   160047 
  159729   159163   159073   159237   159050   158857   158602   157767 
  157158   157486   157655   157415   157701   157977   157476   156502 
  155231   154074   153430   152721   151893   152066   153693   155915 
  157859   159522   161140   162257   162521   162514   162657   162720 
  162306   160797   158743   157690   157121   155702   153912   152127 
  150225   149111   149166   149231   148660   148051   148111   148837 
  149196   148509   147695   147553   148089   149667   152107   154722 
  157388   159436   160450   161034   160894   159777   158287   156392 
  154604   154124   154276   153918   153898   154676   154986   154560 
  154476   155218   156331   156809   156188   155445   155179   154975 
  154908   154869   154326   153373   152132   151019   151144   151906 
  151295   149725   148709   147862   146965   146935   147841   149332 
  151306   152849   153357   153438   153711   154611   156132   157405 
  157889   158048   158249   158144   157650   157486   157831   157588 
  156195   154539   153559   153152   152697   152293   152631   153662 
  154735   155811   157133   158283   158916   159422   159861   159768 
  159371   159393   160146   161318   162218   162387   161977   161673 
  161435   160620   159653   158577   156672   154985   154851   155698 
  156629   157102   156759   156178   155912   155691   155237   154553 
  153937   153643   153600   154099   155274   156323   156564   155898 
  154602   153528   153257   153412   153316   152794   152109   151784 
  152567   154261   155915   157539   158878   158920   158518   158980 
  159251   159035   159853   161439   162567   162733   161624   160263 
  159768   159610   159598   160269   161392   162189   162317   161958 
  161640   161894   162337   162311   161985   161681   161541   161626 
  161590   161379   161485   161747   161752   161717   161524   161003 
  160856   161150   161137   160830   160188   158847   157549   157084 
  157030   156946   156878   156755   156716   156814   156718   156454 
  156031   155370   154993   155556   156826   157755   158128   158568 
  158932   158984   159266   160034   160610   160591   160475   160353 
  159798   158984   158203   157250   156146   155185   154259   153173 
  152108   151440   151150   150673   149832   149331   149947   151650 
  153493   154434   154473   154427   154781   155356   155533   154928 
  153858   152763   152150   152483   153333   153844   153928   154303 
  155285   156080   156077   155402   153891   151522   149455   148660 
  148595   148741   149165   149485   149539   149485   149054   148236 
  147393   146790   146512   146117   145492   145307   145589   145908 
  146365   146624   146277   146099   146901   148594   150591   151933 
  152024   151503   151360   151810   152772   154080   155023   155348 
  155769   156289   156320   156384   157149   158321   159298   159690 
  159835   160524   161539   161797   161238   160866   160932   160969 
  161041   161389   162027   163206   164690   165551   165612   165204 
  164205   162954   162270   162171   162170   162156   162155   162144 
  162153   162027   161671   161497   161667   161763   161860   162318 
  162689   162328   161464   160768   160458   160201   159821   159691 
  159609   158939   158355   158646   159354   159887   159653   158371 
  157041   156462   156001   155444   155572   156038   155830   155209 
  154897   155050   155542   156348   157225   157423   156614   155522 
  155187   155386   155047   154695   155040   154977   153983   152896 
  152442   152837   153096   152258   151052   150088   149125   148624 
  149129   150048   150512   150295   149559   148767   148608   149287 
  150394   151340   151703   151906   152687   153841   155069   156388 
  157080   156794   156394   156334   156257   156000   155725   155488 
  155374   155644   156069   156132   156027   156123   156170   156127 
  156443   156864   156828   156597   156614   156459   155401   153902 
  153030   152838   152698   152467   152739   153828   154858   154924 
  154660   154940   155252   155170   155304   155594   155209   154431 
  154229   154719   155698   156762   157243   157424   157690   157441 
  156841   156805   156936   156371   155507   155048   155012   155395 
  156186   156735   156436   155916   156180   156880   157269   157561 
  158006   158656   159655   160654   161225   161473   161671   162328 
  164014   166297   167823   167887   167076   165997   164517   162710 
  160933   159171   157624   156857   156944   157567   158440   158900 
  158457   157570   156573   155097   153472   152739   152797   152721 
  152416   152324   152697   153395   153820   153574   152756   151619 
  150535   150068   150407   151085   151895   152849   153704   154542 
  155035   154283   152712   151565   151155   151162   151379   151681 
  152020   152647   153667   154680   155695   157069   158107   157974 
  157086   156099   155765   156897   158824   160339   161434   162529 
  163665   164436   164253   163317   162479   162089   162128   162540 
  162920   162982   162634   161789   160994   160704   160516   160277 
  159906   158881   157666   157103   156917   157038   157458   157276 
  156305   155117   153868   152914   152674   152572   151814   150799 
  150191   149478   148270   147194   146630   146314   145978   145812 
  146200   147024   147912   148620   149025   149303   149620   149789 
  149854   150268   151040   151796   152409   152699   152417   152015 
  152275   153112   154059   155000   155791   156435   157234   158255 
  159240   160061   160852   161590   162095   162367   162454   162436 
  162399   162294   162079   162075   162703   163829   164921   165422 
  165389   165568   165757   165102   163871   162743   161877   161271 
  160899   160713   160689   160794   160710   160002   158982   157900 
  156406   155011   154244   153468   152614   152527   153250   154021 
  154241   153966   153878   154178   154344   154444   154697   154749 
  154741   155314   156352   157248   157779   157732   156940   155682 
  154130   152621   151779   151445   151113   150923   151078   151384 
  151822   152617   153459   153643   153061   152258   151681   151244 
  150849   150793   151096   151521   152050   152679   153478   154396 
  155047   155156   154761   153967   152863   151638   150660   150283 
  150538   151038   151324   151241   151100   151155   151001   150377 
  149785   149431   149131   149169   149814   151046   152818   154591 
  155903   156975   157736   157945   157873   157782   157977   158701 
  159613   160647   162056   163517   164574   165015   165156   165761 
  166835   167778   168274   168223   167861   167560   167348   167009 
  166361   165605   164999   164447   163773   163001   162336   161769 
  161056   160124   158961   157642   156691   156532   156747   156772 
  156612   156473   156392   156203   155846   155387   154843   154384 
  153933   153257   152737   152590   152493   152508   152658   152633 
  152671   152977   153112   152925   152536   151951   151672   152100 
  152618   152471   151865   151448   151402   151725   152398   152857 
  152524   151785   151335   151306   151605   152082   152397   152417 
  152479   152869   153364   153759   154213   154599   154745   154892 
  155086   155299   155795   156628   157700   158878   159767   160209 
  160436   160533   160483   160235   159718   159125   158749   158684 
  158932   159305   159505   159571   159551   159337   158977   158523 
  158075   157910   158149   158484   158576   158407   158139   158148 
  158587   158973   158876   158253   157472   157061   156917   156681 
  156593   156797   156779   156203   155370   154781   154657   154769 
  154969   155294   155397   155196   155309   155846   156181   156019 
  155486   154863   154564   154575   154585   154797   155228   155142 
  154585   154309   154182   154002   154067   154053   153627   153241 
  153199   153634   154525   155032   154683   154113   153670   153256 
  153069   153187   153198   152653   151852   151451   151463   151715 
  152169   152663   153172   153559   153532   153334   153280   153184 
  153235   153715   154161   154425   154911   155704   156676   157724 
  158674   159418   160014   160551   161234   162247   163294   164146 
  164968   165763   166456   167146   168011   168804   168871   168358 
  167995   167788   167476   167132   166693   166179   165673   164770 
  163453   162136   160717   159241   157900   156560   155305   154110 
  152811   151578   150445   149507   149268   149686   150094   150034 
  149424   148636   148224   148252   148452   148663   148725   148471 
  148030   147621   147240   146848   146414   145886   145523   145611 
  146026   146767   147721   148298   148463   148562   148533   148522 
  148776   149284   150199   151464   152663   153847   155162   156216 
  156805   157098   157187   157341   157898   158600   159054   159522 
  160250   161015   161744   162405   162851   162942   162429   161535 
  160740   159975   159341   159251   159304   158809   158051   157698 
  157894   158328   158458   157952   156987   155961   155164   154923 
  155378   155935   156201   156525   156840   156825   156505   155880 
  155098   154569   154554   155054   155872   156691   157100   156922 
  156643   156743   157030   157245   157384   157538   157889   158224 
  158121   157810   157561   157063   156396   156231   156637   157164 
  157854   158782   159641   160326   160751   160749   160556   160411 
  160161   159780   159491   159270   159121   159313   159575   159553 
  159726   160204   160342   159876   158911   157747   156871   156205 
  155371   154502   153750   153098   152914   153330   153844   154033 
  153659   152829   152166   151926   151714   151357   151097   151042 
  150997   150755   150642   151131   151789   151792   151093   150427 
  150418   150977   151974   153484   154846   155294   155173   155148 
  155376   155804   156411   157369   158724   159776   159948   159792 
  160004   160585   161150   161311   161091   160683   160255   160224 
  160677   161115   161239   161221   161156   160794   160115   159317 
  158232   156917   155818   155051   154579   154361   154272   154386 
  154707   154909   154703   154209   153752   153347   153067   153315 
  153769   153812   153650   153423   153084   152953   153054   153111 
  153121   153050   152716   152401   152555   152918   153081   153176 
  153310   153404   153586   153966   154375   154695   154984   155164 
  155208   155204   154984   154755   155019   155331   155305   155394 
  155575   155613   155676   155748   155875   156355   157099   157663 
  157848   157593   157081   156821   156609   156037   155540   155393 
  155542   156062   156587   156728   156659   156768   157063   157038 
  156570   156077   155730   155656   155962   156316   156612   156883 
  156924   156973   157208   157234   157246   157727   158245   158248 
  158020   157955   157785   157316   157056   157358   158001   158660 
  159086   159259   159451   159871   160312   160466   160450   160407 
  160193   160006   160153   160413   160735   161272   161646   161689 
  161673   161473   160990   160492   160064   159556   158872   158253 
  157937   157743   157526   157185   156843   156992   157377   157377 
  157233   157258   157424   157785   158013   157707   157279   157122 
  157019   156875   156575   156115   155817   155476   154793   154079 
  153558   153196   153060   153127   153067   152730   152451   152455 
  152747   153118   152922   152077   151584   151911   152501   153077 
  153625   154014   154433   155074   155780   156432   156995   157235 
  156978   156589   156466   156423   156331   156359   156355   156298 
  156452   156681   156965   157531   158043   157995   157482   156975 
  156564   156132   156007   156320   156686   157018   157411   157680 
  157667   157345   156755   156186   155823   155476   155185   155353 
  156016   156666   156847   156590   156172   155763   155466   155355 
  155491   155715   155698   155588   155760   156007   155996   155726 
  155198   154569   154090   153617   153037   152544   152173   151899 
  151881   152057   152072   151968   152076   152215   152185   152200 
  152285   152408   152724   153264   153713   153769   153809   154229 
  154664   154920   155116   155274   155702   156400   156905   157239 
  157704   158187   158225   157806   157304   156627   155829   155364 
  155155   155000   155036   155217   155405   155568   155646   155556 
  155221   154831   154762   155016   155374   155775   156138   156521 
  157106   157742   158225   158653   158998   159182   159212   158899 
  158310   157964   157978   157883   157535   157299   157257   157268 
  157307   157292   157319   157450   157527   157569   157678   157936 
  158194   158122   157833   157550   157225   156946   156718   156253 
  155547   155040   155015   155252   155536   155969   156541   157005 
  157226   157140   156799   156544   156544   156575   156485   156358 
  156336   156531   157006   157542   157747   157752   157902   157959 
  157812   157824   158028   158349   158850   159082   158793   158492 
  158278   157982   157870   157862   157688   157593   157590   157253 
  156737   156447   156109   155633   155525   155726   155798   155839 
  156091   156566   157145   157538   157477   157129   156968   157042 
  157194   157557   158075   158535   158869   158863   158477   158113 
  158004   157941   157592   156917   156189   155619   155285   155159 
  155227   155513   155837   156004   156015   155916   155749   155580 
  155501   155437   155247   155100   155096   154907   154444   154097 
  154094   154298   154349   153968   153396   153050   152991   153037 
  153042   152988   152955   152923   152829   152776   152793   152718 
  152629   152829   153343   153796   154001   154043   153835   153414 
  152998   152659   152483   152444   152329   152146   151945   151700 
  151548   151538   151654   151829   151792   151518   151187   150912 
  150884   151119   151437   151841   152390   153042   153661   154122 
