Origin Time       2016/07/11 09:46:00
Lat.              41.927
Long.             141.005
Depth. (km)       8
Mag.              2.9
Station Code      HKD157
Station Lat.      41.9051
Station Long.     140.9697
Station Height(m) 37
Record Time       2016/07/11 09:46:20
Sampling Freq(Hz) 100Hz
Duration Time(s)  60
Dir.              N-S
Scale Factor      3920(gal)/6182761
Max. Acc. (gal)   72.425
Last Correction   2016/07/11 09:46:21
Memo.             
[...]
     567      557      547      550      555      564      564      548 
     540      542      552      571      575      562      554      550 
     539      543      563      573      561      547      548      556 
     561      564      559      547      542      544      551      562 
     564      556      555      555      552      552      555      556 
     551      546      554      566      564      550      544      553 
     565      564      556      551      547      545      546      556 
     569      567      551      541      549      560      567      566 
     556      549      553      553      549      555      563      554 
     545      555      565      560      556      557      552      550 
     557      558      558      557      551      550      555      562 
     563      553      551      557      557      555      557      558 
     551      545      547      552      561      566      561      552 
     543      549      561      558      555      561      557      549 
     556      558      551      557      564      552      545      555 
     562      561      562      553      539      549      571      573 
     553      545      558      564      554      548      549      554 
     558      558      559      560      559      554      550      555 
     561      560      557      556      556      557      554      551 
     552      549      545      557      565      552      552      560 
     556      554      556      556      560      555      550      553 
     555      555      559      560      553      552      557      554 
     548      554      562      562      555      547      551      564 
     561      548      549      556      558      559      555      557 
     562      553      545      551      560      566      561      553 
     553      556      552      553      553      546      544      553 
     563      564      561      560      553      549      562      567 
     552      546      552      555      560      558      547      547 
     556      563      567      562      552      552      559      550 
     544      555      557      550      556      561      560      558 
     551      546      553      559      560      558      559      559 
     555      556      556      546      544      559      565      557 
     555      558      555      549      550      555      558      562 
     563      552      545      550      556      558      565      565 
     554      547      547      550      561      565      560      557 
     554      551      557      558      549      550      558      553 
     552      566      567      558      558      556      553      552 
     546      548      560      564      561      559      555      555 
     554      548      551      561      558      557      563      557 
     549      554      563      568      562      544      536      543 
     554      565      568      561      554      552      559      564 
     558      552      545      535      543      557      558      565 
     572      557      549      560      564      554      545      543 
     550      557      560      562      562      555      547      547 
     556      562      562      555      541      543      560      570 
     565      556      561      557      547      554      555      545 
     553      562      557      556      563      564      558      551 
     545      555      563      549      541      551      559      563 
     560      558      556      548      553      565      558      551 
     550      545      553      561      557      562      567      555 
     546      544      546      559      568      560      551      555 
     560      553      551      557      554      551      556      559 
     559      555      547      547      555      559      564      567 
     555      546      550      548      551      562      559      553 
     553      555      560      558      556      557      551      547 
     557      561      558      554      550      554      558      555 
     557      558      555      554      552      549      551      555 
     559      564      560      548      548      556      558      559 
     555      547      558      569      559      549      546      544 
     559      574      564      554      554      550      551      562 
     563      556      554      552      555      560      558      557 
     551      545      555      565      561      557      553      551 
     555      553      550      558      561      562      566      556 
     542      548      561      564      564      563      551      542 
     552      561      555      547      553      563      562      559 
     555      551      554      554      551      560      567      557 
     542      542      554      560      560      561      560      557 
     555      550      544      541      552      571      566      551 
     559      565      553      548      551      554      560      563 
     561      555      544      541      550      560      565      565 
     563      557      545      547      557      557      556      565 
     563      548      546      560      558      549      554      553 
     547      557      567      561      556      564      557      543 
     552      561      554      559      559      540      541      561 
     567      564      559      548      549      561      561      553 
     554      554      551      556      560      556      559      554 
     545      556      566      558      554      549      550      562 
     563      556      559      554      548      554      557      553 
     557      560      555      550      556      556      552      560 
     563      548      543      555      561      559      558      552 
     549      551      555      560      561      553      553      560 
     558      554      550      552      559      555      548      550 
     552      558      569      564      551      545      550      563 
     564      551      546      553      565      564      548      548 
     563      566      560      553      548      549      549      550 
     555      557      559      561      559      558      553      548 
     553      556      549      550      560      562      561      556 
     549      552      556      553      553      559      559      553 
     557      564      560      553      551      551      549      547 
     555      565      562      554      549      550      561      566 
     557      549      549      551      553      549      553      565 
     563      553      556      563      557      548      544      547 
     552      558      560      558      559      560      556      556 
     556      552      550      551      552      559      564      559 
     549      545      551      560      563      561      557      559 
     558      551      553      555      549      548      552      559 
     567      565      558      555      550      547      553      560 
     559      560      559      547      547      558      558      556 
     558      555      552      551      553      559      563      561 
     555      554      560      559      549      545      548      550 
     556      563      562      560      561      555      550      552 
     550      552      559      557      554      557      557      552 
     551      558      561      554      553      558      558      554 
     549      554      565      567      554      541      545      556 
     558      555      555      557      562      563      558      552 
     549      547      547      553      558      564      564      557 
     553      548      548      561      565      556      550      553 
     557      557      555      553      551      552      556      562 
     561      550      550      559      554      546      553      567 
     569      556      546      554      558      549      549      558 
     558      556      559      552      544      548      555      565 
     569      550      536      557      578      565      543      540 
     546      550      552      559      569      565      551      553 
     565      562      553      552      549      541      544      562 
     571      557      543      553      561      554      554      561 
     562      559      549      542      548      557      558      556 
     555      556      556      554      555      559      560      556 
     549      548      554      556      554      558      562      556 
     553      555      554      550      548      547      551      557 
     562      567      561      553      552      550      551      553 
     552      555      558      553      551      555      561      566 
     568      559      545      550      560      556      551      553 
     555      553      549      552      565      569      561      554 
     552      553      555      556      555      554      554      552 
     551      555      560      561      561      561      557      553 
     550      547      555      566      562      550      544      551 
     564      569      558      543      540      548      560      560 
     555      557      560      561      560      555      552      552 
     549      545      550      561      566      560      551      551 
     558      561      563      560      550      545      551      556 
     555      555      554      549      554      565      562      551 
     548      554      558      555      551      557      563      558 
     550      548      552      559      559      555      553      553 
     560      564      558      552      552      555      556      553 
     549      548      556      566      561      550      553      560 
     559      558      550      543      555      566      555      550 
     554      552      557      562      556      553      554      552 
     553      552      552      558      561      558      555      552 
     548      547      551      556      559      562      563      558 
     553      545      543      558      566      555      548      554 
     560      562      560      552      546      550      561      568 
     560      551      549      548      549      553      560      565 
     561      553      551      554      556      553      556      564 
     558      547      549      557      560      556      553      555 
     562      567      561      552      546      546      550      554 
     559      563      560      555      552      551      551      553 
     556      559      561      557      553      554      554      553 
     554      550      546      551      559      561      565      567 
     559      552      549      544      546      558      561      553 
     546      549      555      561      567      562      557      559 
     557      550      549      554      561      560      549      550 
     556      556      560      562      551      550      561      564 
     553      543      543      550      556      561      561      559 
     558      558      556      552      551      554      557      556 
     551      548      553      558      561      558      553      551 
     554      561      566      560      550      549      553      551 
     550      553      560      564      559      552      548      553 
     564      562      549      547      553      554      552      554 
     556      554      554      559      559      556      558      562 
     556      547      547      549      549      557      566      563 
     554      553      556      555      551      554      561      560 
     548      542      547      557      563      562      559      557 
     553      551      556      559      557      549      544      549 
     557      561      559      552      549      550      558      566 
     559      547      547      553      556      559      559      557 
     554      551      550      550      553      559      563      559 
     552      551      554      554      553      556      559      560 
     556      552      553      555      552      552      558      560 
     558      556      552      550      551      554      556      558 
     556      554      557      560      556      552      551      552 
     549      548      555      561      561      559      554      550 
     552      557      560      562      558      550      546      548 
     554      562      563      576      703      881     -327    -4494 
   -6254     1045     6853     4468     9247    11778    -8067   -22303 
   -4561    22388    24025    -2525   -24132   -21004    -6003    11036 
   25681    23602     -281   -27850   -30460    -1525    17765     8085 
   11619    31158    17759   -28204   -54314   -30956    17705    45136 
   38935    19112   -10142   -41640   -41302    -4590    22559    17351 
    9326    12934    11674      352   -15119   -22763   -13362     4297 
   19036    24971    14605   -13451   -35079   -23517     3377    20654 
   29030    17108    -9846   -16043    -3044     7857    12835     1735 
  -14855   -11637    -1899    -1647    -4269    -4890     6820    33987 
   52883    39885     2152   -30861   -38562   -22654   -10744   -26195 
  -31483   -13996   -44372   -84218   -18005    86353   103168    79334 
   85048    72038    20342   -38091   -97590   -98668   -21408    23383 
   -5508   -38387   -50116   -54771   -30176    21593    58255    87791 
  114785    88318    16184   -28294   -25822   -22893   -49515   -74615 
  -62348   -35133   -16867     1989    16005    26422    48840    66707 
   54717    11277   -36008   -40050     2869    36883    23446   -21178 
  -53205   -41830    -8150     7256     4352    -2083    -9132    -4685 
   11871    19887    19066    22699    31111    35744    24157     -242 
  -22697   -40455   -49410   -46061   -36681   -23338    -6527    17223 
   50619    70084    56160    29188     8224   -10717   -24679   -26968 
  -22412   -15922   -12914   -18991   -23899   -16668    -4007     8188 
   19167    24568    26900    30311    27487    15596     2782    -8285 
  -17696   -21434   -19173   -12959    -5859    -4568    -9080   -10519 
   -5153     1605     7347    17131    28825    31977    24618    12209 
   -1530   -14814   -26148   -30796   -26185   -17336    -6889     4619 
   12638    15887    15634    12974    12724    14208     9682      358 
   -5666    -7570    -9498   -11602    -9989    -4428    -1450    -3478 
   -3976      579     6197     9324    11324    13443    11341     4652 
     872    -1248    -8267   -14634   -13875    -7965     1169     8730 
    8954     4333     -497    -2766     -154     3768     3967     1938 
       6      251     4527     6557      882    -6142    -7834    -4218 
    1553     3824     1571      624     2385     3419     2359     -568 
   -2519     -616     3090     5791     5231     -244    -6540    -8924 
   -7757    -3816     1231     4178     5349     6404     6736     6492 
    6481     5352     2568       39    -2479    -5970    -8202    -8640 
   -8859    -7059    -1898     3542     6645     8281     9319     8956 
    7153     4504     1600    -1067    -4094    -6345    -5249    -2213 
    -461     -313     -767    -1195    -1095     -427      403     1669 
    4203     6702     6276     3357     1482     1594     1104    -1326 
   -4007    -5288    -4609    -1871     1002     1754     1206     1241 
    2345     4018     4836     3587      974    -1154    -1646    -1181 
   -1210    -1584     -840      957     1820     1430     1183     1043 
     979     1285      702     -916    -2255    -2991    -2338      138 
    2741     4474     5376     4928     3041      201    -2131    -2179 
    -932     -385       -1      942     1450     1161      472     -589 
   -1222     -504     1182     3048     3954     2705        0    -2481 
   -4052    -4019    -2091      252     1810     3093     4613     5475 
    4538     2242      -62    -1203    -1029    -1139    -2402    -3476 
   -2879      -25     3959     6287     5406     2314     -556    -1438 
   -1394    -2049    -2579    -2171    -1572    -1016     -397      114 
    1230     3483     5863     7132     6237     3010     -539    -2707 
   -3554    -3194    -2020     -690      792     2036     2028      694 
    -529     -385      466      883      740      -34     -916     -286 
    2020     3974     3976     2479     1134      932      975     -365 
   -2752    -3932    -3069    -1444      159     1366     1621     1794 
    2922     4145     3993     1799    -1672    -4067    -3457     -755 
    1443     2310     2451     2043     1899     2653     2885     1307 
   -1046    -2314    -2123    -1403     -830     -425      211     1136 
    1890     2709     3505     3016     1691     1211      820     -709 
   -2078    -2237    -1954    -1686    -1628    -1548      188     3304 
    4643     3296     1350      488     1118     2280     2472     1310 
    -391    -1233     -504      722      869     -265    -1468    -1533 
    -578      408      967     1242     1358     1377     1447     1557 
    1357      675      -84     -130      983     2191     1549    -1019 
   -2898    -1938      662     2522     2777     1701      720      740 
     377     -714     -866      121     1204     1576      686     -286 
      74      546       14     -296      635     2165     2940     2266 
     821     -569    -1617    -1780     -916      171     1050     2031 
    2895     2743     1639      483     -594    -1498    -1741    -1208 
     249     2015     2581     1920     1229      778      528      769 
     962      549      109     -199     -953    -1900    -1962     -435 
    1926     3408     3322     2368     1455      791       12     -730 
   -1213    -1818    -1996     -493     2051     3261     2590     1931 
    1940     1612      719     -333     -948     -481      523      720 
    -163    -1202    -1485     -587     1046     2077     1746      826 
     590     1167     1560     1282      901      805      599      202 
      78       25     -245     -230      176      749     1452     1507 
     472     -626     -733      229     1261     1247      607      487 
    1003     1607     1958     1738      854      -62     -548     -927 
   -1298    -1237     -458      865     2007     2282     1786     1163 
     872      887      985      952      533     -262     -960    -1107 
    -655      117      739      937     1025     1286     1464     1428 
    1349     1218      745     -174     -783     -276      659      779 
     270       78      321      810     1534     1913     1400      579 
     274      442      490       29     -586     -661      -56      909 
    1638     1405      337     -496     -238      951     1864     1588 
     693       34     -238      -73      350      568      626      881 
    1094      703       47       12      715     1528     1634      816 
    -180     -469      315     1389     1373      468      -53     -118 
    -191       50      623      880      836      783      488      222 
     505     1110     1801     2214     1651      451     -544    -1206 
   -1282     -544      159      230      419     1011     1367     1635 
    2101     2084     1233      173     -358     -267     -168     -332 
    -313       83      610      981      885      362       11      365 
