Origin Time       2016/07/11 09:46:00
Lat.              41.927
Long.             141.005
Depth. (km)       8
Mag.              2.9
Station Code      HKD157
Station Lat.      41.9051
Station Long.     140.9697
Station Height(m) 37
Record Time       2016/07/11 09:46:20
Sampling Freq(Hz) 100Hz
Duration Time(s)  60
Dir.              E-W
Scale Factor      3920(gal)/6182761
Max. Acc. (gal)   142.082
Last Correction   2016/07/11 09:46:21
Memo.             
[...]
   -9826    -9818    -9817    -9827    -9843    -9847    -9837    -9826 
   -9823    -9827    -9835    -9838    -9838    -9834    -9826    -9828 
   -9837    -9836    -9832    -9834    -9832    -9825    -9824    -9832 
   -9838    -9835    -9832    -9830    -9825    -9831    -9839    -9837 
   -9836    -9836    -9832    -9830    -9826    -9823    -9827    -9830 
   -9831    -9837    -9840    -9839    -9839    -9833    -9826    -9826 
   -9827    -9831    -9833    -9833    -9834    -9836    -9837    -9838 
   -9833    -9826    -9825    -9827    -9832    -9838    -9838    -9834 
   -9830    -9824    -9826    -9833    -9834    -9832    -9831    -9833 
   -9836    -9832    -9828    -9832    -9831    -9824    -9825    -9832 
   -9832    -9833    -9839    -9839    -9835    -9831    -9829    -9828 
   -9826    -9830    -9835    -9829    -9828    -9838    -9842    -9833 
   -9822    -9825    -9835    -9838    -9836    -9833    -9831    -9830 
   -9828    -9830    -9831    -9831    -9834    -9831    -9829    -9835 
   -9837    -9839    -9840    -9830    -9823    -9827    -9830    -9828 
   -9831    -9836    -9832    -9826    -9830    -9835    -9829    -9829 
   -9838    -9838    -9835    -9833    -9829    -9826    -9824    -9824 
   -9829    -9835    -9837    -9837    -9830    -9823    -9828    -9839 
   -9838    -9831    -9829    -9834    -9837    -9835    -9831    -9828 
   -9828    -9831    -9834    -9834    -9833    -9835    -9842    -9837 
   -9823    -9821    -9831    -9836    -9834    -9832    -9829    -9831 
   -9836    -9836    -9831    -9829    -9832    -9837    -9837    -9833 
   -9831    -9828    -9823    -9826    -9834    -9836    -9839    -9844 
   -9834    -9821    -9820    -9826    -9836    -9842    -9834    -9827 
   -9833    -9836    -9832    -9829    -9826    -9826    -9830    -9832 
   -9832    -9836    -9838    -9832    -9826    -9825    -9830    -9838 
   -9840    -9835    -9829    -9829    -9830    -9830    -9828    -9828 
   -9831    -9831    -9832    -9835    -9832    -9829    -9829    -9831 
   -9836    -9839    -9837    -9831    -9822    -9823    -9831    -9834 
   -9835    -9833    -9828    -9827    -9828    -9834    -9841    -9841 
   -9837    -9834    -9826    -9821    -9825    -9829    -9831    -9835 
   -9836    -9829    -9825    -9832    -9842    -9836    -9824    -9825 
   -9836    -9838    -9832    -9830    -9829    -9830    -9832    -9831 
   -9831    -9834    -9832    -9827    -9826    -9832    -9839    -9840 
   -9829    -9823    -9829    -9831    -9829    -9831    -9831    -9832 
   -9836    -9836    -9836    -9838    -9836    -9828    -9825    -9824 
   -9823    -9829    -9837    -9838    -9834    -9831    -9833    -9829 
   -9820    -9826    -9834    -9832    -9835    -9837    -9833    -9836 
   -9839    -9832    -9822    -9827    -9838    -9835    -9831    -9834 
   -9831    -9823    -9827    -9834    -9838    -9842    -9840    -9833 
   -9833    -9832    -9824    -9822    -9831    -9838    -9838    -9839 
   -9835    -9826    -9826    -9830    -9828    -9828    -9834    -9835 
   -9835    -9836    -9829    -9825    -9830    -9835    -9841    -9840 
   -9826    -9821    -9829    -9835    -9837    -9836    -9832    -9829 
   -9827    -9829    -9837    -9833    -9823    -9827    -9832    -9836 
   -9843    -9837    -9827    -9830    -9833    -9836    -9838    -9830 
   -9820    -9818    -9821    -9830    -9844    -9844    -9831    -9827 
   -9830    -9831    -9829    -9825    -9828    -9835    -9832    -9829 
   -9835    -9833    -9828    -9826    -9827    -9839    -9842    -9831 
   -9824    -9824    -9828    -9837    -9844    -9839    -9832    -9828 
   -9824    -9827    -9832    -9834    -9837    -9838    -9830    -9818 
   -9823    -9838    -9841    -9842    -9838    -9824    -9823    -9836 
   -9833    -9825    -9832    -9833    -9827    -9832    -9838    -9836 
   -9827    -9826    -9838    -9841    -9828    -9822    -9827    -9832 
   -9836    -9837    -9830    -9829    -9830    -9828    -9832    -9837 
   -9828    -9827    -9842    -9847    -9833    -9820    -9823    -9835 
   -9838    -9833    -9827    -9825    -9831    -9837    -9843    -9837 
   -9823    -9821    -9828    -9836    -9844    -9846    -9840    -9827 
   -9815    -9819    -9828    -9837    -9840    -9833    -9832    -9831 
   -9826    -9834    -9839    -9827    -9827    -9839    -9840    -9834 
   -9833    -9828    -9824    -9827    -9838    -9842    -9829    -9827 
   -9842    -9836    -9825    -9831    -9830    -9827    -9834    -9835 
   -9827    -9823    -9828    -9836    -9836    -9829    -9829    -9832 
   -9831    -9828    -9832    -9839    -9834    -9829    -9833    -9831 
   -9828    -9835    -9835    -9827    -9828    -9835    -9839    -9837 
   -9827    -9823    -9833    -9839    -9833    -9833    -9837    -9830 
   -9822    -9826    -9828    -9827    -9833    -9837    -9836    -9835 
   -9832    -9827    -9826    -9828    -9834    -9833    -9833    -9840 
   -9836    -9825    -9829    -9834    -9831    -9830    -9833    -9832 
   -9824    -9822    -9832    -9838    -9838    -9839    -9838    -9831 
   -9824    -9824    -9827    -9830    -9833    -9835    -9831    -9831 
   -9838    -9839    -9829    -9827    -9835    -9834    -9830    -9832 
   -9828    -9826    -9829    -9829    -9835    -9840    -9835    -9836 
   -9837    -9826    -9820    -9824    -9830    -9836    -9835    -9831 
   -9834    -9837    -9835    -9832    -9821    -9819    -9834    -9842 
   -9836    -9836    -9838    -9835    -9832    -9823    -9818    -9822 
   -9831    -9841    -9841    -9833    -9830    -9833    -9834    -9831 
   -9831    -9834    -9833    -9833    -9834    -9832    -9829    -9827 
   -9825    -9825    -9831    -9838    -9837    -9837    -9839    -9833 
   -9825    -9825    -9830    -9833    -9833    -9831    -9829    -9829 
   -9830    -9834    -9843    -9843    -9833    -9826    -9822    -9822 
   -9830    -9837    -9837    -9840    -9841    -9828    -9818    -9823 
   -9828    -9827    -9830    -9837    -9839    -9838    -9838    -9835 
   -9829    -9825    -9829    -9835    -9833    -9828    -9825    -9823 
   -9830    -9839    -9844    -9844    -9844    -9837    -9830    -9832 
   -9829    -9826    -9833    -9831    -9819    -9823    -9833    -9836 
   -9844    -9843    -9827    -9823    -9833    -9830    -9826    -9831 
   -9829    -9826    -9834    -9844    -9842    -9832    -9826    -9824 
   -9828    -9835    -9834    -9830    -9826    -9825    -9835    -9840 
   -9834    -9832    -9835    -9833    -9828    -9828    -9830    -9827 
   -9829    -9837    -9839    -9834    -9832    -9831    -9827    -9832 
   -9835    -9826    -9827    -9837    -9837    -9831    -9830    -9831 
   -9830    -9831    -9833    -9829    -9834    -9844    -9838    -9827 
   -9824    -9822    -9823    -9833    -9844    -9842    -9837    -9833 
   -9822    -9813    -9823    -9839    -9845    -9840    -9835    -9828 
   -9818    -9819    -9832    -9834    -9831    -9834    -9837    -9835 
   -9831    -9827    -9829    -9833    -9836    -9832    -9822    -9822 
   -9836    -9841    -9830    -9824    -9827    -9827    -9830    -9839 
   -9841    -9831    -9823    -9827    -9832    -9831    -9826    -9826 
   -9830    -9835    -9836    -9833    -9831    -9833    -9833    -9831 
   -9825    -9821    -9827    -9837    -9838    -9839    -9837    -9824 
   -9817    -9826    -9838    -9842    -9837    -9832    -9830    -9826 
   -9825    -9827    -9832    -9837    -9835    -9833    -9837    -9834 
   -9828    -9832    -9834    -9830    -9830    -9830    -9826    -9826 
   -9827    -9826    -9832    -9839    -9837    -9835    -9834    -9830 
   -9826    -9828    -9832    -9834    -9833    -9832    -9832    -9830 
   -9824    -9825    -9835    -9838    -9836    -9839    -9835    -9829 
   -9833    -9832    -9828    -9835    -9837    -9828    -9822    -9828 
   -9838    -9839    -9833    -9832    -9835    -9832    -9830    -9831 
   -9827    -9826    -9830    -9835    -9837    -9833    -9830    -9832 
   -9830    -9828    -9835    -9839    -9836    -9833    -9826    -9820 
   -9824    -9828    -9831    -9839    -9843    -9836    -9828    -9829 
   -9831    -9831    -9830    -9830    -9836    -9836    -9830    -9828 
   -9831    -9831    -9829    -9829    -9835    -9836    -9832    -9831 
   -9832    -9834    -9835    -9831    -9829    -9830    -9829    -9826 
   -9828    -9834    -9828    -9818    -9826    -9841    -9839    -9830 
   -9835    -9840    -9828    -9819    -9827    -9838    -9839    -9834 
   -9830    -9825    -9820    -9828    -9848    -9850    -9828    -9817 
   -9826    -9830    -9828    -9834    -9841    -9837    -9829    -9827 
   -9828    -9827    -9826    -9835    -9844    -9839    -9829    -9828 
   -9832    -9836    -9835    -9825    -9820    -9826    -9835    -9839 
   -9831    -9822    -9829    -9841    -9839    -9830    -9829    -9832 
   -9831    -9828    -9828    -9833    -9835    -9830    -9830    -9835 
   -9835    -9830    -9835    -9839    -9829    -9824    -9828    -9829 
   -9833    -9836    -9830    -9828    -9830    -9832    -9838    -9839 
   -9831    -9827    -9830    -9826    -9824    -9834    -9840    -9836 
   -9832    -9834    -9834    -9830    -9831    -9837    -9834    -9831 
   -9827    -9822    -9826    -9836    -9835    -9831    -9835    -9838 
   -9836    -9829    -9825    -9828    -9833    -9833    -9832    -9833 
   -9830    -9830    -9834    -9832    -9829    -9830    -9831    -9833 
   -9837    -9839    -9831    -9828    -9834    -9834    -9829    -9826 
   -9825    -9830    -9840    -9836    -9827    -9832    -9835    -9832 
   -9834    -9832    -9827    -9831    -9835    -9832    -9826    -9822 
   -9826    -9838    -9844    -9837    -9833    -9831    -9826    -9828 
   -9832    -9832    -9834    -9837    -9839    -9834    -9823    -9821 
   -9828    -9831    -9836    -9840    -9834    -9831    -9832    -9826 
   -9829    -9829    -9823    -9833    -9844    -9834    -9825    -9828 
   -9833    -9837    -9835    -9830    -9829    -9831    -9834    -9837 
   -9835    -9832    -9830    -9827    -9825    -9829    -9835    -9840 
   -9841    -9834    -9825    -9821    -9825    -9836    -9844    -9837 
   -9826    -9825    -9832    -9833    -9826    -9822    -9832    -9842 
   -9837    -9829    -9828    -9827    -9831    -9835    -9831    -9831 
   -9833    -9833    -9834    -9832    -9826    -9826    -9829    -9835 
   -9838    -9834    -9834    -9841    -9839    -9828    -9825    -9826 
   -9826    -9829    -9832    -9832    -9831    -9833    -9841    -9842 
   -9829    -9820    -9826    -9835    -9839    -9839    -9834    -9825 
   -9823    -9826    -9831    -9834    -9837    -9839    -9838    -9835 
   -9837    -9833    -9822    -9825    -9834    -9836    -9836    -9835 
   -9832    -9828    -9826    -9827    -9831    -9837    -9841    -9838 
   -9830    -9827    -9828    -9831    -9834    -9834    -9831    -9829 
   -9824    -9827    -9837    -9839    -9832    -9828    -9828    -9832 
   -9836    -9838    -9835    -9827    -9824    -9829    -9835    -9833 
   -9833    -9837    -9832    -9826    -9833    -9833    -9827    -9830 
   -9832    -9829    -9834    -9842    -9835    -9827    -9827    -9828 
   -9831    -9838    -9841    -9835    -9828    -9825    -9825    -9824 
   -9829    -9838    -9839    -9833    -9828    -9829    -9836    -9838 
   -9834    -9830    -9828    -9834    -9837    -9832    -9827    -9823 
   -9823    -9829    -9838    -9841    -9835    -9834    -9837    -9835 
   -9831    -9828    -9834    -9837    -9830    -9824    -9825    -9828 
   -9835    -9840    -9836    -9829    -9830    -9836    -9835    -9829 
   -9831    -9836    -9836    -9835    -9830    -9824    -9824    -9831 
   -9836    -9833    -9828    -9827    -9830    -9839    -9842    -9836 
   -9828    -9824    -9828    -9832    -9835    -9837    -9836    -9833 
   -9828    -9823    -9825    -9836    -9842    -9837    -9831    -9829 
   -9826    -9827    -9835    -9835    -9830    -9831    -9833    -9830 
   -9831    -9833    -9835    -9835    -9829    -9825    -9832    -9836 
   -9833    -9832    -9826    -9825    -9834    -9839    -9833    -9829 
   -9828    -9832    -9837    -9836    -9832    -9826    -9823    -9831 
   -9837    -9830    -9824    -9830    -9838    -9838    -9834    -9831 
   -9829    -9830    -9835    -9836    -9831    -9827    -9827    -9834 
   -9835    -9827    -9827    -9835    -9838    -9838    -9834    -9826 
   -9824    -9830    -9836    -9836    -9831    -9828    -9829    -9828 
   -9826    -9831    -9837    -9839    -9838    -9834    -9827    -9823 
   -9824    -9829    -9833    -9834    -9832    -9833    -9834    -9834 
   -9832    -9825    -9826    -9835    -9837    -9834    -9831    -9826 
   -9828    -9835    -9832    -9809    -9711    -9488    -8828    -7009 
   -7596   -18113   -26693   -10054     9336      233    -6866    -4552 
  -30059   -42568     5357    33111    -9548   -33701   -13385    -9432 
  -13748   -12621   -19209   -14880     2121    21527    31757    -7029 
  -73197   -80599   -20308    37839    49791    26298    -8540   -40734 
  -54137   -41881   -15487     7648    15469    10575      539    -9886 
  -23780   -37066   -20973    11933     7574   -17006   -10304     3428 
  -12525   -30061   -25098   -15022    -1955    16122    14143    -8250 
  -23988   -30417   -31972   -17948     1471     5565     4736     1793 
  -13017   -23490   -25925   -22254     3398    26135    18916    23618 
   63059    61296   -59541  -216670  -232605  -115104   -14024    81609 
  214256   211327   -11734  -184005   -68131   150040   167086     -433 
 -149621  -183546  -116079   -21709    15323      196   -19778   -22939 
   10114    64212    99444    80222    -7142   -86629   -81708   -33428 
   -5480    -6656   -17255    -8885    14423    13132   -31716   -90181 
  -95231   -28304    40803    63167    57227    51498    40909    -7932 
  -77308   -98200   -54381     6245    37176    26328   -13060   -54245 
  -64043   -34382     5080    21374    11700    -1429    -2991     5760 
   15911    13524     -450   -14352   -26901   -30332   -20783   -20373 
  -37318   -50269   -45796   -22952    13578    40613    39542    20370 
   -2252   -18076   -19440   -14438   -14724   -20568   -25281   -21183 
  -10461    -5913   -15384   -28427   -22128     7184    30176    22650 
   -3165   -23027   -28182   -20890   -11310   -12390   -22665   -28447 
  -22643    -9981     -203     -254    -8053   -12454    -3504    12866 
   19775    11111    -6015   -22389   -30457   -29560   -24798   -18835 
  -15057   -15905   -16733   -13339    -5894     1088      973    -2308 
    -973     -618    -4936    -6310    -5907   -10150   -15992   -20249 
  -23075   -22613   -18639   -12842    -5831      607     3825     3410 
    -292    -6509   -12835   -18175   -23163   -25625   -20819   -10624 
   -3910    -2657    -3299    -5572    -5805    -1643     -910    -7386 
  -15942   -21970   -20271   -10862    -4716    -7420   -11944   -12472 
  -10056    -8063    -8189    -8421    -8447   -10503   -11633   -10299 
  -10372   -10356    -8578    -8667    -9787    -9195    -7943    -7054 
   -7775   -10289   -11907   -12304   -13244   -13919   -12958   -10351 
   -7510    -7655   -10123   -10209    -8095    -6350    -4952    -4985 
   -6676    -8260   -10753   -14414   -15558   -13437   -11323   -10831 
  -12124   -14301   -14447   -11249    -6193    -2349    -3066    -7404 
  -11233   -12983   -12998   -11453    -9301    -8276    -8705    -9011 
   -8769    -9089    -9248    -7420    -5087    -5593    -8784   -12213 
  -15004   -16929   -16707   -13921   -11172   -10536    -9877    -7186 
   -4518    -4399    -6689    -9230    -9707    -8595    -8953   -11657 
  -13815   -13226   -10920    -8938    -8479    -8771    -8363    -8210 
   -9203    -9772    -9769   -10592   -11477   -11333   -10800   -10454 
  -10937   -12283   -12137    -9699    -7809    -7627    -7686    -7649 
   -7827    -7682    -7342    -8502   -11526   -13954   -13977   -11890 
   -8774    -7059    -8687   -11658   -12608   -11384    -9821    -8630 
   -8162    -9140   -11043   -12169   -11272    -8765    -6699    -6606 
   -7909    -9072    -9407    -9752   -10881   -12280   -13241   -12920 
  -10938    -9217    -9656   -10451    -9095    -7174    -7367    -9084 
  -10171    -9666    -8463    -8063    -8883   -10421   -11377   -10463 
   -8806    -9119   -11860   -14433   -14585   -12499    -9219    -6227 
   -5436    -6677    -8253    -9813   -11134   -11418   -10631    -8692 
   -6916    -8397   -12526   -15269   -14793   -11534    -7177    -4678 
   -5444    -8049   -10433   -11503   -11113   -10105    -9770    -9908 
   -9414    -8918    -9613   -11203   -12411   -11713    -9554    -8890 
  -10690   -12498   -12240    -9979    -7067    -5395    -5860    -7356 
   -8264    -8174    -8124    -9515   -12330   -14977   -15877   -14732 
  -12403   -10190    -9149    -8971    -8412    -7179    -5933    -5247 
   -5630    -7402    -9978   -12414   -14239   -14856   -13673   -11141 
   -8582    -7418    -8297   -10001   -10269    -8731    -7536    -7976 
   -9177   -10748   -12538   -12646   -10094    -7176    -6445    -8182 
  -11073   -12962   -12385   -10173    -8186    -7906    -9663   -11219 
  -10535    -9245    -9492   -10835   -11559   -11051   -10469   -10260 
   -9548    -8461    -8034    -8510    -8947    -8703    -8521    -8939 
   -9713   -10642   -11389   -11912   -12277   -12047   -11173   -10053 
   -8615    -6707    -5424    -6308    -8504    -9931   -10575   -11048 
  -11542   -12866   -14261   -13500   -10688    -8167    -7540    -8229 
   -8394    -7962    -8654   -10092   -10614   -10532   -10534   -10369 
   -9950    -9744   -10219   -10640   -10036    -9104    -9029    -9619 
   -9811    -9391    -9043    -9211    -9932   -10463    -9770    -8758 
   -9205   -10530   -11019   -10697   -10295    -9881    -9658    -9653 
   -9566    -9751   -10270   -10544   -10799   -10990   -10081    -8588 
   -8134    -8522    -9142   -10457   -11658   -11127    -9289    -7745 
   -7480    -8732   -10645   -11348   -10138    -8969    -9478   -10796 
  -11690   -11627   -10791   -10097    -9695    -9358    -9590   -10126 
   -9973    -9487    -9527    -9576    -9130    -8942    -9413    -9973 
  -10190    -9886    -9079    -8515    -8839    -9455    -9894   -10692 
  -11482   -11279   -10619   -10366   -10231    -9887    -9416    -9115 
   -9379    -9793    -9555    -8909    -8752    -9415   -10178   -10126 
   -9798   -10257   -11114   -11292   -10467    -9436    -9226    -9501 
   -9497    -9539    -9694    -9538    -9551   -10073   -10539   -10676 
  -10380    -9373    -8294    -8402    -9614   -10554   -10422    -9821 
   -9766   -10129   -10053    -9490    -9105    -9467   -10345   -10692 
  -10291   -10161   -10504   -10506   -10251   -10202    -9923    -9357 
   -9282    -9813   -10140    -9686    -8868    -8536    -8983    -9777 
  -10098    -9670    -9261    -9737   -11100   -12152   -11347    -9237 
   -8229    -8868    -9676   -10066   -10234   -10061    -9632    -9556 
  -10219   -10827   -10200    -8646    -7790    -8550   -10143   -11169 
  -11136   -10562    -9999    -9820    -9999    -9889    -9547    -9586 
   -9499    -8956    -9124   -10435   -11450   -11084   -10022    -9435 
   -9212    -8728    -8546    -9291   -10452   -11147   -10800    -9747 
   -9107    -9501   -10379   -10652    -9979    -9205    -9135    -9701 
