Origin Time       2016/07/11 09:46:00
Lat.              41.927
Long.             141.005
Depth. (km)       8
Mag.              2.9
Station Code      HKD157
Station Lat.      41.9051
Station Long.     140.9697
Station Height(m) 37
Record Time       2016/07/11 09:46:20
Sampling Freq(Hz) 100Hz
Duration Time(s)  60
Dir.              U-D
Scale Factor      3920(gal)/6182761
Max. Acc. (gal)   71.334
Last Correction   2016/07/11 09:46:21
Memo.             
[...]
  -11519   -11516   -11513   -11518   -11516   -11513   -11513   -11511 
  -11513   -11521   -11520   -11512   -11512   -11514   -11510   -11513 
  -11520   -11520   -11517   -11513   -11505   -11508   -11519   -11524 
  -11519   -11512   -11508   -11513   -11516   -11512   -11517   -11520 
  -11515   -11514   -11518   -11517   -11515   -11514   -11510   -11512 
  -11517   -11518   -11519   -11519   -11514   -11512   -11507   -11507 
  -11521   -11522   -11511   -11514   -11522   -11517   -11510   -11513 
  -11515   -11510   -11507   -11518   -11523   -11518   -11513   -11512 
  -11514   -11512   -11508   -11512   -11520   -11522   -11517   -11510 
  -11510   -11513   -11512   -11513   -11515   -11515   -11515   -11517 
  -11522   -11517   -11508   -11509   -11510   -11511   -11518   -11523 
  -11521   -11515   -11509   -11506   -11515   -11520   -11512   -11511 
  -11518   -11515   -11511   -11520   -11523   -11513   -11504   -11504 
  -11515   -11527   -11522   -11512   -11512   -11513   -11510   -11507 
  -11510   -11516   -11520   -11520   -11518   -11513   -11511   -11515 
  -11513   -11506   -11508   -11519   -11524   -11522   -11516   -11509 
  -11506   -11508   -11512   -11520   -11522   -11515   -11511   -11513 
  -11514   -11517   -11520   -11512   -11505   -11512   -11519   -11518 
  -11516   -11516   -11513   -11510   -11513   -11516   -11513   -11513 
  -11520   -11521   -11514   -11508   -11509   -11515   -11518   -11515 
  -11512   -11515   -11518   -11514   -11511   -11515   -11516   -11511 
  -11513   -11514   -11518   -11521   -11514   -11511   -11514   -11512 
  -11515   -11516   -11511   -11514   -11518   -11516   -11518   -11518 
  -11514   -11515   -11515   -11509   -11509   -11518   -11523   -11518 
  -11509   -11512   -11516   -11512   -11512   -11519   -11521   -11517 
  -11510   -11508   -11515   -11520   -11515   -11507   -11509   -11519 
  -11521   -11516   -11514   -11514   -11511   -11512   -11515   -11515 
  -11514   -11515   -11519   -11521   -11515   -11507   -11507   -11513 
  -11518   -11514   -11510   -11518   -11523   -11514   -11511   -11511 
  -11512   -11520   -11522   -11512   -11507   -11509   -11515   -11517 
  -11516   -11515   -11516   -11512   -11509   -11514   -11517   -11511 
  -11512   -11519   -11522   -11518   -11513   -11511   -11512   -11510 
  -11512   -11522   -11525   -11518   -11512   -11508   -11506   -11512 
  -11519   -11518   -11520   -11521   -11515   -11509   -11509   -11510 
  -11514   -11519   -11520   -11518   -11519   -11516   -11510   -11509 
  -11513   -11514   -11517   -11519   -11517   -11515   -11509   -11509 
  -11516   -11515   -11509   -11512   -11518   -11518   -11514   -11514 
  -11518   -11513   -11509   -11514   -11511   -11509   -11517   -11524 
  -11523   -11515   -11508   -11510   -11515   -11517   -11512   -11513 
  -11521   -11523   -11517   -11515   -11509   -11504   -11510   -11516 
  -11520   -11527   -11520   -11509   -11510   -11509   -11507   -11513 
  -11519   -11519   -11516   -11513   -11512   -11513   -11515   -11515 
  -11510   -11511   -11520   -11520   -11517   -11515   -11510   -11510 
  -11517   -11518   -11514   -11515   -11519   -11517   -11506   -11506 
  -11514   -11520   -11522   -11517   -11510   -11510   -11512   -11515 
  -11518   -11518   -11515   -11511   -11508   -11512   -11521   -11522 
  -11514   -11512   -11510   -11509   -11514   -11520   -11520   -11517 
  -11513   -11511   -11512   -11515   -11517   -11517   -11513   -11512 
  -11516   -11517   -11515   -11517   -11513   -11505   -11510   -11521 
  -11522   -11521   -11519   -11510   -11508   -11513   -11511   -11511 
  -11520   -11527   -11523   -11512   -11502   -11507   -11519   -11520 
  -11519   -11522   -11518   -11512   -11511   -11506   -11504   -11519 
  -11530   -11520   -11510   -11514   -11517   -11508   -11505   -11518 
  -11529   -11523   -11514   -11511   -11510   -11514   -11522   -11524 
  -11521   -11514   -11506   -11510   -11516   -11518   -11518   -11514 
  -11512   -11520   -11520   -11512   -11513   -11513   -11512   -11517 
  -11516   -11517   -11520   -11509   -11498   -11514   -11533   -11524 
  -11505   -11507   -11515   -11513   -11515   -11516   -11511   -11516 
  -11518   -11511   -11513   -11520   -11519   -11509   -11502   -11509 
  -11515   -11516   -11524   -11522   -11510   -11506   -11509   -11514 
  -11520   -11520   -11513   -11508   -11512   -11517   -11513   -11514 
  -11519   -11515   -11511   -11513   -11519   -11521   -11513   -11510 
  -11513   -11511   -11514   -11520   -11513   -11509   -11518   -11520 
  -11514   -11516   -11520   -11510   -11503   -11510   -11523   -11526 
  -11518   -11515   -11512   -11507   -11513   -11518   -11516   -11517 
  -11514   -11505   -11511   -11524   -11522   -11514   -11511   -11513 
  -11513   -11513   -11520   -11521   -11509   -11507   -11517   -11516 
  -11512   -11518   -11522   -11509   -11502   -11512   -11523   -11524 
  -11516   -11506   -11508   -11517   -11521   -11519   -11516   -11513 
  -11513   -11516   -11515   -11510   -11514   -11519   -11512   -11510 
  -11517   -11517   -11515   -11513   -11510   -11513   -11512   -11511 
  -11517   -11518   -11513   -11514   -11515   -11514   -11516   -11520 
  -11518   -11509   -11506   -11514   -11517   -11515   -11517   -11517 
  -11514   -11510   -11511   -11514   -11515   -11519   -11519   -11515 
  -11518   -11516   -11509   -11510   -11513   -11512   -11516   -11523 
  -11522   -11516   -11512   -11507   -11506   -11514   -11523   -11524 
  -11515   -11511   -11520   -11522   -11510   -11509   -11516   -11511 
  -11508   -11521   -11528   -11519   -11512   -11508   -11506   -11513 
  -11521   -11522   -11520   -11516   -11512   -11510   -11511   -11512 
  -11517   -11521   -11517   -11511   -11514   -11518   -11514   -11512 
  -11513   -11513   -11514   -11515   -11518   -11520   -11514   -11508 
  -11509   -11514   -11519   -11518   -11517   -11517   -11512   -11509 
  -11512   -11514   -11516   -11520   -11520   -11516   -11513   -11511 
  -11516   -11519   -11512   -11510   -11518   -11523   -11517   -11510 
  -11515   -11519   -11510   -11509   -11520   -11520   -11513   -11509 
  -11508   -11515   -11522   -11517   -11510   -11512   -11515   -11517 
  -11518   -11515   -11509   -11512   -11519   -11517   -11513   -11511 
  -11509   -11518   -11525   -11517   -11508   -11508   -11512   -11517 
  -11518   -11510   -11513   -11520   -11514   -11511   -11515   -11516 
  -11515   -11514   -11513   -11512   -11514   -11518   -11522   -11515 
  -11510   -11514   -11517   -11514   -11513   -11515   -11517   -11517 
  -11515   -11513   -11510   -11512   -11520   -11520   -11513   -11512 
  -11513   -11513   -11517   -11518   -11514   -11514   -11516   -11513 
  -11515   -11519   -11517   -11513   -11511   -11510   -11514   -11521 
  -11519   -11517   -11514   -11506   -11512   -11521   -11516   -11512 
  -11513   -11516   -11519   -11517   -11513   -11512   -11515   -11518 
  -11515   -11511   -11516   -11519   -11514   -11513   -11520   -11519 
  -11512   -11514   -11518   -11513   -11512   -11514   -11515   -11518 
  -11514   -11511   -11517   -11519   -11513   -11517   -11521   -11512 
  -11507   -11514   -11520   -11515   -11511   -11512   -11514   -11519 
  -11520   -11515   -11512   -11513   -11513   -11513   -11513   -11516 
  -11517   -11516   -11516   -11511   -11510   -11518   -11519   -11515 
  -11517   -11516   -11511   -11516   -11519   -11513   -11514   -11519 
  -11517   -11516   -11518   -11514   -11510   -11513   -11519   -11519 
  -11518   -11515   -11511   -11512   -11513   -11510   -11513   -11518 
  -11518   -11518   -11518   -11514   -11513   -11513   -11512   -11514 
  -11520   -11520   -11516   -11516   -11515   -11511   -11510   -11514 
  -11517   -11520   -11523   -11518   -11512   -11510   -11513   -11516 
  -11512   -11511   -11520   -11524   -11515   -11509   -11512   -11516 
  -11519   -11514   -11510   -11519   -11525   -11519   -11514   -11511 
  -11508   -11512   -11516   -11517   -11522   -11521   -11510   -11509 
  -11517   -11513   -11508   -11514   -11522   -11518   -11514   -11516 
  -11518   -11514   -11509   -11512   -11516   -11514   -11514   -11516 
  -11517   -11516   -11513   -11512   -11515   -11514   -11513   -11517 
  -11516   -11514   -11517   -11518   -11513   -11512   -11515   -11515 
  -11516   -11516   -11514   -11512   -11510   -11515   -11519   -11515 
  -11515   -11522   -11518   -11509   -11509   -11514   -11516   -11519 
  -11519   -11518   -11518   -11514   -11510   -11514   -11513   -11512 
  -11516   -11516   -11516   -11521   -11516   -11507   -11510   -11515 
  -11514   -11515   -11518   -11519   -11516   -11515   -11515   -11513 
  -11511   -11511   -11517   -11523   -11517   -11509   -11515   -11517 
  -11510   -11511   -11520   -11520   -11517   -11517   -11515   -11511 
  -11511   -11514   -11522   -11524   -11511   -11507   -11517   -11521 
  -11514   -11507   -11514   -11522   -11516   -11508   -11513   -11519 
  -11518   -11516   -11509   -11509   -11519   -11518   -11510   -11514 
  -11520   -11519   -11516   -11511   -11511   -11516   -11515   -11512 
  -11519   -11521   -11513   -11514   -11518   -11514   -11511   -11517 
  -11522   -11513   -11502   -11511   -11530   -11527   -11510   -11508 
  -11514   -11512   -11509   -11514   -11522   -11522   -11515   -11514 
  -11517   -11515   -11507   -11506   -11516   -11522   -11517   -11514 
  -11515   -11517   -11514   -11507   -11507   -11517   -11523   -11521 
  -11519   -11514   -11506   -11507   -11516   -11518   -11518   -11520 
  -11521   -11516   -11507   -11507   -11517   -11524   -11521   -11513 
  -11510   -11516   -11520   -11516   -11514   -11518   -11517   -11510 
  -11507   -11514   -11522   -11520   -11514   -11513   -11512   -11512 
  -11514   -11515   -11520   -11522   -11512   -11505   -11511   -11517 
  -11515   -11513   -11516   -11518   -11512   -11511   -11516   -11519 
  -11513   -11507   -11511   -11519   -11518   -11513   -11515   -11516 
  -11512   -11510   -11515   -11518   -11516   -11513   -11514   -11515 
  -11518   -11517   -11513   -11516   -11518   -11512   -11510   -11512 
  -11516   -11521   -11521   -11517   -11513   -11509   -11509   -11517 
  -11521   -11517   -11514   -11513   -11512   -11513   -11513   -11516 
  -11522   -11521   -11515   -11513   -11514   -11516   -11516   -11512 
  -11512   -11520   -11522   -11516   -11513   -11510   -11512   -11518 
  -11516   -11511   -11513   -11520   -11519   -11515   -11514   -11514 
  -11513   -11512   -11514   -11518   -11519   -11515   -11514   -11517 
  -11515   -11514   -11514   -11511   -11512   -11517   -11517   -11514 
  -11515   -11519   -11519   -11514   -11511   -11514   -11517   -11515 
  -11512   -11516   -11520   -11518   -11514   -11512   -11512   -11514 
  -11516   -11515   -11516   -11520   -11520   -11513   -11510   -11513 
  -11515   -11515   -11517   -11515   -11512   -11515   -11517   -11513 
  -11511   -11515   -11517   -11514   -11513   -11516   -11521   -11520 
  -11512   -11513   -11516   -11516   -11516   -11515   -11514   -11514 
  -11514   -11514   -11517   -11519   -11517   -11512   -11512   -11518 
  -11520   -11516   -11511   -11509   -11514   -11517   -11516   -11516 
  -11521   -11519   -11511   -11511   -11515   -11515   -11516   -11518 
  -11517   -11517   -11517   -11513   -11512   -11515   -11518   -11519 
  -11518   -11519   -11519   -11514   -11508   -11511   -11517   -11520 
  -11522   -11521   -11516   -11510   -11507   -11511   -11519   -11524 
  -11525   -11520   -11511   -11508   -11514   -11518   -11516   -11516 
  -11516   -11514   -11516   -11518   -11515   -11514   -11513   -11516 
  -11518   -11512   -11511   -11520   -11524   -11516   -11509   -11512 
  -11519   -11519   -11517   -11519   -11520   -11516   -11513   -11512 
  -11510   -11512   -11519   -11524   -11518   -11511   -11509   -11514 
  -11521   -11522   -11517   -11511   -11511   -11519   -11524   -11519 
  -11511   -11510   -11515   -11516   -11516   -11519   -11521   -11521 
  -11513   -11507   -11513   -11520   -11517   -11516   -11519   -11518 
  -11512   -11512   -11519   -11517   -11513   -11514   -11514   -11516 
  -11517   -11514   -11516   -11518   -11514   -11512   -11511   -11511 
  -11514   -11517   -11520   -11518   -11511   -11512   -11517   -11519 
  -11517   -11514   -11514   -11514   -11511   -11510   -11516   -11520 
  -11515   -11513   -11519   -11519   -11512   -11512   -11516   -11516 
  -11513   -11514   -11518   -11520   -11518   -11517   -11514   -11510 
  -11510   -11515   -11518   -11517   -11517   -11519   -11518   -11510 
  -11506   -11510   -11518   -11519   -11516   -11515   -11515   -11514 
  -11516   -11514   -11513   -11516   -11517   -11513   -11510   -11511 
  -11517   -11520   -11517   -11515   -11515   -11511   -11511   -11516 
  -11520   -11520   -11515   -11512   -11513   -11518   -11520   -11515 
  -11514   -11517   -11518   -11517   -11516   -11512   -11512   -11516 
  -11519   -11517   -11514   -11515   -11515   -11513   -11513   -11518 
  -11521   -11514   -11509   -11513   -11516   -11516   -11519   -11523 
  -11520   -11512   -11510   -11513   -11516   -11519   -11520   -11518 
  -11512   -11510   -11515   -11517   -11515   -11517   -11520   -11517 
  -11514   -11515   -11514   -11512   -11516   -11517   -11515   -11517 
  -11517   -11515   -11514   -11514   -11512   -11513   -11517   -11518 
  -11515   -11512   -11423   -10135    -2039    19429    28225   -31326 
 -110803   -80734    -7040     2246    53243   100995    15189   -47678 
  -40850   -85545   -90637    -7372    39043    42413    43300     4271 
  -43179   -49518   -46982   -32493    10663    22235    -5207    -9813 
   -6633   -20570   -19888   -11476   -20103   -26706   -13270     4404 
    8861     3832    -8077   -27681   -40136   -30987   -13621     1272 
   22777    21751   -16769   -36565   -26845   -25715   -30651   -17196 
   16072    21347    -4979    -9715   -19300   -41741   -29032    -9800 
     969    12617    -6075   -21036    -7467   -13157   -22435   -20128 
  -28442   -13164    18456    16424     -338   -23673   -59845   -59280 
  -13026    25846    38520    33997    12294   -17108   -49470   -97199 
 -106252   -15477    73021    78921    60109    -9234  -110290   -81562 
   35621    37618   -40331   -40905   -19146   -30329    11794    56903 
    9542   -53373   -47964    -7649     -886   -26608   -30234    -5733 
   11038     4436   -14460   -23707   -15254    -3895     1302    -1132 
  -15679   -25990   -17453   -12486   -25664   -29724    -5883    17858 
   12238   -12688   -31338   -29195   -10146     3676    -1930   -12411 
  -14624   -16021   -19454   -19539   -12367    -1010    -1943   -15865 
  -18989    -7241     -111    -6941   -20999   -30403   -25932    -7100 
   11984    12452    -4165   -19400   -24254   -23202   -21530   -18975 
  -13504    -6403    -1699    -1524    -4863   -11428   -18063   -19619 
  -17022   -12883    -7923    -4312    -6834   -14737   -17283   -13136 
  -11090    -9493    -6218    -7497   -12156   -13233   -11308   -10549 
  -11958   -16025   -19749   -14326    -1839     1769    -7662   -18848 
  -23916   -21181   -13301    -7790    -6918    -6269    -6184    -9915 
  -14887   -15755   -12660    -9615    -7437    -7596   -11990   -14955 
  -12821   -11126   -12391   -13739   -14134   -13041   -10658    -9624 
   -9861    -9692   -10910   -13242   -12636    -9776    -8845    -9685 
  -10577   -12790   -15698   -15280   -11270    -7964    -8675   -12756 
  -15693   -14718   -12471   -11430   -11001   -10686   -10529    -9994 
   -8512    -7148    -8199   -11569   -14587   -15460   -14616   -12967 
  -10842    -9455    -9686   -10437   -10964   -11532   -11921   -11625 
  -11316   -12324   -13462   -12785   -11613   -11384   -11451   -11483 
  -11214   -10618   -11333   -13635   -14172   -11446    -8919    -9010 
  -10440   -11755   -12440   -12301   -11916   -11933   -11577   -10416 
   -9837   -10672   -12235   -13031   -12244   -11156   -10680   -10417 
  -10701   -11425   -11710   -12323   -13730   -13461   -10781    -8811 
   -9094   -11143   -14162   -15276   -13178   -11083   -11160   -11670 
  -10527    -8504    -8640   -11786   -14681   -14538   -12285   -10077 
   -8891    -8700    -9520   -11598   -13843   -14620   -13727   -11365 
   -8858    -8621   -10141   -11335   -12568   -14181   -14542   -13006 
  -10640    -8692    -8600   -10714   -13103   -14111   -13659   -12112 
  -10422    -9575    -9591   -10201   -11241   -12140   -12427   -12545 
  -12632   -12050   -11273   -11035   -10964   -11492   -12497   -12156 
  -11253   -11620   -11882   -11485   -11754   -11717   -10543    -9886 
  -10424   -11360   -12111   -12251   -12256   -12534   -11692    -9831 
   -9523   -10762   -11717   -12211   -12373   -12704   -13244   -12347 
  -10569   -10302   -10891   -10906   -11472   -12432   -11895   -11110 
  -11802   -11946   -10760   -10548   -11297   -11644   -12142   -12471 
  -11545   -10390   -10262   -11044   -12202   -12904   -12824   -12549 
  -12100   -11265   -10679   -10234    -9523   -10038   -12013   -13057 
  -12966   -12814   -11811   -10526   -10340   -10385   -10703   -12188 
  -13251   -12819   -12017   -11128   -10256   -10386   -11082   -11581 
  -12419   -12863   -12058   -11285   -10829   -10252   -10479   -11294 
  -11888   -12514   -12665   -11990   -11312   -10751   -10425   -11032 
  -11868   -12083   -12243   -12255   -11499   -10342    -9738   -10649 
  -12459   -13117   -12404   -11816   -11476   -10821   -10451   -10832 
  -11608   -12141   -12167   -12575   -13262   -12553   -10813    -9825 
   -9752    -9989   -10601   -12030   -13489   -13281   -11866   -10758 
   -9955    -9695   -10594   -12177   -13626   -13641   -11871   -10631 
  -10851   -10857   -10727   -11373   -12282   -13039   -12911   -11676 
  -10638    -9938    -9813   -11140   -12257   -12104   -12110   -12264 
  -11841   -11174   -10594   -10709   -11422   -11599   -11823   -12957 
  -13195   -11479    -9699    -9371   -10606   -12474   -13027   -12165 
  -11434   -10992   -10696   -10831   -11316   -12319   -13219   -12813 
  -11553   -10503   -10201   -10822   -11364   -11217   -11497   -12244 
  -12223   -11559   -11048   -11203   -11881   -11852   -11156   -11013 
  -11309   -11677   -12017   -12034   -11802   -11321   -10981   -11280 
  -11669   -12011   -12338   -11787   -10766   -10659   -11256   -11678 
  -11689   -11400   -11375   -11561   -11325   -11446   -12282   -12339 
  -11495   -10946   -10897   -11357   -11992   -11839   -11282   -11438 
  -11840   -11716   -11566   -11570   -11328   -11211   -11299   -10960 
  -10824   -11869   -12853   -12422   -11486   -10840   -10438   -10954 
  -12070   -12271   -11785   -11584   -11347   -11080   -11181   -11209 
  -11228   -11700   -11950   -11637   -11498   -11527   -11169   -10898 
  -11420   -12154   -12351   -12182   -11556   -10725   -10917   -11774 
  -11846   -11476   -11394   -11258   -11262   -11741   -12141   -12198 
  -11886   -11158   -10758   -10846   -10811   -11116   -11890   -12247 
  -12291   -12254   -11599   -10742   -10569   -10899   -11447   -12135 
  -12305   -11796   -11414   -11397   -11352   -11299   -11332   -11285 
  -11258   -11519   -11952   -12148   -11957   -11590   -11229   -10898 
  -10775   -11286   -12213   -12491   -11858   -11259   -11111   -11093 
