Origin Time       2014/12/26 22:30:00
Lat.              35.285
Long.             135.895
Depth. (km)       14
Mag.              4.2
Station Code      GIFH27
Station Lat.      35.4527
Station Long.     137.004
Station Height(m) 85
Record Time       2014/12/26 22:31:04
Sampling Freq(Hz) 100Hz
Duration Time(s)  120
Dir.              5
Scale Factor      3920(gal)/6170801
Max. Acc. (gal)   1.946
Last Correction   2014/12/26 22:30:49
Memo.             
[...]
  -12020   -12015   -12007   -12007   -12008   -12009   -12012   -12012 
  -12007   -12010   -12016   -12017   -12012   -12010   -12008   -12005 
  -12008   -12012   -12009   -12004   -12005   -12011   -12018   -12017 
  -12009   -12011   -12017   -12012   -12005   -12006   -12009   -12011 
  -12009   -12007   -12013   -12019   -12018   -12008   -12003   -12008 
  -12013   -12015   -12013   -12007   -12004   -12008   -12014   -12016 
  -12012   -12010   -12011   -12010   -12006   -12006   -12006   -12007 
  -12013   -12016   -12014   -12014   -12014   -12012   -12009   -12004 
  -12004   -12010   -12012   -12009   -12004   -12003   -12013   -12023 
  -12018   -12011   -12009   -12008   -12012   -12016   -12010   -12004 
  -12007   -12014   -12017   -12014   -12007   -12008   -12014   -12014 
  -12011   -12008   -12008   -12012   -12014   -12012   -12011   -12016 
  -12022   -12014   -12003   -12000   -12008   -12017   -12011   -12002 
  -12005   -12013   -12019   -12018   -12012   -12009   -12012   -12016 
  -12013   -12007   -12006   -12007   -12012   -12014   -12007   -12003 
  -12014   -12024   -12017   -12008   -12020   -12040   -12055   -12060 
  -12053   -12048   -12059   -12091   -12135   -12149   -12096   -11980 
  -11856   -11809   -11874   -12002   -12096   -12087   -11988   -11892 
  -11890   -11962   -11992   -11908   -11782   -11776   -11968   -12240 
  -12380   -12287   -12065   -11913   -11918   -11983   -11972   -11852 
  -11714   -11712   -11922   -12223   -12365   -12228   -11968   -11821 
  -11873   -12055   -12177   -12044   -11758   -11712   -12047   -12477 
  -12683   -12512   -11993   -11468   -11360   -11695   -12069   -12109 
  -11952   -11994   -12167   -12159   -12113   -12171   -12024   -11718 
  -11767   -12167   -12458   -12423   -12043   -11603   -11610   -11952 
  -12107   -12124   -12210   -12150   -11907   -11777   -11841   -11969 
  -12036   -12081   -12234   -12306   -12105   -11952   -11969   -11876 
  -11857   -12130   -12161   -11662   -11266   -11525   -12211   -12706 
  -12600   -12016   -11476   -11395   -11737   -12133   -12299   -12257 
  -12137   -12097   -12289   -12554   -12547   -12190   -11733   -11527 
  -11643   -11796   -11870   -12002   -12090   -11991   -11975   -12205 
  -12271   -11975   -11661   -11574   -11761   -12148   -12387   -12247 
  -11965   -11868   -12016   -12311   -12551   -12474   -12011   -11438 
  -11286   -11763   -12357   -12472   -12087   -11610   -11508   -11934 
  -12429   -12370   -11965   -11963   -12238   -12124   -11796   -11720 
  -11818   -12018   -12286   -12305   -12030   -11815   -11793   -11809 
  -11741   -11698   -11952   -12377   -12494   -12306   -12099   -11861 
  -11743   -11947   -12162   -12109   -11940   -11896   -12079   -12329 
  -12400   -12108   -11444   -10983   -11392   -12358   -12935   -12687 
  -11911   -11310   -11557   -12403   -12766   -12374   -11932   -11741 
  -11787   -12153   -12382   -11988   -11425   -11399   -11908   -12414 
  -12541   -12376   -12112   -11907   -11915   -11933   -11658   -11367 
  -11507   -11948   -12311   -12463   -12373   -12048   -11762   -11850 
  -12082   -12018   -11805   -11729   -11809   -12112   -12536   -12759 
  -12714   -12436   -11921   -11394   -11206   -11474   -11912   -12107 
  -12114   -12231   -12304   -12117   -11910   -11896   -12011   -12118 
  -12083   -11883   -11750   -11911   -12130   -12109   -12042   -12133 
  -12197   -12121   -11977   -11774   -11577   -11582   -11883   -12328 
  -12635   -12555   -12100   -11608   -11495   -11859   -12258   -12206 
  -11834   -11645   -11855   -12239   -12416   -12254   -12015   -11975 
  -12047   -12031   -11957   -11902   -11808   -11719   -11813   -12024 
  -12199   -12297   -12184   -11943   -11904   -11999   -12004   -11969 
  -11946   -11955   -12065   -12196   -12205   -12080   -11906   -11817 
  -11939   -12184   -12290   -12103   -11820   -11765   -11922   -12091 
  -12131   -11931   -11677   -11762   -12182   -12488   -12367   -12028 
  -11864   -11910   -11957   -11893   -11737   -11662   -11855   -12176 
  -12303   -12189   -12073   -12061   -11993   -11791   -11654   -11767 
  -12054   -12336   -12409   -12170   -11931   -11995   -12143   -12199 
  -12240   -12121   -11827   -11736   -11928   -12114   -12179   -12141 
  -12068   -12068   -12057   -11907   -11680   -11588   -11791   -12105 
  -12186   -12022   -11858   -11842   -11975   -12191   -12308   -12140 
  -11826   -11686   -11807   -12142   -12498   -12493   -12114   -11774 
  -11724   -11861   -11952   -11986   -12076   -12043   -11779   -11615 
  -11799   -12206   -12618   -12830   -12651   -12080   -11396   -11100 
  -11476   -12129   -12501   -12479   -12185   -11830   -11689   -11788 
  -11888   -11891   -11942   -12061   -12088   -11997   -11910   -11927 
  -12045   -12176   -12217   -12093   -11898   -11842   -12010   -12209 
  -12189   -12034   -11964   -11966   -11980   -12003   -12030   -12104 
  -12185   -12170   -12089   -12022   -11914   -11785   -11847   -12069 
  -12218   -12156   -11857   -11674   -11939   -12269   -12237   -11993 
  -11779   -11711   -11854   -12046   -12136   -12187   -12145   -11947 
  -11734   -11686   -11933   -12315   -12400   -12134   -11894   -11844 
  -11898   -12039   -12159   -12103   -11953   -11840   -11781   -11841 
  -12088   -12378   -12372   -12049   -11802   -11812   -11948   -12099 
  -12115   -11966   -11882   -11929   -12012   -12198   -12351   -12112 
  -11680   -11613   -11958   -12347   -12378   -11934   -11528   -11680 
  -12165   -12457   -12313   -11889   -11628   -11790   -12192   -12458 
  -12365   -12060   -11793   -11657   -11737   -11996   -12207   -12192 
  -11990   -11878   -12078   -12405   -12419   -12044   -11693   -11577 
  -11617   -11795   -11936   -11932   -12040   -12269   -12354   -12254 
  -11997   -11681   -11594   -11838   -12151   -12196   -11941   -11771 
  -12031   -12467   -12544   -12237   -11933   -11827   -11859   -11896 
  -11833   -11765   -11876   -12097   -12198   -12175   -12160   -12138 
  -12062   -11998   -11955   -11865   -11757   -11755   -11886   -11987 
  -11981   -12008   -12093   -12144   -12175   -12147   -12024   -12048 
  -12323   -12513   -12339   -11891   -11530   -11580   -11930   -12165 
  -12078   -11825   -11705   -11893   -12210   -12310   -12179   -12023 
  -11901   -11889   -11945   -11890   -11907   -12180   -12396   -12324 
  -12074   -11773   -11639   -11828   -12056   -12024   -11825   -11725 
  -11898   -12195   -12279   -12133   -11985   -11954   -12002   -11989 
  -11866   -11807   -11995   -12260   -12265   -12049   -11908   -11924 
  -12023   -12185   -12230   -12027   -11914   -12057   -12075   -11892 
  -11767   -11695   -11699   -11980   -12447   -12725   -12581   -12080 
  -11602   -11559   -11893   -12171   -12108   -11858   -11836   -12106 
  -12294   -12182   -11870   -11605   -11658   -11937   -12086   -12132 
  -12207   -12131   -11996   -12095   -12229   -12148   -11971   -11756 
  -11534   -11515   -11747   -12034   -12270   -12424   -12414   -12247 
  -12025   -11868   -11878   -11988   -12013   -11922   -11836   -11876 
  -12047   -12232   -12306   -12160   -11868   -11756   -11930   -12202 
  -12374   -12217   -11791   -11559   -11748   -12161   -12424   -12236 
  -11761   -11560   -11870   -12353   -12501   -12083   -11521   -11510 
  -12012   -12385   -12273   -11830   -11517   -11679   -12134   -12432 
  -12435   -12342   -12272   -12107   -11850   -11792   -11969   -12037 
  -11954   -11916   -11906   -11937   -12037   -12047   -11961   -11959 
  -12053   -12091   -12000   -11873   -11794   -11780   -11889   -12031 
  -12084   -12188   -12353   -12270   -11908   -11686   -11844   -12175 
  -12370   -12184   -11721   -11558   -11895   -12291   -12499   -12505 
  -12249   -11877   -11639   -11621   -11773   -11951   -12055   -12090 
  -12101   -12126   -12080   -11897   -11807   -11912   -11931   -11837 
  -11893   -12089   -12293   -12403   -12269   -12020   -11916   -11886 
  -11834   -11795   -11756   -11881   -12211   -12367   -12279   -12200 
  -12089   -11984   -12011   -11931   -11742   -11693   -11658   -11701 
  -12068   -12471   -12582   -12407   -12091   -11917   -11956   -11909 
  -11720   -11658   -11800   -12032   -12157   -12048   -11944   -12017 
  -12064   -12081   -12235   -12333   -12174   -11948   -11830   -11825 
  -11920   -11921   -11721   -11691   -12032   -12297   -12213   -12020 
  -11916   -11970   -12116   -12115   -11998   -11985   -12050   -12107 
  -12124   -12023   -11866   -11816   -11917   -12121   -12252   -12148 
  -11913   -11735   -11761   -12046   -12263   -12158   -12029   -12066 
  -12107   -12127   -12101   -11945   -11801   -11794   -11800   -11756 
  -11793   -11976   -12201   -12319   -12276   -12179   -12118   -12069 
  -12028   -11970   -11874   -11827   -11894   -12046   -12185   -12208 
  -12129   -12016   -11881   -11797   -11855   -11999   -12131   -12167 
  -12066   -11978   -12024   -12108   -12121   -12022   -11860   -11777 
  -11816   -11947   -12114   -12133   -11931   -11769   -11854   -12078 
  -12287   -12324   -12064   -11723   -11639   -11802   -11996   -12119 
  -12191   -12234   -12239   -12188   -12077   -11902   -11765   -11849 
  -12083   -12211   -12162   -12038   -11925   -11920   -12075   -12198 
  -12116   -12013   -11963   -11789   -11635   -11793   -12080   -12185 
  -12146   -12042   -11953   -12038   -12217   -12271   -12149   -11932 
  -11810   -11919   -12084   -12037   -11854   -11824   -11988   -12116 
  -12068   -11941   -11858   -11898   -12021   -12044   -11988   -11974 
  -11919   -11846   -11935   -12168   -12345   -12326   -12162   -11995 
  -11880   -11852   -11908   -11944   -11933   -11948   -11996   -12068 
  -12204   -12313   -12192   -11898   -11761   -11884   -12081   -12209 
  -12163   -11906   -11701   -11814   -12036   -12090   -12065   -12065 
  -12076   -12095   -12045   -11948   -11959   -12055   -12073   -11958 
  -11781   -11720   -11912   -12199   -12306   -12207   -12060   -11986 
  -11976   -11929   -11868   -11882   -11945   -12048   -12156   -12105 
  -11942   -11886   -11964   -12094   -12185   -12125   -11933   -11839 
  -11976   -12057   -11860   -11697   -11828   -12115   -12341   -12323 
  -12091   -11965   -12077   -12225   -12200   -12026   -11895   -11842 
  -11767   -11782   -11985   -12144   -12123   -12103   -12115   -12024 
  -11931   -11996   -12084   -12002   -11818   -11762   -11923   -12144 
  -12167   -11981   -11885   -12017   -12207   -12323   -12234   -11918 
  -11723   -11844   -12001   -11993   -11939   -11945   -11955   -11985 
  -12106   -12220   -12204   -12065   -11881   -11792   -11877   -12056 
  -12147   -12067   -11984   -12004   -12017   -11974   -11942   -11979 
  -12011   -11896   -11733   -11783   -12055   -12343   -12450   -12257 
  -11956   -11871   -11917   -11919   -11957   -12047   -12163   -12247 
  -12102   -11805   -11664   -11724   -11876   -12087   -12288   -12377 
  -12290   -12042   -11798   -11752   -11875   -11965   -11948   -11928 
  -11978   -12087   -12191   -12244   -12262   -12202   -11992   -11730 
  -11622   -11758   -12046   -12217   -12079   -11850   -11885   -12113 
  -12220   -12163   -12097   -12067   -11985   -11801   -11675   -11858 
  -12252   -12421   -12193   -11846   -11646   -11670   -11909   -12203 
  -12330   -12265   -12132   -12015   -12009   -12149   -12189   -11970 
  -11767   -11772   -11863   -11944   -11949   -11889   -11933   -12075 
  -12124   -12095   -12065   -11986   -11967   -12104   -12152   -12015 
  -11948   -12022   -12114   -12157   -12066   -11914   -11874   -11925 
  -12032   -12197   -12285   -12236   -12134   -12020   -11958   -11951 
  -11872   -11736   -11707   -11860   -12162   -12455   -12533   -12297 
  -11830   -11443   -11454   -11810   -12163   -12161   -11733   -11321 
  -11353   -11688   -12025   -12283   -12406   -12387   -12316   -12196 
  -11982   -11715   -11475   -11346   -11406   -11668   -12030   -12322 
  -12387   -12210   -12120   -12461   -13025   -13352   -13251   -12701 
  -11882   -11258   -11192   -11700   -12576   -13370   -13468   -12672 
  -11471   -10517   -10198   -10676   -11776   -12904   -13387   -12877 
  -11720   -10831   -10629   -10692   -10706   -10767   -11047   -11782 
  -12950   -13910   -13944   -12993   -11624   -10743   -11145   -12559 
  -13617   -13325   -11962   -10602   -10288   -11253   -12722   -13696 
  -13698   -12875   -11851   -11359   -11599   -12083   -12200   -11753 
  -11165   -11085   -11595   -12063   -11933   -11460   -11349   -11778 
  -12286   -12461   -12371   -12390   -12687   -12968   -12732   -11856 
  -10909   -10537   -10827   -11566   -12553   -13367   -13553   -13226 
  -12754   -12215   -11706   -11382   -11172   -11064   -11274   -11801 
  -12310   -12694   -13083   -13262   -12897   -12060   -11093   -10572 
  -10952   -11764   -12075   -11749   -11478   -11884   -12848   -13431 
  -12847   -11544   -10635   -10764   -11884   -13095   -13161   -12011 
  -10810   -10606   -11488   -12490   -12582   -11917   -11423   -11729 
  -12785   -13751   -13652   -12587   -11441   -10788   -10814   -11302 
  -11600   -11536   -11560   -11864   -12342   -12766   -12888   -13006 
  -13379   -13357   -12483   -11326   -10536   -10315   -10690   -11411 
  -12017   -12371   -12525   -12346   -11991   -11890   -12037   -12270 
  -12603   -12849   -12924   -12967   -12737   -12080   -11347   -10685 
  -10126   -10062   -10728   -11790   -12744   -13317   -13467   -13311 
  -13186   -13421   -13724   -13360   -12108   -10412    -9073    -8948 
   -9971   -11077   -11676   -12185   -13011   -13854   -14111   -13525 
  -12400   -11359   -10838   -10965   -11476   -11608   -11040   -10663 
  -11475   -13229   -14622   -14431   -12689   -10909   -10479   -11201 
  -11973   -12040   -11453   -10984   -11301   -12216   -13034   -13354 
  -13266   -12999   -12739   -12555   -12311   -11886   -11422   -11162 
  -11180   -11352   -11432   -11212   -10930   -11215   -12178   -13179 
  -13617   -13226   -12271   -11672   -11865   -12189   -12009   -11412 
  -10826   -10692   -11209   -11877   -11952   -11766   -12209   -13173 
  -13944   -14063   -13362   -12176   -11129   -10550   -10489   -10849 
  -11395   -11970   -12512   -12876   -12912   -12629   -12118   -11541 
  -11291   -11589   -12136   -12516   -12408   -11875   -11555   -11738 
  -11984   -12007   -11862   -11694   -11773   -12068   -12139   -11856 
  -11518   -11363   -11542   -12200   -13198   -13901   -13626   -12457 
  -11163   -10443   -10583   -11281   -11878   -12229   -12756   -13389 
  -13405   -12589   -11719   -11514   -11812   -12066   -11961   -11520 
  -11166   -11364   -11935   -12275   -12120   -11674   -11436   -11848 
  -12756   -13430   -13223   -12209   -11144   -10653   -10724   -11139 
  -11791   -12432   -12769   -12776   -12421   -11784   -11427   -11661 
  -12127   -12546   -12787   -12553   -11878   -11386   -11578   -12208 
  -12554   -12282   -11803   -11584   -11640   -11802   -11864   -11810 
  -11981   -12381   -12485   -12203   -11912   -11669   -11504   -11754 
  -12416   -12948   -12974   -12612   -12205   -12051   -11945   -11328 
  -10475   -10321   -11110   -12474   -13802   -14266   -13596   -12318 
  -11108   -10439   -10418   -10898   -11689   -12396   -12695   -12682 
  -12422   -11939   -11636   -11881   -12537   -13065   -12918   -12090 
  -11169   -10681   -10633   -10824   -11198   -11787   -12520   -13074 
  -13144   -12785   -12272   -11879   -11718   -11706   -11867   -12261 
  -12616   -12526   -11885   -11100   -10783   -11018   -11466   -12057 
  -12744   -13170   -13117   -12713   -12240   -12067   -12333   -12506 
  -12051   -11452   -11349   -11598   -11947   -12156   -12053   -12108 
  -12556   -12783   -12370   -11562   -10853   -10710   -11232   -12041 
  -12709   -13017   -12858   -12284   -11643   -11288   -11258   -11411 
  -11606   -11810   -12045   -12215   -12286   -12411   -12643   -12790 
  -12673   -12396   -12105   -11747   -11401   -11283   -11480   -12043 
  -12742   -12980   -12520   -11730   -11098   -10938   -11255   -11805 
  -12297   -12522   -12577   -12672   -12624   -12186   -11608   -11276 
  -11286   -11600   -12030   -12184   -11975   -11770   -11805   -11928 
  -11990   -12001   -11969   -11974   -12150   -12407   -12462   -12203 
  -11852   -11736   -11959   -12311   -12455   -12195   -11631   -11191 
  -11347   -12119   -12979   -13264   -12750   -11878   -11355   -11479 
  -11894   -12090   -11988   -11836   -11859   -12074   -12248   -12193 
  -11967   -11708   -11664   -11955   -12271   -12315   -12151   -11984 
  -12005   -12225   -12313   -12002   -11563   -11406   -11563   -11893 
  -12214   -12301   -12186   -12133   -12127   -11963   -11783   -11884 
  -12189   -12375   -12251   -11847   -11418   -11308   -11592   -11995 
  -12276   -12396   -12385   -12341   -12339   -12202   -11856   -11628 
  -11696   -11800   -11829   -11974   -12200   -12273   -12240   -12251 
  -12309   -12440   -12541   -12342   -11908   -11526   -11330   -11444 
  -11940   -12524   -12734   -12386   -11693   -11179   -11296   -11853 
  -12233   -12170   -11874   -11638   -11648   -11930   -12293   -12464 
  -12384   -12212   -12164   -12284   -12317   -12067   -11730   -11576 
  -11671   -11909   -12052   -11997   -11956   -12066   -12170   -12150 
  -12060   -11949   -11865   -11842   -11876   -11993   -12129   -12119 
  -12006   -12034   -12215   -12250   -12024   -11727   -11594   -11747 
  -11992   -11973   -11776   -11813   -12132   -12408   -12437   -12277 
  -12095   -12064   -12145   -12099   -11923   -11883   -11979   -11993 
  -11975   -12064   -12165   -12148   -12031   -11919   -11922   -12054 
  -12117   -11932   -11732   -11879   -12307   -12572   -12341   -11752 
  -11299   -11326   -11693   -12022   -12144   -12135   -12160   -12347 
  -12589   -12672   -12501   -12034   -11441   -11126   -11220   -11574 
  -12078   -12464   -12455   -12224   -12074   -11964   -11867   -11942 
  -12092   -12124   -12082   -12008   -11900   -11838   -11803   -11735 
  -11674   -11689   -11830   -12083   -12333   -12482   -12501   -12318 
  -11923   -11634   -11772   -12099   -12212   -12117   -11999   -12007 
  -12213   -12422   -12405   -12200   -11894   -11577   -11457   -11584 
  -11805   -12019   -12141   -12102   -12011   -11994   -11984   -11918 
  -11907   -12031   -12199   -12240   -12101   -11927   -11862   -11858 
  -11821   -11845   -12071   -12403   -12650   -12669   -12327   -11762 
  -11443   -11624   -11993   -12122   -12014   -11885   -11876   -12071 
  -12313   -12308   -12022   -11704   -11645   -11896   -12241   -12382 
  -12109   -11604   -11364   -11605   -12109   -12501   -12455   -12066 
  -11835   -11930   -12065   -12079   -11975   -11846   -11957   -12316 
  -12533   -12412   -12106   -11789   -11640   -11768   -12024   -12156 
  -12076   -11861   -11645   -11593   -11761   -11982   -12097   -12112 
  -12082   -12102   -12173   -12150   -12070   -12074   -12081   -12014 
  -11964   -11994   -12076   -12128   -12034   -11810   -11692   -11856 
  -12139   -12253   -12124   -11869   -11719   -11878   -12211   -12364 
  -12212   -11940   -11807   -11916   -12120   -12176   -12046   -11903 
  -11828   -11763   -11748   -11887   -12169   -12428   -12440   -12201 
  -12005   -11997   -11971   -11833   -11767   -11867   -12016   -12064 
