Origin Time       2014/12/26 22:30:00
Lat.              35.285
Long.             135.895
Depth. (km)       14
Mag.              4.2
Station Code      GIFH27
Station Lat.      35.4527
Station Long.     137.004
Station Height(m) 85
Record Time       2014/12/26 22:31:04
Sampling Freq(Hz) 100Hz
Duration Time(s)  120
Dir.              4
Scale Factor      3920(gal)/6170801
Max. Acc. (gal)   1.894
Last Correction   2014/12/26 22:30:49
Memo.             
[...]
  -11700   -11703   -11712   -11706   -11694   -11700   -11708   -11704 
  -11701   -11702   -11704   -11704   -11704   -11704   -11707   -11707 
  -11703   -11701   -11700   -11707   -11714   -11706   -11695   -11697 
  -11705   -11711   -11707   -11697   -11692   -11697   -11709   -11713 
  -11701   -11692   -11698   -11710   -11713   -11705   -11695   -11693 
  -11702   -11710   -11708   -11700   -11698   -11703   -11707   -11708 
  -11703   -11701   -11706   -11704   -11697   -11701   -11702   -11700 
  -11703   -11703   -11698   -11702   -11707   -11706   -11705   -11698 
  -11695   -11703   -11705   -11700   -11698   -11699   -11706   -11712 
  -11707   -11695   -11696   -11707   -11707   -11700   -11700   -11704 
  -11705   -11705   -11701   -11698   -11703   -11708   -11706   -11701 
  -11698   -11704   -11707   -11702   -11699   -11700   -11703   -11710 
  -11710   -11700   -11694   -11700   -11705   -11701   -11700   -11701 
  -11700   -11704   -11708   -11702   -11698   -11702   -11710   -11706 
  -11695   -11693   -11700   -11704   -11708   -11709   -11700   -11700 
  -11711   -11714   -11708   -11701   -11698   -11702   -11703   -11703 
  -11704   -11700   -11698   -11704   -11706   -11703   -11706   -11706 
  -11700   -11699   -11701   -11704   -11709   -11703   -11695   -11696 
  -11705   -11712   -11706   -11699   -11697   -11699   -11708   -11707 
  -11701   -11704   -11703   -11705   -11711   -11709   -11703   -11704 
  -11715   -11720   -11710   -11698   -11699   -11722   -11760   -11777 
  -11746   -11675   -11607   -11596   -11661   -11761   -11815   -11756 
  -11627   -11549   -11599   -11738   -11848   -11819   -11657   -11519 
  -11558   -11728   -11851   -11817   -11657   -11521   -11551   -11737 
  -11901   -11859   -11645   -11477   -11508   -11705   -11899   -11907 
  -11735   -11594   -11658   -11883   -12019   -11862   -11540   -11362 
  -11474   -11817   -12139   -12078   -11601   -11175   -11191   -11560 
  -11977   -12168   -11989   -11601   -11323   -11325   -11582   -11860 
  -11925   -11851   -11750   -11640   -11659   -11772   -11695   -11484 
  -11475   -11675   -11853   -11978   -11998   -11734   -11355   -11252 
  -11519   -11912   -12096   -12079   -12086   -11922   -11490   -11248 
  -11353   -11569   -11898   -12233   -12120   -11508   -10992   -11073 
  -11624   -12166   -12285   -11793   -11057   -10890   -11558   -12403 
  -12668   -12136   -11203   -10670   -11074   -12039   -12655   -12458 
  -11744   -11125   -10991   -11313   -11814   -12153   -12043   -11605 
  -11370   -11514   -11747   -12010   -12221   -12087   -11789   -11630 
  -11470   -11307   -11412   -11795   -12135   -12105   -11749   -11288 
  -10896   -10988   -11734   -12419   -12338   -11695   -11105   -10995 
  -11519   -12404   -12908   -12523   -11659   -11057   -10943   -11347 
  -12132   -12478   -11881   -11081   -10868   -11231   -11842   -12308 
  -12298   -11836   -11336   -11211   -11421   -11675   -11931   -12175 
  -12057   -11567   -11348   -11608   -11986   -12231   -11961   -11166 
  -10736   -11107   -11775   -12281   -12262   -11624   -11151   -11529 
  -12295   -12595   -12110   -11216   -10708   -11009   -11822   -12503 
  -12475   -11813   -11280   -11284   -11565   -11777   -11677   -11414 
  -11530   -11971   -12102   -11775   -11351   -11220   -11605   -12218 
  -12485   -12174   -11554   -11193   -11423   -11837   -11832   -11530 
  -11422   -11596   -11949   -12212   -11960   -11341   -11030   -11302 
  -11783   -12085   -12113   -11877   -11602   -11572   -11664   -11681 
  -11694   -11780   -11891   -11826   -11499   -11235   -11260   -11485 
  -11877   -12205   -12097   -11713   -11488   -11528   -11728   -11959 
  -11974   -11645   -11329   -11390   -11698   -11936   -11916   -11681 
  -11553   -11719   -11926   -11884   -11594   -11311   -11363   -11749 
  -12102   -12168   -11965   -11680   -11539   -11560   -11594   -11555 
  -11496   -11563   -11763   -11883   -11862   -11748   -11507   -11398 
  -11650   -11860   -11826   -11852   -11878   -11718   -11507   -11372 
  -11410   -11637   -11880   -12025   -11997   -11786   -11602   -11586 
  -11618   -11622   -11691   -11814   -11797   -11657   -11642   -11722 
  -11766   -11837   -11871   -11754   -11628   -11604   -11677   -11799 
  -11789   -11599   -11401   -11330   -11475   -11824   -12090   -12011 
  -11730   -11534   -11528   -11634   -11693   -11684   -11713   -11760 
  -11792   -11824   -11788   -11739   -11759   -11712   -11594   -11570 
  -11579   -11615   -11814   -11906   -11666   -11430   -11452   -11659 
  -11928   -12036   -11917   -11739   -11582   -11469   -11456   -11508 
  -11616   -11863   -12136   -12128   -11862   -11584   -11368   -11380 
  -11691   -11951   -11895   -11625   -11384   -11374   -11569   -11814 
  -11985   -11938   -11704   -11542   -11560   -11631   -11704   -11818 
  -11927   -12004   -12051   -11956   -11659   -11346   -11239   -11339 
  -11567   -11876   -12111   -12047   -11707   -11410   -11355   -11461 
  -11651   -11844   -11900   -11818   -11701   -11638   -11670   -11718 
  -11722   -11717   -11740   -11755   -11721   -11673   -11632   -11604 
  -11665   -11748   -11686   -11516   -11392   -11440   -11711   -12066 
  -12174   -11888   -11533   -11460   -11640   -11872   -11962   -11859 
  -11680   -11563   -11664   -11931   -12020   -11836   -11565   -11324 
  -11270   -11498   -11785   -11873   -11794   -11757   -11795   -11744 
  -11639   -11641   -11705   -11783   -11900   -11893   -11617   -11282 
  -11200   -11374   -11674   -11997   -12112   -11937   -11651   -11459 
  -11533   -11791   -11926   -11898   -11821   -11669   -11561   -11597 
  -11652   -11800   -12015   -11944   -11634   -11430   -11415   -11553 
  -11703   -11696   -11619   -11572   -11603   -11816   -11997   -11893 
  -11744   -11723   -11680   -11610   -11612   -11626   -11583   -11614 
  -11827   -11961   -11791   -11506   -11356   -11470   -11836   -12146 
  -12048   -11609   -11295   -11442   -11893   -12205   -12135   -11837 
  -11535   -11319   -11346   -11626   -11835   -11832   -11803   -11787 
  -11714   -11649   -11647   -11692   -11774   -11833   -11783   -11612 
  -11438   -11464   -11650   -11767   -11793   -11729   -11584   -11628 
  -11877   -11968   -11785   -11488   -11278   -11371   -11740   -12025 
  -11963   -11736   -11669   -11753   -11730   -11565   -11485   -11662 
  -12051   -12283   -12032   -11498   -11088   -11111   -11622   -12102 
  -12050   -11687   -11472   -11542   -11744   -11863   -11788   -11596 
  -11551   -11741   -11923   -11860   -11603   -11449   -11543   -11741 
  -11870   -11814   -11634   -11594   -11785   -12004   -12027   -11827 
  -11598   -11561   -11666   -11690   -11610   -11507   -11412   -11465 
  -11703   -11857   -11771   -11642   -11664   -11773   -11811   -11839 
  -12015   -12147   -11977   -11597   -11222   -11092   -11334   -11734 
  -11984   -11910   -11619   -11480   -11604   -11782   -11888   -11883 
  -11767   -11689   -11750   -11801   -11741   -11698   -11715   -11687 
  -11597   -11499   -11476   -11597   -11783   -11865   -11765   -11575 
  -11492   -11600   -11820   -12047   -12067   -11795   -11601   -11707 
  -11860   -11888   -11723   -11373   -11214   -11450   -11768   -11936 
  -11999   -11987   -11850   -11618   -11485   -11533   -11635   -11703 
  -11729   -11694   -11600   -11526   -11563   -11732   -11919   -11911 
  -11684   -11466   -11466   -11709   -11964   -11929   -11653   -11498 
  -11637   -11862   -11940   -11809   -11574   -11482   -11606   -11828 
  -11979   -11826   -11536   -11512   -11636   -11661   -11673   -11712 
  -11743   -11794   -11825   -11795   -11704   -11553   -11524   -11762 
  -11997   -11965   -11716   -11383   -11253   -11573   -12057   -12183 
  -11811   -11294   -11169   -11587   -12076   -12108   -11704   -11314 
  -11335   -11725   -12104   -12190   -11918   -11544   -11469   -11618 
  -11702   -11706   -11613   -11491   -11583   -11821   -11916   -11812 
  -11634   -11525   -11577   -11694   -11756   -11758   -11665   -11557 
  -11627   -11787   -11837   -11833   -11885   -11934   -11896   -11745 
  -11563   -11495   -11537   -11574   -11557   -11464   -11426   -11626 
  -11954   -12201   -12210   -11881   -11533   -11482   -11558   -11650 
  -11730   -11696   -11763   -11967   -11912   -11599   -11290   -11125 
  -11382   -11932   -12163   -11963   -11604   -11313   -11388   -11740 
  -11945   -11945   -11849   -11720   -11700   -11723   -11642   -11574 
  -11628   -11738   -11818   -11840   -11810   -11721   -11608   -11628 
  -11808   -11874   -11737   -11661   -11698   -11672   -11616   -11632 
  -11687   -11710   -11720   -11711   -11630   -11588   -11655   -11685 
  -11631   -11567   -11603   -11783   -11935   -11967   -11894   -11636 
  -11374   -11459   -11769   -11925   -11802   -11516   -11361   -11575 
  -11939   -12062   -11891   -11615   -11500   -11664   -11891   -11974 
  -11852   -11561   -11428   -11605   -11753   -11713   -11608   -11509 
  -11557   -11810   -11990   -11833   -11516   -11450   -11679   -11889 
  -11930   -11817   -11572   -11408   -11526   -11762   -11849   -11776 
  -11687   -11661   -11680   -11740   -11799   -11724   -11624   -11743 
  -11932   -11925   -11726   -11436   -11286   -11520   -11945   -12189 
  -12108   -11721   -11329   -11285   -11500   -11722   -11834   -11745 
  -11576   -11584   -11761   -11900   -11852   -11672   -11627   -11764 
  -11839   -11833   -11785   -11603   -11456   -11503   -11598   -11711 
  -11803   -11769   -11747   -11761   -11719   -11723   -11715   -11683 
  -11762   -11767   -11633   -11599   -11660   -11724   -11760   -11662 
  -11532   -11551   -11655   -11794   -11898   -11809   -11640   -11564 
  -11525   -11553   -11724   -11887   -11913   -11850   -11748   -11653 
  -11619   -11665   -11805   -11955   -11956   -11829   -11684   -11557 
  -11509   -11546   -11627   -11753   -11813   -11674   -11493   -11490 
  -11634   -11803   -11851   -11723   -11605   -11627   -11712   -11792 
  -11776   -11676   -11672   -11753   -11751   -11616   -11487   -11526 
  -11667   -11829   -11976   -11899   -11659   -11554   -11586   -11698 
  -11859   -11877   -11729   -11585   -11535   -11599   -11696   -11756 
  -11883   -11985   -11827   -11604   -11581   -11622   -11602   -11562 
  -11502   -11486   -11587   -11753   -11905   -11950   -11853   -11780 
  -11797   -11774   -11735   -11760   -11757   -11630   -11467   -11437 
  -11549   -11767   -12052   -12086   -11746   -11449   -11443   -11604 
  -11788   -11850   -11682   -11387   -11310   -11658   -12080   -12188 
  -12011   -11647   -11327   -11409   -11747   -11869   -11693   -11522 
  -11608   -11847   -11947   -11850   -11694   -11583   -11639   -11813 
  -11836   -11667   -11512   -11488   -11588   -11726   -11792   -11774 
  -11744   -11703   -11633   -11623   -11711   -11734   -11626   -11548 
  -11570   -11659   -11806   -11889   -11838   -11768   -11747   -11788 
  -11863   -11870   -11777   -11641   -11567   -11614   -11696   -11710 
  -11647   -11578   -11554   -11549   -11608   -11757   -11803   -11705 
  -11708   -11828   -11887   -11839   -11730   -11648   -11614   -11633 
  -11735   -11766   -11658   -11567   -11511   -11501   -11647   -11880 
  -12014   -11922   -11633   -11422   -11501   -11745   -11949   -11988 
  -11832   -11629   -11559   -11646   -11770   -11760   -11576   -11432 
  -11535   -11806   -11990   -11870   -11509   -11295   -11432   -11741 
  -11977   -11993   -11840   -11731   -11731   -11760   -11780   -11716 
  -11592   -11628   -11750   -11710   -11609   -11556   -11515   -11570 
  -11729   -11832   -11811   -11779   -11841   -11872   -11773   -11690 
  -11663   -11646   -11729   -11813   -11685   -11463   -11363   -11476 
  -11762   -11960   -11893   -11689   -11539   -11587   -11828   -12017 
  -11927   -11617   -11351   -11322   -11536   -11812   -11888   -11700 
  -11465   -11457   -11703   -11919   -11907   -11754   -11624   -11667 
  -11905   -12101   -11978   -11617   -11373   -11370   -11543   -11875 
  -12094   -11926   -11628   -11547   -11716   -12010   -12172   -11996 
  -11586   -11245   -11247   -11558   -11847   -11866   -11649   -11424 
  -11398   -11533   -11632   -11638   -11620   -11610   -11629   -11629 
  -11482   -11173   -10882   -10889   -11291   -11890   -12407   -12607 
  -12449   -12140   -11846   -11644   -11611   -11707   -11867   -12080 
  -12246   -12380   -12567   -12612   -12419   -12143   -11798   -11425 
  -11090   -10703   -10383   -10453   -11044   -12051   -13113   -13676 
  -13340   -12149   -10633    -9500    -9098    -9341   -10025   -10953 
  -12013   -13029   -13570   -13313   -12486   -11709   -11371   -11483 
  -11916   -12379   -12575   -12399   -11908   -11364   -11172   -11607 
  -12448   -13058   -13006   -12258   -11050    -9919    -9377    -9604 
  -10484   -11616   -12607   -13217   -13203   -12549   -11536   -10682 
  -10518   -10911   -11287   -11308   -10942   -10699   -11224   -12347 
  -13421   -13734   -12821   -11445   -10867   -11275   -12009   -12347 
  -12051   -11533   -11223   -11289   -11565   -11580   -11412   -11653 
  -12328   -12939   -13069   -12444   -11278   -10387   -10332   -10914 
  -11575   -11853   -11720   -11434   -11165   -11107   -11257   -11432 
  -11808   -12358   -12581   -12469   -12430   -12558   -12640   -12472 
  -12062   -11543   -11098   -10857   -10691   -10482   -10363   -10556 
  -11278   -12404   -13296   -13395   -12644   -11633   -11363   -12114 
  -12975   -12862   -11484    -9627    -8722    -9486   -11183   -12541 
  -12885   -12467   -12079   -12201   -12541   -12467   -11841   -11147 
  -10953   -11562   -12497   -12708   -12072   -11385   -11237   -11834 
  -12577   -12436   -11474   -10631   -10464   -10812   -11076   -10980 
  -10912   -11338   -12251   -13045   -13092   -12513   -11963   -11956 
  -12267   -12156   -11506   -10794   -10411   -10694   -11401   -11926 
  -12323   -12594   -12429   -12100   -11818   -11429   -11194   -11362 
  -11634   -11623   -11278   -10890   -10851   -11324   -12101   -12640 
  -12451   -11730   -11272   -11464   -11848   -11916   -11596   -11042 
  -10641   -10854   -11653   -12501   -12854   -12595   -12222   -12208 
  -12287   -11995   -11358   -10884   -11056   -11694   -12265   -12405 
  -11825   -10911   -10780   -11510   -12055   -11943   -11310   -10591 
  -10628   -11526   -12521   -13133   -13098   -12393   -11508   -10800 
  -10463   -10647   -10963   -11001   -10991   -11262   -11802   -12479 
  -13025   -13142   -13049   -13135   -13137   -12537   -11271    -9917 
   -9409   -10106   -11459   -12541   -12644   -11932   -11330   -11514 
  -12320   -12993   -12951   -12236   -11409   -11216   -11727   -12028 
  -11405   -10179    -9230    -9307   -10536   -12204   -13186   -12944 
  -12023   -11329   -11307   -11768   -12191   -12379   -12469   -12449 
  -12256   -11803   -11113   -10644   -10745   -11274   -11890   -12222 
  -12158   -11828   -11424   -11428   -12044   -12610   -12562   -12071 
  -11674   -11915   -12607   -12843   -12223   -11061   -10056    -9996 
  -10810   -11738   -12212   -11952   -11361   -11099   -11159   -11527 
  -12170   -12546   -12571   -12419   -11887   -11363   -11437   -11821 
  -12016   -11687   -10835   -10280   -10600   -11263   -11664   -11769 
  -11708   -11722   -12122   -12749   -13006   -12597   -11885   -11449 
  -11432   -11518   -11394   -11007   -10706   -10934   -11727   -12695 
  -13163   -12796   -12114   -11675   -11574   -11715   -11645   -10940 
   -9948    -9452   -10059   -11709   -13400   -14122   -13827   -13065 
  -12378   -12029   -11841   -11508   -10920   -10160    -9576    -9576 
  -10275   -11526   -12826   -13325   -12857   -12391   -12514   -12684 
  -12453   -11768   -10768   -10137   -10322   -10932   -11465   -11678 
  -11726   -11934   -12143   -12089   -11845   -11515   -11361   -11720 
  -12439   -13034   -13019   -12197   -11155   -10684   -10920   -11601 
  -12183   -12095   -11525   -11053   -11002   -11517   -12190   -12303 
  -11835   -11334   -11249   -11652   -12157   -12293   -11904   -11219 
  -10714   -10607   -10778   -11204   -11896   -12613   -13019   -12959 
  -12534   -11987   -11641   -11680   -11779   -11545   -11100   -10824 
  -11026   -11605   -11962   -11906   -11855   -11973   -12171   -12425 
  -12521   -12307   -11952   -11582   -11242   -10926   -10561   -10403 
  -10769   -11390   -11809   -11914   -11867   -11834   -11821   -11844 
  -11926   -11992   -12102   -12221   -12024   -11467   -10938   -10861 
  -11360   -12047   -12345   -12036   -11481   -11321   -11739   -12300 
  -12519   -12125   -11312   -10764   -10863   -11314   -11663   -11706 
  -11615   -11687   -11863   -11888   -11804   -11798   -11890   -12024 
  -12101   -12002   -11767   -11542   -11464   -11628   -12000   -12363 
  -12465   -12266   -11954   -11658   -11396   -11302   -11462   -11705 
  -11836   -11799   -11633   -11460   -11351   -11309   -11356   -11428 
  -11462   -11545   -11721   -11897   -11887   -11596   -11316   -11342 
  -11543   -11677   -11602   -11349   -11223   -11382   -11676   -12012 
  -12278   -12369   -12416   -12434   -12227   -11843   -11546   -11501 
  -11681   -11900   -11970   -11777   -11425   -11249   -11320   -11388 
  -11435   -11525   -11557   -11609   -11836   -12139   -12266   -12059 
  -11648   -11344   -11344   -11660   -12022   -12038   -11712   -11328 
  -11088   -11196   -11590   -11845   -11843   -11817   -11912   -12153 
  -12322   -12128   -11704   -11368   -11236   -11247   -11231   -11260 
  -11614   -12133   -12384   -12268   -11893   -11436   -11225   -11380 
  -11675   -11907   -11929   -11776   -11761   -11915   -11974   -11814 
  -11445   -11162   -11314   -11724   -12022   -12068   -11883   -11686 
  -11639   -11656   -11663   -11664   -11598   -11401   -11197   -11259 
  -11626   -11981   -12031   -11794   -11483   -11329   -11419   -11690 
  -12017   -12182   -12069   -11865   -11709   -11584   -11640   -11892 
  -12008   -11875   -11685   -11483   -11293   -11264   -11416   -11695 
  -12025   -12179   -12053   -11812   -11647   -11684   -11828   -11795 
  -11600   -11505   -11573   -11689   -11737   -11687   -11649   -11689 
  -11688   -11600   -11538   -11557   -11713   -11994   -12074   -11792 
  -11515   -11523   -11731   -11971   -12035   -11820   -11510   -11366 
  -11450   -11591   -11569   -11418   -11406   -11675   -12020   -12076 
  -11731   -11335   -11337   -11757   -12197   -12247   -11825   -11305 
  -11132   -11327   -11665   -11931   -11937   -11783   -11739   -11794 
  -11867   -11977   -12010   -11881   -11715   -11625   -11582   -11489 
  -11373   -11401   -11541   -11619   -11687   -11841   -12005   -12089 
  -11995   -11662   -11275   -11143   -11348   -11683   -11891   -11879 
  -11711   -11528   -11558   -11892   -12222   -12207   -11895   -11563 
  -11445   -11588   -11806   -11871   -11741   -11608   -11686   -11872 
  -11883   -11704   -11502   -11437   -11679   -12023   -12042   -11783 
  -11520   -11378   -11405   -11469   -11505   -11647   -11790   -11809 
  -11813   -11769   -11660   -11672   -11767   -11743   -11654   -11697 
  -11902   -12080   -12052   -11840   -11580   -11394   -11327   -11378 
  -11535   -11743   -11939   -12022   -11892   -11670   -11554   -11556 
  -11605   -11655   -11674   -11664   -11631   -11608   -11660   -11773 
