Origin Time       2014/12/26 22:30:00
Lat.              35.285
Long.             135.895
Depth. (km)       14
Mag.              4.2
Station Code      GIFH27
Station Lat.      35.4527
Station Long.     137.004
Station Height(m) 85
Record Time       2014/12/26 22:31:04
Sampling Freq(Hz) 100Hz
Duration Time(s)  120
Dir.              6
Scale Factor      3920(gal)/6170801
Max. Acc. (gal)   0.765
Last Correction   2014/12/26 22:30:49
Memo.             
    7568     7556     7557     7568     7573     7563     7558     7565 
    7564     7561     7564     7565     7563     7565     7566     7562 
    7560     7566     7570     7565     7559     7558     7564     7574 
    7570     7559     7559     7565     7571     7573     7561     7554 
    7566     7569     7566     7568     7562     7556     7566     7572 
    7565     7561     7565     7567     7567     7568     7565     7563 
    7565     7566     7566     7563     7559     7563     7569     7570 
    7567     7560     7558     7567     7572     7563     7557     7567 
    7570     7563     7561     7562     7566     7569     7564     7560 
    7563     7565     7568     7569     7559     7556     7567     7570 
    7564     7558     7557     7565     7569     7564     7558     7559 
    7568     7573     7565     7557     7559     7566     7569     7563 
    7555     7556     7569     7574     7562     7557     7564     7566 
    7566     7564     7560     7562     7566     7566     7562     7558 
    7562     7572     7567     7557     7561     7569     7566     7559 
    7559     7561     7563     7562     7563     7565     7561     7559 
    7565     7568     7567     7562     7558     7563     7566     7564 
    7561     7563     7567     7567     7563     7561     7561     7563 
    7564     7561     7559     7559     7563     7569     7566     7557 
    7558     7565     7568     7567     7558     7554     7564     7569 
    7564     7560     7559     7565     7568     7563     7563     7564 
    7561     7563     7561     7556     7561     7569     7567     7559 
    7557     7567     7572     7564     7559     7561     7563     7568 
    7569     7561     7555     7562     7571     7570     7558     7555 
    7565     7572     7565     7557     7558     7565     7572     7568 
    7558     7559     7568     7568     7562     7563     7562     7556 
    7563     7571     7565     7559     7562     7564     7571     7570 
    7558     7556     7567     7567     7560     7558     7562     7570 
    7572     7564     7558     7563     7570     7570     7564     7557 
    7557     7567     7569     7560     7560     7567     7568     7566 
    7563     7563     7566     7563     7561     7564     7560     7563 
    7573     7568     7559     7561     7567     7572     7566     7556 
    7558     7564     7567     7566     7559     7559     7566     7567 
    7566     7566     7560     7558     7564     7568     7562     7558 
    7563     7567     7564     7562     7564     7562     7561     7566 
    7566     7561     7559     7562     7568     7568     7562     7559 
    7563     7570     7567     7557     7558     7565     7566     7566 
    7565     7562     7564     7564     7561     7565     7566     7563 
    7564     7563     7557     7558     7565     7570     7562     7554 
    7560     7564     7555     7537     7516     7495     7489     7509 
    7526     7494     7420     7363     7400     7548     7743     7863 
    7811     7648     7524     7499     7574     7699     7752     7673 
    7602     7688     7836     7846     7668     7376     7158     7224 
    7474     7575     7489     7501     7676     7760     7739     7787 
    7702     7358     7183     7422     7673     7634     7592     7630 
    7369     7193     7755     8216     7662     7033     7074     7021 
    6946     7759     8581     8103     7355     7600     7902     7270 
    6696     7418     8485     8148     7235     7533     8090     7478 
    6780     7056     7622     8032     8298     8027     7456     7209 
    7114     7062     7248     7499     7820     8227     8118     7364 
    6797     6868     7276     7641     7740     7729     7793     7612 
    7317     7692     8550     8698     7673     6519     6556     7555 
    8291     8300     7864     7520     7518     7441     7209     7194 
    7242     7152     7130     7251     7425     7436     7380     7894 
    8617     8165     6969     7016     8106     8137     7252     7308 
    7906     7795     7518     7369     7073     7326     8267     8449 
    7238     6359     6956     7672     7623     7536     7631     7578 
    7582     7941     8381     8451     8061     7240     6466     6779 
    7870     8064     7471     7619     8037     7477     6862     7275 
    7788     7665     7605     7775     7497     7029     7303     8035 
    8008     7397     7325     7426     7264     7557     7927     7578 
    7179     7411     7883     8026     7883     7580     7019     6902 
    7781     8508     8251     7573     6835     6585     7417     8259 
    7985     7412     7541     7884     7645     7150     6931     6974 
    7481     8282     8485     7956     7324     7000     7157     7540 
    7741     7652     7343     7425     8082     8245     7729     7443 
    7283     6921     6955     7669     8230     7834     7214     7382 
    7749     7797     7791     7461     7076     7374     7777     7530 
    7210     7571     8055     7782     7393     7598     7653     7301 
    7317     7757     7891     7504     7328     7638     7692     7601 
    7898     7763     7035     7067     7787     7878     7381     7100 
    7263     7718     8063     8197     8118     7402     6710     7104 
    7737     7702     7571     7673     7734     7718     7730     7574 
    7150     7091     7689     8104     7855     7392     7110     7210 
    7606     7702     7453     7600     8113     8142     7547     7063 
    7184     7485     7501     7524     7608     7575     7708     7873 
    7687     7357     7199     7444     7825     7701     7388     7408 
    7533     7744     7874     7513     7159     7392     7859     8000 
    7787     7582     7436     7257     7316     7490     7422     7460 
    7781     7937     7826     7690     7526     7213     7016     7341 
    7843     7852     7548     7586     7908     7868     7464     7274 
    7319     7489     7783     7696     7329     7386     7557     7442 
    7491     7783     7838     7587     7400     7486     7602     7452 
    7249     7419     7902     8129     7879     7551     7336     7247 
    7424     7652     7661     7598     7651     7633     7339     7255 
    7690     7842     7447     7375     7731     7790     7449     7243 
    7490     7790     7656     7449     7574     7708     7672     7588 
    7475     7362     7247     7308     7670     7951     7890     7673 
    7537     7440     7290     7365     7654     7689     7573     7660 
    7688     7474     7425     7656     7712     7535     7524     7635 
    7640     7708     7808     7654     7436     7468     7612     7738 
    7746     7464     7240     7361     7421     7292     7345     7631 
    7710     7382     7306     7664     7637     7443     7680     7715 
    7475     7491     7515     7495     7622     7695     7669     7610 
    7585     7651     7610     7508     7605     7741     7733     7687 
    7534     7335     7443     7680     7727     7715     7596     7469 
    7554     7545     7471     7620     7803     7919     7822     7259 
    6761     7032     7692     7924     7686     7475     7548     7608 
    7356     7246     7523     7569     7452     7723     7861     7547 
    7401     7466     7427     7421     7632     7811     7549     7361 
    7827     8149     7848     7490     7218     7087     7380     7811 
    7896     7727     7737     7806     7536     7318     7516     7577 
    7199     6910     7206     7827     7990     7703     7760     8110 
    8102     7741     7310     6944     6935     7345     7557     7403 
    7622     8112     8049     7708     7692     7684     7387     7166 
    7351     7684     7718     7465     7189     7201     7700     8116 
    7831     7364     7464     7907     7958     7492     7034     6923 
    7319     7980     8109     7634     7171     7109     7604     7967 
    7529     7134     7379     7704     7828     7709     7359     7170 
    7331     7630     7728     7446     7357     8001     8493     7993 
    7392     7469     7648     7509     7280     7274     7574     7814 
    7864     7892     7632     7249     7298     7395     7242     7394 
    7868     7989     7595     7319     7581     7809     7456     7093 
    7333     7745     7824     7609     7313     7238     7422     7623 
    7760     7730     7578     7571     7606     7508     7403     7400 
    7524     7652     7622     7572     7631     7647     7690     7934 
    7978     7532     7080     7032     7308     7642     7760     7696 
    7653     7680     7774     7852     7650     7168     7023     7446 
    7760     7725     7652     7526     7533     7745     7572     7170 
    7374     7864     7849     7654     7697     7679     7591     7608 
    7520     7369     7458     7675     7613     7265     7199     7614 
    7915     7743     7328     7084     7377     7890     7880     7426 
    7226     7596     8126     8006     7310     7010     7303     7741 
    7985     7652     7154     7376     7902     7892     7584     7464 
    7524     7594     7623     7703     7682     7404     7281     7419 
    7447     7584     7883     7754     7351     7380     7733     7729 
    7319     7216     7542     7725     7731     7730     7617     7418 
    7266     7429     7872     7934     7486     7294     7652     7933 
    7782     7500     7254     7148     7340     7549     7618     7726 
    7720     7558     7487     7491     7545     7623     7575     7609 
    7878     7882     7436     7190     7433     7715     7690     7473 
    7422     7533     7533     7582     7655     7438     7225     7310 
    7509     7803     7972     7699     7571     7824     7758     7591 
    7587     7194     6970     7385     7633     7737     7905     7729 
    7691     7954     7774     7392     7290     7221     7225     7354 
    7443     7653     7852     7718     7628     7830     7831     7470 
    7189     7267     7543     7635     7467     7433     7715     7924 
    7759     7461     7380     7651     7895     7598     7204     7421 
    7845     7687     7261     7377     7707     7705     7578     7423 
    7474     7746     7611     7268     7297     7644     8040     7838 
    7154     7141     7717     8036     7942     7457     7095     7336 
    7626     7701     7774     7676     7536     7572     7555     7527 
    7520     7361     7425     7770     7712     7378     7468     7662 
    7402     7212     7519     7727     7629     7739     7961     7874 
    7638     7499     7389     7164     7069     7499     7872     7671 
    7626     7884     7802     7445     7218     7335     7538     7481 
    7626     7982     7906     7636     7341     6979     7176     7751 
    7923     7768     7494     7350     7634     7784     7558     7526 
    7581     7599     7828     7762     7265     7108     7381     7599 
    7674     7704     7662     7568     7562     7631     7559     7423 
    7511     7708     7752     7578     7316     7321     7549     7584 
    7530     7639     7728     7706     7663     7539     7417     7424 
    7461     7555     7669     7623     7568     7596     7559     7513 
    7552     7679     7760     7520     7221     7393     7733     7703 
    7484     7495     7745     7796     7547     7496     7620     7525 
    7419     7408     7346     7547     7904     7767     7453     7534 
    7595     7452     7473     7546     7544     7601     7611     7544 
    7477     7407     7491     7696     7781     7716     7556     7444 
    7409     7494     7805     7821     7458     7461     7632     7577 
    7585     7530     7498     7791     7840     7516     7354     7291 
    7361     7654     7638     7403     7527     7763     7836     7800 
    7469     7110     7244     7689     7937     7710     7306     7331 
    7624     7682     7520     7386     7640     8047     7867     7419 
    7243     7237     7540     7879     7772     7552     7392     7314 
    7625     7951     7734     7285     7237     7574     7658     7455 
    7510     7630     7459     7389     7501     7503     7667     7937 
    7740     7466     7679     7850     7567     7213     7324     7758 
    7714     7359     7474     7668     7532     7514     7630     7660 
    7721     7668     7430     7284     7313     7560     7833     7695 
    7490     7677     7847     7698     7401     7234     7374     7557 
    7573     7557     7530     7647     7854     7639     7329     7527 
    7737     7597     7428     7400     7547     7728     7706     7589 
    7676     7869     7689     7259     7287     7629     7577     7378 
    7480     7542     7526     7700     7666     7292     7234     7675 
    8019     7890     7649     7591     7425     7228     7353     7545 
    7615     7657     7605     7588     7738     7803     7583     7246 
    7165     7418     7715     7742     7494     7374     7489     7569 
    7601     7625     7649     7706     7662     7585     7629     7607 
    7487     7445     7478     7636     7912     7927     7439     7037 
    7409     7904     7654     7318     7520     7747     7742     7685 
    7576     7397     7323     7511     7685     7575     7393     7332 
    7479     7756     7825     7685     7461     7236     7436     7845 
    7726     7511     7687     7663     7477     7564     7594     7501 
    7499     7514     7562     7617     7699     7815     7616     7343 
    7554     7792     7651     7521     7476     7392     7425     7591 
    7734     7708     7598     7595     7513     7263     7278     7632 
    7723     7430     7256     7273     7398     7638     7579     7222 
    7258     7648     7741     7540     7443     7475     7564     7715 
    7681     7392     7300     7491     7610     7587     7490     7550 
    7878     8040     8041     8137     8072     7823     7453     7087 
    7158     7560     8040     8337     8069     7681     7390     6943 
    6970     7509     7767     7813     7766     7557     7545     7544 
    7203     6964     7158     7545     7806     7850     7790     7555 
    7234     7164     7332     7680     8090     8296     8315     8063 
    7512     7077     6930     7069     7473     7725     7729     7793 
    7732     7484     7397     7361     7184     7180     7441     7515 
    7235     7057     7359     7768     7679     7391     7404     7417 
    7465     7894     8219     8163     8050     7773     7231     6773 
    6821     7491     8116     8112     7978     8075     7894     7403 
    7157     7144     7200     7449     7703     7667     7520     7485 
    7347     7191     7504     7899     7779     7565     7549     7492 
    7461     7492     7530     7703     7780     7552     7369     7309 
    7228     7440     7948     8203     8113     8015     7948     7752 
    7451     7215     7259     7553     7690     7590     7563     7499 
    7377     7607     7945     7852     7597     7504     7520     7631 
    7511     7019     6764     6961     7332     7895     8244     7857 
    7350     7267     7275     7411     7667     7582     7461     7698 
    7797     7724     7803     7555     7112     7208     7449     7552 
    7881     8081     7865     7607     7527     7542     7428     7360 
    7622     7780     7677     7668     7554     7345     7452     7691 
    7938     8253     8141     7542     7136     7059     6956     6928 
    7271     7678     7714     7672     7928     7994     7547     7314 
    7512     7474     7309     7533     7861     7777     7367     7138 
    7210     7277     7402     7664     7741     7722     7868     7907 
    7679     7481     7423     7281     7206     7554     7981     8006 
    7797     7668     7578     7348     7146     7277     7606     7732 
    7524     7328     7404     7567     7710     7774     7704     7660 
    7696     7858     7951     7576     7255     7529     7785     7747 
    7679     7346     6970     7202     7666     7799     7857     8012 
    7984     7649     7321     7277     7372     7499     7673     7857 
    8013     7837     7340     7068     7002     6987     7291     7615 
    7638     7648     7614     7505     7573     7672     7692     7758 
    7800     7758     7541     7133     6888     6995     7250     7449 
    7673     8059     8338     8351     8185     7669     7043     6811 
    6922     7277     7738     7880     7689     7461     7410     7680 
    7902     7648     7372     7550     7914     8089     8019     7847 
    7541     7200     7291     7635     7625     7390     7345     7574 
    7839     7799     7480     7154     7160     7668     8118     8008 
    7666     7344     7022     7030     7360     7437     7360     7548 
    7703     7640     7534     7415     7505     7666     7464     7328 
    7532     7644     7735     7930     7935     7768     7678     7711 
    7657     7420     7217     7156     7248     7490     7710     7818 
    7828     7801     7835     7818     7750     7772     7622     7293 
    7258     7391     7381     7381     7338     7146     6960     7007 
    7598     8354     8407     8011     7932     7874     7409     7022 
    7073     7259     7337     7406     7655     7986     8054     7838 
    7633     7591     7622     7714     7884     7816     7396     6953 
    6649     6564     6853     7470     8119     8415     8273     8048 
    7947     7766     7432     7131     6948     6941     7109     7357 
    7689     7927     7958     8038     8069     7905     7882     7914 
    7716     7539     7458     7329     7233     7150     7114     7244 
    7443     7690     7878     7753     7523     7508     7622     7650 
    7477     7332     7443     7522     7441     7452     7529     7579 
    7640     7654     7594     7492     7428     7519     7655     7648 
    7573     7623     7719     7637     7582     7795     7909     7732 
    7519     7275     7052     7100     7424     7834     8014     7927 
    7902     7842     7619     7567     7654     7567     7402     7369 
    7417     7446     7491     7475     7329     7345     7551     7564 
    7496     7621     7835     7989     7784     7256     7022     7102 
    7153     7325     7644     7919     8034     7819     7478     7448 
    7627     7666     7639     7746     7833     7717     7574     7583 
    7640     7614     7510     7470     7548     7627     7727     7740 
    7464     7237     7370     7574     7533     7348     7390     7649 
    7715     7612     7592     7644     7681     7571     7390     7402 
    7588     7747     7649     7362     7356     7577     7657     7713 
    7698     7439     7321     7524     7699     7735     7691     7554 
    7502     7612     7629     7443     7272     7326     7483     7476 
    7463     7642     7744     7667     7586     7518     7526     7630 
    7674     7652     7631     7558     7495     7573     7697     7656 
    7526     7546     7642     7635     7618     7629     7611     7650 
    7677     7536     7368     7394     7578     7715     7629     7385 
    7265     7331     7437     7596     7685     7581     7579     7743 
    7774     7684     7589     7531     7611     7694     7643     7545 
    7402     7295     7366     7483     7478     7392     7387     7509 
    7627     7690     7707     7729     7787     7650     7384     7408 
    7543     7448     7368     7526     7747     7830     7791     7719 
    7659     7664     7649     7542     7498     7567     7630     7579 
