Origin Time       2014/12/26 22:30:00
Lat.              35.285
Long.             135.895
Depth. (km)       14
Mag.              4.2
Station Code      GIFH27
Station Lat.      35.4527
Station Long.     137.004
Station Height(m) -115
Record Time       2014/12/26 22:31:04
Sampling Freq(Hz) 100Hz
Duration Time(s)  120
Dir.              1
Scale Factor      2940(gal)/6170270
Max. Acc. (gal)   0.482
Last Correction   2014/12/26 22:30:49
Memo.             
[...]
   21247    21248    21247    21245    21245    21246    21247    21247 
   21245    21246    21248    21247    21246    21247    21248    21247 
   21245    21246    21249    21248    21245    21244    21247    21250 
   21247    21244    21247    21248    21247    21245    21245    21245 
   21246    21246    21246    21247    21247    21247    21248    21247 
   21246    21248    21248    21247    21247    21248    21246    21244 
   21245    21248    21248    21245    21245    21246    21245    21246 
   21247    21248    21246    21244    21248    21251    21248    21243 
   21244    21248    21247    21246    21245    21244    21248    21250 
   21244    21245    21250    21249    21245    21245    21246    21246 
   21245    21243    21243    21246    21249    21247    21246    21246 
   21247    21247    21246    21244    21245    21246    21245    21247 
   21249    21246    21247    21250    21248    21247    21248    21246 
   21245    21246    21248    21247    21245    21246    21248    21247 
   21246    21248    21248    21246    21243    21245    21247    21246 
   21247    21249    21249    21249    21246    21244    21247    21246 
   21244    21245    21247    21245    21246    21248    21249    21250 
   21250    21247    21244    21244    21246    21245    21242    21246 
   21249    21248    21248    21250    21249    21247    21248    21248 
   21244    21243    21246    21249    21249    21247    21248    21250 
   21249    21247    21246    21246    21246    21245    21245    21244 
   21244    21247    21247    21246    21250    21250    21247    21247 
   21246    21247    21247    21244    21244    21247    21250    21251 
   21248    21244    21247    21249    21248    21245    21245    21246 
   21248    21249    21247    21245    21248    21252    21249    21246 
   21247    21247    21245    21243    21245    21247    21247    21249 
   21250    21248    21247    21246    21245    21245    21245    21245 
   21248    21247    21245    21247    21250    21250    21248    21245 
   21247    21250    21248    21246    21246    21246    21247    21248 
   21247    21248    21249    21247    21247    21248    21250    21249 
   21247    21247    21248    21246    21246    21248    21247    21248 
   21249    21247    21243    21245    21250    21248    21246    21248 
   21247    21247    21250    21248    21246    21247    21245    21241 
   21241    21240    21238    21240    21243    21236    21226    21219 
   21223    21242    21263    21271    21268    21260    21257    21258 
   21261    21264    21247    21219    21216    21234    21251    21256 
   21242    21225    21235    21261    21277    21275    21273    21265 
   21241    21241    21287    21304    21266    21251    21278    21265 
   21220    21232    21242    21157    21124    21240    21317    21259 
   21237    21285    21247    21179    21247    21333    21265    21175 
   21248    21348    21234    21042    21104    21325    21335    21207 
   21245    21322    21223    21145    21243    21343    21337    21291 
   21270    21282    21284    21247    21227    21234    21203    21188 
   21241    21270    21233    21189    21173    21195    21237    21271 
   21302    21321    21276    21195    21237    21402    21441    21262 
   21094    21109    21223    21297    21277    21214    21178    21178 
   21210    21251    21250    21222    21232    21258    21267    21288 
   21292    21289    21331    21325    21225    21225    21386    21411 
   21224    21171    21267    21202    21101    21169    21176    21064 
   21120    21288    21322    21286    21279    21267    21258    21257 
   21252    21245    21223    21212    21199    21201    21338    21446 
   21300    21157    21209    21228    21166    21202    21247    21172 
   21133    21197    21284    21359    21365    21363    21381    21274 
   21145    21194    21271    21250    21231    21219    21182    21169 
   21190    21247    21272    21225    21264    21366    21338    21259 
   21212    21150    21202    21358    21368    21224    21115    21095 
   21134    21212    21271    21288    21318    21349    21351    21354 
   21302    21227    21254    21252    21179    21220    21286    21233 
   21231    21304    21290    21209    21137    21117    21150    21174 
   21212    21235    21188    21211    21355    21422    21332    21266 
   21309    21257    21134    21246    21433    21346    21174    21170 
   21195    21136    21139    21273    21295    21148    21139    21252 
   21242    21189    21231    21306    21356    21372    21347    21311 
   21266    21203    21199    21230    21224    21222    21207    21216 
   21322    21339    21190    21125    21210    21283    21315    21346 
   21327    21246    21195    21206    21196    21160    21205    21316 
   21312    21209    21199    21236    21221    21259    21340    21298 
   21191    21175    21203    21227    21309    21350    21278    21266 
   21322    21290    21206    21156    21179    21251    21248    21178 
   21188    21248    21220    21189    21245    21281    21294    21342 
   21354    21291    21239    21270    21298    21238    21151    21126 
   21201    21297    21313    21264    21197    21157    21211    21327 
   21339    21214    21145    21202    21255    21273    21301    21289 
   21224    21228    21310    21354    21339    21286    21178    21062 
   21067    21188    21263    21299    21366    21339    21261    21281 
   21271    21165    21136    21210    21259    21304    21365    21297 
   21158    21196    21281    21209    21179    21249    21247    21240 
   21286    21277    21247    21269    21294    21287    21261    21221 
   21211    21260    21271    21205    21194    21267    21296    21283 
   21321    21346    21230    21064    21037    21141    21220    21273 
   21368    21376    21259    21157    21101    21164    21347    21425 
   21351    21262    21194    21169    21202    21235    21262    21306 
   21344    21360    21299    21138    21008    21055    21238    21347 
   21302    21270    21305    21274    21227    21289    21355    21333 
   21292    21259    21221    21169    21116    21139    21262    21376 
   21363    21273    21181    21087    21117    21273    21339    21320 
   21296    21240    21240    21323    21298    21162    21135    21223 
   21270    21264    21240    21202    21177    21201    21257    21245 
   21218    21320    21395    21267    21128    21134    21220    21283 
   21279    21272    21253    21162    21147    21267    21330    21319 
   21365    21389    21282    21180    21192    21261    21319    21289 
   21220    21228    21221    21186    21274    21379    21314    21201 
   21172    21201    21245    21230    21162    21157    21206    21237 
   21275    21292    21211    21152    21240    21317    21266    21208 
   21234    21300    21329    21314    21280    21229    21207    21232 
   21235    21233    21285    21330    21288    21185    21136    21172 
   21196    21183    21211    21290    21351    21331    21242    21231 
   21319    21331    21260    21210    21157    21104    21109    21171 
   21272    21375    21392    21318    21290    21332    21291    21181 
   21143    21151    21130    21102    21130    21242    21384    21478 
   21460    21347    21264    21268    21285    21253    21200    21159 
   21123    21107    21157    21269    21310    21238    21235    21337 
   21355    21281    21253    21260    21249    21250    21217    21134 
   21147    21260    21288    21217    21220    21298    21310    21267 
   21262    21270    21245    21220    21212    21191    21194    21214 
   21225    21303    21422    21406    21265    21185    21187    21172 
   21168    21236    21317    21323    21245    21171    21178    21194 
   21166    21177    21221    21258    21331    21363    21283    21220 
   21246    21294    21330    21343    21274    21163    21155    21213 
   21204    21194    21252    21278    21246    21222    21221    21245 
   21298    21296    21224    21229    21326    21334    21256    21229 
   21231    21216    21246    21292    21251    21161    21134    21207 
   21263    21232    21234    21257    21252    21330    21384    21292 
   21238    21278    21251    21154    21122    21156    21185    21222 
   21267    21298    21312    21294    21243    21220    21270    21324 
   21318    21269    21193    21147    21195    21275    21294    21253 
   21204    21234    21332    21332    21218    21144    21160    21281 
   21430    21387    21186    21098    21160    21229    21267    21300 
   21308    21261    21207    21218    21276    21287    21225    21165 
   21132    21143    21239    21315    21262    21218    21295    21329 
   21268    21258    21265    21237    21266    21298    21262    21249 
   21288    21293    21247    21236    21249    21210    21210    21247 
   21189    21138    21201    21266    21272    21253    21261    21309 
   21331    21327    21309    21220    21143    21202    21269    21228 
   21167    21158    21204    21238    21221    21224    21248    21269 
   21324    21321    21204    21165    21284    21387    21399    21346 
   21264    21257    21329    21299    21127    21021    21089    21190 
   21205    21188    21227    21303    21321    21274    21280    21373 
   21440    21373    21219    21122    21128    21171    21190    21184 
   21191    21243    21330    21375    21340    21284    21228    21189 
   21219    21239    21193    21157    21123    21124    21225    21302 
   21296    21322    21373    21344    21273    21239    21225    21227 
   21231    21218    21255    21290    21265    21278    21259    21141 
   21117    21220    21267    21236    21211    21248    21340    21386 
   21329    21212    21139    21195    21311    21352    21283    21202 
   21216    21262    21244    21185    21146    21179    21257    21289 
   21262    21242    21282    21347    21320    21228    21216    21254 
   21233    21197    21203    21214    21252    21322    21297    21222 
   21239    21253    21200    21184    21260    21334    21287    21243 
   21306    21324    21280    21262    21212    21134    21110    21140 
   21200    21251    21293    21328    21307    21274    21270    21247 
   21238    21243    21211    21233    21317    21327    21265    21213 
   21163    21117    21140    21235    21309    21315    21279    21229 
   21222    21275    21294    21257    21276    21319    21278    21228 
   21219    21215    21242    21263    21257    21276    21272    21226 
   21207    21203    21193    21221    21272    21275    21261    21268 
   21252    21251    21288    21317    21332    21293    21237    21233 
   21226    21203    21184    21144    21160    21230    21236    21186 
   21174    21245    21332    21324    21253    21235    21279    21305 
   21282    21269    21274    21268    21274    21257    21201    21211 
   21252    21206    21174    21248    21302    21243    21162    21183 
   21255    21258    21242    21261    21258    21240    21258    21294 
   21298    21282    21295    21290    21224    21202    21263    21293 
   21265    21227    21186    21160    21206    21293    21308    21256 
   21262    21316    21302    21257    21273    21312    21292    21215 
   21164    21189    21212    21174    21165    21214    21224    21223 
   21278    21292    21234    21190    21181    21214    21265    21297 
   21318    21293    21266    21298    21281    21231    21251    21255 
   21218    21247    21294    21260    21199    21191    21219    21205 
   21176    21248    21329    21278    21212    21238    21265    21229 
   21207    21249    21285    21274    21252    21249    21264    21254 
   21220    21187    21187    21254    21314    21293    21237    21232 
   21283    21302    21278    21266    21254    21267    21299    21268 
   21206    21193    21208    21196    21177    21204    21254    21286 
   21287    21256    21271    21335    21315    21242    21222    21237 
   21272    21285    21214    21152    21197    21258    21230    21180 
   21187    21226    21229    21162    21169    21330    21417    21333 
   21249    21210    21189    21226    21286    21302    21288    21286 
   21292    21254    21214    21236    21226    21160    21150    21193 
   21250    21317    21305    21243    21279    21350    21346    21299 
   21223    21164    21179    21199    21165    21175    21262    21290 
   21227    21182    21215    21282    21306    21268    21240    21248 
   21225    21210    21301    21393    21345    21209    21132    21187 
   21271    21259    21228    21253    21261    21234    21247    21299 
   21289    21194    21150    21216    21255    21231    21260    21285 
   21232    21226    21300    21340    21318    21256    21203    21215 
   21242    21245    21266    21263    21211    21208    21285    21340 
   21304    21249    21228    21186    21151    21228    21319    21306 
   21291    21296    21218    21136    21137    21124    21093    21170 
   21299    21332    21331    21395    21408    21305    21218    21194 
   21183    21175    21174    21206    21292    21377    21410    21373 
   21296    21264    21286    21336    21436    21580    21664    21555 
   21281    21009    20816    20715    20793    21061    21364    21527 
   21459    21245    21056    20938    20891    20885    20815    20746 
   20890    21228    21545    21739    21875    21963    21818    21376 
   20942    20743    20710    20826    21081    21336    21605    21976 
   22177    21918    21459    21157    20941    20643    20330    20235 
   20541    21136    21694    21866    21537    21056    20834    20837 
   20876    20970    21136    21226    21242    21362    21578    21752 
   21856    21875    21817    21750    21557    21089    20626    20591 
   20934    21255    21380    21401    21265    21025    21109    21474 
   21533    21277    21100    20998    20971    21186    21449    21472 
   21341    21279    21360    21411    21254    21141    21357    21731 
   21981    21912    21441    20954    20818    20792    20719    20764 
   20884    21065    21361    21542    21489    21402    21415    21486 
   21510    21380    21097    20841    20820    20999    21176    21228 
   21154    20980    20844    21009    21312    21277    21057    21211 
   21737    22105    21992    21659    21417    21180    20968    20991 
   21081    20969    20741    20611    20840    21419    21856    21887 
   21593    21144    20915    20969    21076    21247    21374    21323 
   21283    21258    21111    20972    21008    21197    21412    21480 
   21253    20896    20771    20857    20961    21209    21614    21846 
   21836    21801    21769    21614    21264    20876    20717    20782 
   20955    21139    21187    21209    21377    21491    21380    21260 
   21276    21202    20923    20714    20762    20945    21205    21527 
   21740    21765    21637    21384    21131    21060    21255    21503 
   21417    21073    20945    21119    21359    21482    21366    21163 
   21166    21363    21533    21473    21162    20954    21094    21254 
   21166    21053    21135    21301    21399    21466    21448    21223 
   20988    20905    20944    21182    21446    21441    21331    21312 
   21358    21514    21699    21713    21548    21231    20776    20453 
   20535    20895    21306    21696    21995    22072    21802    21300 
   20968    20957    21034    21074    21065    20961    20878    20987 
   21284    21608    21688    21481    21231    21061    21037    21199 
   21308    21216    21113    21079    20935    20684    20615    20880 
   21278    21565    21691    21675    21602    21584    21505    21323 
   21258    21290    21264    21282    21375    21330    21111    21045 
   21230    21340    21287    21249    21226    21205    21191    21127 
   21077    21101    21204    21435    21614    21564    21440    21310 
   21179    21140    21023    20784    20754    20949    21079    21124 
   21217    21306    21326    21302    21238    21243    21348    21383 
   21367    21344    21236    21125    21040    21025    21256    21577 
   21631    21390    21149    21184    21371    21406    21326    21386 
   21588    21648    21329    20876    20801    21054    21247    21330 
   21351    21313    21296    21261    21125    21013    21095    21252 
   21180    20888    20732    20892    21184    21427    21539    21443 
   21284    21375    21596    21576    21424    21394    21363    21243 
   21105    20934    20778    20784    20939    21073    21188    21434 
   21747    21931    21901    21694    21412    21180    21048    20927 
   20815    20908    21224    21487    21479    21285    21162    21180 
   21229    21261    21271    21273    21289    21243    21118    21025 
   21004    21066    21204    21273    21203    21129    21173    21331 
   21463    21393    21221    21231    21383    21401    21234    21025 
   20873    20849    21004    21249    21428    21526    21628    21674 
   21588    21488    21396    21192    20940    20830    20928    21103 
   21213    21291    21402    21502    21485    21356    21273    21273 
   21255    21229    21246    21277    21285    21285    21274    21186 
   21073    21067    21085    21022    20980    20987    21016    21169 
   21360    21390    21355    21381    21362    21206    20995    20921 
   21039    21193    21307    21394    21432    21455    21488    21483 
   21471    21453    21314    21104    21058    21207    21355    21434 
   21454    21343    21193    21188    21233    21252    21372    21534 
   21610    21639    21576    21342    21069    20941    20959    21051 
   21164    21195    21107    21023    21090    21320    21539    21578 
   21410    21102    20842    20766    20813    20942    21134    21270 
   21339    21391    21354    21234    21128    21106    21248    21401 
   21346    21239    21193    21116    21101    21174    21207    21209 
   21195    21190    21245    21343    21513    21647    21588    21495 
   21454    21331    21201    21162    21097    20995    21011    21193 
   21349    21353    21353    21380    21293    21213    21281    21315 
   21244    21235    21269    21254    21231    21184    21159    21221 
   21204    21077    21083    21219    21277    21261    21269    21258 
   21169    21069    21035    21100    21270    21416    21392    21258 
   21190    21259    21361    21373    21356    21390    21404    21342 
   21269    21224    21189    21153    21116    21133    21225    21273 
   21220    21189    21229    21274    21306    21326    21277    21174 
   21132    21178    21229    21235    21224    21221    21185    21144 
   21181    21213    21183    21254    21444    21494    21303    21140 
   21206    21326    21338    21297    21256    21246    21277    21319 
   21399    21457    21374    21235    21198    21239    21222    21129 
   21090    21124    21157    21209    21245    21239    21302    21414 
   21448    21419    21366    21292    21220    21150    21125    21183 
   21211    21130    21071    21102    21103    21082    21156    21238 
   21236    21227    21244    21286    21374    21412    21325    21197 
   21111    21123    21234    21305    21285    21276    21311    21353 
   21352    21281    21256    21353    21442    21407    21239    21059 
   21010    21052    21139    21308    21427    21332    21137    21075 
