Origin Time       2014/12/26 22:30:00
Lat.              35.285
Long.             135.895
Depth. (km)       14
Mag.              4.2
Station Code      GIFH27
Station Lat.      35.4527
Station Long.     137.004
Station Height(m) -115
Record Time       2014/12/26 22:31:04
Sampling Freq(Hz) 100Hz
Duration Time(s)  120
Dir.              3
Scale Factor      2940(gal)/6170270
Max. Acc. (gal)   0.267
Last Correction   2014/12/26 22:30:49
Memo.             
[...]
    5262     5261     5262     5260     5259     5263     5263     5259 
    5258     5261     5262     5259     5259     5261     5262     5260 
    5259     5260     5260     5262     5263     5260     5258     5259 
    5260     5259     5260     5262     5261     5259     5261     5263 
    5260     5259     5260     5260     5261     5262     5261     5261 
    5262     5262     5260     5261     5262     5260     5260     5261 
    5260     5258     5259     5264     5264     5260     5261     5261 
    5258     5261     5261     5257     5260     5263     5258     5257 
    5261     5262     5260     5257     5258     5262     5262     5260 
    5261     5262     5258     5257     5263     5263     5258     5260 
    5264     5262     5261     5260     5259     5259     5260     5264 
    5264     5260     5260     5262     5261     5261     5259     5256 
    5261     5262     5258     5260     5262     5260     5262     5263 
    5260     5260     5261     5262     5260     5259     5262     5263 
    5260     5262     5262     5259     5259     5259     5259     5260 
    5261     5261     5261     5262     5262     5261     5262     5263 
    5260     5260     5258     5256     5256     5252     5241     5231 
    5226     5229     5234     5221     5191     5162     5165     5212 
    5291     5357     5353     5293     5244     5227     5238     5282 
    5311     5275     5240     5295     5403     5464     5431     5315 
    5184     5141     5201     5274     5296     5307     5330     5331 
    5355     5440     5420     5219     5072     5118     5175     5168 
    5236     5289     5173     5137     5376     5539     5367     5148 
    5059     4937     4942     5304     5599     5431     5176     5235 
    5341     5154     5005     5291     5531     5248     5036     5367 
    5542     5191     5071     5362     5392     5215     5305     5489 
    5449     5248     5110     5146     5173     5071     5151     5435 
    5418     5140     5093     5217     5222     5187     5215     5209 
    5141     5130     5291     5584     5760     5633     5212     4743 
    4724     5173     5523     5631     5629     5375     5052     5135 
    5472     5520     5255     5027     4935     4956     5133     5302 
    5334     5474     5620     5312     4951     5181     5423     5088 
    4870     5207     5424     5240     5116     5174     5230     5360 
    5589     5592     5269     5013     5009     5073     5163     5324 
    5399     5268     5180     5375     5636     5670     5382     4984 
    4929     5126     5200     5299     5447     5382     5214     5225 
    5383     5448     5403     5386     5254     4945     4812     5054 
    5386     5529     5509     5287     4904     4850     5208     5395 
    5294     5217     5217     5275     5389     5488     5499     5321 
    5055     5000     5191     5425     5523     5344     5018     4950 
    5194     5388     5425     5481     5467     5256     5104     5092 
    5097     5193     5275     5285     5377     5392     5261     5215 
    5226     5232     5301     5277     5145     5192     5357     5370 
    5360     5417     5268     5020     5096     5284     5207     5117 
    5177     5206     5339     5596     5587     5339     5206     5191 
    5104     4985     5155     5436     5297     5111     5315     5430 
    5267     5199     5304     5323     5141     5042     5187     5300 
    5307     5457     5592     5360     5045     5034     5143     5225 
    5327     5360     5288     5197     5245     5450     5455     5235 
    5184     5186     5081     5158     5344     5298     5171     5243 
    5349     5328     5339     5356     5299     5296     5278     5166 
    5153     5215     5180     5187     5330     5421     5394     5319 
    5221     5187     5231     5239     5209     5165     5127     5226 
    5406     5423     5295     5206     5198     5220     5236     5256 
    5251     5224     5291     5374     5288     5191     5248     5260 
    5193     5266     5386     5338     5224     5186     5171     5144 
    5174     5295     5405     5422     5387     5341     5298     5224 
    5110     5110     5244     5283     5250     5318     5360     5289 
    5267     5279     5229     5196     5207     5229     5269     5262 
    5181     5195     5352     5403     5273     5183     5207     5265 
    5326     5298     5151     5132     5303     5387     5362     5345 
    5277     5188     5178     5208     5190     5188     5256     5281 
    5321     5440     5421     5287     5250     5233     5146     5084 
    5160     5344     5403     5295     5250     5281     5272     5262 
    5215     5154     5219     5255     5202     5275     5339     5240 
    5185     5280     5371     5330     5272     5276     5222     5150 
    5183     5242     5264     5287     5317     5356     5369     5295 
    5194     5182     5242     5343     5466     5457     5305     5196 
    5171     5230     5335     5330     5222     5169     5207     5244 
    5251     5239     5142     5081     5218     5335     5318     5315 
    5290     5222     5154     5070     5081     5192     5259     5267 
    5277     5289     5291     5309     5322     5283     5275     5338 
    5359     5305     5297     5351     5303     5203     5236     5288 
    5246     5238     5290     5334     5376     5425     5459     5418 
    5280     5148     5097     5100     5148     5230     5256     5217 
    5197     5195     5252     5383     5332     5097     5058     5189 
    5221     5225     5273     5265     5215     5209     5248     5252 
    5216     5264     5388     5466     5401     5218     5107     5126 
    5143     5195     5368     5528     5509     5349     5239     5268 
    5319     5248     5069     4995     5171     5340     5305     5320 
    5473     5482     5334     5276     5254     5099     4984     5042 
    5099     5145     5299     5439     5513     5604     5602     5432 
    5223     5072     5033     5125     5184     5109     5099     5224 
    5307     5334     5385     5440     5475     5477     5410     5277 
    5120     5006     5036     5194     5294     5259     5171     5164 
    5287     5339     5233     5176     5187     5181     5222     5296 
    5306     5227     5123     5120     5202     5236     5300     5457 
    5484     5345     5281     5303     5236     5129     5164     5263 
    5250     5290     5528     5628     5405     5252     5277     5196 
    5133     5220     5247     5202     5201     5246     5319     5326 
    5210     5142     5241     5333     5297     5259     5238     5139 
    5095     5213     5306     5291     5234     5164     5198     5322 
    5329     5229     5207     5242     5190     5115     5159     5294 
    5441     5500     5423     5308     5187     5087     5109     5205 
    5264     5320     5399     5451     5454     5416     5316     5153 
    5032     5038     5088     5132     5240     5347     5368     5374 
    5362     5315     5325     5333     5245     5168     5212     5314 
    5343     5306     5258     5191     5180     5213     5199     5238 
    5316     5295     5306     5384     5317     5201     5260     5374 
    5303     5106     5082     5242     5313     5246     5176     5173 
    5197     5236     5321     5342     5301     5305     5297     5328 
    5420     5367     5213     5132     5102     5178     5357     5359 
    5155     5110     5316     5478     5439     5315     5247     5229 
    5200     5204     5245     5228     5176     5193     5259     5294 
    5306     5267     5173     5230     5386     5331     5192     5210 
    5272     5265     5267     5314     5272     5139     5089     5177 
    5372     5502     5398     5239     5202     5242     5291     5253 
    5171     5214     5311     5278     5183     5199     5300     5326 
    5240     5217     5274     5243     5235     5335     5373     5301 
    5173     5085     5168     5328     5351     5299     5305     5263 
    5217     5288     5267     5116     5067     5108     5189     5352 
    5480     5501     5501     5451     5306     5205     5181     5080 
    4978     5079     5218     5240     5297     5401     5463     5470 
    5380     5263     5181     5119     5141     5150     5074     5170 
    5399     5408     5346     5393     5335     5233     5223     5195 
    5192     5263     5286     5262     5264     5263     5258     5263 
    5261     5334     5413     5289     5102     5076     5180     5322 
    5380     5324     5239     5167     5200     5324     5360     5346 
    5322     5174     5103     5278     5369     5248     5207     5293 
    5313     5251     5215     5261     5311     5263     5205     5261 
    5305     5191     5106     5214     5300     5269     5282     5329 
    5346     5374     5373     5270     5125     5055     5110     5189 
    5197     5278     5426     5427     5333     5287     5298     5297 
    5206     5142     5199     5279     5359     5343     5155     5083 
    5243     5343     5294     5250     5221     5201     5255     5366 
    5436     5374     5263     5247     5248     5194     5163     5160 
    5168     5206     5264     5321     5336     5311     5300     5276 
    5247     5270     5289     5273     5229     5164     5184     5293 
    5332     5291     5264     5268     5265     5238     5249     5273 
    5223     5215     5279     5244     5184     5222     5278     5346 
    5391     5331     5279     5282     5210     5126     5170     5245 
    5273     5299     5287     5283     5307     5242     5220     5330 
    5355     5272     5204     5142     5129     5241     5366     5358 
    5308     5322     5282     5210     5257     5303     5223     5158 
    5178     5206     5246     5293     5287     5238     5225     5293 
    5319     5232     5222     5324     5351     5311     5275     5222 
    5179     5196     5264     5329     5359     5378     5353     5286 
    5264     5235     5148     5148     5210     5210     5250     5376 
    5443     5373     5247     5153     5137     5223     5258     5183 
    5213     5300     5280     5263     5265     5254     5299     5320 
    5267     5237     5205     5166     5230     5341     5340     5256 
    5180     5185     5314     5402     5346     5263     5207     5189 
    5216     5262     5327     5321     5172     5038     5102     5271 
    5338     5315     5322     5341     5321     5272     5205     5205 
    5280     5253     5192     5238     5283     5274     5256     5305 
    5418     5425     5325     5238     5178     5145     5158     5237 
    5265     5197     5251     5383     5370     5313     5303     5247 
    5157     5125     5120     5131     5258     5411     5382     5267 
    5276     5346     5330     5239     5167     5167     5190     5232 
    5340     5432     5414     5320     5216     5173     5229     5271 
    5263     5262     5212     5219     5324     5293     5214     5279 
    5315     5271     5296     5353     5303     5150     5097     5207 
    5262     5232     5239     5236     5233     5265     5322     5408 
    5370     5202     5143     5168     5158     5229     5315     5225 
    5163     5261     5291     5267     5339     5375     5273     5191 
    5244     5281     5233     5238     5270     5257     5300     5364 
    5284     5204     5277     5298     5239     5264     5314     5325 
    5342     5379     5360     5242     5138     5124     5196     5288 
    5255     5167     5195     5271     5334     5380     5274     5121 
    5193     5319     5297     5281     5263     5191     5237     5350 
    5349     5305     5256     5159     5168     5343     5439     5348 
    5306     5354     5280     5205     5260     5246     5182     5200 
    5226     5315     5471     5444     5259     5159     5113     5072 
    5157     5275     5211     5027     4924     4999     5218     5389 
    5378     5295     5267     5217     5113     5093     5096     5030 
    5058     5117     5072     5107     5213     5259     5369     5561 
    5691     5708     5607     5376     5076     4981     5243     5491 
    5535     5568     5459     5198     5112     5124     5131     5314 
    5556     5636     5612     5516     5335     5167     5019     4944 
    5053     5163     5160     5250     5384     5375     5379     5444 
    5368     5285     5372     5417     5324     5193     5041     4966 
    5057     5217     5313     5299     5257     5300     5367     5344 
    5334     5423     5457     5390     5296     5098     4866     4903 
    5149     5216     5149     5235     5297     5170     5137     5263 
    5321     5328     5370     5292     5000     4824     5001     5120 
    4962     4991     5337     5525     5448     5441     5498     5385 
    5250     5331     5438     5359     5276     5284     5247     5244 
    5344     5355     5299     5359     5382     5246     5078     4918 
    4914     5205     5419     5293     5126     5043     4976     5136 
    5411     5420     5359     5412     5343     5237     5257     5286 
    5322     5326     5260     5336     5527     5588     5568     5501 
    5288     5192     5403     5468     5238     5183     5333     5372 
    5287     5185     5129     5149     5234     5322     5307     5233 
    5234     5184     4956     4795     4884     5027     5126     5323 
    5487     5381     5251     5345     5401     5326     5324     5283 
    5136     5164     5279     5148     4979     4994     4997     5055 
    5359     5678     5812     5820     5752     5638     5477     5296 
    5148     5037     4930     4779     4729     4840     4948     5199 
    5614     5766     5697     5724     5683     5452     5182     4924 
    4789     4828     4833     4914     5292     5663     5692     5420 
    5139     5120     5186     5133     5165     5267     5210     5127 
    5205     5270     5230     5315     5449     5370     5252     5236 
    5235     5322     5459     5449     5298     5106     4958     4980 
    5048     4998     5104     5412     5549     5550     5601     5575 
    5387     5056     4796     4927     5235     5295     5282     5378 
    5365     5353     5533     5630     5467     5234     5126     5165 
    5201     5123     5129     5387     5608     5577     5471     5397 
    5332     5233     5052     4961     5057     5155     5270     5427 
    5396     5269     5234     5201     5216     5291     5286     5178 
    4989     4897     5009     5068     5076     5189     5279     5377 
    5506     5505     5439     5357     5268     5237     5090     4927 
    5042     5127     5044     5191     5462     5531     5570     5666 
    5613     5395     5134     4950     4945     5054     5151     5314 
    5538     5553     5378     5331     5396     5384     5297     5259 
    5304     5277     5223     5304     5336     5273     5290     5299 
    5253     5268     5268     5137     5017     5054     5111     5084 
    5098     5219     5361     5328     5140     5137     5277     5283 
    5284     5310     5211     5170     5280     5321     5247     5176 
    5084     4955     5017     5315     5538     5610     5639     5605 
    5561     5471     5250     5097     5090     5083     5147     5300 
    5409     5450     5345     5143     5068     5072     5104     5234 
    5330     5332     5367     5408     5332     5169     5051     5040 
    5074     5130     5226     5251     5144     5068     5153     5320 
    5443     5529     5581     5487     5283     5204     5263     5250 
    5200     5235     5219     5131     5168     5300     5349     5307 
    5297     5331     5275     5153     5124     5167     5181     5122 
    5030     5063     5237     5405     5472     5453     5496     5614 
    5570     5400     5310     5245     5146     5071     5068     5205 
    5374     5426     5445     5449     5382     5317     5266     5170 
    5091     5108     5157     5131     5082     5091     5128     5180 
    5180     5127     5199     5317     5288     5262     5322     5311 
    5220     5168     5199     5233     5213     5218     5278     5329 
    5367     5390     5328     5226     5200     5287     5440     5523 
    5475     5374     5288     5276     5302     5247     5204     5278 
    5332     5269     5137     5063     5096     5139     5280     5518 
    5507     5329     5294     5228     5082     5046     5018     4980 
    5075     5194     5237     5307     5419     5460     5410     5360 
    5317     5230     5137     5095     5121     5192     5262     5327 
    5417     5490     5421     5260     5214     5244     5268     5380 
    5491     5465     5381     5317     5267     5193     5126     5163 
    5231     5223     5187     5191     5275     5346     5281     5194 
    5186     5214     5257     5250     5192     5200     5227     5218 
    5271     5326     5270     5211     5227     5239     5261     5334 
    5339     5245     5211     5249     5244     5244     5289     5270 
    5199     5182     5202     5217     5234     5225     5167     5156 
    5253     5320     5316     5351     5345     5246     5184     5171 
    5193     5287     5355     5371     5458     5530     5412     5239 
    5217     5244     5179     5119     5170     5271     5370     5457 
    5452     5326     5199     5162     5154     5111     5110     5188 
    5244     5285     5347     5344     5312     5319     5266     5163 
    5159     5244     5265     5185     5149     5208     5278     5317 
    5320     5306     5326     5342     5293     5200     5152     5184 
    5202     5155     5112     5107     5110     5136     5225     5345 
    5401     5413     5460     5460     5337     5248     5295     5325 
    5263     5232     5247     5241     5264     5336     5395     5414 
    5411     5401     5339     5231     5194     5213     5214     5244 
    5279     5244     5177     5139     5181     5253     5246     5176 
    5126     5171     5284     5307     5252     5228     5195     5143 
    5160     5223     5219     5196     5276     5335     5268     5249 
    5340     5397     5364     5289     5254     5291     5357     5410 
    5384     5271     5199     5211     5208     5223     5319     5378 
    5305     5197     5165     5190     5222     5287     5356     5311 
    5207     5194     5241     5236     5217     5246     5259     5223 
    5195     5186     5195     5234     5270     5288     5314     5327 
    5280     5215     5210     5239     5246     5262     5315     5347 
    5337     5317     5295     5282     5257     5198     5208     5283 
    5265     5215     5232     5249     5282     5335     5347     5360 
    5353     5286     5236     5230     5200     5122     5064     5107 
    5192     5215     5216     5255     5286     5295     5301     5282 
    5215     5155     5178     5234     5263     5290     5295     5303 
    5355     5345     5263     5246     5304     5314     5252     5239 
    5294     5303     5275     5288     5319     5313     5297     5299 
    5270     5237     5241     5205     5145     5162     5220     5247 
    5219     5171     5183     5232     5245     5252     5256     5229 
    5265     5367     5366     5294     5309     5347     5298     5236 
    5244     5254     5230     5238     5261     5261     5253     5223 
    5198     5244     5323     5348     5296     5237     5235     5225 
