Origin Time       2014/12/26 22:30:00
Lat.              35.285
Long.             135.895
Depth. (km)       14
Mag.              4.2
Station Code      GIFH27
Station Lat.      35.4527
Station Long.     137.004
Station Height(m) -115
Record Time       2014/12/26 22:31:04
Sampling Freq(Hz) 100Hz
Duration Time(s)  120
Dir.              2
Scale Factor      2940(gal)/6170270
Max. Acc. (gal)   0.491
Last Correction   2014/12/26 22:30:49
Memo.             
[...]
 -140770  -140776  -140774  -140766  -140769  -140776  -140773  -140770 
 -140774  -140777  -140776  -140774  -140774  -140775  -140774  -140771 
 -140772  -140772  -140772  -140773  -140772  -140770  -140773  -140775 
 -140772  -140771  -140773  -140772  -140770  -140772  -140774  -140771 
 -140772  -140775  -140773  -140773  -140774  -140773  -140774  -140772 
 -140771  -140774  -140773  -140772  -140774  -140774  -140774  -140775 
 -140775  -140774  -140772  -140774  -140775  -140770  -140771  -140777 
 -140776  -140774  -140775  -140774  -140772  -140773  -140773  -140772 
 -140772  -140774  -140774  -140773  -140774  -140777  -140776  -140772 
 -140773  -140776  -140772  -140768  -140773  -140773  -140770  -140773 
 -140775  -140772  -140773  -140774  -140773  -140775  -140774  -140771 
 -140773  -140773  -140769  -140771  -140776  -140775  -140773  -140771 
 -140770  -140774  -140775  -140771  -140772  -140774  -140773  -140773 
 -140773  -140774  -140775  -140773  -140774  -140774  -140771  -140772 
 -140773  -140771  -140771  -140773  -140778  -140783  -140789  -140801 
 -140806  -140803  -140804  -140815  -140839  -140859  -140851  -140817 
 -140767  -140719  -140712  -140727  -140717  -140710  -140731  -140732 
 -140725  -140765  -140794  -140744  -140695  -140737  -140817  -140872 
 -140902  -140868  -140782  -140762  -140814  -140809  -140751  -140753 
 -140734  -140598  -140558  -140719  -140758  -140600  -140600  -140761 
 -140767  -140744  -140946  -141038  -140752  -140593  -140846  -140942 
 -140731  -140794  -140971  -140674  -140439  -140818  -141001  -140588 
 -140482  -140922  -141045  -140637  -140499  -140906  -141032  -140576 
 -140494  -141082  -141283  -140869  -140782  -140967  -140742  -140467 
 -140542  -140672  -140813  -140962  -140878  -140749  -140719  -140549 
 -140494  -140828  -141045  -140900  -140835  -140925  -140856  -140655 
 -140561  -140652  -140792  -140777  -140671  -140687  -140812  -140860 
 -140670  -140486  -140670  -140903  -140860  -140863  -140926  -140797 
 -140741  -140936  -141061  -140970  -140844  -140698  -140523  -140613 
 -140919  -140878  -140612  -140702  -140798  -140381  -140144  -140723 
 -141164  -140690  -140380  -140875  -141129  -140914  -140988  -141096 
 -140834  -140749  -140990  -140940  -140676  -140775  -140879  -140598 
 -140580  -140911  -140833  -140514  -140522  -140635  -140727  -140901 
 -140849  -140660  -140720  -140815  -140807  -140838  -140870  -140938 
 -140920  -140793  -140869  -140907  -140693  -140677  -140772  -140578 
 -140423  -140564  -140701  -140744  -140814  -140829  -140809  -140879 
 -140929  -140911  -140854  -140675  -140529  -140582  -140686  -140822 
 -140988  -140951  -140720  -140589  -140665  -140871  -141054  -140977 
 -140773  -140834  -140917  -140691  -140582  -140765  -140810  -140737 
 -140852  -140975  -140873  -140670  -140524  -140492  -140555  -140674 
 -140849  -140931  -140842  -140794  -140799  -140721  -140718  -140839 
 -140852  -140782  -140848  -140936  -140811  -140681  -140748  -140740 
 -140657  -140773  -140841  -140721  -140799  -140955  -140764  -140523 
 -140639  -140847  -140780  -140673  -140866  -140958  -140674  -140609 
 -140866  -140901  -140763  -140720  -140696  -140643  -140652  -140784 
 -140893  -140832  -140821  -140968  -140953  -140731  -140637  -140728 
 -140803  -140824  -140817  -140777  -140727  -140630  -140635  -140821 
 -140822  -140701  -140803  -140807  -140628  -140691  -140861  -140842 
 -140787  -140853  -140924  -140844  -140712  -140691  -140690  -140656 
 -140686  -140795  -140901  -140879  -140738  -140667  -140686  -140704 
 -140733  -140732  -140711  -140797  -140881  -140817  -140788  -140848 
 -140826  -140858  -140941  -140813  -140702  -140809  -140811  -140655 
 -140608  -140682  -140685  -140639  -140774  -140915  -140793  -140743 
 -140899  -140870  -140713  -140732  -140753  -140665  -140716  -140870 
 -140897  -140876  -140869  -140822  -140773  -140715  -140699  -140768 
 -140743  -140620  -140600  -140726  -140852  -140815  -140725  -140747 
 -140810  -140877  -140907  -140801  -140682  -140682  -140705  -140758 
 -140948  -141094  -140956  -140740  -140706  -140690  -140591  -140582 
 -140712  -140871  -140923  -140783  -140628  -140668  -140763  -140783 
 -140825  -140850  -140814  -140797  -140764  -140722  -140737  -140799 
 -140850  -140796  -140760  -140882  -140944  -140874  -140769  -140601 
 -140495  -140505  -140593  -140880  -141132  -141030  -140812  -140706 
 -140651  -140607  -140606  -140782  -140994  -140887  -140695  -140768 
 -140833  -140705  -140635  -140753  -140873  -140819  -140730  -140760 
 -140759  -140680  -140699  -140814  -140862  -140820  -140814  -140839 
 -140787  -140713  -140707  -140729  -140775  -140863  -140866  -140770 
 -140763  -140772  -140687  -140722  -140835  -140785  -140726  -140811 
 -140845  -140753  -140767  -140866  -140789  -140709  -140807  -140803 
 -140638  -140569  -140670  -140834  -140853  -140717  -140731  -140935 
 -140978  -140834  -140817  -140837  -140726  -140729  -140812  -140772 
 -140756  -140751  -140703  -140748  -140794  -140748  -140737  -140788 
 -140797  -140742  -140736  -140779  -140758  -140675  -140606  -140651 
 -140781  -140839  -140895  -140944  -140816  -140703  -140739  -140723 
 -140680  -140733  -140799  -140792  -140791  -140886  -140867  -140654 
 -140615  -140746  -140741  -140736  -140842  -140875  -140845  -140867 
 -140855  -140747  -140692  -140755  -140795  -140795  -140833  -140837 
 -140774  -140737  -140749  -140777  -140792  -140807  -140833  -140788 
 -140701  -140769  -140943  -140914  -140719  -140688  -140809  -140823 
 -140690  -140570  -140570  -140567  -140550  -140766  -140990  -140908 
 -140847  -140858  -140702  -140704  -140923  -140939  -140824  -140791 
 -140710  -140585  -140579  -140634  -140662  -140760  -140920  -140974 
 -140945  -140932  -140876  -140749  -140613  -140554  -140627  -140715 
 -140712  -140686  -140678  -140705  -140814  -140901  -140895  -140888 
 -140830  -140763  -140856  -140856  -140633  -140561  -140667  -140734 
 -140847  -141003  -141063  -140999  -140893  -140878  -140833  -140605 
 -140478  -140598  -140648  -140555  -140645  -140891  -140895  -140775 
 -140866  -140931  -140835  -140845  -140936  -140892  -140767  -140748 
 -140776  -140670  -140569  -140628  -140698  -140717  -140713  -140753 
 -140908  -140905  -140631  -140513  -140676  -140837  -140894  -140865 
 -140811  -140821  -140835  -140792  -140766  -140738  -140659  -140661 
 -140819  -140933  -140833  -140644  -140629  -140764  -140809  -140808 
 -140850  -140804  -140724  -140730  -140803  -140895  -140874  -140813 
 -140860  -140821  -140712  -140700  -140669  -140699  -140856  -140913 
 -140836  -140695  -140608  -140701  -140779  -140801  -140892  -140911 
 -140906  -140909  -140716  -140573  -140681  -140725  -140665  -140668 
 -140683  -140713  -140789  -140825  -140766  -140745  -140846  -140853 
 -140727  -140718  -140770  -140772  -140813  -140796  -140686  -140700 
 -140874  -140995  -140891  -140654  -140561  -140706  -140878  -140857 
 -140773  -140785  -140731  -140689  -140833  -140878  -140783  -140784 
 -140789  -140779  -140790  -140730  -140689  -140690  -140659  -140719 
 -140833  -140806  -140734  -140790  -140893  -140929  -140864  -140734 
 -140724  -140792  -140719  -140679  -140810  -140839  -140754  -140787 
 -140868  -140870  -140865  -140817  -140683  -140641  -140710  -140669 
 -140562  -140650  -140828  -140808  -140812  -140984  -140884  -140643 
 -140736  -140854  -140832  -140911  -140887  -140684  -140608  -140724 
 -140822  -140731  -140678  -140848  -140874  -140686  -140660  -140777 
 -140807  -140742  -140732  -140872  -140931  -140779  -140669  -140669 
 -140689  -140769  -140837  -140830  -140850  -140818  -140674  -140695 
 -140850  -140783  -140710  -140889  -140899  -140684  -140700  -140830 
 -140803  -140830  -140892  -140802  -140774  -140818  -140662  -140565 
 -140730  -140785  -140721  -140765  -140781  -140815  -140884  -140788 
 -140765  -140885  -140778  -140597  -140606  -140685  -140779  -140808 
 -140803  -140925  -140941  -140805  -140810  -140800  -140703  -140756 
 -140794  -140692  -140665  -140722  -140760  -140753  -140734  -140822 
 -140908  -140789  -140658  -140745  -140846  -140764  -140700  -140787 
 -140825  -140834  -140928  -140856  -140647  -140617  -140669  -140709 
 -140822  -140886  -140821  -140711  -140698  -140808  -140785  -140664 
 -140769  -140918  -140831  -140726  -140747  -140760  -140751  -140753 
 -140711  -140728  -140870  -140877  -140738  -140749  -140820  -140784 
 -140740  -140707  -140678  -140728  -140806  -140828  -140813  -140822 
 -140882  -140879  -140784  -140762  -140786  -140744  -140729  -140785 
 -140814  -140744  -140629  -140623  -140697  -140790  -140959  -141000 
 -140819  -140744  -140773  -140683  -140648  -140735  -140739  -140724 
 -140800  -140846  -140830  -140793  -140734  -140710  -140734  -140747 
 -140766  -140820  -140838  -140812  -140843  -140872  -140792  -140703 
 -140676  -140677  -140738  -140807  -140774  -140716  -140732  -140745 
 -140740  -140816  -140868  -140769  -140716  -140803  -140791  -140695 
 -140726  -140796  -140812  -140857  -140862  -140781  -140762  -140812 
 -140821  -140777  -140731  -140760  -140838  -140823  -140727  -140700 
 -140793  -140911  -140932  -140835  -140724  -140677  -140629  -140578 
 -140662  -140779  -140751  -140739  -140826  -140833  -140793  -140839 
 -140839  -140743  -140754  -140853  -140800  -140693  -140744  -140794 
 -140752  -140774  -140810  -140750  -140714  -140752  -140725  -140665 
 -140765  -140861  -140753  -140720  -140807  -140787  -140801  -140866 
 -140833  -140854  -140889  -140799  -140742  -140727  -140698  -140741 
 -140767  -140730  -140731  -140750  -140802  -140855  -140766  -140678 
 -140754  -140827  -140855  -140859  -140707  -140540  -140608  -140777 
 -140838  -140874  -140929  -140863  -140765  -140790  -140766  -140707 
 -140816  -140846  -140675  -140615  -140655  -140661  -140761  -140867 
 -140849  -140822  -140795  -140769  -140816  -140856  -140818  -140730 
 -140693  -140773  -140788  -140705  -140761  -140857  -140832  -140812 
 -140808  -140812  -140845  -140764  -140639  -140670  -140749  -140701 
 -140636  -140748  -140903  -140842  -140734  -140803  -140897  -140886 
 -140875  -140901  -140826  -140683  -140658  -140705  -140722  -140700 
 -140693  -140762  -140741  -140665  -140807  -140948  -140897  -140845 
 -140762  -140705  -140768  -140727  -140627  -140682  -140803  -140880 
 -140869  -140769  -140746  -140840  -140813  -140665  -140672  -140759 
 -140740  -140749  -140795  -140755  -140736  -140782  -140800  -140818 
 -140867  -140872  -140812  -140712  -140624  -140677  -140774  -140737 
 -140735  -140815  -140799  -140760  -140755  -140737  -140738  -140762 
 -140874  -140964  -140856  -140775  -140790  -140715  -140643  -140658 
 -140763  -140901  -140870  -140758  -140748  -140739  -140754  -140852 
 -140852  -140760  -140774  -140823  -140729  -140636  -140723  -140777 
 -140687  -140713  -140831  -140847  -140854  -140870  -140778  -140683 
 -140761  -140862  -140751  -140675  -140822  -140849  -140737  -140769 
 -140838  -140807  -140750  -140717  -140691  -140655  -140669  -140733 
 -140812  -140905  -140869  -140729  -140726  -140797  -140868  -140952 
 -140832  -140671  -140756  -140756  -140640  -140733  -140827  -140791 
 -140822  -140848  -140834  -140866  -140865  -140819  -140804  -140813 
 -140768  -140673  -140695  -140769  -140696  -140649  -140727  -140788 
 -140868  -140903  -140826  -140817  -140796  -140691  -140716  -140781 
 -140709  -140623  -140603  -140617  -140611  -140574  -140595  -140692 
 -140809  -140874  -140840  -140811  -140799  -140654  -140510  -140606 
 -140761  -140728  -140661  -140691  -140672  -140642  -140792  -141077 
 -141337  -141454  -141340  -140990  -140531  -140236  -140388  -140990 
 -141577  -141672  -141398  -140963  -140346  -139945  -140132  -140628 
 -141186  -141634  -141569  -141058  -140545  -140159  -139936  -139919 
 -140047  -140327  -140671  -140916  -141077  -141166  -141134  -141007 
 -140885  -140867  -140886  -140881  -140892  -140748  -140364  -140078 
 -140174  -140558  -140995  -141293  -141275  -140951  -140678  -140645 
 -140624  -140564  -140612  -140676  -140646  -140587  -140472  -140315 
 -140414  -140816  -141118  -141173  -141116  -140928  -140728  -140787 
 -141079  -141262  -141067  -140720  -140556  -140405  -140171  -140244 
 -140693  -141107  -141330  -141484  -141430  -141044  -140643  -140460 
 -140436  -140554  -140714  -140740  -140611  -140520  -140701  -140965 
 -140980  -140901  -140878  -140891  -141074  -141179  -140853  -140502 
 -140593  -140994  -141364  -141264  -140534  -139852  -139901  -140483 
 -141058  -141329  -141187  -140789  -140528  -140546  -140609  -140637 
 -140736  -140749  -140555  -140438  -140600  -140896  -141079  -141048 
 -140926  -140817  -140805  -140911  -140805  -140406  -140245  -140517 
 -140756  -140626  -140519  -140896  -141352  -141358  -140990  -140541 
 -140378  -140509  -140536  -140442  -140399  -140434  -140628  -140876 
 -140982  -141030  -141194  -141379  -141327  -141060  -140858  -140846 
 -140834  -140695  -140614  -140548  -140384  -140401  -140571  -140711 
 -140975  -141225  -141295  -141343  -141289  -141091  -140976  -140884 
 -140613  -140297  -140077  -139900  -139897  -140120  -140346  -140744 
 -141429  -141803  -141654  -141418  -141156  -140729  -140403  -140380 
 -140309  -140059  -140131  -140453  -140591  -140841  -141186  -141178 
 -141087  -141131  -141149  -141127  -140948  -140690  -140524  -140298 
 -140172  -140331  -140507  -140689  -140909  -140911  -140772  -140743 
 -140863  -141159  -141478  -141542  -141351  -141012  -140582  -140250 
 -140183  -140309  -140412  -140506  -140767  -140987  -141007  -141043 
 -141003  -140827  -140836  -140972  -141045  -141083  -140879  -140445 
 -140188  -140276  -140632  -141026  -141183  -141160  -141061  -140876 
 -140700  -140528  -140338  -140322  -140554  -140846  -140976  -140853 
 -140584  -140357  -140350  -140599  -140851  -141033  -141308  -141371 
 -140942  -140434  -140263  -140451  -140754  -140882  -140910  -140938 
 -140834  -140683  -140708  -140871  -140920  -140776  -140729  -140873 
 -140946  -140861  -140720  -140606  -140524  -140425  -140422  -140598 
 -140831  -141067  -141229  -141166  -140982  -140853  -140780  -140772 
 -140812  -140824  -140813  -140728  -140587  -140577  -140630  -140663 
 -140835  -140942  -140810  -140878  -141171  -141173  -140871  -140573 
 -140445  -140462  -140469  -140541  -140746  -140931  -140995  -140772 
 -140427  -140498  -140836  -141000  -141040  -140954  -140702  -140489 
 -140458  -140597  -140725  -140718  -140731  -140846  -140935  -140858 
 -140699  -140740  -140962  -141133  -141196  -141098  -140762  -140306 
 -140029  -140060  -140295  -140784  -141373  -141533  -141328  -141258 
 -141241  -141007  -140702  -140450  -140236  -140288  -140630  -140856 
 -140945  -141048  -140925  -140636  -140435  -140272  -140293  -140617 
 -140971  -141219  -141377  -141327  -141055  -140731  -140495  -140402 
 -140474  -140639  -140733  -140689  -140638  -140674  -140745  -140935 
 -141267  -141383  -141165  -140857  -140513  -140230  -140156  -140184 
 -140262  -140463  -140782  -141089  -141200  -141136  -140981  -140763 
 -140692  -140780  -140754  -140658  -140660  -140698  -140635  -140440 
 -140395  -140668  -140896  -140985  -141144  -141102  -140820  -140776 
 -140892  -140858  -140846  -140917  -140916  -140893  -140877  -140765 
 -140668  -140848  -141178  -141196  -140911  -140693  -140580  -140534 
 -140629  -140738  -140722  -140675  -140715  -140796  -140744  -140595 
 -140544  -140586  -140690  -140858  -140910  -140827  -140801  -140831 
 -140781  -140667  -140694  -140915  -141045  -140906  -140649  -140472 
 -140480  -140632  -140762  -140795  -140834  -140953  -141060  -141082 
 -140997  -140803  -140666  -140705  -140807  -140851  -140786  -140676 
 -140671  -140721  -140652  -140495  -140448  -140578  -140789  -140976 
 -140974  -140763  -140658  -140773  -140863  -140824  -140721  -140631 
 -140543  -140489  -140681  -140930  -140893  -140861  -140958  -140882 
 -140743  -140705  -140744  -140836  -140740  -140556  -140648  -140793 
 -140843  -140970  -140985  -140840  -140771  -140752  -140767  -140838 
 -140901  -140967  -140971  -140893  -140871  -140859  -140753  -140587 
 -140474  -140534  -140671  -140740  -140802  -140851  -140829  -140804 
 -140781  -140751  -140756  -140774  -140812  -140815  -140722  -140723 
 -140783  -140724  -140713  -140713  -140642  -140761  -140890  -140747 
 -140648  -140701  -140720  -140753  -140796  -140795  -140791  -140790 
 -140755  -140708  -140746  -140782  -140687  -140692  -140880  -140959 
 -140876  -140853  -140969  -141049  -140958  -140867  -140822  -140661 
 -140517  -140618  -140818  -140886  -140866  -140825  -140703  -140597 
 -140658  -140778  -140814  -140786  -140777  -140818  -140846  -140814 
 -140726  -140661  -140681  -140669  -140621  -140670  -140764  -140863 
 -140918  -140801  -140705  -140801  -140821  -140719  -140749  -140826 
 -140773  -140723  -140759  -140811  -140831  -140761  -140678  -140736 
 -140876  -140960  -140880  -140672  -140577  -140652  -140721  -140755 
 -140782  -140792  -140789  -140745  -140730  -140775  -140751  -140737 
 -140838  -140860  -140766  -140723  -140709  -140692  -140757  -140881 
 -140946  -140895  -140794  -140730  -140723  -140794  -140905  -140937 
 -140907  -140857  -140735  -140607  -140594  -140677  -140756  -140803 
 -140875  -140940  -140915  -140887  -140916  -140896  -140804  -140704 
 -140631  -140593  -140609  -140685  -140721  -140665  -140673  -140764 
 -140790  -140797  -140855  -140864  -140787  -140722  -140727  -140707 
 -140630  -140674  -140813  -140756  -140585  -140649  -140837  -140834 
 -140790  -140853  -140788  -140651  -140720  -140854  -140851  -140801 
 -140798  -140819  -140830  -140859  -140927  -140990  -140995  -140890 
 -140706  -140586  -140594  -140657  -140691  -140719  -140779  -140756 
 -140683  -140716  -140737  -140731  -140830  -140860  -140749  -140729 
 -140793  -140769  -140676  -140653  -140722  -140781  -140830  -140889 
 -140854  -140786  -140801  -140766  -140678  -140710  -140789  -140781 
 -140757  -140799  -140870  -140847  -140714  -140683  -140830  -140930 
 -140895  -140894  -140913  -140819  -140732  -140751  -140777  -140793 
 -140786  -140742  -140764  -140789  -140748  -140775  -140814  -140753 
 -140735  -140783  -140784  -140809  -140861  -140803  -140687  -140628 
 -140586  -140598  -140699  -140741  -140718  -140726  -140740  -140782 
 -140843  -140787  -140657  -140653  -140805  -140933  -140917  -140825 
 -140747  -140712  -140765  -140883  -140928  -140864  -140844  -140876 
 -140783  -140664  -140718  -140747  -140616  -140569  -140659  -140692 
 -140657  -140714  -140881  -140925  -140807  -140786  -140853  -140866 
 -140875  -140846  -140744  -140671  -140671  -140730  -140804  -140863 
 -140901  -140883  -140882  -140907  -140845  -140731  -140581  -140481 
 -140611  -140778  -140792  -140776  -140734  -140684  -140708  -140774 
 -140881  -140915  -140827  -140823  -140834  -140762  -140784  -140828 
