Origin Time       2015/11/14 05:51:00
Lat.              30.942
Long.             128.590
Depth. (km)       17
Mag.              7.1
Station Code      KMM003
Station Lat.      32.9336
Station Long.     130.5477
Station Height(m) 14
Record Time       2015/11/14 05:52:34
Sampling Freq(Hz) 100Hz
Duration Time(s)  83
Dir.              N-S
Scale Factor      3920(gal)/6182761
Max. Acc. (gal)   3.140
Last Correction   2015/11/14 05:52:34
Memo.             
[...]
   -5155    -5164    -5168    -5161    -5137    -5113    -5092    -5074 
   -5058    -5040    -5021    -5003    -4988    -4971    -4952    -4938 
   -4934    -4944    -4965    -4995    -5029    -5061    -5100    -5140 
   -5178    -5213    -5243    -5272    -5292    -5291    -5275    -5241 
   -5181    -5094    -4989    -4882    -4773    -4668    -4587    -4532 
   -4503    -4520    -4580    -4668    -4788    -4936    -5096    -5266 
   -5447    -5623    -5777    -5910    -6020    -6089    -6130    -6153 
   -6142    -6099    -6043    -5968    -5873    -5771    -5659    -5541 
   -5425    -5301    -5172    -5054    -4939    -4824    -4710    -4602 
   -4499    -4390    -4276    -4171    -4081    -3995    -3928    -3902 
   -3901    -3928    -3995    -4085    -4184    -4290    -4406    -4535 
   -4664    -4800    -4948    -5088    -5210    -5318    -5400    -5450 
   -5468    -5453    -5413    -5362    -5314    -5266    -5218    -5187 
   -5175    -5160    -5144    -5136    -5121    -5093    -5067    -5055 
   -5054    -5056    -5071    -5092    -5107    -5130    -5157    -5176 
   -5204    -5233    -5250    -5269    -5292    -5312    -5334    -5352 
   -5360    -5366    -5364    -5353    -5341    -5332    -5323    -5311 
   -5302    -5303    -5299    -5278    -5248    -5203    -5131    -5045 
   -4948    -4834    -4712    -4588    -4465    -4359    -4272    -4203 
   -4158    -4142    -4159    -4216    -4306    -4416    -4553    -4720 
   -4906    -5089    -5272    -5465    -5644    -5795    -5924    -6019 
   -6080    -6118    -6126    -6112    -6093    -6063    -6027    -5990 
   -5939    -5874    -5795    -5692    -5567    -5413    -5228    -5030 
   -4830    -4623    -4426    -4258    -4119    -4018    -3964    -3945 
   -3951    -3974    -4006    -4049    -4101    -4160    -4222    -4289 
   -4368    -4468    -4582    -4691    -4789    -4877    -4949    -5018 
   -5086    -5147    -5211    -5290    -5384    -5492    -5612    -5729 
   -5835    -5924    -5990    -6029    -6033    -6007    -5951    -5861 
   -5752    -5633    -5498    -5361    -5225    -5087    -4962    -4848 
   -4742    -4647    -4564    -4493    -4437    -4394    -4370    -4358 
   -4357    -4378    -4410    -4447    -4498    -4545    -4588    -4635 
   -4673    -4710    -4756    -4799    -4862    -4953    -5054    -5175 
   -5313    -5456    -5614    -5772    -5911    -6045    -6168    -6253 
   -6300    -6328    -6326    -6278    -6189    -6072    -5930    -5761 
   -5577    -5393    -5207    -5020    -4852    -4710    -4586    -4488 
   -4420    -4374    -4360    -4376    -4411    -4466    -4539    -4620 
   -4694    -4761    -4830    -4884    -4912    -4931    -4947    -4954 
   -4968    -4995    -5023    -5061    -5121    -5192    -5264    -5336 
   -5413    -5500    -5580    -5636    -5674    -5699    -5698    -5657 
   -5581    -5479    -5354    -5208    -5058    -4922    -4799    -4686 
   -4607    -4568    -4556    -4564    -4603    -4677    -4759    -4849 
   -4968    -5089    -5200    -5312    -5408    -5472    -5499    -5491 
   -5444    -5354    -5233    -5093    -4939    -4789    -4643    -4497 
   -4377    -4296    -4246    -4225    -4236    -4282    -4346    -4411 
   -4488    -4562    -4623    -4678    -4714    -4737    -4756    -4755 
   -4745    -4742    -4742    -4754    -4785    -4827    -4885    -4965 
   -5057    -5157    -5265    -5361    -5437    -5498    -5535    -5544 
   -5527    -5485    -5426    -5353    -5266    -5176    -5090    -5019 
   -4969    -4946    -4954    -4996    -5068    -5163    -5277    -5400 
   -5520    -5636    -5744    -5827    -5882    -5924    -5953    -5961 
   -5948    -5918    -5873    -5807    -5713    -5598    -5468    -5325 
   -5187    -5058    -4928    -4810    -4726    -4664    -4620    -4607 
   -4618    -4639    -4663    -4690    -4713    -4725    -4726    -4723 
   -4718    -4716    -4720    -4737    -4777    -4846    -4931    -5024 
   -5136    -5260    -5375    -5483    -5583    -5673    -5746    -5796 
   -5824    -5831    -5804    -5734    -5634    -5514    -5362    -5188 
   -5012    -4837    -4670    -4528    -4415    -4334    -4288    -4273 
   -4288    -4331    -4397    -4471    -4550    -4633    -4708    -4762 
   -4793    -4814    -4820    -4793    -4744    -4691    -4640    -4600 
   -4584    -4599    -4645    -4718    -4829    -4975    -5135    -5303 
   -5487    -5664    -5819    -5958    -6067    -6133    -6162    -6160 
   -6125    -6049    -5936    -5816    -5685    -5538    -5399    -5276 
   -5167    -5082    -5020    -4978    -4963    -4967    -4977    -4992 
   -5009    -5028    -5044    -5059    -5076    -5090    -5103    -5115 
   -5114    -5095    -5067    -5039    -5009    -4974    -4939    -4913 
   -4900    -4906    -4938    -4984    -5037    -5098    -5160    -5214 
   -5267    -5324    -5375    -5410    -5440    -5463    -5464    -5449 
   -5423    -5367    -5282    -5188    -5080    -4959    -4840    -4735 
   -4646    -4577    -4527    -4505    -4520    -4553    -4595    -4655 
   -4729    -4808    -4893    -4995    -5106    -5211    -5319    -5432 
   -5539    -5625    -5689    -5738    -5761    -5761    -5755    -5734 
   -5695    -5650    -5594    -5534    -5475    -5410    -5334    -5248 
   -5151    -5047    -4925    -4796    -4664    -4518    -4373    -4243 
   -4125    -4022    -3931    -3861    -3825    -3816    -3826    -3876 
   -3964    -4070    -4197    -4347    -4511    -4692    -4877    -5059 
   -5229    -5374    -5491    -5573    -5611    -5608    -5557    -5470 
   -5365    -5251    -5130    -5003    -4891    -4803    -4721    -4655 
   -4607    -4556    -4512    -4476    -4428    -4384    -4345    -4307 
   -4280    -4262    -4259    -4273    -4293    -4324    -4371    -4420 
   -4472    -4534    -4596    -4651    -4711    -4788    -4870    -4949 
   -5038    -5135    -5215    -5281    -5345    -5387    -5401    -5401 
   -5377    -5325    -5266    -5196    -5110    -5019    -4931    -4838 
   -4749    -4681    -4635    -4608    -4600    -4609    -4638    -4678 
   -4729    -4793    -4869    -4962    -5066    -5174    -5301    -5431 
   -5545    -5646    -5723    -5758    -5758    -5724    -5653    -5561 
   -5455    -5338    -5224    -5119    -5027    -4965    -4931    -4911 
   -4912    -4930    -4949    -4979    -5022    -5055    -5089    -5131 
   -5156    -5169    -5185    -5187    -5178    -5175    -5170    -5158 
   -5149    -5142    -5135    -5126    -5113    -5095    -5072    -5045 
   -5019    -4990    -4957    -4925    -4888    -4848    -4822    -4801 
   -4773    -4755    -4762    -4787    -4829    -4895    -4978    -5078 
   -5198    -5327    -5459    -5587    -5701    -5797    -5872    -5925 
   -5958    -5962    -5939    -5901    -5849    -5771    -5668    -5557 
   -5441    -5308    -5173    -5053    -4940    -4826    -4732    -4666 
   -4616    -4571    -4534    -4516    -4505    -4479    -4459    -4447 
   -4427    -4405    -4381    -4354    -4335    -4324    -4321    -4332 
   -4350    -4373    -4402    -4438    -4471    -4502    -4544    -4593 
   -4644    -4708    -4781    -4854    -4935    -5032    -5132    -5230 
   -5342    -5464    -5586    -5705    -5810    -5900    -5975    -6019 
   -6022    -5994    -5936    -5851    -5749    -5633    -5518    -5409 
   -5296    -5188    -5091    -4994    -4901    -4815    -4722    -4640 
   -4577    -4515    -4466    -4435    -4409    -4393    -4390    -4387 
   -4381    -4378    -4382    -4405    -4430    -4441    -4463    -4493 
   -4498    -4494    -4497    -4489    -4481    -4481    -4475    -4472 
   -4483    -4496    -4516    -4542    -4561    -4581    -4607    -4630 
   -4658    -4703    -4759    -4828    -4908    -4988    -5069    -5151 
   -5217    -5262    -5292    -5303    -5287    -5250    -5197    -5132 
   -5062    -5004    -4963    -4934    -4919    -4928    -4958    -4998 
   -5039    -5091    -5152    -5211    -5259    -5309    -5363    -5406 
   -5429    -5446    -5468    -5469    -5445    -5414    -5369    -5297 
   -5214    -5133    -5050    -4972    -4905    -4852    -4827    -4824 
   -4824    -4840    -4870    -4891    -4910    -4932    -4933    -4921 
   -4912    -4896    -4873    -4858    -4841    -4826    -4824    -4828 
   -4836    -4860    -4898    -4943    -4997    -5057    -5122    -5197 
   -5276    -5355    -5433    -5498    -5546    -5574    -5574    -5557 
   -5522    -5466    -5411    -5365    -5328    -5317    -5336    -5377 
   -5443    -5538    -5648    -5751    -5841    -5918    -5965    -5966 
   -5924    -5847    -5731    -5575    -5390    -5192    -4987    -4778 
   -4583    -4417    -4287    -4208    -4191    -4234    -4339    -4509 
   -4737    -5004    -5301    -5614    -5919    -6195    -6427    -6597 
   -6702    -6742    -6710    -6605    -6439    -6241    -6022    -5773 
   -5516    -5281    -5069    -4882    -4733    -4629    -4573    -4566 
   -4594    -4647    -4721    -4804    -4884    -4950    -4993    -5009 
   -4996    -4955    -4901    -4839    -4764    -4695    -4656    -4633 
   -4624    -4650    -4701    -4768    -4860    -4968    -5083    -5213 
   -5347    -5470    -5583    -5681    -5756    -5810    -5845    -5863 
   -5865    -5860    -5862    -5870    -5876    -5888    -5914    -5937 
   -5957    -5972    -5969    -5952    -5918    -5850    -5761    -5656 
   -5520    -5362    -5192    -5010    -4830    -4659    -4493    -4350 
   -4247    -4174    -4136    -4142    -4179    -4248    -4354    -4482 
   -4627    -4798    -4981    -5162    -5339    -5508    -5649    -5759 
   -5840    -5880    -5882    -5859    -5811    -5751    -5684    -5607 
   -5534    -5469    -5401    -5329    -5256    -5179    -5083    -4967 
   -4841    -4710    -4567    -4419    -4292    -4184    -4082    -4009 
   -3979    -3982    -4003    -4051    -4140    -4256    -4380    -4524 
   -4687    -4860    -5029    -5182    -5323    -5443    -5525    -5568 
   -5566    -5516    -5440    -5350    -5243    -5130    -5028    -4936 
   -4874    -4852    -4851    -4872    -4924    -5000    -5081    -5162 
   -5250    -5326    -5381    -5437    -5487    -5523    -5556    -5588 
   -5621    -5677    -5758    -5845    -5937    -6032    -6115    -6181 
   -6219    -6215    -6170    -6084    -5956    -5788    -5585    -5359 
   -5116    -4860    -4604    -4358    -4137    -3961    -3830    -3739 
   -3703    -3728    -3786    -3863    -3974    -4097    -4195    -4274 
   -4331    -4360    -4368    -4337    -4286    -4233    -4158    -4099 
   -4075    -4066    -4094    -4164    -4266    -4418    -4602    -4795 
   -4996    -5193    -5376    -5532    -5651    -5739    -5791    -5809 
   -5797    -5750    -5688    -5631    -5569    -5510    -5476    -5461 
   -5459    -5472    -5493    -5512    -5528    -5519    -5480    -5423 
   -5337    -5220    -5092    -4961    -4824    -4697    -4592    -4509 
   -4457    -4429    -4433    -4468    -4511    -4560    -4613    -4645 
   -4661    -4665    -4634    -4574    -4507    -4432    -4352    -4291 
   -4256    -4251    -4289    -4374    -4499    -4660    -4848    -5053 
   -5276    -5499    -5700    -5882    -6045    -6175    -6260    -6303 
   -6317    -6296    -6232    -6145    -6036    -5889    -5724    -5559 
   -5390    -5237    -5115    -5021    -4966    -4958    -4999    -5077 
   -5182    -5308    -5446    -5583    -5716    -5838    -5936    -5992 
   -5995    -5937    -5801    -5584    -5283    -4908    -4485    -4043 
   -3608    -3211    -2893    -2692    -2619    -2675    -2868    -3186 
   -3589    -4060    -4591    -5142    -5679    -6186    -6636    -7000 
   -7261    -7407    -7425    -7319    -7107    -6822    -6487    -6128 
   -5788    -5491    -5244    -5052    -4921    -4837    -4780    -4727 
   -4681    -4634    -4563    -4461    -4333    -4180    -4008    -3814 
   -3611    -3416    -3245    -3120    -3043    -3011    -3025    -3085 
   -3198    -3361    -3548    -3759    -3995    -4223    -4436    -4638 
   -4818    -4962    -5053    -5112    -5154    -5159    -5140    -5124 
   -5112    -5106    -5112    -5136    -5172    -5206    -5237    -5283 
   -5342    -5401    -5464    -5548    -5643    -5739    -5840    -5949 
   -6058    -6168    -6296    -6441    -6593    -6753    -6917    -7065 
   -7182    -7263    -7289    -7232    -7094    -6891    -6615    -6271 
   -5891    -5484    -5054    -4640    -4270    -3948    -3699    -3536 
   -3453    -3443    -3499    -3609    -3741    -3872    -3999    -4106 
   -4176    -4205    -4198    -4168    -4134    -4109    -4114    -4159 
   -4233    -4332    -4449    -4567    -4688    -4806    -4899    -4972 
   -5020    -5033    -5009    -4951    -4869    -4758    -4607    -4446 
   -4282    -4118    -3989    -3925    -3938    -4046    -4258    -4584 
   -5014    -5514    -6061    -6628    -7181    -7683    -8104    -8427 
   -8637    -8724    -8695    -8564    -8347    -8048    -7664    -7217 
   -6725    -6191    -5653    -5142    -4658    -4225    -3862    -3566 
   -3335    -3147    -3002    -2901    -2812    -2738    -2700    -2686 
   -2708    -2793    -2938    -3153    -3440    -3782    -4171    -4588 
   -5005    -5405    -5776    -6111    -6401    -6642    -6845    -7001 
   -7092    -7131    -7119    -7035    -6875    -6654    -6367    -6008 
   -5598    -5152    -4672    -4182    -3699    -3237    -2817    -2453 
   -2158    -1956    -1867    -1888    -2017    -2255    -2591    -3010 
   -3494    -4010    -4534    -5054    -5572    -6091    -6603    -7097 
   -7575    -8038    -8477    -8877    -9230    -9532    -9771    -9935 
  -10008    -9986    -9880    -9692    -9419    -9082    -8697    -8271 
   -7823    -7366    -6896    -6418    -5942    -5470    -5004    -4550 
   -4131    -3761    -3443    -3200    -3049    -2982    -3001    -3116 
   -3310    -3554    -3855    -4216    -4612    -5025    -5447    -5865 
   -6250    -6567    -6813    -6984    -7055    -7029    -6913    -6716 
   -6463    -6167    -5846    -5524    -5220    -4951    -4728    -4565 
   -4473    -4442    -4486    -4613    -4794    -5014    -5270    -5532 
   -5769    -5968    -6116    -6207    -6234    -6190    -6087    -5946 
   -5773    -5573    -5361    -5149    -4952    -4769    -4611    -4499 
   -4422    -4367    -4347    -4353    -4364    -4360    -4336    -4289 
   -4212    -4100    -3963    -3820    -3688    -3578    -3523    -3544 
   -3644    -3819    -4053    -4337    -4657    -4981    -5288    -5567 
   -5792    -5968    -6094    -6154    -6161    -6127    -6053    -5972 
   -5901    -5841    -5798    -5784    -5801    -5841    -5895    -5958 
   -6004    -6007    -5973    -5905    -5791    -5640    -5456    -5242 
   -5015    -4782    -4550    -4343    -4175    -4055    -3998    -4004 
   -4069    -4186    -4338    -4512    -4692    -4855    -4988    -5078 
   -5117    -5113    -5083    -5037    -4985    -4936    -4889    -4853 
   -4836    -4825    -4815    -4817    -4822    -4821    -4819    -4821 
   -4819    -4805    -4789    -4779    -4767    -4750    -4738    -4740 
   -4754    -4788    -4844    -4905    -4966    -5037    -5108    -5177 
   -5246    -5291    -5310    -5315    -5306    -5283    -5247    -5196 
   -5137    -5067    -4989    -4910    -4827    -4751    -4704    -4684 
   -4684    -4721    -4793    -4879    -4978    -5082    -5171    -5236 
   -5261    -5248    -5202    -5106    -4964    -4805    -4632    -4455 
   -4296    -4172    -4088    -4039    -4044    -4103    -4193    -4326 
   -4497    -4677    -4864    -5064    -5252    -5408    -5535    -5640 
   -5722    -5774    -5801    -5817    -5837    -5868    -5911    -5965 
   -6038    -6129    -6222    -6313    -6393    -6441    -6440    -6387 
   -6282    -6115    -5889    -5611    -5282    -4922    -4548    -4165 
   -3800    -3474    -3192    -2980    -2841    -2770    -2779    -2854 
   -2968    -3118    -3283    -3441    -3585    -3707    -3793    -3852 
   -3890    -3917    -3934    -3938    -3937    -3940    -3955    -3989 
   -4031    -4086    -4173    -4285    -4416    -4572    -4746    -4918 
   -5081    -5240    -5384    -5492    -5574    -5639    -5685    -5720 
   -5756    -5788    -5821    -5865    -5909    -5957    -6021    -6082 
   -6141    -6225    -6319    -6402    -6492    -6584    -6656    -6713 
   -6749    -6751    -6723    -6654    -6534    -6363    -6140    -5860 
   -5522    -5152    -4767    -4363    -3970    -3610    -3281    -3001 
   -2782    -2617    -2511    -2465    -2469    -2514    -2598    -2715 
   -2850    -2994    -3149    -3318    -3490    -3671    -3883    -4109 
   -4345    -4613    -4902    -5200    -5503    -5794    -6063    -6298 
   -6481    -6598    -6646    -6615    -6508    -6337    -6104    -5809 
   -5465    -5085    -4678    -4252    -3827    -3428    -3068    -2753 
   -2497    -2321    -2230    -2211    -2259    -2376    -2559    -2790 
   -3054    -3363    -3709    -4075    -4468    -4879    -5296    -5719 
   -6137    -6541    -6917    -7251    -7532    -7745    -7884    -7956 
   -7961    -7905    -7791    -7614    -7389    -7118    -6793    -6429 
   -6040    -5632    -5221    -4809    -4414    -4064    -3765    -3531 
   -3368    -3270    -3231    -3242    -3305    -3418    -3570    -3749 
   -3948    -4165    -4378    -4576    -4762    -4926    -5058    -5166 
   -5261    -5341    -5401    -5446    -5484    -5518    -5547    -5558 
   -5554    -5534    -5483    -5396    -5296    -5188    -5063    -4944 
   -4844    -4753    -4671    -4604    -4560    -4534    -4511    -4488 
   -4464    -4428    -4380    -4333    -4286    -4230    -4170    -4111 
   -4056    -4010    -3976    -3953    -3959    -4014    -4107    -4224 
   -4372    -4546    -4735    -4936    -5130    -5316    -5490    -5634 
   -5753    -5833    -5855    -5834    -5778    -5691    -5578    -5436 
   -5284    -5146    -5028    -4942    -4898    -4902    -4960    -5056 
   -5179    -5331    -5492    -5649    -5799    -5925    -6030    -6113 
   -6162    -6178    -6157    -6109    -6033    -5912    -5763    -5606 
   -5432    -5258    -5110    -4993    -4918    -4895    -4921    -4992 
   -5099    -5217    -5335    -5436    -5501    -5528    -5512    -5447 
   -5346    -5217    -5062    -4899    -4745    -4605    -4487    -4398 
   -4346    -4338    -4375    -4456    -4582    -4741    -4918    -5118 
   -5331    -5529    -5712    -5884    -6028    -6140    -6241    -6328 
   -6397    -6475    -6554    -6617    -6678    -6745    -6810    -6877 
   -6937    -6981    -7010    -7016    -6992    -6937    -6842    -6705 
   -6529    -6320    -6087    -5830    -5558    -5278    -4998    -4733 
   -4497    -4286    -4106    -3976    -3892    -3851    -3858    -3911 
   -3998    -4104    -4230    -4381    -4539    -4698    -4874    -5064 
   -5260    -5455    -5646    -5840    -6029    -6209    -6381    -6534 
   -6668    -6779    -6856    -6903    -6922    -6903    -6851    -6760 
   -6623    -6449    -6242    -6011    -5776    -5538    -5311    -5103 
   -4910    -4739    -4590    -4459    -4349    -4260    -4185    -4122 
   -4084    -4068    -4063    -4076    -4111    -4160    -4229    -4332 
   -4458    -4597    -4758    -4934    -5113    -5298    -5480    -5648 
   -5791    -5903    -5979    -6008    -5983    -5900    -5767    -5598 
   -5390    -5150    -4901    -4648    -4386    -4133    -3897    -3667 
   -3462    -3300    -3168    -3059    -2980    -2931    -2920    -2949 
   -2999    -3066    -3157    -3249    -3335    -3433    -3546    -3672 
