Origin Time       2015/11/14 05:51:00
Lat.              30.942
Long.             128.590
Depth. (km)       17
Mag.              7.1
Station Code      KMM003
Station Lat.      32.9336
Station Long.     130.5477
Station Height(m) 14
Record Time       2015/11/14 05:52:34
Sampling Freq(Hz) 100Hz
Duration Time(s)  83
Dir.              U-D
Scale Factor      3920(gal)/6182761
Max. Acc. (gal)   0.659
Last Correction   2015/11/14 05:52:34
Memo.             
[...]
   18348    18356    18377    18421    18470    18524    18595    18667 
   18732    18796    18839    18856    18860    18843    18802    18757 
   18718    18678    18645    18624    18606    18597    18598    18604 
   18616    18631    18648    18669    18696    18722    18745    18765 
   18785    18809    18828    18842    18853    18853    18847    18844 
   18834    18816    18803    18795    18790    18790    18794    18799 
   18799    18796    18800    18807    18804    18794    18786    18776 
   18764    18766    18781    18791    18799    18811    18826    18838 
   18838    18826    18822    18824    18824    18842    18880    18917 
   18960    19007    19052    19096    19138    19177    19204    19218 
   19231    19238    19230    19219    19208    19191    19177    19171 
   19165    19154    19140    19124    19108    19089    19062    19033 
   19000    18962    18923    18885    18855    18835    18813    18793 
   18787    18786    18784    18785    18782    18775    18772    18771 
   18769    18777    18789    18801    18810    18814    18823    18835 
   18839    18842    18852    18865    18886    18918    18941    18945 
   18947    18943    18937    18931    18916    18908    18907    18903 
   18912    18930    18939    18953    18972    18973    18974    18983 
   18985    18988    18999    19007    19023    19052    19072    19085 
   19096    19091    19079    19066    19039    19014    19003    18987 
   18970    18964    18954    18941    18928    18916    18913    18920 
   18931    18946    18959    18964    18964    18960    18947    18928 
   18911    18901    18888    18867    18854    18841    18811    18775 
   18749    18726    18698    18676    18672    18675    18684    18715 
   18758    18799    18843    18893    18937    18983    19029    19062 
   19088    19107    19106    19089    19062    19015    18953    18898 
   18841    18778    18728    18693    18670    18663    18676    18703 
   18739    18786    18839    18883    18916    18945    18968    18978 
   18978    18978    18974    18965    18957    18953    18956    18961 
   18969    18984    18996    19000    19003    18996    18986    18982 
   18984    18989    18990    18995    19007    19012    19001    18983 
   18959    18921    18867    18815    18781    18754    18740    18755 
   18784    18821    18878    18937    18987    19031    19071    19101 
   19110    19105    19097    19075    19039    19001    18962    18921 
   18886    18854    18823    18799    18789    18788    18786    18794 
   18819    18851    18881    18908    18926    18932    18925    18904 
   18875    18845    18821    18806    18804    18815    18840    18869 
   18898    18930    18965    18992    19008    19021    19022    19004 
   18983    18965    18945    18934    18935    18936    18942    18958 
   18975    18992    19017    19041    19062    19088    19115    19130 
   19142    19160    19169    19160    19142    19120    19080    19022 
   18962    18898    18831    18766    18709    18672    18651    18647 
   18663    18685    18710    18747    18775    18784    18790    18787 
   18761    18730    18704    18660    18606    18564    18525    18482 
   18454    18440    18426    18418    18425    18434    18442    18467 
   18494    18511    18519    18510    18485    18446    18396    18352 
   18324    18306    18302    18313    18333    18356    18376    18393 
   18409    18421    18427    18437    18443    18437    18434    18438 
   18433    18408    18374    18351    18322    18281    18253    18235 
   18218    18209    18211    18220    18233    18245    18259    18277 
   18294    18313    18340    18364    18387    18417    18443    18469 
   18503    18532    18555    18576    18602    18625    18644    18669 
   18692    18720    18770    18831    18885    18929    18956    18955 
   18936    18899    18837    18769    18709    18655    18609    18572 
   18538    18511    18493    18482    18472    18463    18455    18448 
   18450    18458    18463    18473    18491    18502    18511    18526 
   18545    18562    18587    18628    18667    18687    18704    18719 
   18719    18715    18703    18688    18680    18675    18689    18721 
   18756    18795    18822    18841    18865    18873    18868    18860 
   18839    18806    18767    18717    18664    18618    18580    18547 
   18525    18534    18566    18598    18641    18695    18738    18769 
   18798    18817    18828    18840    18850    18858    18870    18881 
   18882    18881    18881    18875    18870    18870    18864    18851 
   18831    18810    18792    18775    18771    18774    18777    18797 
   18832    18861    18882    18902    18916    18926    18937    18952 
   18972    18996    19019    19039    19051    19055    19055    19048 
   19027    18997    18976    18963    18946    18929    18918    18915 
   18920    18936    18969    19003    19041    19099    19163    19220 
   19283    19334    19353    19361    19362    19344    19313    19280 
   19242    19196    19149    19100    19051    19006    18963    18933 
   18926    18937    18963    18995    19038    19087    19124    19144 
   19143    19119    19080    19027    18953    18873    18802    18728 
   18655    18602    18552    18496    18454    18422    18392    18377 
   18380    18391    18411    18446    18488    18520    18553    18593 
   18628    18657    18695    18743    18793    18844    18895    18941 
   18984    19018    19045    19060    19063    19067    19067    19064 
   19062    19057    19052    19039    19016    18995    18983    18985 
   19005    19022    19034    19049    19048    19033    19015    18992 
   18961    18920    18891    18878    18853    18828    18814    18794 
   18774    18765    18772    18797    18831    18881    18943    18993 
   19021    19035    19039    19025    18996    18961    18924    18895 
   18886    18902    18929    18967    19023    19078    19124    19162 
   19180    19177    19152    19108    19062    19013    18958    18919 
   18905    18910    18944    19002    19066    19141    19216    19272 
   19310    19333    19342    19337    19321    19304    19283    19250 
   19206    19154    19102    19052    19007    18986    18991    19017 
   19075    19156    19237    19320    19397    19443    19463    19457 
   19421    19363    19302    19250    19201    19161    19152    19166 
   19193    19243    19311    19386    19464    19539    19607    19659 
   19689    19705    19703    19681    19646    19594    19520    19427 
   19318    19202    19090    18987    18892    18806    18746    18720 
   18715    18730    18757    18782    18811    18848    18884    18916 
   18941    18966    18986    18983    18977    18974    18945    18901 
   18863    18818    18762    18716    18688    18678    18692    18731 
   18785    18831    18861    18873    18862    18828    18768    18689 
   18619    18564    18510    18469    18447    18419    18383    18364 
   18356    18353    18377    18426    18486    18555    18631    18710 
   18787    18857    18915    18960    19001    19036    19066    19097 
   19125    19150    19178    19215    19258    19305    19358    19417 
   19480    19545    19601    19642    19660    19652    19615    19546 
   19453    19342    19211    19072    18927    18772    18620    18484 
   18360    18250    18169    18119    18095    18093    18110    18153 
   18210    18265    18320    18374    18420    18464    18518    18569 
   18606    18644    18687    18711    18722    18729    18724    18706 
   18674    18642    18615    18579    18548    18534    18525    18529 
   18548    18575    18606    18643    18678    18701    18714    18717 
   18705    18690    18674    18652    18629    18607    18583    18552 
   18518    18486    18451    18406    18355    18305    18269    18239 
   18211    18191    18178    18159    18129    18099    18075    18040 
   17997    17970    17957    17955    17965    17994    18038    18093 
   18152    18215    18276    18326    18368    18415    18466    18517 
   18569    18613    18654    18690    18704    18696    18672    18628 
   18583    18542    18504    18489    18494    18506    18537    18583 
   18625    18662    18696    18717    18723    18726    18732    18735 
   18736    18745    18759    18759    18745    18722    18683    18639 
   18602    18566    18541    18538    18555    18597    18660    18732 
   18802    18867    18930    18985    19027    19057    19070    19062 
   19031    18978    18910    18841    18772    18705    18651    18613 
   18580    18551    18526    18501    18473    18443    18416    18391 
   18357    18327    18308    18290    18285    18302    18338    18400 
   18489    18586    18678    18772    18863    18939    19021    19103 
   19156    19189    19211    19205    19169    19096    18992    18874 
   18745    18622    18524    18451    18406    18399    18423    18470 
   18547    18643    18747    18867    18988    19086    19160    19210 
   19234    19240    19220    19182    19137    19074    19005    18944 
   18895    18856    18827    18824    18843    18874    18924    18978 
   19016    19054    19089    19102    19096    19085    19065    19031 
   18990    18940    18880    18814    18747    18687    18642    18610 
   18597    18604    18630    18676    18735    18800    18871    18936 
   18977    19000    19015    19012    19000    18988    18974    18968 
   18975    18986    19010    19051    19104    19177    19266    19353 
   19437    19518    19583    19627    19648    19642    19614    19566 
   19498    19418    19334    19244    19159    19095    19048    19010 
   18999    19022    19063    19119    19188    19257    19308    19342 
   19365    19364    19334    19294    19242    19167    19087    19019 
   18955    18903    18877    18873    18887    18923    18967    19012 
   19058    19090    19099    19099    19090    19066    19032    18982 
   18913    18833    18738    18634    18540    18461    18399    18357 
   18343    18360    18391    18438    18506    18580    18655    18729 
   18795    18855    18910    18954    18976    18987    18993    18991 
   18982    18980    18983    18983    18993    19020    19039    19052 
   19083    19116    19139    19155    19161    19147    19103    19038 
   18962    18873    18781    18703    18640    18596    18570    18552 
   18551    18581    18627    18680    18742    18804    18863    18922 
   18986    19047    19092    19124    19154    19174    19173    19149 
   19118    19079    19027    18977    18938    18907    18893    18897 
   18923    18965    19007    19031    19033    19020    18987    18926 
   18852    18773    18692    18626    18579    18556    18569    18608 
   18667    18746    18827    18906    18985    19047    19094    19132 
   19154    19158    19152    19140    19115    19089    19061    19023 
   18993    18967    18941    18932    18937    18953    18990    19045 
   19105    19167    19232    19284    19322    19348    19354    19346 
   19331    19303    19264    19220    19165    19097    19037    18988 
   18945    18912    18899    18911    18947    18994    19052    19113 
   19161    19199    19235    19250    19245    19240    19232    19215 
   19199    19184    19161    19139    19124    19100    19067    19038 
   19008    18977    18952    18929    18905    18881    18850    18812 
   18766    18718    18686    18665    18657    18663    18666    18678 
   18706    18732    18763    18810    18865    18928    18994    19059 
   19126    19184    19227    19258    19271    19271    19257    19225 
   19187    19152    19119    19087    19057    19036    19020    18997 
   18982    18976    18965    18955    18953    18950    18946    18944 
   18940    18937    18933    18922    18913    18905    18888    18860 
   18822    18764    18698    18630    18555    18481    18419    18374 
   18347    18331    18323    18329    18344    18359    18382    18414 
   18450    18493    18537    18568    18588    18602    18600    18577 
   18552    18525    18482    18439    18412    18385    18357    18338 
   18320    18297    18276    18259    18252    18248    18231    18205 
   18177    18144    18108    18083    18066    18053    18060    18091 
   18131    18185    18254    18324    18395    18465    18519    18559 
   18592    18617    18634    18639    18647    18668    18692    18720 
   18755    18791    18822    18851    18874    18881    18879    18870 
   18847    18807    18752    18690    18620    18543    18466    18396 
   18338    18286    18251    18240    18235    18241    18264    18292 
   18328    18377    18431    18490    18555    18618    18678    18737 
   18784    18818    18838    18846    18849    18859    18878    18896 
   18905    18910    18908    18899    18888    18869    18842    18809 
   18778    18746    18712    18680    18648    18619    18599    18572 
   18534    18498    18469    18450    18454    18476    18506    18560 
   18636    18708    18771    18830    18880    18920    18950    18972 
   18993    19017    19038    19061    19087    19112    19140    19173 
   19202    19230    19272    19312    19334    19355    19371    19370 
   19360    19353    19340    19308    19276    19258    19237    19220 
   19223    19229    19244    19281    19324    19370    19425    19488 
   19552    19611    19661    19704    19735    19753    19764    19771 
   19773    19766    19765    19765    19759    19774    19808    19832 
   19843    19859    19878    19888    19891    19884    19872    19859 
   19829    19787    19759    19739    19710    19682    19652    19613 
   19573    19536    19492    19443    19399    19359    19320    19277 
   19234    19190    19135    19081    19036    18982    18920    18856 
   18798    18751    18713    18684    18676    18687    18707    18733 
   18765    18795    18811    18821    18832    18830    18813    18793 
   18768    18734    18693    18654    18620    18585    18552    18530 
   18515    18491    18470    18465    18448    18428    18420    18401 
   18375    18358    18340    18319    18312    18316    18322    18332 
   18349    18373    18396    18417    18451    18486    18510    18539 
   18574    18597    18612    18632    18647    18653    18664    18684 
   18699    18708    18719    18725    18724    18722    18719    18714 
   18713    18710    18700    18693    18686    18674    18669    18678 
   18687    18698    18714    18735    18752    18755    18755    18761 
   18750    18722    18700    18670    18627    18590    18556    18518 
   18488    18466    18449    18442    18447    18461    18484    18507 
   18529    18557    18589    18614    18638    18674    18712    18749 
   18795    18843    18884    18917    18937    18943    18944    18939 
   18914    18882    18853    18812    18761    18714    18664    18597 
   18529    18481    18429    18368    18325    18293    18261    18242 
   18243    18249    18256    18268    18285    18305    18327    18355 
   18386    18416    18459    18519    18579    18639    18704    18768 
   18818    18852    18879    18888    18869    18844    18821    18780 
   18733    18700    18670    18637    18619    18622    18631    18643 
   18665    18699    18736    18769    18806    18851    18895    18931 
   18965    18998    19023    19046    19067    19079    19087    19097 
   19100    19090    19074    19061    19046    19030    19020    19008 
   18992    18983    18975    18955    18943    18945    18937    18929 
   18941    18954    18961    18975    18984    18989    18994    18987 
   18976    18962    18941    18922    18902    18883    18863    18842 
   18826    18807    18779    18751    18733    18714    18699    18702 
   18704    18703    18715    18731    18746    18763    18775    18786 
   18798    18802    18799    18794    18788    18771    18749    18736 
   18718    18699    18693    18692    18692    18694    18693    18698 
   18712    18728    18749    18770    18789    18810    18832    18859 
   18887    18909    18928    18946    18959    18962    18959    18960 
   18963    18965    18969    18980    19000    19022    19048    19078 
   19098    19112    19127    19138    19144    19146    19143    19144 
   19143    19128    19106    19085    19058    19025    19006    19002 
   18996    18992    18998    19006    19011    19027    19044    19056 
   19083    19119    19148    19179    19211    19235    19256    19272 
   19273    19261    19250    19234    19198    19157    19124    19088 
   19042    18999    18967    18933    18910    18906    18905    18909 
   18923    18933    18944    18962    18968    18961    18953    18945 
   18931    18914    18901    18891    18879    18873    18872    18870 
   18872    18880    18893    18916    18936    18945    18957    18972 
   18972    18963    18954    18939    18917    18902    18892    18884 
   18880    18882    18892    18904    18911    18923    18938    18950 
   18969    18991    19006    19027    19056    19081    19101    19121 
   19137    19146    19161    19174    19169    19158    19148    19133 
   19112    19088    19067    19050    19034    19028    19033    19034 
   19032    19038    19048    19056    19059    19055    19053    19047 
   19040    19045    19053    19053    19050    19048    19042    19026 
   19012    19006    19000    18984    18972    18975    18967    18953 
   18957    18962    18953    18943    18942    18946    18946    18949 
   18959    18966    18968    18978    19000    19014    19012    19017 
   19019    19006    18997    18992    18984    18981    18979    18982 
   18998    19013    19020    19025    19023    19014    19007    19006 
   19004    18997    18994    18999    19002    19004    19005    19004 
   19004    19006    19010    19009    19003    18994    18976    18959 
   18947    18931    18914    18900    18883    18868    18856    18836 
   18809    18783    18753    18718    18686    18660    18640    18620 
   18602    18588    18582    18583    18583    18581    18584    18586 
   18579    18567    18557    18546    18525    18497    18469    18449 
   18440    18434    18435    18455    18479    18501    18536    18584 
   18630    18664    18693    18725    18756    18775    18786    18797 
   18804    18807    18810    18811    18806    18800    18791    18778 
   18772    18775    18781    18787    18797    18810    18817    18822 
   18831    18823    18806    18800    18788    18768    18754    18745 
   18746    18757    18770    18790    18814    18839    18866    18881 
   18893    18906    18902    18895    18894    18887    18881    18880 
   18877    18875    18870    18854    18832    18810    18796    18791 
   18785    18776    18777    18781    18776    18774    18778    18779 
   18771    18763    18761    18749    18729    18712    18696    18682 
   18673    18660    18646    18636    18632    18631    18629    18633 
   18646    18658    18671    18685    18695    18705    18710    18709 
   18704    18697    18686    18666    18650    18646    18648    18658 
   18686    18718    18754    18798    18834    18863    18892    18907 
   18912    18917    18914    18899    18885    18874    18866    18864 
   18871    18886    18906    18934    18973    19018    19065    19115 
   19170    19228    19275    19315    19353    19379    19396    19415 
