Origin Time       2015/11/14 05:51:00
Lat.              30.942
Long.             128.590
Depth. (km)       17
Mag.              7.1
Station Code      KMM003
Station Lat.      32.9336
Station Long.     130.5477
Station Height(m) 14
Record Time       2015/11/14 05:52:34
Sampling Freq(Hz) 100Hz
Duration Time(s)  83
Dir.              E-W
Scale Factor      3920(gal)/6182761
Max. Acc. (gal)   1.432
Last Correction   2015/11/14 05:52:34
Memo.             
[...]
    1565     1576     1553     1500     1427     1340     1237     1124 
    1008      882      745      606      458      299      145        8 
    -110     -195     -239     -248     -222     -162      -82       10 
     109      209      307      391      454      503      533      544 
     549      551      549      547      546      545      544      534 
     510      472      414      344      271      193      121       64 
      19      -12      -19       -8       17       60      109      160 
     210      256      296      333      362      387      412      437 
     467      503      543      598      671      755      850      947 
    1040     1127     1196     1241     1255     1240     1209     1169 
    1127     1103     1106     1130     1172     1230     1289     1328 
    1338     1314     1254     1162     1055      941      820      715 
     633      567      519      485      453      419      379      328 
     264      185       95        4      -81     -149     -188     -197 
    -175     -119      -32       75      187      294      397      487 
     558      615      663      698      720      734      737      722 
     687      636      570      490      397      300      213      145 
     102       89      102      138      196      268      346      425 
     498      558      604      636      649      649      646      636 
     625      623      627      640      660      679      691      699 
     700      692      672      641      599      550      504      463 
     422      389      371      364      368      388      421      460 
     510      573      640      715      798      884      969     1054 
    1132     1195     1242     1267     1268     1246     1196     1122 
    1039      958      885      835      812      818      858      925 
    1006     1100     1196     1277     1339     1383     1407     1411 
    1402     1385     1359     1326     1288     1239     1175     1092 
     985      848      690      518      335      148      -29     -190 
    -335     -454     -540     -597     -625     -627     -608     -573 
    -526     -463     -386     -297     -187      -51      113      310 
     535      774     1020     1260     1481     1676     1837     1958 
    2041     2086     2096     2074     2022     1943     1835     1694 
    1527     1341     1138      924      705      486      277       86 
     -78     -202     -275     -301     -273     -186      -56      108 
     306      517      720      912     1080     1209     1303     1348 
    1345     1312     1249     1165     1083     1005      935      881 
     838      799      764      731      699      657      615      588 
     568      560      573      587      595      597      573      518 
     436      329      205       83      -21     -101     -154     -164 
    -133      -73       15      125      244      366      483      586 
     671      736      776      792      785      761      728      694 
     663      645      651      684      747      834      934     1035 
    1139     1241     1322     1378     1417     1420     1370     1281 
    1157      999      830      659      486      326      193       85 
      -2      -60      -89      -90      -64      -14       56      151 
     263      378      492      592      667      718      742      740 
     719      684      641      598      563      537      520      508 
     506      513      527      555      599      654      720      790 
     863      939     1013     1088     1161     1218     1265     1302 
    1317     1312     1289     1250     1205     1155     1103     1057 
    1014      969      918      864      812      757      698      641 
     591      546      511      477      438      400      349      273 
     182       78      -38     -150     -246     -318     -350     -338 
    -284     -179      -34      132      322      532      742      941 
    1125     1289     1427     1532     1597     1625     1616     1570 
    1499     1412     1317     1222     1133     1056     1000      962 
     941      947      975     1005     1036     1062     1072     1062 
    1032      986      934      876      821      780      752      738 
     743      762      782      797      813      822      821      824 
     831      837      855      891      934      976     1023     1068 
    1096     1108     1114     1113     1107     1105     1105     1100 
    1096     1095     1086     1064     1034      997      949      898 
     856      823      801      798      811      835      872      919 
     966     1010     1048     1070     1073     1059     1028      984 
     929      865      795      720      644      563      472      382 
     293      197       99       14      -56     -113     -154     -181 
    -210     -233     -249     -270     -285     -270     -222     -143 
     -31      108      260      417      570      702      806      889 
     955     1004     1035     1048     1044     1025      993      952 
     910      869      831      806      793      788      791      801 
     822      852      882      914      956      998     1026     1041 
    1038     1004      949      883      800      702      601      502 
     412      342      287      237      202      180      160      136 
     109       80       50       27       23       47       95      169 
     267      379      500      631      764      888     1001     1110 
    1205     1287     1360     1413     1440     1450     1444     1409 
    1348     1269     1172     1063      949      834      728      644 
     581      545      534      549      593      653      721      807 
     901      985     1058     1114     1143     1140     1104     1040 
     954      849      728      604      487      375      273      190 
     124       69       26        2        0       14       44      103 
     191      304      449      626      825     1046     1271     1482 
    1676     1843     1968     2055     2104     2118     2112     2094 
    2065     2027     1982     1933     1872     1785     1676     1545 
    1388     1211     1029      852      691      555      444      366 
     324      307      305      314      323      326      324      320 
     321      330      343      367      399      432      470      510 
     539      555      564      567      566      567      571      581 
     604      649      722      814      920     1038     1161     1279 
    1378     1444     1473     1467     1426     1355     1263     1162 
    1065      977      907      859      827      804      794      793 
     788      771      740      690      619      532      433      335 
     249      173      111       73       60       59       72      106 
     157      215      281      360      439      507      564      604 
     622      621      601      559      503      437      369      313 
     276      260      276      334      426      547      696      857 
    1015     1168     1303     1409     1491     1543     1558     1542 
    1498     1430     1335     1221     1103      984      876      787 
     716      671      660      678      722      793      893     1017 
    1153     1288     1413     1518     1589     1618     1601     1538 
    1437     1298     1132      951      766      586      420      276 
     156       58      -16      -67     -102     -121     -124     -115 
     -96      -65      -26       16       59      101      140      168 
     182      189      197      204      210      228      264      310 
     362      420      479      537      592      641      679      705 
     727      747      758      767      780      793      815      851 
     895      951     1030     1126     1233     1358     1500     1644 
    1788     1925     2036     2115     2155     2139     2068     1956 
    1806     1628     1443     1261     1082      915      760      611 
     466      326      198       87      -12      -94     -150     -189 
    -213     -214     -205     -197     -182     -160     -132      -94 
     -48       11       85      167      254      352      456      563 
     668      772      864      930      973      990      976      940 
     882      800      707      616      529      449      382      329 
     288      258      238      229      228      230      237      254 
     277      304      335      357      369      376      378      379 
     393      419      454      507      570      642      724      805 
     879      954     1026     1087     1145     1207     1271     1333 
    1389     1443     1501     1562     1629     1707     1793     1878 
    1957     2032     2100     2147     2173     2180     2160     2103 
    2015     1895     1740     1547     1318     1067      802      527 
     257        3     -224     -411     -560     -668     -725     -742 
    -718     -649     -540     -387     -198       12      238      473 
     699      906     1088     1235     1353     1445     1507     1536 
    1539     1514     1454     1367     1269     1159     1038      912 
     780      636      481      311      134      -41     -212     -368 
    -498     -599     -662     -682     -666     -619     -543     -440 
    -316     -174      -11      173      373      586      807     1025 
    1232     1423     1589     1725     1831     1899     1930     1929 
    1895     1825     1731     1622     1496     1361     1229     1109 
    1002      914      851      814      806      831      892      991 
    1126     1296     1488     1688     1887     2068     2203     2286 
    2307     2253     2123     1928     1671     1368     1044      711 
     376       53     -246     -511     -734     -905    -1010    -1046 
   -1007     -884     -686     -425     -113      228      576      911 
    1211     1463     1662     1800     1881     1908     1887     1825 
    1733     1613     1473     1333     1212     1122     1070     1061 
    1093     1158     1241     1330     1408     1459     1475     1442 
    1358     1228     1048      826      583      337      102     -108 
    -275     -385     -438     -431     -371     -291     -205     -122 
     -62      -24        4       29       56       81      102      108 
      80       15      -82     -210     -345     -461     -542     -565 
    -519     -410     -254      -67      127      302      450      575 
     674      751      819      878      929      979     1023     1056 
    1095     1149     1216     1300     1405     1533     1676     1824 
    1971     2105     2215     2291     2316     2282     2190     2044 
    1854     1638     1419     1217     1044      917      850      833 
     854      904      962     1013     1046     1039      995      922 
     819      685      528      349      144      -79     -303     -513 
    -692     -818     -877     -860     -769     -618     -426     -215 
      -7      178      329      435      494      517      519      507 
     496      496      513      553      620      704      796      903 
    1033     1182     1352     1541     1725     1890     2020     2098 
    2112     2057     1943     1778     1564     1325     1083      843 
     611      399      207       48      -71     -152     -182     -152 
     -68       63      226      408      589      749      885      984 
    1027     1007      930      808      653      476      297      139 
      16      -58      -77      -54        4       80      152      219 
     276      307      322      338      338      317      284      248 
     212      185      188      224      290      396      532      682 
     842      991     1113     1200     1235     1224     1187     1130 
    1072     1028      995      973      957      927      877      814 
     737      650      569      503      466      478      543      644 
     761      878      971     1016     1006      951      865      776 
     702      653      637      651      685      729      770      803 
     820      824      834      862      918     1019     1168     1353 
    1566     1792     2014     2209     2358     2451     2477     2432 
    2324     2156     1938     1690     1423     1146      867      590 
     327       83     -142     -330     -465     -546     -559     -493 
    -358     -163       73      328      578      805      992     1134 
    1236     1297     1312     1295     1254     1183     1091      991 
     881      769      665      574      494      432      380      328 
     274      215      149       77        5      -59     -112     -149 
    -157     -134      -85       -7      101      234      395      586 
     797     1028     1277     1527     1768     1995     2186     2325 
    2411     2435     2400     2313     2178     2005     1819     1635 
    1459     1306     1182     1078      981      890      790      672 
     551      427      292      162       51      -40     -104     -128 
    -108      -54       40      174      330      506      709      926 
    1145     1373     1605     1823     2022     2201     2345     2443 
    2495     2488     2409     2267     2074     1829     1543     1230 
     894      542      202     -108     -375     -572     -687     -728 
    -695     -592     -438     -242      -12      242      507      774 
    1044     1309     1553     1775     1966     2111     2209     2256 
    2249     2200     2111     1979     1807     1596     1348     1068 
     762      440      108     -228     -559     -863    -1127    -1342 
   -1490    -1557    -1534    -1409    -1183     -871     -490      -53 
     409      863     1295     1676     1974     2181     2296     2312 
    2234     2074     1852     1590     1298      993      695      408 
     145      -73     -232     -321     -340     -302     -211      -69 
     118      335      550      756      953     1121     1267     1399 
    1501     1583     1652     1697     1734     1770     1790     1794 
    1787     1762     1719     1656     1570     1469     1359     1241 
    1120      998      881      779      698      644      625      646 
     705      798      915     1050     1183     1290     1361     1397 
    1384     1315     1208     1070      902      718      531      346 
     174       27      -92     -181     -238     -258     -242     -190 
    -108       -2      119      248      374      486      570      613 
     612      574      507      422      331      254      216      231 
     315      474      706     1005     1340     1676     1994     2273 
    2488     2631     2708     2707     2631     2502     2334     2131 
    1914     1698     1494     1315     1159     1016      892      790 
     698      606      514      414      300      176       42     -104 
    -254     -405     -555     -689     -793     -863     -888     -860 
    -787     -673     -521     -346     -168       -8      124      223 
     274      277      236      150       24     -127     -288     -448 
    -593     -718     -806     -846     -845     -809     -735     -623 
    -489     -334     -151       43      238      441      639      810 
     955     1071     1139     1154     1106      982      794      566 
     316       61     -166     -348     -489     -591     -654     -696 
    -725     -736     -743     -751     -755     -751     -737     -704 
    -641     -542     -404     -237      -52      153      374      590 
     788      961     1095     1181     1222     1221     1176     1093 
     973      818      640      451      259       77      -82     -217 
    -322     -376     -374     -322     -211      -36      197      476 
     792     1136     1475     1781     2046     2256     2393     2455 
    2441     2355     2212     2017     1776     1499     1192      868 
     550      251      -24     -262     -450     -588     -682     -728 
    -731     -691     -611     -495     -347     -173       16      210 
     400      576      732      860      957     1033     1093     1129 
    1136     1115     1059      965      836      683      524      374 
     245      142       65        7      -34      -62      -73      -61 
     -31       23       97      190      301      419      542      664 
     773      874      968     1044     1111     1183     1252     1322 
    1399     1475     1548     1615     1672     1713     1736     1749 
    1754     1748     1737     1717     1676     1615     1536     1431 
    1306     1176     1035      884      729      565      395      231 
      75      -69     -198     -309     -400     -474     -532     -572 
    -594     -601     -586     -549     -487     -402     -296     -163 
       0      174      354      543      729      907     1070     1210 
    1319     1393     1432     1423     1356     1239     1075      860 
     617      369      125      -89     -256     -376     -445     -459 
    -411     -301     -138       63      294      544      798     1045 
    1278     1484     1651     1772     1844     1862     1823     1734 
    1617     1479     1325     1175     1044      926      827      760 
     716      690      677      671      672      672      668      661 
     640      608      579      550      526      513      509      517 
     545      593      660      755      877     1018     1169     1317 
    1448     1554     1633     1689     1720     1722     1696     1642 
    1565     1464     1335     1190     1034      861      682      515 
     365      235      144      107      113      157      237      345 
     469      604      745      883     1003     1095     1157     1196 
    1224     1255     1299     1365     1457     1566     1690     1813 
    1919     1997     2033     2018     1945     1813     1631     1418 
    1183      939      701      478      278      102      -54     -185 
    -295     -392     -481     -559     -625     -681     -719     -727 
    -710     -672     -603     -509     -404     -287     -163      -39 
      86      213      335      448      555      659      751      824 
     876      908      924      928      924      915      906      900 
     892      884      880      871      850      817      766      695 
     619      541      449      335      206       75      -57     -189 
    -316     -437     -541     -603     -617     -593     -519     -394 
    -234      -43      172      394      603      792      956     1078 
    1148     1170     1146     1074      965      836      691      541 
     402      275      157       57      -26     -104     -168     -210 
    -235     -237     -208     -151      -72       34      163      299 
     442      596      752      900     1043     1175     1295     1406 
    1505     1604     1705     1800     1901     2013     2115     2209 
    2301     2373     2426     2466     2473     2442     2379     2283 
    2157     2005     1832     1651     1467     1283     1108      944 
     784      638      511      389      273      168       68      -25 
    -101     -162     -213     -254     -290     -320     -348     -370 
    -385     -400     -405     -401     -397     -387     -373     -362 
    -351     -343     -347     -358     -371     -383     -387     -383 
    -361     -317     -259     -186     -101      -15       67      132 
     174      201      208      190      158      116       61        8 
     -45     -105     -169     -236     -306     -375     -442     -515 
