Origin Time       2013/05/24 14:47:00
Lat.              54.873
Long.             153.280
Depth. (km)       609
Mag.              8.4
Station Code      IWTH23
Station Lat.      39.2741
Station Long.     141.8233
Station Height(m) 44
Record Time       2013/05/24 14:51:15
Sampling Freq(Hz) 100Hz
Duration Time(s)  120
Dir.              5
Scale Factor      3920(gal)/6170801
Max. Acc. (gal)   0.395
Last Correction   2013/05/24 14:51:00
Memo.             
[...]
  -22990   -22994   -22997   -22993   -22989   -22984   -22973   -22958 
  -22942   -22929   -22924   -22928   -22934   -22939   -22945   -22955 
  -22969   -22978   -22979   -22978   -22979   -22980   -22986   -22992 
  -22996   -22996   -22991   -22988   -22989   -22984   -22972   -22956 
  -22936   -22920   -22908   -22897   -22888   -22882   -22880   -22878 
  -22874   -22867   -22857   -22851   -22850   -22850   -22848   -22849 
  -22852   -22853   -22854   -22858   -22861   -22864   -22874   -22891 
  -22913   -22939   -22960   -22973   -22993   -23015   -23033   -23052 
  -23070   -23080   -23088   -23091   -23087   -23080   -23071   -23061 
  -23053   -23044   -23033   -23020   -23011   -23010   -23018   -23027 
  -23035   -23042   -23046   -23051   -23063   -23078   -23093   -23107 
  -23122   -23139   -23154   -23164   -23173   -23183   -23191   -23199 
  -23206   -23209   -23214   -23222   -23230   -23240   -23250   -23255 
  -23256   -23253   -23254   -23263   -23267   -23263   -23256   -23246 
  -23231   -23221   -23214   -23212   -23212   -23207   -23196   -23186 
  -23184   -23190   -23197   -23197   -23197   -23200   -23200   -23200 
  -23201   -23200   -23203   -23211   -23214   -23214   -23216   -23218 
  -23223   -23235   -23247   -23253   -23259   -23264   -23266   -23270 
  -23276   -23281   -23277   -23266   -23257   -23251   -23247   -23246 
  -23239   -23225   -23211   -23197   -23181   -23166   -23150   -23131 
  -23115   -23098   -23080   -23069   -23071   -23079   -23088   -23101 
  -23117   -23139   -23168   -23195   -23218   -23243   -23269   -23295 
  -23316   -23332   -23345   -23353   -23357   -23362   -23361   -23348 
  -23330   -23308   -23286   -23266   -23247   -23230   -23218   -23209 
  -23201   -23195   -23187   -23177   -23168   -23166   -23165   -23160 
  -23152   -23150   -23152   -23153   -23152   -23151   -23150   -23150 
  -23146   -23142   -23142   -23146   -23151   -23159   -23160   -23153 
  -23148   -23151   -23154   -23159   -23161   -23154   -23142   -23131 
  -23119   -23111   -23106   -23096   -23082   -23068   -23057   -23045 
  -23030   -23019   -23010   -23000   -22993   -22988   -22984   -22980 
  -22979   -22985   -23000   -23016   -23029   -23040   -23046   -23050 
  -23053   -23051   -23047   -23045   -23041   -23031   -23014   -22992 
  -22967   -22946   -22932   -22916   -22899   -22885   -22871   -22860 
  -22854   -22848   -22840   -22834   -22832   -22832   -22834   -22841 
  -22847   -22855   -22865   -22874   -22884   -22894   -22906   -22921 
  -22935   -22944   -22951   -22952   -22946   -22938   -22928   -22917 
  -22904   -22889   -22872   -22852   -22831   -22815   -22805   -22796 
  -22790   -22786   -22782   -22781   -22790   -22804   -22818   -22834 
  -22853   -22870   -22884   -22896   -22910   -22929   -22944   -22953 
  -22965   -22976   -22983   -22995   -23006   -23015   -23025   -23027 
  -23022   -23020   -23022   -23021   -23022   -23022   -23016   -23013 
  -23012   -23003   -22991   -22979   -22961   -22943   -22927   -22911 
  -22900   -22893   -22886   -22881   -22879   -22877   -22885   -22893 
  -22897   -22904   -22911   -22913   -22921   -22942   -22967   -22988 
  -23002   -23014   -23029   -23044   -23058   -23074   -23089   -23099 
  -23108   -23116   -23118   -23117   -23119   -23125   -23139   -23156 
  -23170   -23180   -23186   -23185   -23188   -23198   -23203   -23205 
  -23208   -23211   -23212   -23216   -23219   -23222   -23223   -23219 
  -23215   -23209   -23196   -23176   -23156   -23138   -23119   -23095 
  -23071   -23049   -23023   -23000   -22986   -22977   -22966   -22954 
  -22937   -22925   -22919   -22916   -22913   -22908   -22902   -22900 
  -22909   -22923   -22938   -22957   -22979   -23007   -23039   -23076 
  -23116   -23155   -23188   -23222   -23252   -23273   -23291   -23311 
  -23323   -23325   -23329   -23334   -23331   -23321   -23314   -23311 
  -23303   -23293   -23283   -23266   -23243   -23220   -23196   -23173 
  -23152   -23131   -23115   -23102   -23087   -23074   -23066   -23059 
  -23056   -23056   -23059   -23064   -23067   -23072   -23079   -23086 
  -23095   -23108   -23125   -23142   -23155   -23166   -23177   -23188 
  -23196   -23202   -23204   -23205   -23209   -23218   -23229   -23239 
  -23245   -23250   -23255   -23255   -23251   -23251   -23255   -23259 
  -23260   -23261   -23260   -23259   -23260   -23260   -23259   -23255 
  -23240   -23218   -23193   -23165   -23137   -23110   -23086   -23063 
  -23034   -22994   -22959   -22936   -22922   -22917   -22916   -22913 
  -22910   -22913   -22919   -22928   -22937   -22939   -22936   -22933 
  -22933   -22936   -22940   -22946   -22952   -22958   -22965   -22974 
  -22979   -22985   -22997   -23012   -23033   -23066   -23098   -23124 
  -23151   -23181   -23214   -23247   -23277   -23301   -23314   -23316 
  -23312   -23311   -23312   -23313   -23307   -23291   -23276   -23256 
  -23227   -23204   -23192   -23176   -23157   -23132   -23103   -23075 
  -23051   -23033   -23022   -23015   -23010   -23012   -23021   -23037 
  -23058   -23076   -23089   -23104   -23126   -23150   -23178   -23210 
  -23237   -23253   -23271   -23289   -23304   -23317   -23329   -23336 
  -23339   -23338   -23332   -23314   -23285   -23253   -23215   -23169 
  -23122   -23078   -23038   -23000   -22965   -22934   -22903   -22871 
  -22841   -22819   -22808   -22807   -22811   -22815   -22820   -22830 
  -22840   -22847   -22853   -22865   -22881   -22894   -22903   -22911 
  -22917   -22924   -22932   -22942   -22953   -22957   -22957   -22956 
  -22958   -22969   -22988   -23011   -23040   -23075   -23111   -23146 
  -23188   -23234   -23279   -23327   -23378   -23421   -23455   -23481 
  -23506   -23537   -23568   -23591   -23606   -23610   -23603   -23589 
  -23573   -23555   -23532   -23503   -23478   -23457   -23431   -23400 
  -23366   -23335   -23308   -23276   -23243   -23217   -23192   -23171 
  -23159   -23153   -23146   -23139   -23135   -23138   -23147   -23164 
  -23193   -23228   -23259   -23288   -23311   -23329   -23353   -23383 
  -23410   -23433   -23446   -23449   -23450   -23448   -23437   -23425 
  -23410   -23392   -23370   -23344   -23315   -23293   -23280   -23275 
  -23278   -23280   -23279   -23278   -23278   -23280   -23290   -23304 
  -23313   -23318   -23317   -23311   -23304   -23301   -23298   -23291 
  -23285   -23282   -23281   -23278   -23270   -23257   -23238   -23219 
  -23200   -23184   -23169   -23159   -23148   -23127   -23098   -23071 
  -23048   -23033   -23027   -23024   -23019   -23010   -23002   -23000 
  -23000   -22997   -22998   -23008   -23017   -23021   -23029   -23047 
  -23069   -23092   -23120   -23147   -23171   -23197   -23220   -23242 
  -23270   -23301   -23331   -23360   -23384   -23402   -23423   -23449 
  -23469   -23481   -23484   -23480   -23468   -23455   -23443   -23423 
  -23391   -23357   -23320   -23274   -23231   -23194   -23160   -23127 
  -23096   -23070   -23053   -23042   -23032   -23023   -23020   -23021 
  -23023   -23024   -23026   -23030   -23032   -23032   -23034   -23037 
  -23036   -23034   -23028   -23011   -22985   -22956   -22922   -22889 
  -22857   -22826   -22807   -22794   -22784   -22776   -22769   -22770 
  -22779   -22793   -22816   -22842   -22872   -22910   -22949   -22981 
  -23011   -23040   -23071   -23101   -23123   -23139   -23150   -23155 
  -23158   -23161   -23155   -23144   -23137   -23131   -23115   -23092 
  -23067   -23045   -23030   -23016   -23003   -22991   -22975   -22959 
  -22952   -22947   -22946   -22948   -22947   -22946   -22954   -22969 
  -22988   -23012   -23036   -23057   -23078   -23100   -23124   -23154 
  -23190   -23225   -23258   -23286   -23305   -23320   -23337   -23357 
  -23377   -23394   -23411   -23426   -23434   -23442   -23456   -23468 
  -23476   -23489   -23505   -23516   -23527   -23540   -23550   -23557 
  -23561   -23558   -23549   -23535   -23512   -23485   -23458   -23431 
  -23409   -23391   -23375   -23360   -23347   -23336   -23328   -23329 
  -23341   -23355   -23368   -23385   -23405   -23421   -23436   -23448 
  -23452   -23446   -23435   -23423   -23409   -23393   -23377   -23360 
  -23338   -23317   -23297   -23281   -23266   -23253   -23243   -23237 
  -23231   -23221   -23204   -23188   -23176   -23165   -23151   -23133 
  -23115   -23099   -23083   -23070   -23058   -23052   -23058   -23066 
  -23076   -23090   -23099   -23100   -23108   -23117   -23124   -23139 
  -23151   -23150   -23146   -23141   -23129   -23115   -23098   -23082 
  -23067   -23050   -23032   -23012   -22993   -22981   -22975   -22974 
  -22975   -22967   -22957   -22950   -22946   -22952   -22964   -22974 
  -22986   -23000   -23019   -23040   -23061   -23085   -23108   -23126 
  -23141   -23156   -23171   -23189   -23203   -23212   -23226   -23236 
  -23240   -23241   -23240   -23242   -23246   -23241   -23233   -23224 
  -23210   -23196   -23182   -23163   -23144   -23125   -23104   -23088 
  -23083   -23077   -23075   -23078   -23078   -23080   -23085   -23091 
  -23105   -23117   -23120   -23126   -23139   -23155   -23174   -23200 
  -23225   -23243   -23263   -23287   -23310   -23335   -23359   -23375 
  -23388   -23403   -23417   -23420   -23421   -23425   -23423   -23427 
  -23433   -23432   -23439   -23445   -23438   -23436   -23435   -23431 
  -23435   -23442   -23442   -23436   -23425   -23411   -23406   -23414 
  -23430   -23451   -23470   -23478   -23481   -23478   -23469   -23468 
  -23472   -23464   -23446   -23424   -23399   -23376   -23353   -23331 
  -23314   -23295   -23271   -23249   -23228   -23207   -23189   -23171 
  -23156   -23149   -23140   -23127   -23118   -23108   -23097   -23091 
  -23085   -23080   -23073   -23062   -23053   -23049   -23049   -23055 
  -23063   -23067   -23073   -23079   -23086   -23096   -23106   -23115 
  -23117   -23114   -23109   -23099   -23080   -23061   -23045   -23029 
  -23015   -23002   -22982   -22965   -22954   -22945   -22941   -22951 
  -22969   -22980   -22984   -22987   -22993   -22999   -23002   -23002 
  -22998   -22994   -22992   -22994   -23006   -23021   -23035   -23047 
  -23060   -23071   -23089   -23115   -23143   -23169   -23191   -23201 
  -23202   -23201   -23201   -23205   -23208   -23201   -23190   -23177 
  -23162   -23156   -23166   -23180   -23198   -23223   -23250   -23277 
  -23305   -23330   -23348   -23362   -23367   -23364   -23356   -23347 
  -23340   -23332   -23317   -23294   -23264   -23232   -23210   -23194 
  -23179   -23166   -23155   -23146   -23140   -23136   -23140   -23156 
  -23175   -23193   -23214   -23237   -23262   -23287   -23304   -23320 
  -23339   -23348   -23353   -23362   -23363   -23358   -23353   -23334 
  -23308   -23284   -23262   -23246   -23234   -23222   -23208   -23189 
  -23172   -23165   -23161   -23152   -23146   -23142   -23130   -23115 
  -23106   -23111   -23129   -23153   -23178   -23206   -23231   -23259 
  -23292   -23318   -23336   -23352   -23368   -23384   -23400   -23413 
  -23423   -23425   -23421   -23418   -23413   -23408   -23405   -23399 
  -23385   -23370   -23354   -23341   -23335   -23324   -23303   -23281 
  -23261   -23241   -23221   -23206   -23200   -23193   -23181   -23173 
  -23172   -23178   -23189   -23201   -23211   -23224   -23243   -23264 
  -23286   -23305   -23323   -23342   -23354   -23354   -23351   -23351 
  -23350   -23354   -23365   -23374   -23381   -23387   -23394   -23402 
  -23409   -23409   -23406   -23397   -23381   -23370   -23369   -23364 
  -23351   -23333   -23313   -23295   -23277   -23258   -23239   -23214 
  -23180   -23142   -23103   -23068   -23039   -23003   -22964   -22934 
  -22905   -22881   -22867   -22860   -22864   -22873   -22881   -22891 
  -22902   -22913   -22922   -22928   -22930   -22930   -22933   -22937 
  -22943   -22952   -22956   -22959   -22965   -22971   -22978   -22990 
  -23005   -23015   -23020   -23025   -23037   -23051   -23065   -23081 
  -23094   -23097   -23098   -23103   -23108   -23116   -23127   -23142 
  -23161   -23179   -23194   -23206   -23221   -23238   -23253   -23268 
  -23278   -23287   -23297   -23306   -23318   -23334   -23344   -23347 
  -23349   -23351   -23359   -23365   -23362   -23351   -23336   -23323 
  -23311   -23297   -23283   -23266   -23241   -23215   -23187   -23163 
  -23150   -23141   -23127   -23113   -23100   -23086   -23079   -23080 
  -23087   -23097   -23102   -23101   -23107   -23119   -23129   -23144 
  -23160   -23169   -23173   -23172   -23162   -23151   -23144   -23138 
  -23129   -23112   -23090   -23068   -23048   -23030   -23016   -22999 
  -22979   -22963   -22954   -22945   -22941   -22944   -22948   -22951 
  -22955   -22956   -22952   -22952   -22957   -22960   -22965   -22977 
  -22983   -22980   -22972   -22961   -22953   -22949   -22944   -22936 
  -22920   -22901   -22882   -22870   -22866   -22865   -22865   -22864 
  -22861   -22858   -22849   -22837   -22836   -22848   -22858   -22865 
  -22870   -22863   -22846   -22825   -22807   -22796   -22783   -22762 
  -22738   -22714   -22691   -22674   -22664   -22660   -22658   -22661 
  -22680   -22703   -22726   -22756   -22791   -22820   -22848   -22872 
  -22886   -22899   -22917   -22936   -22950   -22961   -22965   -22965 
  -22965   -22972   -22981   -22984   -22980   -22975   -22970   -22959 
  -22944   -22931   -22914   -22890   -22865   -22846   -22823   -22790 
  -22752   -22708   -22661   -22617   -22582   -22555   -22531   -22512 
  -22504   -22512   -22531   -22554   -22580   -22607   -22643   -22690 
  -22738   -22787   -22839   -22887   -22933   -22983   -23032   -23081 
  -23128   -23169   -23209   -23243   -23263   -23276   -23286   -23290 
  -23290   -23285   -23269   -23244   -23218   -23186   -23154   -23125 
  -23085   -23033   -22979   -22927   -22877   -22831   -22790   -22755 
  -22727   -22703   -22682   -22665   -22656   -22656   -22665   -22678 
  -22692   -22714   -22743   -22772   -22801   -22828   -22851   -22877 
  -22904   -22930   -22954   -22977   -23000   -23016   -23023   -23027 
  -23032   -23034   -23028   -23017   -23003   -22985   -22967   -22950 
  -22932   -22915   -22900   -22889   -22879   -22873   -22868   -22857 
  -22842   -22827   -22812   -22797   -22784   -22777   -22771   -22765 
  -22765   -22780   -22805   -22828   -22852   -22882   -22915   -22941 
  -22960   -22979   -23002   -23026   -23050   -23073   -23100   -23130 
  -23161   -23195   -23229   -23264   -23297   -23322   -23341   -23359 
  -23373   -23384   -23389   -23383   -23371   -23365   -23354   -23334 
  -23313   -23290   -23260   -23237   -23223   -23214   -23209   -23205 
  -23191   -23172   -23150   -23125   -23104   -23090   -23078   -23062 
  -23041   -23016   -22986   -22952   -22920   -22891   -22868   -22847 
  -22822   -22797   -22776   -22755   -22735   -22718   -22704   -22690 
  -22675   -22661   -22646   -22632   -22621   -22614   -22617   -22619 
  -22613   -22604   -22600   -22604   -22613   -22623   -22635   -22648 
  -22657   -22665   -22677   -22687   -22695   -22710   -22729   -22743 
  -22758   -22772   -22784   -22793   -22797   -22802   -22810   -22824 
  -22847   -22874   -22896   -22916   -22932   -22949   -22968   -22987 
  -22998   -23004   -23003   -22996   -22991   -22990   -22984   -22970 
  -22950   -22931   -22915   -22898   -22890   -22893   -22905   -22924 
  -22951   -22977   -23005   -23035   -23069   -23115   -23164   -23202 
  -23234   -23260   -23276   -23290   -23302   -23311   -23318   -23314 
  -23304   -23297   -23290   -23281   -23269   -23253   -23240   -23228 
  -23209   -23191   -23176   -23160   -23151   -23145   -23136   -23131 
  -23134   -23140   -23156   -23173   -23188   -23210   -23235   -23254 
  -23277   -23301   -23316   -23325   -23331   -23338   -23348   -23352 
  -23352   -23357   -23358   -23356   -23359   -23359   -23359   -23361 
  -23354   -23341   -23326   -23312   -23299   -23289   -23285   -23283 
  -23277   -23273   -23280   -23299   -23324   -23350   -23377   -23401 
  -23415   -23424   -23430   -23432   -23430   -23419   -23399   -23379 
  -23364   -23349   -23334   -23324   -23318   -23312   -23304   -23289 
  -23274   -23263   -23248   -23233   -23220   -23200   -23174   -23151 
  -23137   -23137   -23143   -23146   -23146   -23145   -23147   -23152 
  -23160   -23173   -23182   -23179   -23179   -23184   -23190   -23199 
  -23213   -23231   -23250   -23266   -23276   -23286   -23296   -23308 
  -23319   -23330   -23340   -23346   -23347   -23342   -23340   -23342 
  -23344   -23345   -23340   -23333   -23329   -23325   -23323   -23327 
  -23329   -23326   -23322   -23310   -23291   -23271   -23254   -23237 
  -23223   -23208   -23190   -23170   -23143   -23112   -23087   -23074 
  -23070   -23073   -23075   -23072   -23066   -23063   -23070   -23080 
  -23091   -23100   -23105   -23108   -23114   -23123   -23138   -23156 
  -23172   -23188   -23197   -23199   -23200   -23199   -23196   -23192 
  -23183   -23172   -23161   -23144   -23127   -23111   -23095   -23080 
  -23065   -23050   -23038   -23032   -23029   -23028   -23032   -23036 
  -23038   -23046   -23064   -23081   -23104   -23134   -23162   -23189 
  -23219   -23251   -23289   -23332   -23374   -23413   -23445   -23464 
  -23474   -23479   -23485   -23497   -23509   -23512   -23503   -23487 
  -23467   -23447   -23423   -23400   -23380   -23356   -23333   -23315 
  -23295   -23270   -23248   -23231   -23213   -23191   -23163   -23129 
  -23086   -23048   -23027   -23017   -23006   -22995   -22989   -22982 
  -22978   -22988   -23010   -23037   -23068   -23095   -23120   -23147 
  -23170   -23190   -23207   -23215   -23219   -23226   -23234   -23247 
  -23260   -23265   -23264   -23262   -23262   -23262   -23260   -23260 
  -23262   -23262   -23262   -23263   -23259   -23244   -23225   -23204 
  -23184   -23165   -23143   -23113   -23077   -23040   -23006   -22976 
  -22948   -22920   -22889   -22857   -22828   -22805   -22789   -22777 
  -22771   -22764   -22753   -22739   -22728   -22726   -22732   -22735 
  -22738   -22745   -22750   -22749   -22752   -22759   -22773   -22796 
  -22818   -22838   -22859   -22885   -22912   -22938   -22963   -22986 
  -23005   -23023   -23040   -23060   -23082   -23104   -23121   -23128 
  -23132   -23139   -23143   -23146   -23148   -23144   -23137   -23121 
  -23103   -23090   -23076   -23066   -23064   -23065   -23072   -23086 
  -23101   -23120   -23144   -23168   -23188   -23205   -23216   -23221 
  -23225   -23225   -23216   -23194   -23168   -23143   -23118   -23089 
  -23062   -23039   -23014   -22988   -22968   -22961   -22958   -22949 
  -22939   -22936   -22934   -22937   -22948   -22957   -22964   -22976 
  -22989   -23002   -23023   -23046   -23069   -23095   -23118   -23139 
  -23159   -23179   -23201   -23225   -23242   -23253   -23260   -23261 
  -23259   -23254   -23250   -23246   -23243   -23235   -23218   -23194 
  -23176   -23165   -23154   -23144   -23142   -23147   -23161   -23188 
  -23229   -23275   -23321   -23359   -23391   -23419   -23441   -23456 
  -23468   -23471   -23464   -23452   -23440   -23428   -23410   -23388 
  -23366   -23342   -23316   -23293   -23276   -23261   -23248   -23241 
  -23234   -23228   -23228   -23233   -23246   -23264   -23277   -23290 
  -23303   -23314   -23331   -23354   -23379   -23399   -23416   -23440 
