Origin Time       2013/05/24 14:47:00
Lat.              54.873
Long.             153.280
Depth. (km)       609
Mag.              8.4
Station Code      IWTH23
Station Lat.      39.2741
Station Long.     141.8233
Station Height(m) 44
Record Time       2013/05/24 14:51:15
Sampling Freq(Hz) 100Hz
Duration Time(s)  120
Dir.              6
Scale Factor      3920(gal)/6170801
Max. Acc. (gal)   0.216
Last Correction   2013/05/24 14:51:00
Memo.             
[...]
  -25302   -25313   -25332   -25350   -25362   -25375   -25390   -25403 
  -25408   -25408   -25412   -25414   -25410   -25409   -25412   -25413 
  -25413   -25415   -25419   -25419   -25419   -25421   -25425   -25427 
  -25428   -25430   -25433   -25432   -25428   -25422   -25411   -25396 
  -25381   -25364   -25348   -25333   -25319   -25306   -25295   -25284 
  -25273   -25265   -25257   -25249   -25243   -25242   -25242   -25241 
  -25239   -25237   -25239   -25242   -25244   -25248   -25255   -25261 
  -25268   -25283   -25300   -25317   -25336   -25357   -25377   -25396 
  -25418   -25443   -25462   -25477   -25494   -25506   -25515   -25526 
  -25536   -25544   -25556   -25566   -25571   -25574   -25575   -25567 
  -25556   -25549   -25539   -25527   -25516   -25501   -25485   -25471 
  -25455   -25444   -25434   -25424   -25417   -25408   -25400   -25398 
  -25394   -25385   -25381   -25379   -25374   -25372   -25374   -25374 
  -25371   -25372   -25375   -25375   -25373   -25372   -25375   -25376 
  -25375   -25377   -25382   -25385   -25389   -25393   -25398   -25404 
  -25408   -25407   -25406   -25403   -25397   -25388   -25378   -25368 
  -25358   -25348   -25337   -25328   -25316   -25300   -25287   -25279 
  -25271   -25264   -25261   -25260   -25256   -25256   -25258   -25260 
  -25266   -25274   -25282   -25292   -25305   -25322   -25337   -25351 
  -25365   -25374   -25378   -25383   -25390   -25394   -25396   -25401 
  -25408   -25414   -25421   -25431   -25440   -25452   -25462   -25472 
  -25482   -25493   -25504   -25513   -25525   -25538   -25541   -25542 
  -25545   -25543   -25536   -25532   -25528   -25523   -25517   -25510 
  -25506   -25505   -25504   -25505   -25506   -25507   -25508   -25509 
  -25511   -25513   -25511   -25507   -25507   -25509   -25508   -25508 
  -25507   -25504   -25501   -25501   -25503   -25508   -25508   -25505 
  -25505   -25503   -25495   -25484   -25470   -25458   -25448   -25434 
  -25419   -25408   -25397   -25385   -25373   -25363   -25352   -25343 
  -25336   -25330   -25324   -25318   -25312   -25307   -25304   -25303 
  -25303   -25300   -25298   -25301   -25305   -25307   -25312   -25321 
  -25329   -25337   -25341   -25340   -25337   -25333   -25332   -25328 
  -25322   -25317   -25311   -25303   -25295   -25288   -25281   -25271 
  -25258   -25245   -25235   -25225   -25214   -25207   -25199   -25188 
  -25178   -25172   -25163   -25154   -25146   -25140   -25134   -25127 
  -25121   -25119   -25117   -25113   -25109   -25107   -25102   -25095 
  -25094   -25091   -25083   -25080   -25083   -25088   -25094   -25101 
  -25112   -25124   -25138   -25157   -25180   -25197   -25215   -25236 
  -25250   -25258   -25265   -25272   -25279   -25283   -25288   -25295 
  -25301   -25303   -25306   -25314   -25323   -25328   -25335   -25346 
  -25363   -25375   -25384   -25400   -25410   -25413   -25420   -25425 
  -25425   -25426   -25429   -25428   -25425   -25422   -25418   -25413 
  -25408   -25407   -25407   -25405   -25401   -25395   -25387   -25381 
  -25380   -25382   -25380   -25378   -25383   -25384   -25385   -25389 
  -25395   -25399   -25402   -25407   -25411   -25414   -25420   -25428 
  -25433   -25439   -25448   -25458   -25472   -25490   -25508   -25525 
  -25540   -25552   -25562   -25570   -25579   -25581   -25577   -25573 
  -25569   -25563   -25555   -25542   -25527   -25510   -25494   -25479 
  -25460   -25440   -25423   -25405   -25388   -25374   -25358   -25344 
  -25337   -25326   -25308   -25293   -25284   -25269   -25250   -25242 
  -25236   -25226   -25221   -25219   -25219   -25224   -25229   -25228 
  -25229   -25233   -25238   -25241   -25244   -25244   -25240   -25237 
  -25237   -25239   -25236   -25232   -25229   -25222   -25213   -25207 
  -25204   -25200   -25200   -25202   -25201   -25201   -25204   -25206 
  -25206   -25202   -25199   -25194   -25183   -25174   -25166   -25153 
  -25141   -25133   -25121   -25108   -25097   -25086   -25073   -25064 
  -25053   -25040   -25030   -25023   -25013   -25001   -24994   -24990 
  -24984   -24978   -24975   -24974   -24976   -24978   -24982   -24990 
  -25001   -25015   -25030   -25046   -25066   -25090   -25116   -25146 
  -25180   -25214   -25247   -25283   -25320   -25355   -25386   -25412 
  -25438   -25463   -25483   -25500   -25517   -25528   -25533   -25538 
  -25541   -25542   -25540   -25535   -25528   -25518   -25505   -25491 
  -25477   -25461   -25443   -25425   -25405   -25386   -25367   -25346 
  -25326   -25307   -25287   -25267   -25250   -25234   -25218   -25206 
  -25195   -25183   -25173   -25164   -25155   -25150   -25151   -25154 
  -25155   -25160   -25168   -25175   -25180   -25188   -25199   -25205 
  -25208   -25215   -25220   -25223   -25227   -25234   -25241   -25250 
  -25260   -25274   -25289   -25306   -25321   -25337   -25355   -25372 
  -25383   -25393   -25406   -25411   -25410   -25411   -25409   -25401 
  -25392   -25382   -25373   -25361   -25347   -25335   -25324   -25308 
  -25290   -25274   -25253   -25231   -25214   -25196   -25177   -25162 
  -25150   -25138   -25128   -25123   -25119   -25111   -25107   -25107 
  -25105   -25102   -25102   -25100   -25095   -25089   -25085   -25080 
  -25067   -25051   -25039   -25028   -25018   -25012   -25008   -25004 
  -25003   -25006   -25009   -25016   -25024   -25028   -25029   -25031 
  -25039   -25045   -25050   -25061   -25079   -25095   -25109   -25126 
  -25146   -25167   -25189   -25213   -25236   -25258   -25280   -25307 
  -25331   -25350   -25367   -25386   -25403   -25412   -25421   -25427 
  -25424   -25420   -25414   -25404   -25395   -25390   -25383   -25375 
  -25371   -25370   -25367   -25365   -25366   -25367   -25368   -25371 
  -25379   -25388   -25396   -25409   -25420   -25427   -25435   -25444 
  -25448   -25452   -25459   -25464   -25468   -25471   -25473   -25474 
  -25473   -25470   -25463   -25456   -25449   -25441   -25436   -25431 
  -25422   -25412   -25401   -25392   -25384   -25377   -25368   -25361 
  -25354   -25344   -25337   -25336   -25332   -25326   -25323   -25323 
  -25321   -25315   -25313   -25318   -25317   -25311   -25312   -25315 
  -25314   -25312   -25313   -25312   -25312   -25317   -25325   -25333 
  -25339   -25343   -25347   -25353   -25357   -25356   -25357   -25359 
  -25359   -25358   -25355   -25355   -25358   -25360   -25364   -25368 
  -25369   -25372   -25377   -25375   -25370   -25370   -25365   -25351 
  -25337   -25321   -25299   -25277   -25257   -25231   -25206   -25186 
  -25168   -25151   -25136   -25124   -25114   -25106   -25100   -25098 
  -25098   -25099   -25105   -25111   -25112   -25115   -25125   -25134 
  -25142   -25155   -25173   -25185   -25192   -25201   -25210   -25219 
  -25227   -25231   -25240   -25251   -25254   -25263   -25279   -25289 
  -25295   -25305   -25312   -25316   -25321   -25326   -25332   -25337 
  -25339   -25344   -25346   -25345   -25349   -25350   -25344   -25340 
  -25337   -25326   -25313   -25304   -25291   -25276   -25266   -25259 
  -25248   -25237   -25234   -25230   -25224   -25223   -25228   -25233 
  -25233   -25238   -25250   -25257   -25262   -25271   -25282   -25291 
  -25302   -25314   -25325   -25336   -25347   -25356   -25364   -25374 
  -25384   -25391   -25394   -25402   -25411   -25414   -25419   -25427 
  -25430   -25426   -25420   -25414   -25407   -25392   -25376   -25363 
  -25343   -25318   -25297   -25277   -25253   -25230   -25210   -25190 
  -25167   -25146   -25131   -25115   -25100   -25084   -25069   -25056 
  -25047   -25044   -25046   -25049   -25054   -25066   -25078   -25088 
  -25100   -25115   -25128   -25137   -25149   -25159   -25164   -25171 
  -25180   -25187   -25193   -25200   -25206   -25212   -25217   -25221 
  -25223   -25223   -25222   -25220   -25219   -25216   -25214   -25217 
  -25219   -25219   -25224   -25231   -25238   -25245   -25250   -25252 
  -25253   -25251   -25245   -25241   -25240   -25233   -25222   -25215 
  -25212   -25205   -25198   -25196   -25199   -25198   -25198   -25203 
  -25206   -25206   -25210   -25218   -25223   -25228   -25236   -25246 
  -25252   -25256   -25257   -25258   -25258   -25255   -25247   -25236 
  -25224   -25215   -25205   -25194   -25184   -25174   -25161   -25146 
  -25134   -25122   -25106   -25090   -25074   -25057   -25039   -25021 
  -25005   -24990   -24974   -24962   -24955   -24947   -24938   -24935 
  -24935   -24934   -24940   -24952   -24963   -24978   -24998   -25018 
  -25037   -25058   -25078   -25093   -25105   -25116   -25125   -25128 
  -25128   -25126   -25125   -25126   -25124   -25121   -25120   -25119 
  -25119   -25120   -25119   -25118   -25116   -25112   -25109   -25109 
  -25109   -25107   -25105   -25105   -25107   -25111   -25110   -25105 
  -25105   -25104   -25095   -25090   -25092   -25093   -25090   -25091 
  -25097   -25103   -25110   -25121   -25133   -25145   -25161   -25178 
  -25195   -25210   -25222   -25232   -25246   -25258   -25262   -25263 
  -25263   -25260   -25252   -25240   -25224   -25207   -25192   -25176 
  -25159   -25146   -25132   -25115   -25103   -25091   -25077   -25068 
  -25060   -25053   -25049   -25044   -25041   -25042   -25041   -25039 
  -25039   -25038   -25039   -25043   -25044   -25050   -25061   -25069 
  -25080   -25096   -25109   -25120   -25131   -25141   -25148   -25156 
  -25163   -25166   -25170   -25178   -25182   -25185   -25191   -25198 
  -25204   -25218   -25235   -25243   -25251   -25270   -25276   -25272 
  -25282   -25292   -25289   -25290   -25293   -25293   -25295   -25298 
  -25296   -25297   -25301   -25299   -25296   -25297   -25294   -25285 
  -25276   -25269   -25261   -25253   -25246   -25238   -25230   -25221 
  -25210   -25198   -25186   -25175   -25163   -25151   -25142   -25135 
  -25126   -25119   -25118   -25118   -25117   -25114   -25107   -25100 
  -25099   -25097   -25095   -25093   -25087   -25081   -25081   -25082 
  -25078   -25075   -25078   -25081   -25083   -25085   -25088   -25093 
  -25099   -25103   -25104   -25108   -25110   -25107   -25105   -25105 
  -25098   -25090   -25088   -25084   -25085   -25091   -25094   -25096 
  -25105   -25114   -25120   -25127   -25133   -25140   -25148   -25152 
  -25154   -25155   -25153   -25151   -25151   -25149   -25143   -25137 
  -25127   -25120   -25113   -25104   -25090   -25077   -25068   -25060 
  -25053   -25049   -25048   -25051   -25058   -25065   -25075   -25092 
  -25111   -25132   -25156   -25180   -25200   -25219   -25234   -25247 
  -25256   -25259   -25254   -25245   -25238   -25232   -25226   -25223 
  -25216   -25211   -25212   -25211   -25208   -25207   -25212   -25216 
  -25218   -25221   -25224   -25226   -25231   -25237   -25237   -25236 
  -25241   -25242   -25238   -25239   -25242   -25238   -25236   -25240 
  -25241   -25239   -25240   -25246   -25252   -25255   -25259   -25263 
  -25270   -25282   -25294   -25307   -25319   -25330   -25345   -25364 
  -25383   -25400   -25418   -25435   -25446   -25455   -25466   -25475 
  -25482   -25489   -25495   -25494   -25488   -25488   -25493   -25494 
  -25494   -25498   -25497   -25493   -25493   -25498   -25502   -25507 
  -25511   -25512   -25515   -25521   -25528   -25535   -25538   -25541 
  -25541   -25539   -25539   -25539   -25533   -25525   -25519   -25513 
  -25507   -25501   -25490   -25476   -25465   -25453   -25435   -25415 
  -25392   -25372   -25350   -25322   -25294   -25265   -25235   -25206 
  -25177   -25149   -25124   -25102   -25083   -25071   -25064   -25061 
  -25063   -25069   -25078   -25087   -25099   -25115   -25128   -25141 
  -25155   -25167   -25178   -25191   -25206   -25219   -25232   -25246 
  -25262   -25278   -25295   -25311   -25324   -25335   -25346   -25349 
  -25344   -25339   -25333   -25323   -25311   -25302   -25294   -25284 
  -25274   -25264   -25255   -25246   -25237   -25227   -25221   -25217 
  -25215   -25211   -25207   -25202   -25195   -25187   -25180   -25172 
  -25163   -25158   -25157   -25154   -25156   -25168   -25180   -25190 
  -25205   -25222   -25235   -25251   -25272   -25294   -25317   -25335 
  -25351   -25369   -25390   -25406   -25419   -25433   -25445   -25449 
  -25451   -25455   -25457   -25455   -25450   -25439   -25427   -25415 
  -25401   -25389   -25383   -25376   -25364   -25356   -25353   -25345 
  -25333   -25327   -25325   -25318   -25305   -25292   -25282   -25274 
  -25264   -25258   -25258   -25257   -25256   -25262   -25273   -25286 
  -25295   -25299   -25309   -25323   -25333   -25343   -25357   -25371 
  -25383   -25396   -25411   -25422   -25432   -25441   -25447   -25452 
  -25454   -25448   -25442   -25439   -25433   -25422   -25412   -25407 
  -25401   -25389   -25377   -25375   -25372   -25360   -25353   -25351 
  -25344   -25336   -25331   -25325   -25318   -25313   -25310   -25307 
  -25306   -25305   -25304   -25305   -25305   -25304   -25305   -25303 
  -25300   -25296   -25290   -25285   -25282   -25277   -25272   -25267 
  -25260   -25254   -25249   -25239   -25230   -25225   -25214   -25203 
  -25196   -25188   -25177   -25168   -25160   -25149   -25140   -25135 
  -25128   -25117   -25108   -25103   -25098   -25093   -25088   -25089 
  -25091   -25091   -25093   -25102   -25110   -25117   -25130   -25145 
  -25158   -25174   -25189   -25199   -25209   -25219   -25224   -25224 
  -25228   -25229   -25218   -25207   -25201   -25187   -25166   -25145 
  -25125   -25099   -25073   -25050   -25028   -25004   -24985   -24968 
  -24950   -24933   -24926   -24924   -24922   -24924   -24930   -24935 
  -24940   -24952   -24964   -24977   -24995   -25014   -25029   -25047 
  -25068   -25086   -25099   -25115   -25129   -25135   -25140   -25148 
  -25149   -25146   -25150   -25152   -25146   -25140   -25139   -25136 
  -25132   -25132   -25135   -25133   -25132   -25136   -25140   -25139 
  -25141   -25147   -25150   -25158   -25170   -25180   -25189   -25201 
  -25217   -25229   -25242   -25259   -25274   -25285   -25294   -25304 
  -25313   -25320   -25327   -25333   -25337   -25339   -25337   -25330 
  -25320   -25311   -25295   -25275   -25256   -25235   -25213   -25196 
  -25179   -25163   -25153   -25144   -25136   -25132   -25128   -25130 
  -25137   -25148   -25159   -25172   -25189   -25206   -25224   -25238 
  -25249   -25262   -25276   -25287   -25301   -25319   -25336   -25355 
  -25378   -25398   -25415   -25435   -25458   -25478   -25497   -25518 
  -25538   -25554   -25567   -25576   -25577   -25576   -25571   -25558 
  -25544   -25529   -25506   -25478   -25453   -25426   -25395   -25365 
  -25335   -25300   -25267   -25235   -25203   -25172   -25147   -25129 
  -25113   -25100   -25093   -25089   -25085   -25087   -25098   -25113 
  -25126   -25145   -25172   -25197   -25218   -25247   -25281   -25310 
  -25337   -25363   -25392   -25419   -25439   -25456   -25474   -25488 
  -25497   -25506   -25512   -25512   -25508   -25507   -25507   -25504 
  -25501   -25498   -25499   -25499   -25494   -25493   -25495   -25494 
  -25493   -25494   -25496   -25494   -25494   -25495   -25494   -25490 
  -25488   -25485   -25478   -25472   -25462   -25449   -25435   -25418 
  -25400   -25380   -25362   -25349   -25339   -25325   -25314   -25310 
  -25305   -25301   -25301   -25300   -25300   -25300   -25299   -25297 
  -25296   -25294   -25289   -25283   -25275   -25266   -25259   -25254 
  -25247   -25235   -25221   -25212   -25206   -25197   -25184   -25174 
  -25166   -25153   -25138   -25128   -25124   -25120   -25113   -25111 
  -25112   -25112   -25110   -25113   -25119   -25128   -25139   -25150 
  -25160   -25174   -25188   -25198   -25207   -25216   -25224   -25236 
  -25245   -25252   -25263   -25277   -25293   -25308   -25321   -25332 
  -25345   -25364   -25381   -25392   -25405   -25418   -25423   -25424 
  -25428   -25432   -25434   -25434   -25432   -25432   -25431   -25429 
  -25425   -25414   -25403   -25397   -25387   -25376   -25366   -25350 
  -25331   -25312   -25291   -25268   -25243   -25215   -25189   -25164 
  -25137   -25110   -25087   -25068   -25056   -25043   -25033   -25028 
  -25026   -25027   -25033   -25041   -25052   -25071   -25092   -25110 
  -25130   -25154   -25173   -25187   -25201   -25212   -25222   -25231 
  -25242   -25255   -25267   -25276   -25287   -25298   -25306   -25313 
  -25323   -25328   -25327   -25329   -25335   -25335   -25337   -25345 
  -25352   -25358   -25367   -25375   -25383   -25393   -25401   -25406 
  -25415   -25423   -25422   -25419   -25417   -25407   -25392   -25377 
  -25359   -25338   -25318   -25303   -25293   -25284   -25277   -25277 
  -25277   -25273   -25270   -25268   -25265   -25259   -25251   -25241 
  -25232   -25223   -25213   -25201   -25191   -25182   -25171   -25158 
  -25147   -25139   -25132   -25128   -25131   -25137   -25143   -25150 
  -25159   -25171   -25183   -25192   -25199   -25205   -25213   -25222 
  -25228   -25232   -25237   -25239   -25239   -25239   -25236   -25230 
  -25221   -25210   -25194   -25177   -25164   -25153   -25140   -25125 
  -25113   -25107   -25101   -25095   -25092   -25091   -25090   -25089 
  -25090   -25092   -25096   -25102   -25111   -25124   -25141   -25158 
  -25173   -25187   -25204   -25223   -25239   -25254   -25268   -25281 
  -25293   -25302   -25309   -25316   -25319   -25320   -25319   -25314 
  -25306   -25300   -25294   -25288   -25284   -25282   -25280   -25281 
  -25280   -25279   -25286   -25298   -25308   -25316   -25324   -25335 
  -25351   -25369   -25385   -25401   -25417   -25430   -25438   -25448 
  -25457   -25464   -25467   -25464   -25461   -25459   -25455   -25449 
  -25444   -25441   -25438   -25436   -25437   -25443   -25450   -25460 
  -25471   -25478   -25482   -25487   -25492   -25493   -25489   -25486 
  -25483   -25478   -25469   -25460   -25452   -25448   -25442   -25429 
  -25413   -25397   -25383   -25367   -25346   -25326   -25307   -25286 
  -25263   -25240   -25221   -25209   -25201   -25191   -25184   -25183 
  -25187   -25193   -25202   -25213   -25223   -25233   -25245   -25257 
  -25266   -25269   -25271   -25272   -25269   -25265   -25261   -25256 
  -25253   -25248   -25240   -25235   -25231   -25225   -25217   -25210 
  -25203   -25198   -25197   -25196   -25194   -25198   -25206   -25213 
  -25217   -25222   -25227   -25227   -25220   -25213   -25206   -25195 
  -25180   -25170   -25167   -25162   -25156   -25153   -25153   -25155 
  -25157   -25163   -25175   -25184   -25188   -25191   -25194   -25194 
  -25190   -25188   -25182   -25170   -25155   -25142   -25131   -25122 
  -25113   -25105   -25101   -25101   -25099   -25096   -25095   -25099 
  -25103   -25105   -25105   -25108   -25114   -25117   -25119   -25126 
  -25138   -25151   -25160   -25168   -25180   -25195   -25209   -25223 
  -25235   -25246   -25258   -25268   -25272   -25269   -25265   -25261 
  -25251   -25239   -25229   -25220   -25211   -25199   -25188   -25180 
  -25175   -25170   -25163   -25159   -25163   -25166   -25168   -25178 
  -25192   -25203   -25214   -25224   -25233   -25242   -25250   -25258 
  -25264   -25269   -25273   -25274   -25274   -25277   -25278   -25276 
  -25277   -25278   -25277   -25280   -25286   -25287   -25291   -25300 
  -25304   -25308   -25314   -25321   -25327   -25330   -25330   -25326 
  -25321   -25315   -25309   -25298   -25288   -25283   -25276   -25265 
