Origin Time       2013/05/24 14:47:00
Lat.              54.873
Long.             153.280
Depth. (km)       609
Mag.              8.4
Station Code      IWTH23
Station Lat.      39.2741
Station Long.     141.8233
Station Height(m) -59
Record Time       2013/05/24 14:51:15
Sampling Freq(Hz) 100Hz
Duration Time(s)  120
Dir.              1
Scale Factor      2940(gal)/6170270
Max. Acc. (gal)   0.336
Last Correction   2013/05/24 14:51:00
Memo.             
[...]
    8778     8778     8777     8780     8781     8779     8780     8782 
    8782     8781     8782     8781     8777     8775     8773     8771 
    8774     8776     8774     8775     8779     8779     8777     8776 
    8776     8774     8772     8771     8772     8774     8773     8775 
    8776     8774     8774     8776     8778     8783     8789     8792 
    8799     8806     8811     8819     8826     8829     8833     8838 
    8845     8851     8856     8863     8871     8874     8876     8879 
    8880     8881     8884     8887     8891     8892     8893     8895 
    8896     8898     8901     8900     8898     8899     8902     8905 
    8909     8910     8910     8909     8911     8914     8912     8912 
    8913     8911     8911     8914     8914     8910     8907     8906 
    8902     8897     8894     8891     8886     8883     8880     8872 
    8868     8867     8865     8862     8859     8858     8855     8854 
    8852     8847     8841     8837     8833     8826     8819     8814 
    8807     8797     8787     8780     8771     8763     8759     8752 
    8746     8742     8734     8724     8719     8713     8707     8705 
    8699     8692     8688     8683     8676     8670     8665     8658 
    8651     8645     8639     8633     8627     8622     8616     8607 
    8601     8597     8588     8581     8579     8575     8568     8565 
    8564     8559     8553     8550     8549     8548     8547     8546 
    8545     8545     8545     8546     8548     8550     8554     8561 
    8567     8571     8575     8579     8585     8590     8592     8596 
    8604     8612     8618     8623     8627     8630     8632     8633 
    8635     8636     8638     8640     8641     8642     8645     8648 
    8650     8652     8655     8658     8662     8666     8671     8677 
    8682     8684     8686     8686     8686     8684     8684     8683 
    8679     8677     8676     8674     8670     8667     8664     8660 
    8656     8655     8656     8658     8659     8661     8664     8667 
    8670     8673     8675     8678     8684     8689     8692     8696 
    8698     8698     8699     8701     8702     8704     8704     8703 
    8702     8700     8697     8695     8692     8687     8684     8680 
    8673     8668     8664     8658     8651     8646     8641     8635 
    8629     8622     8617     8613     8612     8610     8608     8608 
    8608     8607     8606     8608     8609     8608     8609     8613 
    8615     8616     8619     8622     8624     8626     8629     8631 
    8635     8639     8643     8648     8655     8659     8662     8663 
    8664     8665     8665     8665     8665     8664     8662     8661 
    8658     8653     8648     8643     8640     8635     8628     8622 
    8616     8610     8603     8598     8593     8587     8580     8571 
    8563     8555     8548     8540     8533     8526     8520     8513 
    8505     8497     8491     8486     8479     8470     8461     8452 
    8444     8437     8428     8419     8411     8404     8397     8391 
    8385     8381     8378     8374     8370     8368     8366     8368 
    8371     8372     8376     8382     8385     8387     8390     8394 
    8393     8393     8396     8397     8397     8398     8398     8399 
    8402     8401     8398     8395     8388     8380     8373     8362 
    8352     8347     8342     8335     8330     8325     8320     8313 
    8306     8301     8302     8303     8305     8309     8311     8314 
    8321     8326     8332     8341     8350     8358     8369     8378 
    8386     8397     8407     8414     8422     8431     8442     8449 
    8455     8463     8473     8482     8488     8496     8507     8515 
    8520     8526     8532     8537     8543     8553     8560     8566 
    8573     8579     8582     8585     8586     8586     8587     8587 
    8583     8580     8575     8566     8558     8552     8545     8537 
    8531     8526     8521     8518     8513     8505     8498     8496 
    8494     8492     8491     8490     8489     8491     8492     8491 
    8492     8496     8501     8508     8515     8522     8531     8541 
    8552     8563     8574     8584     8592     8601     8609     8616 
    8622     8628     8632     8638     8644     8647     8648     8650 
    8651     8650     8651     8652     8653     8651     8649     8650 
    8650     8650     8651     8652     8654     8655     8655     8659 
    8662     8665     8670     8677     8680     8683     8689     8693 
    8695     8699     8701     8700     8698     8693     8688     8684 
    8677     8667     8656     8646     8634     8622     8611     8601 
    8591     8582     8575     8569     8564     8560     8555     8553 
    8555     8556     8558     8563     8570     8579     8585     8590 
    8598     8607     8612     8618     8625     8629     8633     8638 
    8641     8644     8649     8654     8655     8658     8662     8664 
    8667     8668     8668     8670     8671     8669     8667     8665 
    8662     8660     8660     8661     8663     8666     8669     8672 
    8676     8676     8675     8677     8677     8675     8672     8666 
    8660     8657     8652     8646     8643     8643     8643     8643 
    8644     8647     8652     8657     8665     8673     8684     8696 
    8707     8721     8737     8753     8768     8783     8800     8817 
    8832     8845     8860     8873     8885     8897     8910     8920 
    8926     8933     8942     8948     8954     8962     8971     8980 
    8988     8995     9002     9008     9013     9018     9019     9021 
    9024     9027     9029     9033     9037     9040     9040     9041 
    9040     9038     9038     9039     9037     9036     9036     9035 
    9034     9034     9033     9032     9032     9034     9036     9038 
    9039     9039     9040     9045     9049     9052     9056     9063 
    9067     9070     9075     9080     9085     9091     9096     9104 
    9112     9119     9128     9139     9148     9156     9164     9171 
    9179     9185     9191     9198     9206     9211     9213     9217 
    9223     9226     9226     9228     9230     9228     9225     9222 
    9217     9214     9209     9205     9203     9202     9201     9199 
    9196     9194     9194     9193     9194     9196     9197     9199 
    9202     9205     9207     9207     9208     9207     9206     9206 
    9205     9204     9200     9194     9189     9181     9173     9167 
    9159     9148     9139     9129     9119     9108     9097     9085 
    9072     9061     9050     9039     9028     9018     9007     8999 
    8991     8982     8974     8970     8969     8967     8965     8967 
    8973     8981     8989     9003     9016     9026     9037     9049 
    9061     9071     9075     9078     9082     9081     9078     9077 
    9074     9068     9061     9051     9042     9033     9022     9010 
    8996     8982     8968     8951     8932     8913     8893     8877 
    8863     8847     8832     8819     8805     8793     8784     8776 
    8765     8756     8751     8746     8740     8735     8733     8730 
    8726     8723     8719     8713     8709     8705     8703     8704 
    8703     8702     8702     8700     8697     8696     8694     8690 
    8686     8683     8678     8674     8674     8668     8659     8653 
    8648     8639     8631     8623     8613     8602     8593     8583 
    8572     8562     8554     8545     8538     8533     8530     8526 
    8522     8517     8510     8506     8503     8499     8495     8492 
    8487     8484     8483     8481     8480     8480     8483     8484 
    8482     8480     8479     8476     8473     8468     8461     8458 
    8455     8453     8449     8442     8432     8420     8408     8397 
    8384     8373     8360     8343     8327     8313     8298     8285 
    8274     8264     8254     8246     8239     8232     8225     8221 
    8220     8218     8217     8217     8216     8218     8218     8216 
    8216     8216     8215     8217     8218     8218     8219     8219 
    8219     8220     8223     8227     8232     8239     8247     8255 
    8265     8276     8286     8298     8310     8322     8335     8347 
    8357     8367     8376     8382     8388     8397     8401     8403 
    8407     8409     8411     8414     8415     8415     8414     8411 
    8408     8409     8411     8410     8408     8408     8407     8406 
    8407     8411     8415     8417     8423     8432     8442     8455 
    8470     8486     8504     8523     8541     8559     8575     8592 
    8610     8625     8638     8653     8667     8680     8693     8706 
    8716     8726     8737     8749     8759     8768     8779     8791 
    8802     8812     8826     8841     8855     8868     8881     8897 
    8911     8923     8936     8950     8962     8974     8987     8999 
    9010     9023     9037     9050     9062     9074     9087     9100 
    9116     9129     9141     9154     9167     9185     9203     9219 
    9235     9254     9269     9281     9293     9304     9314     9323 
    9333     9341     9345     9348     9354     9358     9355     9351 
    9346     9337     9324     9311     9295     9275     9255     9232 
    9206     9178     9145     9111     9075     9035     8993     8954 
    8914     8874     8836     8797     8758     8723     8689     8657 
    8628     8601     8577     8555     8537     8524     8513     8504 
    8501     8502     8508     8519     8534     8551     8570     8593 
    8619     8646     8675     8704     8732     8764     8795     8822 
    8849     8874     8895     8913     8929     8942     8953     8962 
    8969     8975     8980     8985     8986     8989     8990     8990 
    8993     8997     8998     9001     9005     9007     9011     9017 
    9021     9027     9033     9034     9035     9039     9038     9031 
    9027     9023     9014     9004     8994     8985     8976     8968 
    8960     8953     8949     8946     8943     8942     8946     8952 
    8959     8967     8977     8991     9006     9020     9035     9052 
    9069     9087     9106     9124     9138     9150     9158     9165 
    9167     9166     9164     9162     9156     9147     9137     9127 
    9115     9102     9090     9079     9069     9059     9048     9038 
    9029     9023     9018     9011     9005     9001     8996     8992 
    8990     8989     8988     8987     8987     8988     8993     8997 
    9001     9004     9009     9014     9016     9016     9019     9020 
    9017     9014     9009     9001     8993     8980     8967     8954 
    8936     8918     8900     8880     8860     8840     8821     8805 
    8789     8776     8765     8754     8744     8738     8732     8725 
    8720     8718     8714     8710     8708     8706     8703     8701 
    8700     8701     8702     8704     8709     8716     8722     8732 
    8745     8754     8762     8771     8780     8786     8790     8795 
    8801     8805     8805     8807     8808     8805     8804     8803 
    8803     8805     8806     8808     8812     8814     8815     8815 
    8815     8815     8816     8815     8812     8810     8807     8801 
    8795     8790     8786     8782     8780     8779     8780     8783 
    8786     8791     8797     8804     8808     8815     8823     8825 
    8826     8829     8830     8830     8833     8839     8845     8849 
    8853     8859     8866     8872     8879     8884     8889     8896 
    8902     8904     8902     8900     8898     8894     8888     8879 
    8871     8861     8850     8839     8828     8819     8807     8794 
    8786     8777     8768     8760     8753     8748     8745     8745 
    8747     8751     8757     8764     8768     8772     8780     8788 
    8794     8801     8810     8819     8828     8838     8847     8858 
    8869     8879     8885     8890     8895     8900     8901     8900 
    8896     8888     8880     8873     8867     8860     8851     8842 
    8834     8827     8821     8815     8809     8800     8789     8777 
    8763     8747     8732     8716     8700     8684     8669     8654 
    8639     8625     8612     8600     8589     8582     8577     8570 
    8561     8551     8540     8528     8514     8497     8479     8460 
    8441     8421     8400     8382     8365     8349     8333     8319 
    8308     8298     8289     8281     8273     8270     8271     8273 
    8277     8284     8292     8301     8313     8325     8336     8349 
    8361     8372     8383     8392     8399     8407     8413     8416 
    8418     8417     8410     8400     8389     8377     8363     8345 
    8325     8304     8284     8264     8243     8224     8207     8189 
    8172     8158     8149     8139     8131     8127     8125     8125 
    8127     8130     8135     8142     8149     8159     8171     8185 
    8202     8222     8243     8264     8286     8309     8331     8350 
    8369     8386     8404     8418     8429     8439     8445     8449 
    8449     8448     8446     8444     8439     8433     8430     8427 
    8422     8416     8413     8408     8404     8401     8395     8388 
    8381     8375     8366     8357     8351     8347     8343     8339 
    8337     8335     8331     8327     8324     8320     8315     8311 
    8307     8299     8292     8288     8283     8275     8268     8262 
    8253     8243     8235     8225     8211     8196     8182     8166 
    8149     8133     8117     8100     8085     8071     8058     8047 
    8035     8027     8024     8021     8020     8024     8029     8035 
    8044     8057     8072     8091     8112     8136     8162     8190 
    8217     8246     8278     8310     8336     8361     8388     8412 
    8432     8451     8467     8478     8489     8500     8510     8519 
    8529     8539     8547     8555     8564     8575     8587     8599 
    8612     8626     8642     8658     8675     8693     8709     8730 
    8752     8770     8790     8811     8831     8855     8881     8905 
    8932     8958     8983     9009     9032     9052     9072     9092 
    9108     9122     9132     9140     9146     9148     9149     9151 
    9150     9148     9147     9146     9142     9141     9141     9138 
    9137     9139     9140     9147     9156     9160     9166     9174 
    9178     9181     9187     9190     9187     9184     9180     9174 
    9165     9157     9146     9131     9118     9104     9087     9070 
    9052     9034     9019     9000     8978     8958     8938     8914 
    8889     8867     8845     8822     8802     8783     8765     8752 
    8744     8739     8736     8735     8740     8744     8748     8756 
    8764     8771     8777     8783     8790     8799     8805     8809 
    8814     8816     8816     8815     8814     8811     8807     8803 
    8800     8798     8796     8794     8794     8794     8791     8789 
    8786     8781     8777     8772     8767     8759     8750     8744 
    8736     8726     8718     8706     8693     8679     8662     8644 
    8627     8609     8590     8570     8552     8537     8524     8511 
    8501     8494     8489     8485     8483     8480     8483     8489 
    8494     8502     8510     8516     8524     8533     8540     8550 
    8561     8569     8581     8594     8606     8620     8634     8647 
    8660     8671     8680     8689     8695     8701     8707     8710 
    8711     8710     8707     8702     8696     8689     8678     8669 
    8661     8650     8640     8635     8629     8624     8623     8618 
    8617     8621     8621     8622     8630     8634     8635     8641 
    8646     8647     8647     8648     8650     8649     8643     8634 
    8626     8616     8604     8589     8573     8558     8543     8528 
    8514     8504     8496     8489     8485     8484     8486     8490 
    8494     8501     8511     8523     8534     8547     8563     8579 
    8595     8613     8628     8643     8660     8671     8681     8693 
    8705     8715     8724     8731     8736     8739     8742     8746 
    8747     8747     8747     8746     8743     8738     8729     8717 
    8704     8690     8675     8658     8639     8623     8607     8589 
    8571     8551     8531     8514     8497     8479     8464     8454 
    8445     8439     8438     8438     8440     8446     8451     8458 
    8469     8482     8495     8511     8528     8547     8566     8588 
    8610     8632     8656     8683     8708     8734     8763     8792 
    8819     8847     8878     8910     8940     8972     9005     9037 
    9069     9101     9133     9162     9188     9214     9235     9249 
    9259     9266     9267     9264     9255     9242     9225     9200 
    9170     9139     9103     9065     9028     8986     8944     8904 
    8861     8817     8775     8737     8701     8667     8638     8615 
    8601     8591     8586     8592     8603     8619     8643     8674 
    8707     8744     8785     8827     8870     8913     8956     8994 
    9030     9064     9097     9126     9149     9167     9179     9188 
    9192     9189     9185     9180     9171     9159     9147     9135 
    9119     9103     9087     9066     9044     9020     8993     8965 
    8938     8909     8879     8848     8819     8788     8755     8726 
    8697     8666     8642     8620     8594     8571     8554     8537 
    8525     8519     8514     8511     8515     8521     8530     8541 
    8554     8569     8587     8601     8614     8625     8635     8642 
    8646     8646     8642     8633     8620     8605     8586     8566 
    8544     8519     8490     8459     8429     8399     8372     8347 
    8324     8302     8284     8268     8260     8254     8249     8250 
    8255     8262     8269     8277     8286     8296     8305     8316 
    8327     8338     8348     8354     8362     8372     8380     8388 
    8397     8406     8420     8436     8449     8466     8488     8507 
    8527     8545     8562     8577     8590     8601     8611     8619 
    8623     8620     8615     8608     8598     8582     8565     8545 
    8523     8503     8482     8459     8438     8417     8398     8385 
    8373     8364     8362     8362     8364     8371     8385     8401 
    8420     8446     8476     8507     8543     8581     8618     8654 
    8693     8732     8768     8804     8836     8860     8881     8897 
    8904     8903     8895     8879     8859     8833     8803     8767 
    8728     8685     8636     8588     8545     8500     8458     8420 
    8382     8349     8323     8298     8277     8265     8259     8258 
    8261     8266     8274     8283     8292     8304     8317     8331 
    8344     8355     8368     8384     8402     8422     8445     8468 
    8493     8520     8549     8584     8623     8661     8702     8744 
    8786     8829     8873     8915     8957     8996     9030     9063 
    9092     9116     9138     9158     9174     9188     9199     9209 
    9220     9227     9230     9234     9234     9229     9220     9208 
    9193     9177     9158     9136     9115     9094     9074     9055 
    9037     9022     9007     8995     8990     8988     8990     8993 
    8996     9002     9011     9018     9024     9031     9038     9042 
    9044     9044     9045     9046     9043     9039     9038     9036 
    9035     9036     9038     9043     9050     9058     9067     9075 
