Origin Time       2013/05/24 14:47:00
Lat.              54.873
Long.             153.280
Depth. (km)       609
Mag.              8.4
Station Code      IWTH23
Station Lat.      39.2741
Station Long.     141.8233
Station Height(m) 44
Record Time       2013/05/24 14:51:15
Sampling Freq(Hz) 100Hz
Duration Time(s)  120
Dir.              4
Scale Factor      3920(gal)/6170801
Max. Acc. (gal)   0.404
Last Correction   2013/05/24 14:51:00
Memo.             
[...]
  -54419   -54414   -54406   -54395   -54383   -54380   -54382   -54385 
  -54393   -54396   -54389   -54384   -54389   -54402   -54414   -54416 
  -54415   -54415   -54416   -54424   -54431   -54431   -54434   -54439 
  -54443   -54452   -54471   -54492   -54502   -54504   -54505   -54508 
  -54510   -54513   -54519   -54522   -54523   -54525   -54519   -54506 
  -54501   -54506   -54510   -54508   -54503   -54503   -54507   -54512 
  -54514   -54510   -54498   -54489   -54486   -54482   -54480   -54479 
  -54469   -54456   -54450   -54453   -54456   -54454   -54443   -54427 
  -54418   -54418   -54419   -54415   -54409   -54401   -54395   -54393 
  -54393   -54392   -54390   -54384   -54380   -54381   -54385   -54389 
  -54396   -54402   -54407   -54418   -54430   -54438   -54445   -54448 
  -54448   -54455   -54465   -54469   -54471   -54476   -54482   -54487 
  -54493   -54498   -54507   -54521   -54526   -54521   -54520   -54528 
  -54539   -54553   -54566   -54569   -54562   -54551   -54541   -54534 
  -54534   -54540   -54539   -54535   -54534   -54529   -54523   -54522 
  -54523   -54521   -54519   -54517   -54516   -54515   -54511   -54509 
  -54513   -54514   -54509   -54502   -54499   -54500   -54504   -54501 
  -54492   -54485   -54479   -54477   -54477   -54475   -54470   -54461 
  -54445   -54433   -54424   -54412   -54397   -54380   -54363   -54348 
  -54335   -54323   -54315   -54307   -54296   -54290   -54287   -54286 
  -54286   -54283   -54283   -54288   -54290   -54288   -54288   -54288 
  -54288   -54285   -54277   -54268   -54263   -54260   -54253   -54247 
  -54245   -54243   -54238   -54233   -54224   -54213   -54203   -54194 
  -54184   -54177   -54179   -54183   -54179   -54171   -54165   -54165 
  -54168   -54170   -54169   -54165   -54156   -54150   -54147   -54139 
  -54133   -54131   -54126   -54123   -54126   -54135   -54143   -54148 
  -54152   -54155   -54158   -54162   -54166   -54169   -54170   -54174 
  -54178   -54171   -54164   -54168   -54174   -54180   -54191   -54201 
  -54206   -54211   -54219   -54228   -54239   -54253   -54265   -54270 
  -54270   -54269   -54265   -54257   -54251   -54248   -54242   -54236 
  -54230   -54217   -54206   -54196   -54183   -54172   -54162   -54148 
  -54133   -54119   -54104   -54091   -54077   -54064   -54052   -54042 
  -54036   -54031   -54022   -54017   -54019   -54020   -54025   -54030 
  -54027   -54020   -54013   -54006   -54000   -53998   -53997   -53992 
  -53984   -53981   -53984   -53985   -53984   -53984   -53988   -53993 
  -53997   -53997   -54001   -54008   -54018   -54034   -54047   -54047 
  -54045   -54050   -54059   -54072   -54090   -54104   -54112   -54118 
  -54124   -54133   -54147   -54160   -54165   -54160   -54155   -54153 
  -54154   -54159   -54165   -54170   -54173   -54170   -54167   -54166 
  -54162   -54153   -54146   -54140   -54132   -54120   -54110   -54105 
  -54102   -54096   -54088   -54080   -54067   -54053   -54044   -54037 
  -54025   -54016   -54014   -54017   -54019   -54020   -54024   -54026 
  -54026   -54032   -54047   -54064   -54076   -54082   -54089   -54098 
  -54111   -54122   -54124   -54123   -54125   -54132   -54138   -54145 
  -54157   -54170   -54176   -54180   -54179   -54176   -54183   -54199 
  -54216   -54232   -54244   -54251   -54254   -54260   -54271   -54287 
  -54307   -54327   -54341   -54346   -54349   -54358   -54375   -54396 
  -54418   -54430   -54430   -54431   -54441   -54455   -54471   -54480 
  -54480   -54472   -54465   -54467   -54478   -54487   -54487   -54477 
  -54460   -54448   -54445   -54444   -54439   -54429   -54409   -54386 
  -54368   -54358   -54356   -54359   -54358   -54352   -54347   -54348 
  -54355   -54362   -54364   -54359   -54351   -54343   -54339   -54345 
  -54355   -54363   -54367   -54370   -54375   -54382   -54395   -54416 
  -54436   -54455   -54478   -54500   -54520   -54542   -54561   -54578 
  -54592   -54600   -54606   -54612   -54618   -54624   -54635   -54646 
  -54654   -54660   -54662   -54660   -54659   -54659   -54658   -54654 
  -54647   -54643   -54642   -54639   -54630   -54619   -54607   -54593 
  -54584   -54581   -54577   -54572   -54567   -54565   -54571   -54580 
  -54587   -54589   -54591   -54595   -54601   -54612   -54627   -54635 
  -54639   -54642   -54645   -54649   -54653   -54656   -54660   -54660 
  -54657   -54653   -54643   -54635   -54631   -54627   -54630   -54634 
  -54631   -54617   -54596   -54575   -54561   -54550   -54537   -54520 
  -54498   -54469   -54445   -54432   -54426   -54422   -54414   -54400 
  -54389   -54383   -54384   -54386   -54385   -54381   -54375   -54369 
  -54371   -54381   -54398   -54421   -54437   -54447   -54466   -54490 
  -54512   -54535   -54556   -54576   -54591   -54598   -54607   -54620 
  -54634   -54644   -54656   -54666   -54667   -54664   -54665   -54674 
  -54689   -54704   -54709   -54710   -54712   -54712   -54712   -54711 
  -54705   -54691   -54671   -54650   -54634   -54625   -54618   -54606 
  -54589   -54576   -54564   -54548   -54536   -54530   -54519   -54503 
  -54484   -54464   -54455   -54458   -54463   -54468   -54468   -54466 
  -54472   -54481   -54491   -54507   -54522   -54533   -54547   -54556 
  -54559   -54565   -54576   -54590   -54601   -54605   -54605   -54603 
  -54601   -54606   -54617   -54624   -54623   -54615   -54603   -54598 
  -54601   -54604   -54603   -54595   -54577   -54558   -54546   -54541 
  -54544   -54546   -54534   -54516   -54506   -54501   -54501   -54501 
  -54493   -54480   -54468   -54455   -54442   -54431   -54420   -54409 
  -54396   -54381   -54361   -54335   -54311   -54294   -54282   -54273 
  -54262   -54250   -54234   -54222   -54224   -54231   -54230   -54228 
  -54229   -54229   -54227   -54227   -54230   -54230   -54224   -54218 
  -54210   -54208   -54206   -54194   -54170   -54148   -54132   -54120 
  -54108   -54096   -54080   -54054   -54023   -53997   -53975   -53962 
  -53956   -53943   -53922   -53900   -53885   -53874   -53864   -53858 
  -53857   -53854   -53842   -53833   -53837   -53856   -53877   -53894 
  -53909   -53926   -53944   -53964   -53987   -54016   -54045   -54073 
  -54096   -54121   -54157   -54195   -54219   -54232   -54247   -54271 
  -54296   -54321   -54343   -54354   -54357   -54359   -54369   -54383 
  -54391   -54389   -54377   -54358   -54340   -54326   -54304   -54275 
  -54240   -54200   -54165   -54139   -54119   -54095   -54070   -54046 
  -54023   -54005   -53998   -53990   -53976   -53965   -53956   -53950 
  -53956   -53968   -53974   -53983   -53991   -53997   -54008   -54022 
  -54034   -54053   -54076   -54090   -54101   -54111   -54114   -54120 
  -54135   -54150   -54163   -54171   -54171   -54171   -54178   -54189 
  -54200   -54216   -54239   -54253   -54257   -54262   -54270   -54281 
  -54293   -54301   -54299   -54289   -54276   -54261   -54247   -54237 
  -54224   -54204   -54176   -54146   -54123   -54104   -54089   -54074 
  -54048   -54018   -53995   -53977   -53960   -53950   -53939   -53919 
  -53902   -53895   -53897   -53907   -53916   -53921   -53927   -53935 
  -53944   -53957   -53975   -53998   -54020   -54039   -54058   -54074 
  -54088   -54107   -54127   -54145   -54161   -54172   -54180   -54187 
  -54190   -54198   -54209   -54211   -54206   -54200   -54193   -54188 
  -54184   -54175   -54158   -54141   -54126   -54109   -54094   -54078 
  -54062   -54049   -54038   -54026   -54017   -54010   -53999   -53992 
  -53992   -53993   -53996   -54000   -54003   -54009   -54017   -54029 
  -54040   -54047   -54055   -54070   -54086   -54095   -54102   -54109 
  -54116   -54123   -54136   -54155   -54171   -54179   -54183   -54188 
  -54199   -54216   -54225   -54226   -54229   -54231   -54232   -54241 
  -54251   -54258   -54263   -54257   -54244   -54240   -54246   -54252 
  -54254   -54254   -54259   -54263   -54262   -54268   -54275   -54272 
  -54269   -54270   -54269   -54269   -54265   -54255   -54245   -54236 
  -54228   -54229   -54240   -54247   -54252   -54263   -54271   -54278 
  -54291   -54306   -54323   -54342   -54358   -54370   -54383   -54397 
  -54412   -54417   -54415   -54413   -54410   -54405   -54405   -54408 
  -54407   -54403   -54398   -54387   -54379   -54377   -54371   -54360 
  -54347   -54332   -54316   -54301   -54286   -54275   -54264   -54254 
  -54247   -54234   -54217   -54205   -54195   -54185   -54180   -54179 
  -54175   -54165   -54155   -54148   -54146   -54149   -54152   -54152 
  -54150   -54148   -54151   -54163   -54181   -54197   -54208   -54220 
  -54234   -54250   -54271   -54290   -54303   -54317   -54336   -54352 
  -54365   -54382   -54404   -54422   -54438   -54452   -54461   -54467 
  -54470   -54472   -54473   -54470   -54462   -54449   -54435   -54428 
  -54426   -54421   -54415   -54408   -54398   -54392   -54386   -54375 
  -54361   -54343   -54320   -54303   -54292   -54281   -54271   -54262 
  -54252   -54244   -54241   -54236   -54228   -54225   -54227   -54230 
  -54233   -54235   -54234   -54232   -54231   -54239   -54252   -54260 
  -54262   -54268   -54276   -54289   -54313   -54345   -54379   -54408 
  -54433   -54458   -54480   -54503   -54532   -54557   -54572   -54583 
  -54595   -54611   -54634   -54659   -54677   -54689   -54702   -54714 
  -54723   -54731   -54738   -54740   -54736   -54730   -54725   -54722 
  -54718   -54708   -54697   -54691   -54681   -54665   -54644   -54622 
  -54604   -54594   -54582   -54567   -54554   -54544   -54541   -54547 
  -54554   -54559   -54568   -54578   -54589   -54610   -54637   -54659 
  -54673   -54684   -54697   -54720   -54746   -54775   -54800   -54819 
  -54836   -54855   -54874   -54895   -54913   -54923   -54926   -54920 
  -54913   -54915   -54913   -54900   -54881   -54851   -54814   -54783 
  -54755   -54729   -54711   -54693   -54668   -54642   -54619   -54604 
  -54593   -54582   -54570   -54553   -54538   -54532   -54532   -54532 
  -54530   -54526   -54520   -54513   -54515   -54525   -54530   -54530 
  -54532   -54537   -54541   -54546   -54557   -54568   -54579   -54587 
  -54584   -54578   -54580   -54586   -54594   -54603   -54611   -54621 
  -54630   -54633   -54639   -54653   -54672   -54689   -54701   -54712 
  -54723   -54728   -54733   -54744   -54759   -54768   -54770   -54771 
  -54772   -54776   -54791   -54806   -54818   -54826   -54830   -54830 
  -54829   -54823   -54814   -54809   -54805   -54802   -54801   -54794 
  -54779   -54766   -54757   -54746   -54738   -54729   -54714   -54692 
  -54669   -54654   -54643   -54627   -54609   -54594   -54581   -54569 
  -54559   -54548   -54536   -54520   -54502   -54488   -54480   -54472 
  -54456   -54433   -54414   -54401   -54388   -54374   -54359   -54344 
  -54331   -54321   -54315   -54307   -54292   -54281   -54282   -54283 
  -54283   -54284   -54274   -54258   -54246   -54232   -54215   -54197 
  -54179   -54160   -54141   -54122   -54104   -54089   -54077   -54067 
  -54060   -54048   -54034   -54025   -54018   -54012   -54008   -54006 
  -54008   -54008   -54003   -53998   -53994   -53993   -53994   -53990 
  -53982   -53981   -53982   -53979   -53977   -53975   -53964   -53942 
  -53923   -53914   -53907   -53903   -53905   -53906   -53911   -53924 
  -53942   -53960   -53979   -53999   -54021   -54046   -54073   -54101 
  -54130   -54154   -54174   -54199   -54227   -54252   -54273   -54287 
  -54295   -54305   -54318   -54331   -54343   -54349   -54350   -54348 
  -54343   -54338   -54335   -54327   -54319   -54311   -54304   -54304 
  -54307   -54306   -54308   -54318   -54328   -54341   -54358   -54372 
  -54385   -54398   -54411   -54419   -54424   -54427   -54428   -54427 
  -54426   -54427   -54423   -54414   -54403   -54391   -54381   -54372 
  -54355   -54338   -54324   -54308   -54299   -54297   -54295   -54294 
  -54297   -54307   -54327   -54348   -54362   -54373   -54389   -54416 
  -54447   -54474   -54502   -54527   -54549   -54570   -54592   -54612 
  -54631   -54644   -54648   -54647   -54647   -54647   -54640   -54629 
  -54618   -54603   -54584   -54567   -54554   -54538   -54514   -54489 
  -54467   -54447   -54429   -54414   -54397   -54376   -54353   -54328 
  -54309   -54300   -54289   -54279   -54274   -54264   -54256   -54255 
  -54254   -54255   -54258   -54262   -54265   -54266   -54269   -54272 
  -54267   -54259   -54257   -54257   -54255   -54250   -54241   -54229 
  -54213   -54198   -54188   -54180   -54170   -54160   -54151   -54146 
  -54144   -54144   -54148   -54157   -54166   -54173   -54184   -54199 
  -54215   -54231   -54246   -54254   -54259   -54270   -54284   -54297 
  -54308   -54317   -54322   -54323   -54323   -54324   -54317   -54307 
  -54300   -54294   -54287   -54286   -54291   -54293   -54287   -54274 
  -54261   -54258   -54260   -54257   -54245   -54226   -54210   -54199 
  -54195   -54199   -54202   -54196   -54190   -54187   -54181   -54173 
  -54168   -54166   -54165   -54163   -54161   -54162   -54169   -54182 
  -54191   -54194   -54200   -54211   -54228   -54251   -54276   -54295 
  -54312   -54329   -54346   -54365   -54384   -54402   -54418   -54434 
  -54452   -54472   -54490   -54507   -54522   -54537   -54548   -54556 
  -54562   -54562   -54557   -54546   -54533   -54521   -54506   -54486 
  -54466   -54441   -54415   -54390   -54364   -54333   -54305   -54281 
  -54256   -54225   -54192   -54156   -54120   -54091   -54063   -54030 
  -53995   -53962   -53929   -53895   -53862   -53830   -53798   -53773 
  -53749   -53725   -53710   -53706   -53711   -53726   -53747   -53768 
  -53788   -53812   -53844   -53886   -53933   -53975   -54012   -54054 
  -54101   -54147   -54198   -54245   -54284   -54322   -54356   -54381 
  -54402   -54419   -54434   -54447   -54455   -54454   -54445   -54427 
  -54403   -54377   -54356   -54334   -54303   -54261   -54215   -54174 
  -54141   -54115   -54092   -54066   -54037   -54008   -53982   -53969 
  -53966   -53960   -53947   -53931   -53922   -53922   -53924   -53926 
  -53929   -53931   -53933   -53940   -53949   -53959   -53978   -54000 
  -54024   -54058   -54100   -54149   -54199   -54244   -54285   -54326 
  -54373   -54424   -54474   -54527   -54576   -54613   -54644   -54671 
  -54695   -54718   -54734   -54745   -54751   -54750   -54743   -54734 
  -54720   -54697   -54672   -54645   -54615   -54589   -54570   -54552 
  -54542   -54541   -54537   -54528   -54524   -54527   -54537   -54553 
  -54570   -54586   -54598   -54604   -54605   -54612   -54626   -54640 
  -54654   -54662   -54659   -54653   -54649   -54646   -54648   -54652 
  -54650   -54640   -54628   -54614   -54600   -54591   -54584   -54576 
  -54569   -54561   -54555   -54552   -54549   -54549   -54552   -54549 
  -54547   -54552   -54559   -54568   -54578   -54584   -54582   -54581 
  -54583   -54588   -54592   -54592   -54593   -54595   -54594   -54594 
  -54599   -54608   -54615   -54621   -54628   -54635   -54643   -54655 
  -54672   -54687   -54698   -54703   -54700   -54701   -54709   -54715 
  -54711   -54707   -54704   -54698   -54692   -54691   -54686   -54670 
  -54651   -54632   -54611   -54592   -54571   -54543   -54511   -54481 
  -54453   -54424   -54401   -54382   -54359   -54337   -54319   -54295 
  -54270   -54255   -54250   -54254   -54260   -54264   -54271   -54284 
  -54300   -54316   -54336   -54361   -54388   -54418   -54451   -54479 
  -54502   -54526   -54548   -54564   -54579   -54591   -54599   -54603 
  -54602   -54601   -54596   -54585   -54571   -54557   -54541   -54527 
  -54517   -54506   -54496   -54489   -54480   -54471   -54466   -54458 
  -54447   -54433   -54415   -54400   -54387   -54371   -54360   -54350 
  -54336   -54322   -54310   -54303   -54303   -54305   -54305   -54306 
  -54302   -54286   -54273   -54262   -54249   -54237   -54222   -54199 
  -54175   -54148   -54120   -54100   -54085   -54065   -54048   -54038 
  -54027   -54021   -54024   -54030   -54039   -54053   -54068   -54085 
  -54107   -54126   -54137   -54145   -54158   -54175   -54191   -54203 
  -54211   -54218   -54223   -54224   -54216   -54209   -54212   -54216 
  -54223   -54232   -54238   -54242   -54246   -54249   -54254   -54256 
  -54252   -54248   -54244   -54236   -54222   -54202   -54182   -54170 
  -54156   -54135   -54117   -54103   -54085   -54067   -54048   -54026 
  -54006   -53991   -53978   -53966   -53954   -53938   -53924   -53922 
  -53929   -53937   -53947   -53958   -53968   -53969   -53966   -53972 
  -53984   -53988   -53992   -54004   -54016   -54026   -54038   -54045 
  -54047   -54049   -54049   -54050   -54060   -54068   -54068   -54069 
  -54074   -54077   -54082   -54091   -54091   -54080   -54070   -54057 
  -54045   -54043   -54040   -54029   -54024   -54027   -54034   -54044 
  -54056   -54068   -54078   -54083   -54088   -54104   -54124   -54141 
  -54153   -54160   -54165   -54172   -54182   -54193   -54204   -54216 
  -54229   -54247   -54269   -54287   -54299   -54310   -54324   -54343 
  -54361   -54373   -54381   -54382   -54376   -54365   -54358   -54359 
  -54362   -54361   -54355   -54345   -54336   -54333   -54332   -54332 
  -54334   -54330   -54321   -54310   -54298   -54291   -54286   -54279 
  -54270   -54261   -54252   -54241   -54229   -54220   -54208   -54190 
  -54170   -54152   -54133   -54117   -54104   -54088   -54067   -54044 
  -54022   -54001   -53988   -53988   -53993   -53997   -54005   -54015 
  -54029   -54050   -54082   -54112   -54135   -54156   -54175   -54193 
  -54215   -54237   -54255   -54272   -54283   -54287   -54293   -54303 
  -54309   -54312   -54310   -54308   -54308   -54312   -54314   -54312 
  -54305   -54290   -54271   -54254   -54244   -54236   -54222   -54207 
  -54191   -54180   -54182   -54186   -54181   -54174   -54165   -54151 
  -54136   -54125   -54116   -54108   -54100   -54091   -54079   -54069 
  -54065   -54065   -54068   -54069   -54068   -54065   -54066   -54071 
  -54077   -54083   -54087   -54086   -54084   -54085   -54088   -54092 
  -54093   -54092   -54094   -54097   -54098   -54102   -54109   -54114 
  -54117   -54117   -54120   -54129   -54135   -54134   -54130   -54125 
  -54116   -54110   -54106   -54098   -54091   -54084   -54074   -54061 
  -54054   -54059   -54068   -54076   -54083   -54092   -54103   -54118 
  -54138   -54154   -54162   -54165   -54167   -54173   -54180   -54189 
  -54197   -54200   -54195   -54185   -54178   -54174   -54172   -54168 
  -54161   -54154   -54150   -54151   -54151   -54147   -54145   -54147 
  -54147   -54145   -54143   -54141   -54147   -54159   -54170   -54185 
  -54206   -54230   -54253   -54278   -54301   -54326   -54346   -54360 
  -54377   -54398   -54415   -54428   -54440   -54451   -54464   -54477 
  -54486   -54485   -54472   -54455   -54443   -54433   -54423   -54413 
  -54395   -54367   -54329   -54291   -54257   -54224   -54191   -54153 
  -54107   -54060   -54020   -53983   -53948   -53924   -53910   -53897 
  -53880   -53871   -53870   -53875   -53886   -53894   -53901   -53915 
  -53929   -53938   -53955   -53986   -54021   -54055   -54090   -54129 
  -54170   -54212   -54255   -54300   -54345   -54389   -54433   -54476 
  -54523   -54575   -54627   -54672   -54713   -54755   -54795   -54831 
  -54861   -54886   -54913   -54929   -54922   -54910   -54909   -54904 
  -54884   -54869   -54861   -54844   -54824   -54807   -54788   -54772 
