Origin Time       2013/05/24 14:47:00
Lat.              54.873
Long.             153.280
Depth. (km)       609
Mag.              8.4
Station Code      IWTH23
Station Lat.      39.2741
Station Long.     141.8233
Station Height(m) -59
Record Time       2013/05/24 14:51:15
Sampling Freq(Hz) 100Hz
Duration Time(s)  120
Dir.              2
Scale Factor      2940(gal)/6170270
Max. Acc. (gal)   0.352
Last Correction   2013/05/24 14:51:00
Memo.             
[...]
   41591    41589    41589    41590    41591    41595    41602    41613 
   41626    41639    41654    41669    41683    41701    41720    41739 
   41760    41781    41800    41819    41838    41858    41879    41898 
   41915    41934    41951    41963    41975    41989    41999    42005 
   42012    42021    42030    42035    42037    42041    42045    42043 
   42041    42037    42031    42026    42020    42016    42013    42009 
   42004    42003    42001    41998    41997    42001    42003    42006 
   42013    42021    42029    42038    42046    42055    42064    42073 
   42082    42091    42100    42105    42111    42117    42121    42124 
   42127    42129    42126    42122    42117    42110    42101    42092 
   42082    42069    42055    42039    42019    41994    41971    41950 
   41929    41906    41883    41865    41845    41825    41808    41789 
   41769    41750    41732    41715    41701    41686    41671    41658 
   41649    41641    41636    41632    41629    41632    41635    41637 
   41644    41653    41663    41677    41694    41711    41728    41748 
   41769    41788    41808    41828    41848    41870    41892    41917 
   41938    41958    41976    41990    42001    42015    42027    42037 
   42048    42057    42063    42068    42071    42071    42067    42061 
   42053    42043    42032    42023    42012    41996    41981    41967 
   41948    41927    41907    41887    41867    41848    41828    41811 
   41796    41784    41774    41767    41762    41758    41760    41767 
   41774    41784    41798    41815    41836    41858    41879    41904 
   41931    41958    41984    42009    42034    42058    42081    42102 
   42120    42137    42153    42163    42170    42176    42182    42186 
   42184    42181    42180    42175    42168    42164    42159    42150 
   42142    42134    42123    42113    42102    42091    42079    42065 
   42051    42041    42031    42018    42004    41992    41981    41967 
   41955    41946    41934    41920    41909    41898    41884    41874 
   41866    41860    41856    41850    41844    41841    41838    41833 
   41829    41828    41824    41823    41824    41823    41821    41822 
   41822    41820    41817    41812    41805    41795    41783    41766 
   41749    41731    41712    41691    41671    41653    41637    41620 
   41603    41587    41573    41563    41556    41549    41544    41543 
   41545    41549    41554    41562    41574    41585    41596    41610 
   41624    41638    41651    41666    41680    41690    41700    41711 
   41720    41731    41742    41754    41769    41786    41802    41819 
   41839    41856    41873    41892    41908    41921    41932    41940 
   41946    41952    41954    41953    41948    41939    41928    41914 
   41896    41875    41853    41828    41800    41766    41731    41698 
   41663    41626    41591    41559    41528    41499    41476    41456 
   41435    41418    41406    41396    41389    41385    41382    41384 
   41390    41399    41409    41424    41443    41463    41485    41510 
   41535    41562    41590    41615    41641    41671    41705    41740 
   41773    41804    41834    41862    41892    41919    41941    41963 
   41983    41996    42006    42017    42024    42028    42028    42026 
   42019    42007    41992    41978    41963    41946    41926    41908 
   41891    41871    41850    41828    41806    41783    41757    41733 
   41710    41685    41662    41640    41615    41592    41572    41551 
   41528    41507    41490    41476    41463    41455    41449    41448 
   41451    41453    41460    41473    41485    41500    41516    41534 
   41555    41579    41600    41621    41642    41661    41678    41692 
   41705    41713    41718    41721    41721    41717    41710    41700 
   41685    41667    41647    41623    41594    41564    41535    41506 
   41475    41445    41419    41393    41367    41346    41324    41304 
   41288    41276    41268    41263    41263    41266    41271    41280 
   41292    41306    41323    41341    41363    41386    41408    41433 
   41458    41485    41514    41539    41560    41581    41601    41617 
   41631    41642    41652    41660    41667    41673    41678    41683 
   41687    41689    41691    41692    41691    41689    41687    41680 
   41672    41664    41655    41648    41644    41638    41634    41631 
   41623    41615    41609    41600    41590    41581    41570    41560 
   41551    41546    41541    41536    41533    41532    41528    41524 
   41518    41512    41508    41506    41506    41506    41507    41511 
   41515    41519    41526    41533    41542    41554    41565    41574 
   41584    41593    41600    41608    41614    41619    41625    41627 
   41625    41624    41624    41622    41618    41616    41615    41614 
   41616    41620    41625    41630    41638    41649    41661    41673 
   41688    41704    41716    41729    41743    41754    41762    41768 
   41771    41774    41776    41775    41774    41773    41771    41770 
   41770    41770    41770    41773    41778    41782    41784    41788 
   41791    41794    41799    41803    41804    41807    41809    41812 
   41817    41824    41830    41836    41846    41857    41869    41881 
   41890    41901    41911    41918    41923    41932    41940    41947 
   41956    41968    41980    41991    42004    42015    42024    42034 
   42040    42042    42044    42042    42036    42024    42010    41994 
   41972    41947    41923    41896    41869    41844    41819    41797 
   41773    41748    41730    41716    41701    41689    41680    41671 
   41665    41664    41664    41666    41668    41674    41680    41685 
   41691    41695    41698    41700    41698    41695    41692    41687 
   41677    41664    41649    41630    41610    41589    41569    41553 
   41536    41521    41510    41503    41500    41500    41504    41511 
   41520    41530    41544    41559    41574    41592    41611    41629 
   41647    41662    41676    41688    41693    41693    41694    41693 
   41686    41675    41663    41650    41635    41619    41603    41583 
   41565    41548    41530    41514    41499    41485    41473    41465 
   41459    41455    41453    41452    41455    41461    41469    41477 
   41490    41508    41528    41549    41572    41597    41622    41649 
   41678    41704    41728    41750    41770    41790    41806    41820 
   41834    41844    41851    41858    41865    41873    41879    41884 
   41889    41896    41906    41917    41925    41935    41946    41957 
   41968    41981    41991    42002    42015    42029    42042    42053 
   42065    42076    42081    42084    42090    42093    42091    42088 
   42085    42080    42072    42064    42056    42049    42043    42036 
   42029    42025    42019    42013    42008    42005    42005    42005 
   42007    42011    42017    42025    42032    42038    42045    42053 
   42057    42060    42063    42066    42069    42072    42075    42076 
   42077    42079    42077    42072    42065    42058    42051    42042 
   42031    42022    42016    42010    42005    42000    41994    41989 
   41983    41976    41971    41967    41962    41960    41957    41953 
   41950    41946    41941    41935    41926    41916    41908    41903 
   41896    41888    41884    41879    41872    41862    41851    41839 
   41826    41809    41791    41773    41756    41738    41722    41709 
   41699    41691    41684    41679    41674    41673    41674    41677 
   41681    41686    41690    41699    41712    41723    41736    41750 
   41767    41785    41803    41824    41850    41874    41898    41922 
   41946    41973    42001    42026    42051    42079    42102    42122 
   42145    42168    42187    42204    42220    42232    42239    42243 
   42242    42237    42230    42218    42200    42181    42162    42140 
   42114    42089    42065    42038    42011    41982    41953    41925 
   41897    41869    41845    41822    41800    41780    41764    41748 
   41735    41728    41721    41717    41718    41720    41725    41735 
   41745    41758    41774    41790    41809    41833    41854    41877 
   41901    41924    41948    41971    41992    42014    42033    42046 
   42057    42064    42068    42070    42066    42054    42038    42017 
   41995    41968    41932    41894    41855    41811    41767    41724 
   41678    41633    41590    41550    41511    41475    41442    41412 
   41386    41362    41343    41329    41321    41316    41316    41320 
   41323    41330    41342    41351    41361    41374    41384    41391 
   41400    41406    41412    41418    41422    41428    41435    41443 
   41455    41465    41476    41487    41500    41515    41530    41546 
   41562    41578    41595    41610    41625    41641    41655    41665 
   41675    41687    41695    41699    41701    41702    41702    41699 
   41693    41687    41683    41677    41666    41655    41643    41628 
   41611    41592    41571    41548    41522    41498    41476    41454 
   41433    41415    41402    41387    41371    41363    41357    41352 
   41352    41352    41351    41352    41357    41363    41372    41384 
   41395    41406    41419    41431    41442    41455    41465    41472 
   41479    41485    41489    41493    41499    41505    41511    41516 
   41521    41524    41527    41528    41525    41520    41514    41508 
   41504    41504    41507    41510    41517    41526    41535    41550 
   41568    41587    41607    41630    41652    41674    41696    41716 
   41734    41753    41770    41785    41799    41811    41820    41825 
   41829    41831    41831    41828    41826    41821    41817    41817 
   41814    41810    41807    41803    41798    41793    41786    41780 
   41777    41775    41774    41775    41778    41778    41775    41771 
   41768    41758    41747    41733    41713    41692    41668    41637 
   41608    41579    41548    41516    41486    41459    41433    41411 
   41393    41382    41379    41380    41386    41399    41418    41441 
   41469    41502    41535    41572    41613    41655    41696    41736 
   41774    41808    41835    41858    41878    41893    41904    41907 
   41903    41896    41886    41869    41847    41827    41804    41780 
   41756    41734    41711    41688    41664    41643    41624    41607 
   41592    41580    41571    41563    41559    41559    41562    41567 
   41574    41583    41593    41606    41623    41639    41655    41669 
   41685    41702    41721    41740    41759    41778    41799    41823 
   41843    41860    41877    41893    41904    41913    41922    41930 
   41937    41945    41956    41965    41972    41978    41980    41985 
   41989    41991    41995    42003    42009    42014    42019    42022 
   42025    42026    42024    42022    42021    42019    42017    42014 
   42008    42002    41996    41991    41983    41975    41966    41958 
   41951    41942    41931    41921    41908    41893    41875    41856 
   41834    41810    41784    41759    41733    41710    41690    41671 
   41656    41644    41632    41625    41622    41619    41619    41623 
   41627    41632    41636    41640    41645    41651    41660    41670 
   41680    41691    41703    41717    41730    41741    41753    41766 
   41779    41790    41800    41810    41821    41833    41846    41864 
   41882    41901    41922    41942    41961    41979    41997    42015 
   42031    42046    42061    42075    42088    42099    42108    42115 
   42119    42123    42126    42125    42124    42123    42118    42108 
   42097    42086    42071    42052    42033    42015    41997    41982 
   41967    41954    41943    41934    41928    41925    41925    41925 
   41923    41921    41922    41924    41923    41920    41918    41915 
   41909    41902    41895    41885    41874    41864    41853    41842 
   41834    41826    41817    41808    41800    41791    41781    41776 
   41772    41769    41765    41762    41759    41755    41753    41751 
   41746    41739    41733    41728    41723    41715    41704    41693 
   41685    41675    41665    41659    41653    41648    41645    41644 
   41645    41647    41649    41656    41662    41662    41665    41670 
   41675    41680    41683    41685    41686    41685    41682    41677 
   41669    41662    41657    41653    41651    41652    41653    41657 
   41663    41668    41675    41685    41694    41701    41711    41723 
   41735    41746    41757    41770    41782    41794    41804    41812 
   41818    41823    41829    41836    41842    41848    41858    41867 
   41874    41882    41890    41895    41902    41911    41919    41928 
   41935    41941    41947    41953    41956    41955    41955    41954 
   41952    41947    41941    41937    41933    41929    41924    41914 
   41903    41894    41887    41878    41870    41866    41862    41856 
   41849    41841    41829    41815    41799    41787    41773    41758 
   41743    41728    41715    41706    41699    41697    41698    41701 
   41705    41714    41727    41740    41756    41776    41797    41821 
   41848    41871    41895    41924    41949    41971    41993    42013 
   42032    42049    42063    42074    42083    42091    42096    42096 
   42092    42083    42067    42046    42025    42000    41971    41938 
   41900    41855    41806    41756    41703    41647    41592    41536 
   41480    41422    41367    41317    41268    41221    41178    41139 
   41104    41075    41050    41029    41014    41000    40989    40985 
   40985    40986    40991    40996    41003    41014    41023    41033 
   41046    41057    41066    41075    41084    41090    41095    41102 
   41109    41115    41124    41135    41147    41161    41179    41198 
   41218    41239    41259    41276    41295    41313    41329    41348 
   41367    41384    41401    41416    41432    41449    41465    41481 
   41500    41520    41535    41550    41571    41594    41612    41626 
   41639    41650    41657    41661    41662    41661    41659    41652 
   41643    41634    41625    41615    41606    41599    41593    41587 
   41582    41580    41581    41585    41590    41599    41611    41626 
   41642    41659    41676    41694    41708    41718    41729    41741 
   41749    41756    41759    41758    41756    41752    41742    41732 
   41720    41705    41692    41677    41660    41644    41625    41603 
   41584    41563    41541    41521    41503    41487    41473    41462 
   41453    41443    41433    41426    41422    41417    41412    41407 
   41404    41404    41402    41399    41400    41402    41405    41414 
   41425    41435    41448    41461    41472    41488    41506    41522 
   41542    41562    41582    41602    41618    41632    41647    41658 
   41666    41673    41678    41678    41677    41676    41669    41661 
   41651    41637    41621    41606    41589    41569    41548    41526 
   41507    41487    41467    41449    41431    41414    41399    41385 
   41374    41367    41358    41357    41360    41363    41372    41386 
   41402    41421    41447    41472    41491    41509    41526    41534 
   41539    41542    41539    41532    41527    41522    41514    41503 
   41492    41480    41468    41453    41436    41422    41410    41399 
   41389    41378    41370    41364    41356    41354    41358    41363 
   41372    41387    41404    41424    41450    41478    41504    41530 
   41557    41584    41612    41638    41663    41688    41710    41728 
   41744    41755    41761    41765    41764    41759    41753    41745 
   41736    41726    41714    41702    41688    41671    41652    41630 
   41608    41588    41568    41551    41536    41522    41509    41496 
   41481    41466    41450    41433    41419    41410    41403    41399 
   41401    41408    41422    41439    41460    41488    41519    41553 
   41593    41636    41679    41724    41770    41815    41857    41897 
   41939    41979    42012    42040    42065    42086    42101    42109 
   42114    42114    42106    42094    42081    42060    42034    42007 
   41975    41940    41905    41867    41827    41790    41752    41714 
   41681    41647    41613    41583    41556    41532    41513    41499 
   41488    41480    41475    41472    41471    41472    41475    41479 
   41484    41488    41493    41498    41505    41511    41517    41520 
   41523    41525    41523    41519    41517    41513    41508    41503 
   41496    41492    41487    41483    41486    41491    41498    41509 
   41525    41542    41559    41576    41594    41612    41629    41646 
   41661    41674    41685    41695    41703    41708    41711    41711 
   41711    41710    41707    41705    41706    41705    41706    41714 
   41724    41734    41746    41764    41783    41801    41823    41847 
   41870    41891    41912    41932    41951    41966    41980    41990 
   41998    42004    42008    42011    42014    42015    42017    42018 
   42016    42014    42011    42010    42011    42013    42017    42025 
   42037    42051    42068    42088    42110    42132    42157    42184 
   42208    42227    42246    42262    42273    42283    42289    42290 
   42289    42282    42270    42257    42240    42220    42203    42187 
   42171    42154    42137    42121    42106    42091    42079    42068 
   42056    42047    42041    42033    42025    42017    42010    42002 
   41991    41984    41977    41968    41964    41962    41959    41956 
   41955    41956    41957    41960    41968    41978    41988    42002 
   42021    42044    42070    42098    42127    42155    42185    42217 
   42246    42275    42304    42333    42359    42381    42401    42417 
   42428    42433    42433    42429    42417    42399    42377    42350 
   42318    42287    42254    42217    42178    42137    42096    42055 
   42009    41961    41916    41871    41827    41786    41747    41712 
   41681    41656    41633    41611    41594    41582    41569    41558 
   41554    41552    41550    41556    41569    41581    41599    41623 
   41648    41676    41710    41746    41785    41828    41871    41912 
   41954    41993    42026    42054    42076    42093    42103    42104 
   42100    42090    42074    42055    42034    42009    41983    41957 
   41932    41908    41886    41865    41843    41825    41807    41787 
   41770    41754    41736    41720    41707    41694    41683    41675 
   41668    41664    41663    41665    41671    41679    41689    41701 
   41713    41727    41742    41759    41776    41789    41801    41816 
   41828    41840    41852    41861    41866    41867    41867    41866 
   41866    41864    41861    41853    41842    41832    41819    41805 
   41790    41771    41750    41732    41711    41688    41668    41648 
   41627    41608    41590    41570    41552    41537    41523    41506 
   41489    41472    41455    41441    41433    41426    41421    41424 
   41432    41444    41461    41485    41514    41545    41579    41617 
   41657    41696    41738    41778    41814    41848    41883    41913 
   41940    41965    41988    42011    42029    42042    42054    42061 
   42063    42066    42067    42064    42060    42058    42058    42058 
   42059    42063    42066    42070    42076    42081    42087    42096 
   42103    42105    42105    42105    42103    42099    42092    42083 
   42072    42060    42046    42030    42014    41999    41983    41966 
