Origin Time       2013/05/24 14:47:00
Lat.              54.873
Long.             153.280
Depth. (km)       609
Mag.              8.4
Station Code      IWTH23
Station Lat.      39.2741
Station Long.     141.8233
Station Height(m) -59
Record Time       2013/05/24 14:51:15
Sampling Freq(Hz) 100Hz
Duration Time(s)  120
Dir.              3
Scale Factor      2940(gal)/6170270
Max. Acc. (gal)   0.216
Last Correction   2013/05/24 14:51:00
Memo.             
[...]
   38653    38630    38609    38586    38563    38546    38531    38517 
   38506    38501    38497    38492    38492    38495    38495    38492 
   38492    38494    38490    38485    38483    38480    38473    38469 
   38466    38466    38469    38472    38480    38491    38505    38523 
   38540    38556    38578    38598    38617    38637    38653    38666 
   38679    38690    38699    38707    38714    38719    38720    38720 
   38721    38720    38717    38714    38708    38698    38689    38677 
   38662    38646    38629    38610    38588    38564    38538    38512 
   38486    38462    38441    38417    38394    38377    38363    38347 
   38333    38322    38312    38303    38299    38299    38300    38304 
   38311    38321    38335    38352    38369    38385    38404    38421 
   38437    38454    38471    38486    38499    38511    38522    38533 
   38539    38546    38553    38557    38561    38562    38561    38558 
   38555    38552    38549    38545    38540    38538    38537    38531 
   38526    38525    38522    38514    38507    38503    38497    38494 
   38492    38491    38493    38499    38506    38513    38522    38535 
   38549    38566    38582    38594    38607    38620    38631    38644 
   38654    38660    38665    38668    38669    38665    38660    38655 
   38645    38634    38620    38603    38584    38566    38547    38530 
   38516    38501    38488    38478    38467    38458    38451    38441 
   38430    38420    38408    38394    38381    38369    38358    38345 
   38329    38318    38310    38301    38294    38290    38286    38287 
   38291    38295    38304    38311    38317    38328    38339    38346 
   38351    38356    38362    38363    38363    38365    38365    38361 
   38360    38359    38358    38356    38354    38354    38353    38353 
   38351    38348    38346    38347    38345    38341    38341    38347 
   38352    38359    38370    38378    38388    38407    38425    38439 
   38454    38471    38490    38505    38519    38534    38549    38563 
   38576    38585    38594    38602    38608    38618    38626    38627 
   38631    38633    38631    38630    38626    38621    38617    38612 
   38605    38602    38601    38602    38604    38607    38612    38619 
   38626    38634    38646    38654    38662    38674    38685    38695 
   38708    38717    38726    38741    38755    38762    38770    38780 
   38790    38797    38804    38812    38820    38827    38834    38841 
   38848    38855    38862    38868    38874    38881    38888    38895 
   38903    38906    38907    38911    38910    38901    38893    38884 
   38868    38851    38834    38812    38788    38767    38745    38724 
   38707    38691    38677    38668    38659    38651    38643    38635 
   38629    38621    38612    38602    38589    38579    38570    38556 
   38541    38526    38510    38498    38489    38477    38465    38458 
   38453    38451    38448    38447    38451    38453    38453    38458 
   38461    38464    38470    38473    38477    38482    38486    38490 
   38493    38496    38497    38496    38494    38489    38483    38478 
   38473    38467    38460    38453    38445    38438    38431    38422 
   38412    38404    38389    38370    38357    38340    38320    38306 
   38292    38275    38261    38252    38243    38240    38243    38247 
   38254    38265    38279    38296    38314    38333    38353    38376 
   38402    38428    38452    38477    38501    38522    38544    38567 
   38587    38606    38627    38649    38672    38689    38704    38719 
   38731    38741    38746    38746    38746    38748    38743    38737 
   38733    38726    38718    38710    38702    38697    38695    38691 
   38687    38684    38681    38683    38687    38687    38689    38694 
   38695    38696    38700    38701    38699    38697    38698    38700 
   38702    38710    38719    38728    38740    38755    38775    38795 
   38813    38834    38856    38874    38893    38915    38933    38947 
   38966    38984    38999    39015    39027    39037    39047    39054 
   39056    39059    39060    39055    39048    39039    39028    39013 
   38994    38972    38949    38922    38891    38858    38822    38780 
   38737    38695    38650    38603    38560    38520    38479    38442 
   38411    38384    38358    38337    38324    38311    38300    38295 
   38295    38296    38304    38315    38327    38342    38359    38378 
   38398    38421    38447    38472    38501    38530    38552    38575 
   38605    38634    38656    38678    38702    38726    38745    38760 
   38774    38786    38795    38803    38809    38810    38810    38808 
   38802    38794    38787    38779    38770    38764    38759    38751 
   38745    38741    38734    38727    38722    38713    38700    38688 
   38674    38659    38643    38624    38603    38584    38567    38548 
   38532    38521    38512    38504    38501    38502    38506    38512 
   38521    38534    38550    38566    38583    38604    38626    38646 
   38669    38692    38716    38741    38764    38786    38807    38826 
   38843    38856    38866    38874    38884    38891    38893    38896 
   38900    38902    38906    38910    38915    38922    38932    38944 
   38955    38965    38979    38994    39007    39016    39022    39028 
   39028    39024    39022    39018    39010    39001    38994    38987 
   38976    38964    38952    38938    38919    38896    38871    38848 
   38819    38786    38755    38725    38694    38660    38628    38599 
   38570    38542    38519    38497    38479    38467    38460    38457 
   38458    38463    38470    38480    38492    38503    38514    38523 
   38528    38530    38535    38539    38537    38536    38536    38528 
   38521    38516    38508    38498    38491    38483    38475    38469 
   38464    38456    38449    38448    38442    38436    38437    38437 
   38436    38440    38445    38450    38459    38466    38472    38481 
   38491    38501    38509    38516    38526    38537    38544    38549 
   38556    38564    38568    38569    38571    38569    38570    38571 
   38569    38567    38567    38567    38569    38571    38573    38573 
   38573    38574    38573    38571    38570    38565    38560    38557 
   38551    38544    38540    38536    38533    38530    38528    38529 
   38529    38527    38527    38527    38525    38521    38518    38517 
   38515    38513    38515    38519    38523    38530    38542    38556 
   38575    38600    38625    38650    38679    38710    38736    38761 
   38786    38807    38823    38838    38849    38856    38861    38866 
   38867    38863    38856    38849    38840    38828    38817    38806 
   38793    38776    38762    38752    38739    38727    38719    38711 
   38701    38692    38684    38675    38664    38653    38643    38635 
   38626    38617    38609    38604    38597    38590    38586    38583 
   38580    38574    38568    38564    38564    38566    38570    38576 
   38584    38596    38610    38623    38636    38653    38669    38682 
   38698    38710    38715    38720    38724    38722    38720    38716 
   38708    38697    38685    38672    38658    38645    38632    38618 
   38602    38589    38576    38561    38544    38530    38519    38507 
   38492    38481    38473    38464    38453    38445    38441    38438 
   38439    38444    38450    38460    38473    38490    38516    38542 
   38567    38594    38624    38658    38689    38719    38751    38780 
   38805    38833    38861    38884    38904    38918    38932    38943 
   38945    38946    38945    38935    38921    38908    38896    38880 
   38866    38854    38842    38831    38822    38809    38796    38787 
   38777    38769    38762    38752    38741    38734    38726    38718 
   38718    38720    38719    38720    38723    38724    38722    38724 
   38725    38720    38715    38709    38700    38695    38692    38687 
   38686    38688    38688    38690    38698    38704    38711    38721 
   38727    38731    38736    38739    38740    38743    38744    38741 
   38739    38735    38729    38724    38714    38702    38694    38685 
   38674    38669    38668    38667    38669    38675    38683    38693 
   38705    38719    38734    38750    38765    38781    38796    38815 
   38838    38859    38877    38897    38918    38938    38959    38977 
   38996    39016    39032    39046    39059    39067    39070    39073 
   39075    39071    39062    39049    39033    39016    38997    38975 
   38950    38926    38906    38889    38871    38855    38845    38841 
   38837    38835    38836    38837    38836    38835    38835    38837 
   38837    38838    38842    38844    38847    38851    38853    38859 
   38863    38864    38868    38871    38871    38872    38875    38880 
   38882    38883    38885    38885    38883    38882    38878    38869 
   38863    38855    38840    38826    38817    38804    38788    38774 
   38758    38743    38730    38718    38708    38702    38700    38699 
   38701    38710    38720    38730    38744    38763    38783    38799 
   38816    38833    38847    38864    38882    38896    38909    38920 
   38929    38935    38941    38944    38945    38946    38945    38944 
   38944    38940    38935    38934    38930    38921    38911    38898 
   38882    38869    38857    38842    38827    38813    38800    38788 
   38778    38770    38762    38755    38752    38749    38742    38736 
   38731    38727    38719    38710    38704    38697    38688    38683 
   38678    38673    38670    38669    38665    38661    38659    38657 
   38655    38655    38656    38658    38664    38669    38674    38682 
   38689    38695    38703    38710    38718    38729    38742    38755 
   38766    38778    38793    38807    38816    38827    38841    38851 
   38857    38863    38869    38876    38883    38886    38889    38893 
   38900    38907    38911    38915    38917    38919    38922    38921 
   38921    38922    38917    38913    38910    38903    38898    38894 
   38890    38888    38886    38883    38883    38887    38892    38895 
   38899    38905    38908    38909    38908    38908    38908    38903 
   38895    38888    38879    38871    38865    38855    38847    38841 
   38837    38834    38830    38828    38829    38833    38836    38841 
   38852    38864    38874    38888    38903    38913    38924    38937 
   38946    38949    38949    38945    38936    38923    38909    38892 
   38869    38845    38823    38802    38781    38760    38746    38737 
   38728    38723    38725    38728    38731    38736    38741    38748 
   38754    38760    38766    38766    38765    38766    38764    38760 
   38758    38753    38749    38746    38742    38736    38732    38726 
   38722    38721    38719    38716    38715    38713    38710    38708 
   38706    38705    38701    38695    38692    38690    38680    38668 
   38659    38651    38638    38623    38608    38588    38567    38548 
   38528    38509    38488    38466    38447    38435    38422    38408 
   38399    38394    38388    38383    38381    38379    38378    38379 
   38378    38378    38377    38375    38373    38370    38365    38359 
   38352    38343    38333    38324    38316    38308    38301    38298 
   38295    38294    38297    38306    38317    38325    38335    38351 
   38365    38378    38395    38411    38429    38451    38475    38502 
   38531    38563    38598    38633    38671    38711    38746    38779 
   38813    38843    38866    38884    38900    38911    38917    38916 
   38912    38907    38896    38882    38867    38852    38836    38819 
   38802    38787    38771    38755    38739    38723    38707    38687 
   38668    38652    38636    38619    38605    38596    38590    38586 
   38587    38594    38601    38608    38619    38631    38644    38658 
   38670    38681    38695    38709    38720    38733    38744    38752 
   38762    38773    38780    38786    38792    38798    38802    38803 
   38804    38804    38803    38799    38791    38781    38767    38751 
   38733    38711    38687    38663    38639    38615    38593    38569 
   38544    38522    38502    38485    38472    38458    38448    38444 
   38442    38442    38448    38458    38468    38482    38497    38511 
   38527    38543    38555    38568    38579    38589    38600    38606 
   38614    38625    38633    38640    38648    38659    38669    38676 
   38679    38683    38685    38684    38677    38668    38658    38644 
   38628    38611    38593    38574    38555    38537    38520    38501 
   38484    38469    38455    38442    38431    38424    38419    38418 
   38421    38425    38431    38440    38448    38458    38469    38477 
   38487    38497    38503    38511    38523    38533    38539    38548 
   38556    38561    38567    38576    38580    38582    38587    38593 
   38598    38601    38604    38609    38614    38616    38619    38624 
   38627    38630    38637    38644    38648    38653    38662    38673 
   38683    38691    38699    38708    38717    38723    38733    38742 
   38748    38757    38766    38772    38781    38789    38796    38803 
   38811    38820    38830    38838    38844    38847    38848    38851 
   38852    38847    38841    38835    38824    38812    38800    38786 
   38772    38760    38747    38737    38729    38723    38723    38728 
   38733    38740    38755    38774    38795    38820    38850    38881 
   38910    38940    38971    39000    39024    39050    39076    39094 
   39108    39118    39124    39126    39125    39118    39106    39091 
   39074    39059    39040    39013    38985    38959    38931    38902 
   38876    38852    38835    38824    38809    38796    38790    38791 
   38792    38797    38803    38810    38818    38826    38832    38840 
   38847    38850    38850    38850    38851    38848    38843    38841 
   38836    38826    38820    38812    38798    38785    38769    38751 
   38735    38716    38698    38683    38666    38648    38632    38621 
   38613    38602    38593    38590    38588    38589    38591    38596 
   38608    38622    38638    38656    38674    38694    38713    38732 
   38751    38767    38782    38795    38805    38813    38816    38816 
   38811    38803    38791    38777    38760    38741    38722    38704 
   38685    38666    38649    38632    38612    38592    38574    38553 
   38527    38505    38482    38458    38431    38405    38382    38359 
   38338    38320    38306    38299    38296    38297    38306    38318 
   38337    38360    38385    38416    38449    38483    38522    38563 
   38605    38648    38689    38730    38771    38808    38837    38863 
   38886    38901    38910    38917    38916    38909    38897    38877 
   38853    38824    38791    38756    38720    38681    38642    38604 
   38568    38535    38503    38474    38449    38427    38411    38396 
   38384    38377    38372    38369    38367    38365    38368    38371 
   38372    38373    38374    38373    38372    38370    38367    38366 
   38364    38360    38357    38356    38355    38354    38354    38357 
   38362    38368    38377    38390    38408    38428    38449    38471 
   38494    38518    38544    38566    38580    38596    38613    38620 
   38626    38632    38633    38633    38634    38635    38637    38637 
   38638    38646    38655    38660    38669    38680    38688    38695 
   38705    38714    38721    38730    38742    38752    38766    38781 
   38794    38808    38824    38838    38852    38864    38870    38874 
   38876    38878    38876    38869    38859    38850    38840    38827 
   38813    38800    38787    38773    38759    38747    38732    38717 
   38702    38685    38668    38650    38631    38610    38588    38567 
   38548    38526    38507    38492    38478    38467    38459    38454 
   38452    38450    38446    38448    38453    38453    38454    38459 
   38463    38469    38480    38492    38506    38523    38538    38555 
   38578    38604    38630    38657    38687    38719    38752    38783 
   38814    38846    38874    38898    38920    38937    38952    38962 
   38968    38972    38970    38963    38953    38937    38917    38897 
   38877    38857    38836    38816    38797    38778    38760    38744 
   38725    38707    38688    38672    38656    38641    38628    38618 
   38608    38600    38596    38591    38584    38583    38580    38574 
   38568    38559    38549    38540    38530    38519    38508    38500 
   38497    38493    38490    38494    38500    38511    38525    38538 
   38554    38574    38591    38604    38616    38627    38635    38641 
   38645    38649    38657    38664    38671    38682    38694    38707 
   38720    38735    38749    38762    38774    38785    38798    38806 
   38812    38816    38819    38819    38814    38807    38798    38787 
   38774    38763    38753    38742    38731    38720    38710    38703 
   38697    38689    38686    38687    38691    38696    38705    38716 
   38729    38748    38769    38786    38803    38824    38842    38856 
   38872    38884    38891    38897    38901    38904    38905    38901 
   38895    38885    38871    38857    38839    38819    38800    38780 
   38755    38733    38716    38699    38681    38667    38654    38642 
   38633    38624    38616    38613    38614    38617    38620    38624 
   38628    38636    38646    38653    38660    38667    38671    38672 
   38670    38668    38663    38654    38642    38629    38613    38594 
   38574    38555    38532    38510    38489    38468    38449    38434 
   38422    38413    38408    38407    38408    38411    38415    38420 
   38426    38430    38436    38437    38434    38431    38425    38419 
   38413    38405    38398    38390    38382    38379    38381    38384 
   38389    38396    38407    38419    38431    38445    38460    38477 
   38497    38516    38534    38556    38580    38606    38632    38660 
   38685    38703    38721    38738    38747    38754    38760    38757 
   38751    38749    38741    38727    38714    38704    38693    38682 
   38673    38665    38656    38650    38648    38649    38652    38656 
   38661    38664    38668    38676    38685    38691    38700    38710 
   38718    38727    38731    38732    38732    38731    38727    38722 
   38719    38718    38720    38723    38728    38736    38745    38756 
   38767    38780    38791    38800    38805    38806    38809    38810 
   38805    38799    38794    38788    38785    38782    38780    38780 
   38782    38787    38798    38809    38817    38830    38843    38850 
   38857    38865    38870    38873    38877    38880    38879    38878 
   38878    38880    38881    38881    38879    38876    38874    38869 
   38859    38848    38834    38813    38790    38771    38753    38727 
   38701    38685    38671    38659    38654    38653    38656    38665 
   38677    38692    38706    38721    38738    38754    38769    38784 
   38792    38798    38802    38801    38797    38791    38783    38774 
   38763    38752    38742    38731    38721    38711    38703    38699 
   38693    38686    38687    38688    38683    38682    38681    38677 
   38673    38670    38665    38658    38652    38646    38633    38621 
   38613    38604    38597    38591    38583    38576    38574    38577 
   38584    38594    38603    38613    38625    38637    38649    38658 
