Origin Time       2015/05/30 20:24:00
Lat.              27.860
Long.             140.682
Depth. (km)       682
Mag.              8.1
Station Code      SIG012
Station Lat.      34.9043
Station Long.     136.2307
Station Height(m) 230
Record Time       2015/05/30 20:26:52
Sampling Freq(Hz) 100Hz
Duration Time(s)  60
Dir.              E-W
Scale Factor      7845(gal)/8223790
Max. Acc. (gal)   1.241
Last Correction   2015/05/30 20:26:53
Memo.             
[...]
      91      117      129      131      152      170      167      174 
     194      201      195      210      237      234      222      245 
     263      249      265      298      284      278      306      302 
     284      297      294      284      295      282      257      275 
     279      248      241      255      243      225      241      253 
     241      248      270      265      256      275      283      272 
     275      280      276      271      256      253      272      266 
     248      257      271      263      271      280      272      265 
     263      255      238      218      211      209      186      168 
     176      178      168      159      144      148      151      124 
     118      147      135      112      129      135      117      131 
     144      125      124      143      137      129      143      153 
     159      178      194      195      211      233      230      237 
     266      266      259      291      302      270      274      299 
     278      255      256      237      221      221      194      167 
     170      152      129      133      121      106      109       94 
      79       82       87       83       72       65       76       86 
      74       74       83       79       81       87       94      112 
     120      116      126      143      160      194      216      218 
     241      271      282      284      294      310      318      313 
     310      313      309      306      305      284      261      255 
     234      207      197      164      126      118       99       64 
      59       51       18       16       22        0        2       29 
      29       22       36       51       52       45       56       78 
      82       81       89       93       94      105      103       98 
     108      114      112      116      124      128      133      141 
     147      149      162      190      203      205      230      244 
     244      274      298      302      333      364      369      396 
     430      442      464      477      472      484      483      451 
     436      421      379      342      318      288      259      232 
     207      191      174      151      137      125      112      109 
     102       95       90       72       65       72       58       36 
      35       23        1       -5      -17      -47      -56      -49 
     -55      -62      -55      -47      -40      -28      -22      -14 
      -1        9       11       11       21       20       11       20 
      32       39       58       76       76       83      108      120 
     121      133      147      155      162      178      198      205 
     221      248      259      278      313      336      357      392 
     406      409      433      446      445      451      457      449 
     437      423      409      395      369      348      346      330 
     306      298      279      256      243      222      202      194 
     178      162      162      152      131      125      116      101 
     105      108      101      102       99       91       97      101 
      99      106      103       95      109      110       90       91 
      97       85       86       93       83       78       75       64 
      65       75       79       85       91      101      112      118 
     129      149      157      166      187      195      193      209 
     225      222      237      266      283      303      340      356 
     360      387      410      406      421      448      444      449 
     472      461      449      468      461      438      450      456 
     440      442      442      423      413      402      379      365 
     355      329      302      272      228      180      151      122 
      82       44       13      -13      -32      -49      -76     -110 
    -125     -128     -144     -162     -178     -207     -222     -229 
    -249     -259     -253     -270     -286     -259     -243     -245 
    -214     -180     -168     -131      -83      -67      -44       -8 
      10       35       74      101      122      155      186      210 
     234      265      291      307      325      344      355      367 
     387      383      373      379      375      363      367      368 
     351      337      328      309      309      317      298      298 
     325      309      286      315      329      307      315      324 
     309      322      322      294      302      306      261      245 
     265      251      234      245      234      216      220      224 
     217      221      225      218      218      229      225      225 
     228      229      243      251      243      243      256      263 
     257      256      261      259      241      232      241      229 
     205      207      205      190      191      190      174      160 
     139      110      103       93       55       37       47       21 
     -25      -29      -28      -59      -76      -79      -97      -97 
     -89     -110     -114      -95     -108     -116      -93      -85 
     -81      -60      -49      -35        0       32       54       81 
     125      156      168      202      237      240      248      272 
     268      265      275      252      237      251      233      211 
     228      224      194      191      197      174      156      159 
     155      143      135      125      114      112      106      101 
     106      114      112      122      131      135      149      168 
     171      178      201      217      220      225      252      275 
     271      284      322      330      333      356      355      344 
     352      341      325      333      315      282      286      279 
     225      195      194      153      112       99       64       27 
      18      -14      -60      -63      -68     -108     -131     -137 
    -155     -174     -182     -201     -207     -194     -198     -214 
    -198     -175     -190     -201     -182     -180     -201     -189 
    -170     -182     -182     -166     -174     -168     -144     -148 
    -144     -114     -114     -126     -102      -95     -114     -101 
     -72      -86      -95      -75      -74      -83      -76      -78 
     -83      -65      -59      -75      -71      -59      -63      -59 
     -47      -43      -25        0       13       23       49       81 
      94      114      160      191      197      234      282      288 
     303      340      351      363      394      403      414      450 
     454      441      467      490      480      493      515      500 
     502      521      490      456      473      464      421      411 
     406      375      364      367      351      342      353      349 
     337      340      342      330      319      324      319      307 
     317      322      303      313      329      297      286      319 
     301      265      282      274      232      224      209      176 
     178      174      141      143      159      139      125      140 
     122       94      108      112       87       83       86       67 
      65       78       68       70       86       81       74       79 
      75       68       71       78       74       71       82       87 
      87      103      116      114      139      178      182      190 
     236      261      263      294      314      321      351      365 
     355      386      414      375      368      423      417      379 
     414      436      403      399      410      392      398      409 
     376      364      383      363      333      341      322      282 
     286      289      259      244      252      238      216      214 
     216      198      195      210      202      183      197      210 
     203      217      244      257      278      303      310      319 
     336      330      326      344      342      321      326      334 
     321      318      329      321      313      310      291      271 
     257      232      203      186      164      137      120      105 
      78       59       58       45       25       28       32       17 
      17       25       16       13       17       11       18       32 
      36       45       70       78       74       89      116      120 
     116      139      159      152      159      182      186      194 
     222      230      233      263      287      287      302      322 
     332      353      375      383      405      430      433      445 
     471      469      460      479      487      469      464      473 
     469      457      463      472      467      451      440      427 
     413      388      361      346      330      307      295      291 
     280      274      283      288      286      291      305      309 
     309      314      319      317      318      328      336      333 
     324      317      310      297      274      248      233      207 
     168      144      122       78       49       27      -13      -47 
     -70     -103     -133     -153     -174     -187     -199     -220 
    -234     -240     -255     -278     -283     -283     -295     -299 
    -292     -288     -284     -280     -274     -261     -255     -252 
    -244     -233     -224     -216     -207     -199     -183     -162 
    -156     -148     -121      -95      -71      -45      -36      -18 
      11       31       37       58       83      105      129      159 
     180      198      220      243      259      283      319      349 
     369      396      433      464      491      519      553      583 
     606      634      658      672      695      712      724      746 
     757      749      753      758      745      734      726      708 
     693      681      656      630      616      596      558      525 
     510      493      469      448      430      411      392      372 
     356      349      344      332      322      319      311      295 
     278      259      244      224      195      174      157      129 
     102       72       32        5       -2      -22      -54      -71 
     -78      -97     -121     -133     -141     -155     -167     -180 
    -190     -197     -211     -233     -245     -249     -259     -282 
    -299     -311     -328     -338     -346     -360     -367     -360 
    -359     -364     -360     -344     -337     -342     -333     -315 
    -311     -305     -289     -282     -268     -246     -230     -212 
    -191     -178     -174     -159     -149     -148     -140     -135 
    -137     -128     -106      -94      -82      -63      -45      -27 
      -5       17       41       68       94      116      139      166 
     194      225      265      307      338      372      422      464 
     499      538      573      610      654      684      707      743 
     778      801      818      841      864      882      889      893 
     903      915      913      907      903      897      893      886 
     869      855      849      835      814      792      778      770 
     749      723      706      685      660      643      627      608 
     596      577      549      533      525      495      464      444 
     422      395      367      344      321      292      261      228 
     199      183      156      118       91       63       32       17 
       1      -20      -31      -40      -56      -68      -75      -85 
     -95     -109     -120     -131     -155     -170     -178     -199 
    -218     -225     -240     -251     -257     -279     -289     -283 
    -288     -298     -297     -301     -309     -313     -322     -329 
    -325     -322     -328     -330     -325     -311     -305     -305 
    -301     -283     -256     -237     -218     -187     -157     -131 
     -97      -59      -32       -4       40       78      105      144 
     193      222      244      286      334      368      395      433 
     473      506      538      566      588      610      627      646 
     672      687      688      702      718      715      718      728 
     723      710      712      706      676      657      645      621 
     591      565      533      503      464      425      388      348 
     299      255      217      176      131       91       59       22 
     -13      -43      -67      -93     -118     -135     -151     -176 
    -190     -191     -203     -222     -237     -248     -256     -268 
    -282     -288     -302     -321     -325     -330     -351     -365 
    -364     -363     -367     -370     -360     -351     -344     -329 
    -309     -292     -270     -245     -220     -191     -168     -144 
    -110      -85      -74      -54      -22       -2       14       43 
      75       99      124      153      182      209      244      279 
     307      344      390      433      477      517      552      592 
     629      652      675      702      722      728      739      754 
     757      757      764      762      750      747      754      751 
     741      743      756      762      761      769      781      785 
     784      789      791      785      780      774      769      750 
     728      722      711      675      646      631      602      560 
     518      477      436      383      326      283      232      166 
     114       72       16      -45      -90     -135     -194     -249 
    -291     -340     -400     -454     -499     -552     -607     -653 
    -699     -753     -805     -846     -886     -935     -978    -1005 
   -1030    -1065    -1092    -1101    -1107    -1117    -1123    -1116 
   -1107    -1107    -1094    -1074    -1060    -1043    -1016     -986 
    -962     -936     -903     -866     -834     -811     -781     -746 
    -715     -688     -653     -614     -589     -568     -533     -503 
    -484     -459     -423     -392     -367     -334     -295     -259 
    -225     -186     -140     -102      -63      -16       29       71 
     117      167      220      271      313      357      403      448 
     488      529      566      600      637      676      715      754 
     796      838      877      915      955      992     1023     1053 
    1088     1124     1147     1170     1204     1227     1237     1255 
    1278     1286     1282     1282     1282     1269     1251     1240 
    1227     1205     1182     1163     1152     1136     1107     1081 
    1065     1035     1000      981      955      919      892      866 
     827      787      754      720      681      639      599      558 
     515      475      438      399      360      321      286      253 
     220      186      155      125       90       60       37        8 
     -31      -60      -81     -108     -141     -164     -178     -199 
    -224     -237     -244     -251     -259     -263     -263     -265 
    -263     -249     -234     -228     -211     -184     -162     -143 
    -117      -86      -56      -29        0       32       62       89 
     118      151      178      203      233      265      291      311 
     340      365      378      394      419      436      444      463 
     488      508      523      545      575      595      615      645 
     680      708      735      769      810      842      870      903 
     938      957      972      989     1005     1011     1012     1015 
    1012     1000     1000      996      977      962      955      946 
     931      913      896      881      864      846      832      823 
     801      777      765      753      730      710      696      687 
     670      653      634      612      591      571      549      526 
     498      463      427      396      364      330      299      266 
     230      202      180      148      110       79       47       13 
     -14      -43      -76     -102     -125     -152     -178     -197 
    -218     -238     -259     -279     -288     -294     -306     -317 
    -315     -309     -314     -324     -317     -309     -311     -307 
    -298     -295     -286     -268     -256     -243     -225     -211 
    -195     -170     -144     -126     -112      -99      -89      -78 
     -64      -54      -47      -35      -13       -2        9       32 
      55       65       82       97      110      124      129      133 
     140      149      159      168      180      194      201      210 
     228      236      240      249      256      263      275      289 
     298      303      314      328      344      360      369      387 
     411      425      440      457      479      493      500      511 
     523      526      526      531      535      535      535      532 
     523      514      506      499      483      467      456      444 
     430      421      411      406      399      383      368      363 
     353      337      324      313      301      287      280      278 
     270      263      266      263      255      255      259      252 
     244      248      251      246      246      248      253      259 
     263      265      275      287      291      294      309      319 
     326      340      351      355      361      368      365      357 
     355      351      338      324      309      297      288      279 
     261      246      244      238      224      218      220      212 
     197      183      171      156      137      112       91       72 
      56       35       10       -5      -16      -32      -49      -63 
     -74      -82      -93     -109     -120     -121     -125     -133 
    -139     -133     -121     -112     -110     -105      -97      -90 
     -83      -71      -65      -64      -60      -54      -51      -45 
     -39      -35      -35      -32      -29      -31      -32      -32 
     -29      -23      -21      -21      -20      -17      -14      -16 
     -20      -22      -28      -32      -39      -47      -59      -65 
     -72      -81      -91     -106     -118     -133     -152     -174 
    -194     -222     -252     -280     -311     -344     -370     -399 
    -429     -454     -475     -487     -500     -518     -525     -519 
    -517     -518     -514     -500     -481     -467     -446     -417 
    -392     -375     -357     -336     -314     -291     -268     -255 
    -241     -220     -203     -190     -172     -156     -143     -125 
    -105      -85      -60      -28       -2       20       52       90 
     126      162      191      222      261      295      318      342 
     373      395      415      437      454      468      481      491 
     496      498      499      502      498      491      486      483 
     480      475      472      471      467      463      453      442 
     436      432      425      418      413      409      402      399 
     395      388      382      375      367      359      351      342 
     332      319      310      301      288      268      248      228 
     206      184      162      137      116       95       72       52 
      43       36       25       20       21       21       22       28 
      36       39       43       47       55       60       63       70 
      81       90       94       99      108      112      114      122 
     129      135      140      144      143      139      137      136 
     133      128      121      112      108      103      101       98 
      94       95       97       99      103      106      108      110 
