Origin Time       2015/05/30 20:24:00
Lat.              27.860
Long.             140.682
Depth. (km)       682
Mag.              8.1
Station Code      SIG012
Station Lat.      34.9043
Station Long.     136.2307
Station Height(m) 230
Record Time       2015/05/30 20:26:52
Sampling Freq(Hz) 100Hz
Duration Time(s)  60
Dir.              U-D
Scale Factor      7845(gal)/8223790
Max. Acc. (gal)   0.333
Last Correction   2015/05/30 20:26:53
Memo.             
[...]
   27109    27097    27090    27124    27124    27109    27125    27121 
   27098    27099    27094    27067    27059    27067    27064    27047 
   27043    27055    27040    27017    27029    27022    26997    27020 
   27018    26978    27001    27014    26959    26964    27000    26981 
   26983    27017    27018    27029    27059    27058    27055    27079 
   27093    27087    27103    27129    27133    27141    27166    27174 
   27174    27191    27197    27194    27213    27228    27229    27241 
   27241    27232    27234    27229    27220    27216    27207    27202 
   27201    27195    27193    27189    27177    27183    27179    27163 
   27172    27175    27148    27148    27156    27126    27108    27110 
   27091    27074    27079    27059    27037    27052    27035    26989 
   27000    27012    26967    26955    26987    26970    26943    26963 
   26963    26941    26956    26954    26932    26955    26968    26941 
   26948    26959    26936    26924    26929    26913    26900    26904 
   26901    26886    26873    26873    26866    26836    26827    26838 
   26827    26817    26825    26815    26800    26801    26793    26779 
   26788    26798    26790    26793    26812    26811    26806    26823 
   26829    26821    26832    26843    26838    26850    26870    26875 
   26889    26912    26928    26948    26974    26993    27009    27032 
   27052    27068    27086    27099    27109    27125    27139    27143 
   27152    27162    27168    27177    27180    27177    27190    27202 
   27201    27216    27238    27243    27252    27275    27284    27284 
   27291    27301    27305    27301    27305    27319    27319    27313 
   27322    27322    27305    27305    27301    27274    27267    27268 
   27240    27225    27229    27210    27191    27193    27182    27166 
   27175    27171    27151    27154    27159    27141    27136    27143 
   27141    27137    27133    27133    27128    27108    27099    27099 
   27083    27068    27067    27058    27044    27037    27031    27017 
   27010    27009    27001    26997    26997    26991    26983    26985 
   26985    26981    26986    26991    26986    26983    26989    26982 
   26971    26973    26971    26962    26959    26954    26947    26940 
   26925    26917    26916    26900    26892    26887    26867    26859 
   26855    26829    26819    26827    26817    26804    26812    26809 
   26802    26808    26808    26801    26815    26833    26832    26843 
   26870    26879    26887    26909    26927    26944    26967    26987 
   27004    27027    27052    27067    27081    27099    27114    27122 
   27131    27140    27141    27143    27148    27149    27143    27141 
   27147    27139    27122    27122    27124    27111    27108    27111 
   27105    27098    27097    27093    27090    27088    27094    27102 
   27101    27102    27108    27101    27093    27094    27091    27087 
   27088    27088    27090    27086    27083    27082    27074    27072 
   27075    27063    27071    27094    27079    27072    27098    27097 
   27088    27111    27126    27131    27149    27160    27160    27167 
   27186    27195    27195    27211    27233    27226    27220    27240 
   27233    27211    27220    27220    27203    27206    27202    27176 
   27168    27164    27139    27122    27120    27105    27090    27083 
   27074    27056    27043    27044    27041    27027    27031    27043 
   27039    27039    27047    27041    27040    27045    27036    27028 
   27033    27035    27031    27035    27045    27052    27052    27058 
   27072    27078    27081    27086    27090    27101    27111    27116 
   27124    27129    27129    27130    27129    27126    27129    27133 
   27121    27110    27113    27106    27091    27087    27083    27068 
   27064    27058    27033    27022    27021    26993    26974    26978 
   26966    26947    26948    26947    26935    26933    26935    26924 
   26917    26927    26927    26912    26917    26927    26913    26913 
   26921    26913    26908    26924    26927    26917    26932    26947 
   26939    26948    26970    26970    26975    26998    27001    26998 
   27010    27013    27001    27005    27014    27005    26991    26994 
   26993    26981    26979    26985    26983    26985    26987    26982 
   26982    26993    27002    27008    27022    27043    27049    27059 
   27082    27090    27098    27121    27129    27134    27153    27159 
   27159    27168    27171    27176    27186    27184    27184    27193 
   27189    27177    27171    27170    27163    27148    27147    27154 
   27144    27136    27143    27129    27121    27131    27120    27117 
   27130    27124    27122    27139    27143    27145    27157    27163 
   27168    27174    27175    27176    27168    27166    27182    27180 
   27166    27179    27182    27167    27177    27180    27163    27168 
   27168    27144    27147    27154    27131    27120    27118    27095 
   27078    27074    27060    27045    27037    27032    27020    26997 
   26993    26998    26983    26975    26983    26973    26956    26952 
   26941    26925    26916    26908    26902    26897    26892    26885 
   26881    26879    26874    26869    26877    26879    26870    26875 
   26889    26890    26889    26901    26906    26909    26920    26925 
   26931    26947    26946    26943    26962    26968    26966    26986 
   27001    26997    27012    27032    27027    27033    27059    27060 
   27062    27085    27091    27094    27108    27117    27125    27134 
   27148    27160    27168    27183    27201    27205    27214    27230 
   27232    27229    27241    27243    27233    27238    27249    27237 
   27228    27237    27229    27216    27226    27225    27210    27213 
   27210    27194    27193    27193    27182    27172    27167    27154 
   27140    27126    27117    27109    27101    27099    27095    27093 
   27102    27099    27091    27101    27111    27113    27122    27130 
   27130    27126    27122    27114    27109    27106    27103    27098 
   27095    27097    27093    27090    27091    27083    27072    27070 
   27058    27043    27035    27022    27009    27004    26993    26983 
   26982    26970    26956    26951    26941    26927    26916    26906 
   26893    26875    26859    26847    26829    26808    26802    26793 
   26778    26774    26774    26770    26771    26773    26775    26781 
   26779    26784    26790    26794    26800    26804    26815    26825 
   26825    26831    26847    26850    26850    26867    26875    26874 
   26886    26900    26906    26917    26931    26943    26956    26968 
   26983    26997    27004    27014    27031    27041    27045    27054 
   27063    27071    27074    27075    27081    27083    27082    27081 
   27079    27074    27071    27064    27058    27054    27047    27041 
   27041    27036    27028    27025    27020    27010    27004    26998 
   26989    26979    26974    26974    26970    26966    26967    26966 
   26963    26962    26954    26948    26947    26941    26935    26931 
   26928    26924    26920    26919    26912    26905    26906    26904 
   26893    26893    26897    26893    26893    26898    26901    26902 
   26906    26910    26912    26913    26920    26925    26925    26925 
   26927    26924    26921    26921    26919    26916    26916    26913 
   26908    26905    26906    26905    26901    26901    26902    26902 
   26905    26908    26910    26916    26925    26933    26943    26952 
   26962    26975    26989    26998    27010    27028    27039    27054 
   27075    27088    27099    27118    27133    27143    27153    27160 
   27170    27177    27182    27183    27189    27193    27193    27191 
   27194    27191    27184    27186    27186    27176    27174    27171 
   27157    27149    27145    27126    27116    27114    27103    27087 
   27079    27070    27055    27037    27024    27008    26985    26971 
   26964    26951    26940    26936    26932    26927    26929    26931 
   26924    26924    26921    26912    26906    26901    26892    26886 
   26883    26874    26866    26869    26869    26863    26870    26883 
   26889    26897    26913    26931    26947    26967    26985    27006 
   27031    27051    27071    27093    27116    27136    27156    27175 
   27193    27210    27224    27234    27245    27251    27252    27253 
   27252    27248    27240    27233    27232    27225    27218    27218 
   27217    27213    27214    27210    27206    27214    27216    27209 
   27209    27213    27209    27203    27205    27201    27191    27186 
   27180    27170    27159    27153    27145    27134    27130    27122 
   27113    27109    27105    27097    27088    27091    27095    27091 
   27093    27099    27101    27105    27110    27110    27113    27122 
   27125    27125    27134    27144    27147    27151    27159    27168 
   27175    27183    27195    27201    27206    27213    27214    27217 
   27225    27226    27225    27234    27243    27243    27247    27256 
   27263    27268    27276    27286    27290    27297    27309    27309 
   27309    27315    27311    27302    27303    27299    27286    27278 
   27271    27257    27251    27245    27233    27224    27220    27211 
   27203    27202    27199    27195    27193    27193    27187    27184 
   27182    27175    27170    27167    27157    27147    27139    27130 
   27121    27114    27106    27095    27088    27085    27078    27068 
   27060    27055    27044    27039    27041    27036    27031    27040 
   27044    27040    27045    27058    27060    27062    27071    27076 
   27078    27085    27090    27087    27090    27098    27097    27093 
   27103    27108    27101    27108    27113    27108    27110    27121 
   27121    27116    27122    27129    27126    27131    27140    27137 
   27137    27147    27148    27141    27141    27141    27136    27130 
   27129    27118    27105    27103    27099    27083    27078    27078 
   27063    27055    27051    27037    27027    27024    27012    26997 
   26987    26979    26970    26955    26944    26936    26923    26913 
   26906    26893    26893    26893    26886    26889    26900    26905 
   26910    26920    26927    26928    26935    26948    26956    26954 
   26959    26970    26970    26971    26981    26986    26987    26995 
   26998    26995    27004    27010    27008    27004    27010    27014 
   27012    27014    27018    27016    27021    27032    27035    27040 
   27058    27072    27079    27094    27117    27129    27140    27156 
   27166    27175    27190    27201    27202    27210    27224    27229 
   27230    27238    27245    27245    27241    27243    27241    27234 
   27225    27216    27203    27191    27182    27163    27140    27131 
   27122    27098    27081    27070    27049    27035    27025    27012 
   26997    26982    26970    26958    26943    26929    26920    26904 
   26886    26877    26862    26847    26847    26846    26832    26829 
   26833    26827    26821    26823    26819    26809    26808    26806 
   26800    26798    26800    26797    26796    26798    26804    26809 
   26812    26817    26823    26827    26835    26843    26846    26851 
   26860    26865    26865    26870    26879    26881    26881    26883 
   26883    26885    26890    26893    26897    26904    26908    26909 
   26913    26923    26928    26932    26943    26952    26955    26962 
   26973    26975    26975    26981    26982    26975    26970    26967 
   26963    26951    26939    26935    26925    26908    26898    26892 
   26878    26866    26859    26852    26846    26846    26844    26838 
   26838    26846    26846    26844    26852    26860    26866    26873 
   26882    26892    26893    26900    26913    26921    26925    26940 
   26952    26954    26963    26979    26983    26989    27006    27013 
   27014    27025    27033    27036    27044    27049    27052    27058 
   27063    27068    27075    27076    27076    27082    27085    27082 
   27086    27090    27086    27090    27098    27098    27099    27109 
   27116    27117    27122    27129    27130    27133    27137    27139 
   27141    27144    27144    27147    27147    27144    27149    27151 
   27148    27151    27151    27149    27151    27151    27149    27147 
   27143    27137    27130    27124    27114    27105    27098    27094 
   27087    27081    27075    27068    27062    27060    27059    27052 
   27048    27048    27045    27044    27043    27041    27041    27039 
   27039    27037    27037    27041    27043    27041    27045    27051 
   27052    27058    27062    27064    27067    27068    27067    27066 
   27067    27063    27058    27056    27049    27036    27032    27029 
   27017    27010    27009    27006    27001    26998    27000    27005 
   27005    27002    27005    27005    27005    27010    27016    27017 
   27020    27027    27027    27027    27033    27033    27031    27036 
   27035    27031    27031    27029    27029    27033    27029    27022 
   27021    27014    27006    27000    26987    26975    26964    26954 
   26943    26933    26925    26916    26909    26905    26898    26893 
   26890    26893    26893    26890    26893    26898    26901    26909 
   26917    26924    26933    26947    26963    26981    26998    27020 
   27044    27064    27085    27106    27126    27148    27167    27187 
   27210    27226    27240    27259    27276    27291    27309    27329 
   27342    27349    27364    27375    27376    27382    27387    27387 
   27384    27387    27391    27387    27384    27387    27383    27372 
   27368    27361    27349    27337    27326    27315    27301    27282 
   27259    27237    27217    27197    27174    27149    27125    27099 
   27075    27051    27027    27002    26974    26947    26927    26905 
   26879    26858    26839    26821    26801    26784    26773    26757 
   26747    26744    26738    26730    26725    26723    26717    26717 
   26723    26718    26716    26723    26723    26715    26717    26724 
   26724    26734    26746    26743    26755    26775    26778    26784 
   26804    26812    26819    26833    26847    26858    26870    26890 
   26901    26913    26939    26959    26981    27004    27025    27048 
   27066    27082    27099    27113    27122    27129    27140    27153 
   27154    27157    27171    27174    27174    27182    27189    27189 
   27193    27195    27191    27191    27195    27195    27194    27193 
   27195    27195    27193    27191    27190    27193    27197    27193 
   27189    27191    27190    27183    27177    27175    27164    27153 
   27148    27137    27122    27111    27099    27085    27070    27058 
   27048    27032    27017    27012    26998    26981    26975    26966 
   26946    26936    26939    26929    26921    26923    26919    26916 
   26921    26923    26919    26920    26929    26935    26939    26952 
   26964    26970    26978    26990    26995    26997    27006    27012 
   27014    27024    27027    27027    27041    27059    27064    27076 
   27102    27114    27122    27143    27157    27163    27176    27187 
   27187    27187    27194    27194    27183    27180    27186    27179 
   27168    27166    27163    27159    27153    27145    27134    27128 
   27120    27103    27090    27085    27072    27058    27054    27047 
   27037    27037    27036    27029    27033    27039    27035    27033 
   27041    27040    27035    27043    27052    27048    27045    27056 
   27064    27064    27072    27083    27081    27085    27098    27097 
   27090    27098    27105    27097    27098    27111    27113    27110 
   27117    27121    27122    27129    27137    27141    27144    27152 
   27163    27164    27168    27175    27175    27175    27174    27170 
   27164    27156    27149    27141    27131    27124    27116    27106 
   27098    27087    27082    27075    27068    27067    27054    27039 
   27039    27033    27020    27014    27009    26997    26985    26983 
   26975    26962    26958    26952    26940    26929    26924    26920 
   26913    26913    26920    26920    26923    26936    26946    26950 
   26959    26973    26978    26982    26990    26991    26989    26994 
   26995    26987    26987    26990    26987    26982    26981    26977 
   26967    26959    26958    26954    26950    26944    26943    26947 
   26950    26950    26955    26962    26973    26982    26989    27002 
   27021    27031    27040    27059    27075    27085    27103    27120 
   27126    27143    27160    27167    27176    27190    27201    27207 
   27216    27225    27232    27234    27233    27233    27233    27232 
   27226    27217    27210    27206    27199    27187    27179    27177 
   27177    27170    27164    27162    27149    27140    27134    27121 
   27110    27106    27098    27087    27076    27068    27071    27068 
   27056    27052    27058    27052    27045    27047    27051    27044 
   27041    27048    27049    27049    27051    27049    27048    27043 
   27037    27037    27029    27020    27016    27002    26986    26981 
   26971    26951    26944    26939    26919    26904    26905    26901 
   26892    26892    26896    26893    26896    26906    26919    26928 
   26941    26955    26963    26974    26990    27005    27016    27025 
   27037    27055    27067    27074    27087    27098    27105    27111 
   27117    27120    27126    27130    27126    27129    27140    27147 
   27143    27145    27148    27139    27129    27129    27124    27110 
   27099    27095    27083    27067    27062    27058    27045    27032 
   27025    27017    27000    26987    26979    26959    26947    26940 
   26925    26909    26900    26893    26886    26875    26870    26869 
   26858    26852    26844    26835    26833    26827    26813    26808 
   26804    26793    26786    26781    26778    26777    26779    26786 
   26794    26800    26812    26827    26839    26854    26869    26883 
   26902    26916    26929    26947    26959    26973    26989    26998 
   27014    27035    27044    27060    27079    27090    27101    27110 
   27118    27124    27124    27124    27124    27118    27111    27110 
   27106    27098    27098    27098    27093    27087    27088    27088 
   27086    27086    27087    27087    27087    27085    27083    27085 
   27081    27076    27085    27087    27081    27085    27090    27087 
   27090    27095    27093    27094    27095    27095    27090    27083 
   27082    27075    27063    27056    27048    27036    27028    27020 
   27010    27004    26997    26989    26981    26970    26964    26963 
   26958    26959    26968    26968    26971    26978    26979    26985 
   26990    26989    26998    27005    26997    26998    27009    27006 
   27000    27006    27009    27009    27010    27009    27005    27008 
   27010    27006    27008    27016    27016    27012    27013    27013 
   27008    27004    27005    27001    26998    26998    26998    27000 
   27009    27012    27012    27022    27029    27028    27037    27049 
   27047    27049    27058    27055    27054    27060    27058    27052 
   27052    27051    27044    27041    27040    27035    27029    27025 
   27022    27016    27010    27010    27012    27014    27013    27012 
   27016    27018    27027    27037    27039    27048    27063    27060 
   27067    27088    27091    27093    27109    27113    27114    27126 
