Origin Time       2015/05/30 20:24:00
Lat.              27.860
Long.             140.682
Depth. (km)       682
Mag.              8.1
Station Code      SIG012
Station Lat.      34.9043
Station Long.     136.2307
Station Height(m) 230
Record Time       2015/05/30 20:26:52
Sampling Freq(Hz) 100Hz
Duration Time(s)  60
Dir.              N-S
Scale Factor      7845(gal)/8223790
Max. Acc. (gal)   1.186
Last Correction   2015/05/30 20:26:53
Memo.             
[...]
  -11558   -11535   -11502   -11472   -11457   -11439   -11415   -11394 
  -11388   -11376   -11352   -11344   -11354   -11353   -11350   -11361 
  -11381   -11404   -11422   -11443   -11485   -11529   -11554   -11585 
  -11630   -11666   -11691   -11718   -11757   -11796   -11824   -11863 
  -11908   -11929   -11950   -11990   -12017   -12028   -12059   -12087 
  -12101   -12127   -12158   -12178   -12202   -12233   -12259   -12285 
  -12307   -12326   -12356   -12387   -12406   -12433   -12469   -12496 
  -12517   -12542   -12571   -12598   -12610   -12627   -12657   -12676 
  -12679   -12688   -12700   -12700   -12699   -12708   -12721   -12726 
  -12721   -12723   -12730   -12729   -12726   -12730   -12726   -12719 
  -12715   -12708   -12699   -12688   -12673   -12661   -12642   -12613 
  -12590   -12567   -12530   -12496   -12471   -12437   -12405   -12370 
  -12330   -12309   -12280   -12236   -12206   -12182   -12137   -12105 
  -12083   -12052   -12024   -12006   -11989   -11970   -11951   -11935 
  -11929   -11923   -11911   -11902   -11898   -11896   -11893   -11888 
  -11877   -11866   -11859   -11850   -11831   -11813   -11801   -11790 
  -11767   -11735   -11708   -11686   -11657   -11620   -11589   -11560 
  -11526   -11496   -11465   -11431   -11406   -11384   -11356   -11334 
  -11323   -11311   -11311   -11330   -11344   -11356   -11388   -11425 
  -11454   -11491   -11538   -11585   -11627   -11677   -11732   -11777 
  -11816   -11857   -11892   -11929   -11967   -12000   -12033   -12064 
  -12089   -12106   -12124   -12139   -12159   -12183   -12202   -12220 
  -12239   -12245   -12253   -12264   -12271   -12285   -12297   -12294 
  -12302   -12322   -12324   -12329   -12345   -12351   -12356   -12372 
  -12384   -12390   -12401   -12403   -12396   -12395   -12396   -12396 
  -12393   -12386   -12386   -12376   -12351   -12330   -12314   -12291 
  -12263   -12229   -12205   -12186   -12152   -12122   -12101   -12071 
  -12040   -12006   -11967   -11940   -11914   -11875   -11848   -11836 
  -11808   -11777   -11761   -11746   -11726   -11709   -11689   -11665 
  -11647   -11632   -11614   -11595   -11581   -11574   -11569   -11564 
  -11564   -11556   -11547   -11545   -11537   -11516   -11496   -11483 
  -11469   -11453   -11445   -11441   -11434   -11433   -11441   -11449 
  -11450   -11457   -11472   -11480   -11492   -11514   -11529   -11543 
  -11566   -11583   -11597   -11623   -11642   -11661   -11693   -11722 
  -11739   -11769   -11805   -11830   -11851   -11886   -11924   -11951 
  -11980   -12015   -12051   -12089   -12127   -12164   -12206   -12247 
  -12278   -12309   -12347   -12388   -12415   -12432   -12455   -12478 
  -12496   -12519   -12537   -12552   -12573   -12587   -12596   -12613 
  -12629   -12638   -12642   -12647   -12658   -12668   -12673   -12680 
  -12690   -12698   -12704   -12717   -12731   -12750   -12772   -12785 
  -12792   -12806   -12820   -12829   -12834   -12841   -12849   -12857 
  -12860   -12860   -12862   -12861   -12850   -12842   -12838   -12825 
  -12814   -12800   -12772   -12745   -12719   -12687   -12665   -12645 
  -12619   -12600   -12583   -12553   -12523   -12498   -12474   -12448 
  -12421   -12405   -12388   -12353   -12329   -12313   -12276   -12240 
  -12210   -12170   -12133   -12094   -12043   -11997   -11952   -11892 
  -11831   -11780   -11728   -11681   -11637   -11592   -11553   -11516 
  -11483   -11465   -11442   -11421   -11416   -11404   -11383   -11379 
  -11373   -11356   -11356   -11354   -11350   -11367   -11373   -11375 
  -11398   -11414   -11415   -11425   -11434   -11442   -11449   -11452 
  -11455   -11457   -11449   -11452   -11464   -11468   -11475   -11488 
  -11495   -11497   -11515   -11538   -11558   -11573   -11595   -11630 
  -11663   -11686   -11723   -11766   -11796   -11827   -11871   -11914 
  -11958   -12005   -12058   -12104   -12139   -12174   -12220   -12260 
  -12295   -12339   -12379   -12415   -12455   -12486   -12523   -12569 
  -12600   -12636   -12690   -12727   -12754   -12803   -12839   -12852 
  -12879   -12916   -12931   -12950   -12981   -13007   -13026   -13043 
  -13058   -13072   -13076   -13082   -13096   -13104   -13100   -13103 
  -13108   -13096   -13077   -13068   -13059   -13036   -13008   -12980 
  -12951   -12919   -12881   -12845   -12815   -12775   -12730   -12694 
  -12654   -12607   -12560   -12513   -12464   -12410   -12356   -12305 
  -12251   -12188   -12132   -12082   -12031   -11977   -11929   -11880 
  -11821   -11765   -11712   -11657   -11603   -11564   -11527   -11487 
  -11454   -11434   -11414   -11396   -11373   -11345   -11327   -11313 
  -11288   -11264   -11253   -11242   -11217   -11191   -11176   -11156 
  -11128   -11107   -11090   -11068   -11053   -11044   -11029   -11016 
  -11010   -11009   -11011   -11017   -11020   -11026   -11037   -11044 
  -11052   -11072   -11094   -11111   -11134   -11167   -11204   -11236 
  -11268   -11313   -11358   -11400   -11445   -11493   -11539   -11587 
  -11639   -11689   -11732   -11780   -11835   -11881   -11928   -11977 
  -12027   -12081   -12135   -12187   -12248   -12307   -12356   -12406 
  -12465   -12515   -12560   -12613   -12661   -12692   -12727   -12769 
  -12806   -12834   -12857   -12885   -12912   -12920   -12933   -12954 
  -12966   -12973   -12988   -13004   -13014   -13022   -13036   -13051 
  -13059   -13068   -13082   -13089   -13081   -13076   -13069   -13050 
  -13024   -13000   -12972   -12939   -12898   -12853   -12807   -12758 
  -12711   -12663   -12614   -12568   -12521   -12479   -12436   -12383 
  -12339   -12306   -12268   -12229   -12198   -12174   -12141   -12112 
  -12082   -12052   -12027   -12004   -11977   -11947   -11917   -11890 
  -11865   -11836   -11799   -11762   -11738   -11709   -11674   -11649 
  -11632   -11612   -11595   -11583   -11576   -11573   -11566   -11560 
  -11560   -11554   -11549   -11549   -11547   -11538   -11531   -11530 
  -11526   -11514   -11503   -11495   -11484   -11475   -11466   -11458 
  -11452   -11445   -11437   -11433   -11431   -11425   -11419   -11421 
  -11422   -11421   -11426   -11429   -11429   -11431   -11434   -11443 
  -11453   -11460   -11475   -11492   -11504   -11524   -11549   -11569 
  -11587   -11608   -11626   -11641   -11654   -11663   -11674   -11685 
  -11692   -11699   -11704   -11705   -11706   -11709   -11719   -11726 
  -11726   -11728   -11736   -11739   -11746   -11753   -11753   -11754 
  -11761   -11765   -11761   -11761   -11770   -11776   -11770   -11769 
  -11770   -11765   -11762   -11765   -11755   -11743   -11739   -11739 
  -11734   -11728   -11723   -11718   -11715   -11712   -11704   -11696 
  -11695   -11686   -11680   -11680   -11684   -11685   -11689   -11696 
  -11705   -11716   -11726   -11735   -11754   -11777   -11797   -11820 
  -11851   -11889   -11929   -11970   -12017   -12064   -12106   -12148 
  -12194   -12243   -12283   -12316   -12351   -12387   -12414   -12438 
  -12464   -12490   -12514   -12536   -12555   -12575   -12595   -12617 
  -12631   -12647   -12672   -12692   -12711   -12735   -12753   -12766 
  -12784   -12793   -12796   -12798   -12800   -12800   -12791   -12779 
  -12772   -12756   -12731   -12708   -12690   -12665   -12637   -12609 
  -12576   -12548   -12518   -12483   -12449   -12417   -12384   -12353 
  -12320   -12280   -12241   -12206   -12168   -12122   -12079   -12043 
  -12004   -11961   -11925   -11894   -11863   -11836   -11816   -11793 
  -11769   -11753   -11736   -11718   -11704   -11692   -11682   -11678 
  -11676   -11674   -11681   -11688   -11689   -11696   -11713   -11727 
  -11739   -11758   -11781   -11807   -11830   -11854   -11881   -11907 
  -11931   -11958   -11985   -12016   -12046   -12073   -12101   -12131 
  -12162   -12195   -12224   -12252   -12282   -12307   -12334   -12360 
  -12386   -12418   -12445   -12474   -12510   -12544   -12571   -12604 
  -12633   -12654   -12676   -12694   -12704   -12719   -12738   -12750 
  -12758   -12773   -12783   -12791   -12808   -12826   -12835   -12849 
  -12866   -12884   -12900   -12914   -12920   -12923   -12930   -12938 
  -12933   -12924   -12921   -12916   -12906   -12893   -12880   -12862 
  -12845   -12826   -12803   -12779   -12756   -12735   -12710   -12677 
  -12646   -12619   -12586   -12548   -12511   -12474   -12442   -12411 
  -12376   -12348   -12322   -12290   -12262   -12244   -12224   -12198 
  -12177   -12155   -12133   -12114   -12098   -12077   -12052   -12032 
  -12015   -11993   -11965   -11943   -11928   -11904   -11881   -11863 
  -11846   -11832   -11817   -11804   -11796   -11786   -11772   -11767 
  -11766   -11759   -11753   -11751   -11751   -11750   -11749   -11757 
  -11769   -11777   -11792   -11809   -11824   -11838   -11854   -11869 
  -11886   -11902   -11912   -11927   -11947   -11961   -11974   -11992 
  -12009   -12025   -12044   -12069   -12089   -12105   -12120   -12137 
  -12148   -12155   -12171   -12181   -12183   -12188   -12191   -12190 
  -12190   -12190   -12190   -12191   -12194   -12195   -12188   -12182 
  -12175   -12162   -12150   -12141   -12124   -12101   -12085   -12075 
  -12063   -12054   -12046   -12033   -12021   -12012   -12001   -11990 
  -11982   -11969   -11954   -11940   -11924   -11907   -11886   -11865 
  -11844   -11817   -11785   -11758   -11734   -11706   -11684   -11666 
  -11650   -11634   -11626   -11627   -11627   -11630   -11632   -11637 
  -11642   -11650   -11658   -11661   -11662   -11666   -11668   -11669 
  -11673   -11677   -11680   -11684   -11693   -11703   -11706   -11716 
  -11729   -11739   -11754   -11772   -11786   -11801   -11821   -11840 
  -11854   -11867   -11885   -11901   -11913   -11927   -11936   -11947 
  -11961   -11969   -11971   -11974   -11980   -11986   -11986   -11986 
  -11986   -11983   -11985   -11986   -11980   -11978   -11985   -11989 
  -11983   -11985   -11994   -12000   -12001   -12004   -12002   -12000 
  -11996   -11988   -11982   -11979   -11969   -11958   -11954   -11946 
  -11932   -11920   -11909   -11902   -11898   -11889   -11878   -11873 
  -11874   -11874   -11869   -11861   -11854   -11848   -11842   -11830 
  -11815   -11801   -11790   -11781   -11772   -11766   -11765   -11767 
  -11776   -11790   -11805   -11823   -11850   -11880   -11912   -11947 
  -11983   -12016   -12056   -12105   -12147   -12179   -12216   -12259 
  -12299   -12336   -12375   -12415   -12444   -12475   -12511   -12542 
  -12568   -12596   -12622   -12645   -12668   -12687   -12706   -12731 
  -12752   -12765   -12776   -12791   -12807   -12819   -12829   -12833 
  -12837   -12838   -12831   -12822   -12814   -12793   -12772   -12746 
  -12719   -12695   -12665   -12634   -12604   -12581   -12563   -12540 
  -12518   -12505   -12488   -12476   -12467   -12455   -12442   -12433 
  -12420   -12398   -12375   -12359   -12333   -12299   -12268   -12236 
  -12195   -12150   -12108   -12071   -12031   -11989   -11952   -11920 
  -11888   -11858   -11832   -11804   -11774   -11750   -11727   -11705 
  -11692   -11680   -11665   -11655   -11650   -11642   -11635   -11628 
  -11620   -11618   -11614   -11604   -11595   -11592   -11587   -11578 
  -11568   -11564   -11558   -11550   -11545   -11539   -11535   -11537 
  -11538   -11537   -11545   -11558   -11569   -11584   -11607   -11630 
  -11654   -11682   -11711   -11742   -11778   -11817   -11857   -11901 
  -11950   -11994   -12037   -12079   -12120   -12162   -12202   -12233 
  -12263   -12295   -12322   -12344   -12370   -12390   -12409   -12434 
  -12460   -12482   -12505   -12528   -12550   -12577   -12600   -12619 
  -12640   -12657   -12668   -12677   -12684   -12687   -12690   -12690 
  -12685   -12680   -12679   -12677   -12672   -12661   -12652   -12642 
  -12629   -12613   -12596   -12577   -12556   -12532   -12505   -12478 
  -12447   -12411   -12378   -12347   -12309   -12268   -12233   -12193 
  -12144   -12102   -12059   -12010   -11963   -11917   -11874   -11832 
  -11788   -11742   -11704   -11673   -11632   -11592   -11558   -11524 
  -11491   -11457   -11429   -11402   -11376   -11356   -11335   -11315 
  -11302   -11291   -11277   -11261   -11250   -11242   -11237   -11233 
  -11227   -11229   -11233   -11236   -11244   -11252   -11259   -11268 
  -11277   -11284   -11292   -11299   -11310   -11318   -11325   -11331 
  -11340   -11349   -11360   -11369   -11379   -11394   -11408   -11422 
  -11437   -11458   -11481   -11503   -11529   -11562   -11596   -11630 
  -11668   -11706   -11742   -11772   -11803   -11830   -11850   -11867 
  -11881   -11896   -11914   -11924   -11932   -11954   -11974   -11979 
  -11994   -12020   -12039   -12055   -12081   -12105   -12121   -12148 
  -12178   -12197   -12218   -12244   -12271   -12291   -12307   -12326 
  -12341   -12352   -12363   -12373   -12386   -12402   -12420   -12436 
  -12457   -12484   -12515   -12546   -12579   -12614   -12650   -12685 
  -12715   -12746   -12773   -12791   -12803   -12812   -12815   -12811 
  -12808   -12811   -12810   -12803   -12795   -12789   -12784   -12779 
  -12771   -12761   -12753   -12741   -12723   -12702   -12675   -12646 
  -12619   -12591   -12560   -12529   -12503   -12478   -12451   -12426 
  -12399   -12363   -12330   -12302   -12264   -12218   -12177   -12139 
  -12093   -12036   -11985   -11939   -11884   -11830   -11776   -11712 
  -11653   -11603   -11547   -11484   -11427   -11375   -11323   -11275 
  -11227   -11183   -11144   -11105   -11062   -11024   -10993   -10957 
  -10924   -10899   -10872   -10841   -10827   -10820   -10816   -10817 
  -10828   -10844   -10864   -10895   -10933   -10970   -11009   -11056 
  -11105   -11149   -11200   -11259   -11310   -11356   -11410   -11466 
  -11520   -11574   -11634   -11695   -11750   -11807   -11866   -11927 
  -11986   -12040   -12094   -12155   -12209   -12259   -12312   -12363 
  -12409   -12453   -12496   -12533   -12565   -12606   -12641   -12660 
  -12677   -12706   -12729   -12737   -12745   -12758   -12771   -12783 
  -12791   -12793   -12800   -12814   -12819   -12820   -12829   -12835 
  -12838   -12843   -12853   -12854   -12853   -12853   -12849   -12846 
  -12845   -12831   -12810   -12799   -12788   -12769   -12746   -12723 
  -12700   -12672   -12640   -12613   -12583   -12548   -12518   -12486 
  -12448   -12414   -12383   -12349   -12312   -12275   -12237   -12198 
  -12155   -12120   -12089   -12048   -12006   -11971   -11932   -11893 
  -11854   -11816   -11782   -11745   -11708   -11684   -11659   -11635 
  -11615   -11599   -11587   -11577   -11564   -11556   -11551   -11546 
  -11534   -11520   -11511   -11502   -11487   -11468   -11446   -11429 
  -11410   -11394   -11377   -11356   -11341   -11335   -11323   -11310 
  -11304   -11300   -11299   -11303   -11307   -11313   -11330   -11356 
  -11383   -11410   -11442   -11477   -11520   -11573   -11620   -11663 
  -11712   -11762   -11803   -11848   -11894   -11932   -11969   -12010 
  -12048   -12086   -12127   -12167   -12206   -12244   -12283   -12318 
  -12352   -12388   -12424   -12453   -12480   -12505   -12528   -12546 
  -12561   -12576   -12588   -12598   -12600   -12596   -12591   -12587 
  -12576   -12565   -12555   -12544   -12533   -12519   -12509   -12502 
  -12490   -12475   -12465   -12461   -12455   -12445   -12439   -12438 
  -12433   -12428   -12425   -12422   -12422   -12424   -12422   -12418 
  -12417   -12415   -12413   -12411   -12406   -12402   -12409   -12413 
  -12406   -12410   -12422   -12433   -12439   -12451   -12469   -12487 
  -12499   -12510   -12523   -12538   -12544   -12544   -12548   -12553 
  -12556   -12559   -12552   -12545   -12542   -12537   -12529   -12521 
  -12507   -12492   -12483   -12467   -12442   -12429   -12418   -12395 
  -12367   -12344   -12320   -12287   -12249   -12214   -12181   -12139 
  -12098   -12064   -12029   -11996   -11962   -11923   -11889   -11855 
  -11819   -11786   -11751   -11718   -11686   -11655   -11620   -11587 
  -11551   -11518   -11488   -11461   -11430   -11402   -11379   -11356 
  -11340   -11326   -11315   -11311   -11313   -11318   -11333   -11353 
  -11372   -11396   -11422   -11452   -11484   -11515   -11545   -11577 
  -11610   -11637   -11663   -11696   -11726   -11747   -11770   -11792 
  -11805   -11821   -11843   -11862   -11878   -11902   -11925   -11943 
  -11966   -11997   -12025   -12046   -12070   -12097   -12127   -12155 
  -12179   -12205   -12235   -12259   -12275   -12295   -12322   -12339 
  -12353   -12371   -12379   -12375   -12373   -12375   -12367   -12355 
  -12347   -12339   -12329   -12324   -12321   -12312   -12299   -12287 
  -12276   -12260   -12239   -12224   -12214   -12202   -12191   -12181 
  -12170   -12155   -12135   -12118   -12105   -12081   -12056   -12037 
  -12017   -11994   -11974   -11954   -11937   -11925   -11917   -11909 
  -11901   -11897   -11896   -11901   -11904   -11908   -11920   -11934 
  -11937   -11947   -11969   -11985   -11997   -12015   -12033   -12044 
  -12052   -12066   -12082   -12093   -12098   -12109   -12122   -12132 
  -12141   -12150   -12160   -12174   -12183   -12185   -12190   -12193 
  -12194   -12198   -12204   -12202   -12202   -12205   -12209   -12214 
  -12213   -12210   -12213   -12214   -12212   -12204   -12197   -12198 
  -12193   -12179   -12174   -12170   -12159   -12159   -12162   -12154 
  -12145   -12141   -12129   -12117   -12104   -12089   -12078   -12063 
  -12042   -12016   -11994   -11973   -11942   -11914   -11894   -11869 
  -11840   -11813   -11789   -11769   -11753   -11731   -11706   -11691 
  -11677   -11658   -11642   -11630   -11615   -11603   -11595   -11583 
  -11570   -11568   -11569   -11561   -11554   -11551   -11546   -11538 
  -11534   -11539   -11551   -11564   -11572   -11580   -11599   -11623 
  -11639   -11658   -11685   -11705   -11720   -11739   -11761   -11780 
  -11794   -11805   -11819   -11834   -11844   -11861   -11878   -11888 
  -11902   -11920   -11932   -11952   -11973   -11977   -11988   -12009 
  -12024   -12033   -12048   -12063   -12075   -12085   -12096   -12114 
  -12136   -12154   -12167   -12185   -12213   -12237   -12258   -12287 
  -12316   -12333   -12355   -12387   -12409   -12421   -12442   -12468 
  -12490   -12505   -12517   -12532   -12548   -12560   -12567   -12568 
  -12577   -12592   -12595   -12595   -12604   -12613   -12613   -12614 
  -12618   -12614   -12603   -12592   -12586   -12573   -12556   -12538 
  -12519   -12496   -12475   -12456   -12445   -12429   -12406   -12386 
  -12372   -12360   -12349   -12332   -12309   -12294   -12278   -12262 
  -12247   -12218   -12179   -12150   -12121   -12083   -12050   -12015 
  -11973   -11942   -11916   -11884   -11853   -11828   -11805   -11785 
  -11772   -11759   -11746   -11739   -11726   -11715   -11720   -11723 
  -11715   -11711   -11718   -11727   -11735   -11738   -11742   -11754 
  -11762   -11772   -11789   -11804   -11811   -11823   -11840   -11857 
  -11869   -11878   -11894   -11913   -11927   -11937   -11954   -11970 
  -11985   -12004   -12023   -12040   -12058   -12081   -12108   -12133 
  -12154   -12168   -12191   -12220   -12245   -12270   -12294   -12316 
  -12334   -12349   -12366   -12380   -12387   -12391   -12394   -12388 
  -12379   -12373   -12366   -12352   -12341   -12326   -12307   -12295 
  -12282   -12266   -12256   -12244   -12228   -12216   -12205   -12191 
