Origin Time       2018/09/18 17:11:00
Lat.              36.048
Long.             139.798
Depth. (km)       77
Mag.              4.3
Station Code      NGN014
Station Lat.      36.0956
Station Long.     138.4844
Station Height(m) 857
Record Time       2018/09/18 17:11:32
Sampling Freq(Hz) 100Hz
Duration Time(s)  66
Dir.              E-W
Scale Factor      7845(gal)/8223790
Max. Acc. (gal)   1.097
Last Correction   2018/09/18 17:11:32
Memo.             
[...]
   -5161    -5271    -5255    -5139    -5040    -5016    -5046    -5043 
   -4945    -4807    -4700    -4662    -4733    -4852    -4918    -4966 
   -5077    -5220    -5297    -5194    -4920    -4594    -4337    -4252 
   -4359    -4603    -4916    -5221    -5491    -5698    -5702    -5424 
   -4972    -4567    -4383    -4455    -4715    -5036    -5216    -5131 
   -4909    -4766    -4731    -4752    -4826    -4900    -4911    -4887 
   -4865    -4873    -4941    -5044    -5117    -5146    -5166    -5152 
   -5069    -4938    -4795    -4675    -4649    -4746    -4865    -4915 
   -4962    -5065    -5135    -5127    -5078    -4984    -4841    -4704 
   -4633    -4657    -4768    -4912    -5054    -5201    -5306    -5255 
   -5078    -4941    -4889    -4860    -4833    -4826    -4822    -4788 
   -4733    -4714    -4753    -4823    -4908    -5001    -5059    -5047 
   -4976    -4899    -4909    -5051    -5201    -5229    -5166    -5049 
   -4901    -4827    -4839    -4855    -4878    -4895    -4847    -4768 
   -4737    -4761    -4781    -4737    -4661    -4650    -4718    -4837 
   -5027    -5260    -5414    -5431    -5393    -5347    -5219    -4984 
   -4734    -4556    -4469    -4455    -4496    -4604    -4764    -4895 
   -5005    -5184    -5410    -5560    -5526    -5321    -5069    -4884 
   -4793    -4758    -4734    -4708    -4710    -4731    -4696    -4610 
   -4594    -4722    -4970    -5240    -5382    -5293    -5059    -4926 
   -5030    -5247    -5406    -5422    -5215    -4785    -4360    -4159 
   -4170    -4309    -4531    -4768    -4932    -5012    -5067    -5157 
   -5286    -5425    -5479    -5395    -5247    -5081    -4892    -4769 
   -4739    -4719    -4707    -4723    -4725    -4730    -4793    -4904 
   -4980    -4941    -4820    -4714    -4693    -4810    -5042    -5247 
   -5316    -5310    -5300    -5277    -5192    -5004    -4772    -4631 
   -4637    -4700    -4727    -4689    -4615    -4626    -4783    -4992 
   -5178    -5285    -5229    -5023    -4792    -4652    -4618    -4689 
   -4928    -5229    -5360    -5294    -5131    -4950    -4862    -4908 
   -4954    -4897    -4783    -4712    -4766    -4953    -5174    -5271 
   -5152    -4904    -4666    -4517    -4567    -4792    -4949    -4955 
   -4946    -4992    -5082    -5136    -5069    -4930    -4814    -4781 
   -4860    -5009    -5139    -5204    -5194    -5120    -5013    -4872 
   -4714    -4626    -4641    -4714    -4800    -4842    -4803    -4762 
   -4814    -4892    -4896    -4868    -4936    -5127    -5337    -5455 
   -5412    -5211    -4941    -4733    -4691    -4820    -4976    -5035 
   -5034    -4992    -4864    -4704    -4614    -4615    -4676    -4770 
   -4889    -5022    -5121    -5161    -5125    -5036    -4989    -5030 
   -5098    -5152    -5109    -4889    -4644    -4546    -4575    -4691 
   -4876    -5069    -5179    -5123    -4932    -4722    -4606    -4696 
   -4959    -5196    -5293    -5233    -5042    -4830    -4708    -4699 
   -4726    -4727    -4808    -5035    -5277    -5412    -5386    -5197 
   -4936    -4720    -4657    -4768    -4920    -4989    -4994    -4989 
   -4977    -4895    -4789    -4684    -4550    -4541    -4787    -5088 
   -5220    -5177    -5038    -4909    -4876    -4918    -4977    -5026 
   -5065    -5050    -4926    -4754    -4633    -4583    -4666    -4936 
   -5239    -5379    -5287    -5009    -4710    -4595    -4723    -4923 
   -4992    -4959    -4968    -5039    -5169    -5305    -5313    -5123 
   -4799    -4502    -4434    -4650    -4912    -4974    -4888    -4831 
   -4852    -4918    -5012    -5067    -5039    -5030    -5098    -5116 
   -5026    -4909    -4811    -4788    -4876    -4976    -4953    -4811 
   -4691    -4683    -4807    -5088    -5406    -5518    -5323    -4927 
   -4568    -4467    -4618    -4818    -4915    -4895    -4792    -4689 
   -4737    -4928    -5112    -5242    -5321    -5310    -5227    -5089 
   -4916    -4754    -4639    -4595    -4638    -4780    -4989    -5161 
   -5219    -5209    -5128    -4928    -4720    -4618    -4576    -4598 
   -4754    -5011    -5231    -5273    -5123    -4931    -4838    -4881 
   -5020    -5169    -5204    -5060    -4837    -4714    -4734    -4787 
   -4776    -4723    -4656    -4576    -4548    -4660    -4947    -5320 
   -5587    -5652    -5533    -5279    -4976    -4747    -4718    -4837 
   -4903    -4843    -4754    -4698    -4668    -4691    -4772    -4854 
   -4938    -5022    -5067    -5096    -5130    -5130    -5049    -4888 
   -4757    -4766    -4893    -5017    -5071    -5059    -4988    -4861 
   -4707    -4599    -4590    -4630    -4703    -4887    -5127    -5229 
   -5157    -5055    -5007    -4988    -5008    -5042    -5049    -5089 
   -5128    -5050    -4923    -4865    -4847    -4823    -4812    -4857 
   -4893    -4845    -4795    -4797    -4785    -4738    -4693    -4730 
   -4930    -5231    -5460    -5506    -5354    -5107    -4904    -4753 
   -4612    -4542    -4622    -4816    -4985    -5057    -5071    -5013 
   -4899    -4869    -4949    -5039    -5101    -5065    -4882    -4712 
   -4683    -4774    -4939    -5076    -5047    -4854    -4679    -4691 
   -4839    -4982    -5070    -5107    -5146    -5200    -5198    -5150 
   -5085    -4953    -4800    -4760    -4865    -4970    -4922    -4768 
   -4661    -4652    -4716    -4873    -5111    -5290    -5267    -5035 
   -4735    -4590    -4668    -4845    -5012    -5130    -5143    -5031 
   -4876    -4785    -4743    -4691    -4680    -4781    -4953    -5124 
   -5201    -5116    -4976    -4934    -4972    -5019    -5076    -5093 
   -5017    -4916    -4904    -4909    -4799    -4654    -4619    -4684 
   -4835    -5038    -5093    -4927    -4766    -4822    -5050    -5278 
   -5336    -5179    -4972    -4884    -4911    -4953    -4938    -4869 
   -4735    -4583    -4565    -4661    -4745    -4876    -5086    -5235 
   -5273    -5281    -5271    -5221    -5157    -5039    -4801    -4519 
   -4363    -4399    -4602    -4900    -5135    -5235    -5278    -5251 
   -5113    -4942    -4796    -4691    -4675    -4770    -4901    -4951 
   -4915    -4847    -4787    -4811    -4978    -5198    -5302    -5206 
   -4954    -4689    -4618    -4776    -4988    -5121    -5142    -5009 
   -4810    -4704    -4742    -4818    -4877    -4968    -5027    -4970 
   -4873    -4855    -4965    -5192    -5394    -5393    -5159    -4842 
   -4603    -4504    -4549    -4683    -4784    -4826    -4861    -4887 
   -4938    -5074    -5262    -5431    -5501    -5364    -5035    -4688 
   -4537    -4702    -5013    -5154    -5013    -4683    -4364    -4275 
   -4450    -4791    -5127    -5286    -5286    -5252    -5177    -5022 
   -4876    -4826    -4862    -4965    -5070    -5065    -4920    -4756 
   -4710    -4816    -4974    -5040    -4992    -4909    -4828    -4722 
   -4646    -4708    -4860    -4966    -5069    -5221    -5331    -5354 
   -5331    -5204    -4966    -4743    -4604    -4526    -4507    -4561 
   -4685    -4857    -5059    -5228    -5293    -5271    -5194    -5044 
   -4824    -4610    -4517    -4623    -4872    -5103    -5221    -5238 
   -5131    -4953    -4873    -4930    -5000    -4999    -4918    -4816 
   -4746    -4692    -4719    -4904    -5117    -5171    -5047    -4834 
   -4626    -4534    -4591    -4727    -4923    -5151    -5292    -5304 
   -5270    -5205    -5047    -4831    -4679    -4650    -4710    -4810 
   -4931    -5035    -5080    -5054    -5005    -4974    -4920    -4827 
   -4743    -4730    -4862    -5124    -5344    -5386    -5228    -4897 
   -4537    -4409    -4576    -4833    -4999    -5022    -4926    -4854 
   -4905    -5000    -5060    -5069    -4972    -4801    -4691    -4681 
   -4714    -4746    -4845    -5049    -5247    -5305    -5177    -4969 
   -4861    -4895    -5000    -5143    -5250    -5227    -5093    -4927 
   -4808    -4804    -4877    -4901    -4834    -4747    -4698    -4681 
   -4739    -4888    -5030    -5104    -5136    -5104    -4974    -4808 
   -4715    -4734    -4801    -4868    -4915    -4922    -4901    -4891 
   -4920    -5020    -5140    -5190    -5189    -5196    -5181    -5111 
   -5000    -4918    -4959    -5097    -5179    -5138    -5004    -4795 
   -4554    -4429    -4488    -4619    -4695    -4731    -4801    -4900 
   -4976    -5000    -4978    -4959    -4962    -4943    -4918    -4914 
   -4908    -4878    -4878    -4986    -5166    -5271    -5246    -5161 
   -5067    -4970    -4926    -4963    -5013    -4986    -4865    -4703 
   -4595    -4611    -4779    -5039    -5282    -5422    -5398    -5225 
   -5008    -4780    -4514    -4297    -4241    -4318    -4476    -4745 
   -5098    -5362    -5386    -5273    -5166    -5065    -5019    -5053 
   -5008    -4845    -4679    -4568    -4541    -4617    -4808    -5043 
   -5166    -5167    -5144    -5090    -4978    -4824    -4710    -4747 
   -4900    -5049    -5135    -5146    -5081    -4926    -4726    -4644 
   -4716    -4789    -4792    -4785    -4780    -4814    -4994    -5324 
   -5590    -5579    -5325    -4996    -4675    -4441    -4414    -4604 
   -4865    -5058    -5169    -5215    -5186    -5100    -5008    -4981 
   -5026    -5057    -5020    -4922    -4788    -4695    -4673    -4660 
   -4617    -4581    -4612    -4704    -4807    -4923    -5067    -5198 
   -5273    -5270    -5254    -5292    -5312    -5224    -5053    -4830 
   -4587    -4403    -4340    -4398    -4558    -4806    -5131    -5425 
   -5501    -5314    -5001    -4703    -4556    -4683    -5009    -5293 
   -5385    -5312    -5135    -4887    -4649    -4504    -4460    -4511 
   -4614    -4657    -4619    -4608    -4726    -5008    -5394    -5741 
   -5875    -5694    -5319    -4977    -4787    -4699    -4627    -4530 
   -4422    -4411    -4611    -4989    -5385    -5629    -5636    -5412 
   -5070    -4784    -4631    -4600    -4675    -4793    -4843    -4819 
   -4799    -4787    -4746    -4742    -4828    -4932    -4969    -4972 
   -4996    -5022    -5053    -5127    -5189    -5169    -5105    -5055 
   -4993    -4849    -4635    -4430    -4307    -4333    -4510    -4764 
   -5062    -5366    -5564    -5590    -5474    -5256    -4982    -4731 
   -4641    -4788    -5074    -5294    -5325    -5155    -4804    -4390 
   -4156    -4214    -4425    -4648    -4830    -4915    -4896    -4874 
   -4950    -5093    -5209    -5314    -5429    -5433    -5258    -4988 
   -4757    -4688    -4803    -4974    -5067    -5011    -4834    -4676 
   -4638    -4683    -4742    -4795    -4852    -4901    -4914    -4941 
   -5065    -5212    -5268    -5285    -5262    -5069    -4789    -4656 
   -4664    -4696    -4747    -4874    -5054    -5158    -5138    -5084 
   -5036    -5046    -5200    -5387    -5402    -5196    -4861    -4618 
   -4629    -4807    -4982    -5053    -4955    -4722    -4482    -4368 
   -4441    -4600    -4722    -4810    -4888    -4955    -5092    -5351 
   -5655    -5867    -5841    -5522    -5038    -4594    -4307    -4192 
   -4207    -4270    -4311    -4353    -4461    -4649    -4884    -5135 
   -5346    -5448    -5447    -5383    -5317    -5319    -5391    -5460 
   -5429    -5263    -4996    -4737    -4596    -4572    -4568    -4463 
   -4225    -4021    -4002    -4172    -4522    -4949    -5255    -5410 
   -5448    -5360    -5248    -5211    -5190    -5185    -5283    -5459 
   -5543    -5428    -5167    -4880    -4665    -4542    -4441    -4310 
   -4228    -4325    -4595    -4942    -5265    -5448    -5427    -5220 
   -4955    -4733    -4557    -4472    -4558    -4776    -5027    -5263 
   -5413    -5462    -5427    -5273    -4986    -4661    -4450    -4456 
   -4634    -4892    -5164    -5335    -5275    -5032    -4796    -4658 
   -4590    -4556    -4585    -4735    -4982    -5248    -5513    -5734 
   -5783    -5598    -5270    -4923    -4646    -4540    -4621    -4731 
   -4730    -4610    -4441    -4344    -4413    -4606    -4801    -4934 
   -5027    -5077    -5107    -5154    -5190    -5197    -5179    -5135 
   -5084    -5049    -5011    -4918    -4772    -4657    -4617    -4573 
   -4484    -4418    -4473    -4638    -4847    -5111    -5405    -5611 
   -5671    -5609    -5486    -5373    -5255    -5055    -4779    -4535 
   -4433    -4452    -4476    -4498    -4579    -4699    -4806    -4903 
   -5000    -5067    -5117    -5198    -5289    -5319    -5244    -5069 
   -4865    -4760    -4791    -4833    -4785    -4745    -4779    -4804 
   -4811    -4873    -4955    -4951    -4878    -4852    -4935    -5082 
   -5211    -5248    -5186    -5058    -4880    -4658    -4464    -4415 
   -4538    -4768    -5008    -5164    -5212    -5189    -5090    -4946 
   -4896    -4982    -5082    -5107    -5070    -4986    -4878    -4807 
   -4810    -4870    -4889    -4800    -4715    -4745    -4839    -4953 
   -5077    -5142    -5057    -4889    -4824    -4899    -4974    -5013 
   -5038    -5030    -5060    -5197    -5359    -5435    -5358    -5134 
   -4849    -4610    -4506    -4544    -4645    -4683    -4595    -4517 
   -4623    -4901    -5193    -5381    -5414    -5278    -5062    -4914 
   -4891    -4915    -4927    -4958    -5000    -5009    -5003    -4996 
   -4918    -4727    -4509    -4379    -4349    -4365    -4449    -4671 
   -5022    -5427    -5768    -5881    -5698    -5317    -4885    -4515 
   -4307    -4367    -4665    -4966    -5093    -5120    -5124    -5082 
   -5011    -4980    -4989    -4986    -4958    -4916    -4842    -4761 
   -4723    -4703    -4688    -4731    -4804    -4839    -4877    -4912 
   -4828    -4638    -4546    -4683    -4984    -5377    -5802    -6077 
   -6008    -5594    -5031    -4561    -4355    -4455    -4720    -4911 
   -4918    -4834    -4796    -4824    -4846    -4823    -4758    -4650 
   -4542    -4553    -4773    -5112    -5333    -5337    -5229    -5101 
   -4951    -4826    -4823    -4938    -5055    -5107    -5105    -5080 
   -5026    -4922    -4789    -4714    -4703    -4706    -4733    -4761 
   -4722    -4679    -4731    -4839    -4942    -5062    -5157    -5144 
   -5084    -5076    -5071    -4989    -4865    -4768    -4748    -4837 
   -5032    -5258    -5360    -5265    -5024    -4781    -4714    -4865 
   -5069    -5143    -5085    -4973    -4812    -4615    -4452    -4341 
   -4286    -4356    -4581    -4889    -5157    -5273    -5225    -5139 
   -5147    -5294    -5552    -5806    -5842    -5530    -4992    -4492 
   -4197    -4126    -4252    -4498    -4727    -4866    -4977    -5138 
   -5313    -5402    -5362    -5267    -5166    -5011    -4837    -4768 
   -4792    -4792    -4737    -4671    -4598    -4545    -4595    -4745 
   -4881    -4965    -5057    -5121    -5065    -4963    -4945    -4965 
   -4989    -5115    -5300    -5339    -5143    -4824    -4523    -4341 
   -4392    -4671    -5023    -5298    -5375    -5188    -4865    -4656 
   -4661    -4816    -5036    -5217    -5250    -5155    -5027    -4908 
   -4833    -4837    -4899    -4954    -4959    -4912    -4847    -4801 
   -4820    -4954    -5189    -5351    -5242    -4896    -4564    -4441 
   -4564    -4862    -5143    -5202    -5036    -4804    -4661    -4716 
   -4954    -5174    -5181    -4981    -4719    -4540    -4550    -4764 
   -5085    -5389    -5564    -5499    -5212    -4881    -4660    -4565 
   -4572    -4661    -4789    -4907    -4976    -4966    -4923    -4965 
   -5113    -5256    -5325    -5305    -5120    -4810    -4592    -4581 
   -4703    -4874    -4999    -4966    -4816    -4727    -4810    -5005 
   -5196    -5297    -5240    -4997    -4642    -4357    -4345    -4645 
   -5088    -5451    -5552    -5317    -4872    -4495    -4392    -4530 
   -4791    -5093    -5319    -5343    -5157    -4865    -4614    -4480 
   -4490    -4635    -4865    -5088    -5242    -5312    -5292    -5177 
   -5040    -4980    -5004    -5058    -5142    -5223    -5169    -4954 
   -4722    -4577    -4491    -4423    -4402    -4498    -4689    -4872 
   -5005    -5117    -5174    -5186    -5247    -5344    -5367    -5292 
   -5130    -4880    -4629    -4490    -4502    -4715    -5077    -5337 
   -5306    -5089    -4857    -4675    -4608    -4702    -4860    -4943 
   -4923    -4860    -4826    -4888    -5100    -5362    -5470    -5343 
   -5038    -4661    -4369    -4294    -4414    -4630    -4872    -5060 
   -5146    -5169    -5143    -5023    -4865    -4822    -4945    -5097 
   -5147    -5086    -4976    -4882    -4854    -4911    -5077    -5233 
   -5212    -5059    -4923    -4818    -4715    -4610    -4515    -4519 
   -4680    -4923    -5143    -5271    -5263    -5096    -4826    -4595 
   -4511    -4577    -4727    -4874    -4996    -5113    -5216    -5265 
   -5228    -5163    -5151    -5116    -4974    -4822    -4720    -4621 
   -4553    -4592    -4742    -4954    -5169    -5297    -5267    -5147 
   -5043    -4946    -4808    -4666    -4621    -4687    -4806    -4958 
   -5128    -5225    -5217    -5189    -5166    -5088    -4961    -4858 
   -4801    -4785    -4806    -4849    -4858    -4803    -4734    -4699 
   -4708    -4774    -4918    -5136    -5314    -5327    -5224    -5096 
   -4953    -4873    -4885    -4900    -4869    -4795    -4715    -4719 
   -4831    -4959    -5011    -4993    -4989    -5032    -5074    -5062 
   -4955    -4758    -4554    -4441    -4476    -4622    -4795    -4968 
   -5113    -5186    -5223    -5296    -5383    -5393    -5263    -5039 
   -4812    -4653    -4619    -4739    -4893    -4912    -4812    -4760 
   -4843    -5008    -5146    -5221    -5250    -5194    -5030    -4823 
   -4623    -4450    -4410    -4572    -4824    -4997    -5063    -5060 
   -5005    -5019    -5221    -5486    -5570    -5387    -5047    -4702 
   -4492    -4533    -4773    -5027    -5142    -5042    -4814    -4665 
   -4668    -4735    -4780    -4776    -4765    -4808    -4887    -4961 
   -5030    -5085    -5115    -5150    -5211    -5277    -5266    -5097 
   -4818    -4563    -4436    -4467    -4573    -4695    -4839    -4935 
   -4926    -4949    -5113    -5287    -5333    -5282    -5174    -4989 
   -4779    -4661    -4710    -4866    -4977    -4965    -4873    -4788 
   -4769    -4814    -4874    -4899    -4903    -4939    -5017    -5093 
   -5135    -5154    -5161    -5138    -5049    -4878    -4698    -4564 
   -4471    -4428    -4488    -4648    -4838    -5040    -5247    -5381 
   -5401    -5360    -5262    -5070    -4864    -4789    -4912    -5173 
   -5397    -5377    -5036    -4530    -4144    -4082    -4329    -4718 
   -5062    -5220    -5193    -5108    -5069    -5098    -5175    -5254 
   -5256    -5131    -4918    -4723    -4623    -4660    -4781    -4899 
   -4993    -5065    -5077    -5015    -4908    -4776    -4633    -4554 
   -4621    -4783    -4958    -5123    -5221    -5208    -5143    -5117 
   -5130    -5103    -5019    -4966    -4994    -5034    -4984    -4811 
   -4584    -4456    -4525    -4770    -5082    -5314    -5368    -5231 
   -4970    -4730    -4675    -4824    -5001    -5055    -4985    -4837 
   -4656    -4535    -4546    -4675    -4877    -5086    -5201    -5196 
   -5128    -5049    -4970    -4918    -4947    -5030    -5044    -4941 
   -4797    -4738    -4787    -4881    -4976    -5063    -5128    -5117 
   -5015    -4885    -4804    -4796    -4885    -5062    -5220    -5225 
   -5053    -4823    -4623    -4467    -4433    -4584    -4797    -4941 
   -5016    -5043    -5013    -4993    -5042    -5081    -5055    -5030 
