Origin Time       2018/09/18 17:11:00
Lat.              36.048
Long.             139.798
Depth. (km)       77
Mag.              4.3
Station Code      NGN014
Station Lat.      36.0956
Station Long.     138.4844
Station Height(m) 857
Record Time       2018/09/18 17:11:32
Sampling Freq(Hz) 100Hz
Duration Time(s)  66
Dir.              U-D
Scale Factor      7845(gal)/8223790
Max. Acc. (gal)   0.947
Last Correction   2018/09/18 17:11:32
Memo.             
[...]
   12802    12804    12787    12785    12800    12803    12803    12804 
   12796    12785    12789    12802    12800    12795    12799    12804 
   12800    12793    12796    12800    12789    12789    12810    12808 
   12789    12792    12804    12803    12795    12791    12785    12791 
   12814    12820    12799    12779    12791    12808    12799    12789 
   12798    12802    12799    12798    12795    12789    12796    12806 
   12799    12783    12792    12811    12807    12799    12800    12789 
   12781    12798    12803    12792    12804    12822    12804    12772 
   12777    12796    12802    12810    12818    12804    12789    12787 
   12791    12793    12788    12795    12814    12812    12795    12789 
   12789    12785    12791    12808    12807    12792    12799    12810 
   12793    12783    12795    12802    12799    12803    12802    12792 
   12792    12799    12796    12791    12799    12806    12791    12781 
   12804    12818    12804    12793    12787    12779    12791    12816 
   12815    12783    12775    12806    12815    12788    12773    12796 
   12819    12816    12798    12776    12768    12791    12825    12822 
   12788    12775    12791    12804    12806    12798    12785    12791 
   12811    12808    12779    12776    12804    12819    12803    12784 
   12781    12793    12807    12810    12799    12788    12789    12796 
   12798    12795    12800    12806    12793    12788    12796    12791 
   12791    12811    12811    12788    12785    12800    12803    12792 
   12788    12798    12812    12808    12791    12779    12788    12803 
   12816    12808    12783    12784    12807    12804    12785    12788 
   12798    12800    12810    12807    12781    12779    12808    12814 
   12788    12781    12798    12807    12802    12792    12789    12793 
   12798    12803    12808    12795    12781    12793    12800    12793 
   12808    12810    12779    12775    12807    12816    12796    12785 
   12792    12800    12804    12804    12791    12769    12779    12820 
   12822    12788    12785    12798    12787    12791    12811    12804 
   12781    12789    12811    12806    12787    12796    12812    12799 
   12787    12793    12791    12792    12811    12808    12785    12787 
   12803    12802    12787    12791    12808    12803    12792    12802 
   12796    12781    12800    12816    12796    12783    12798    12808 
   12796    12784    12798    12814    12806    12795    12791    12784 
   12793    12812    12812    12788    12783    12804    12812    12796 
   12785    12791    12800    12806    12808    12793    12777    12791 
   12810    12799    12785    12799    12808    12800    12792    12788 
   12788    12800    12810    12799    12788    12795    12810    12804 
   12784    12781    12802    12811    12804    12796    12792    12789 
   12799    12808    12796    12783    12796    12799    12791    12802 
   12807    12792    12785    12795    12802    12798    12792    12793 
   12798    12803    12804    12795    12785    12791    12804    12807 
   12793    12791    12803    12798    12784    12793    12808    12807 
   12799    12792    12787    12791    12807    12806    12789    12796 
   12807    12796    12795    12799    12791    12789    12796    12804 
   12810    12803    12787    12785    12796    12795    12802    12815 
   12799    12779    12802    12812    12779    12784    12822    12806 
   12779    12802    12806    12779    12793    12818    12802    12779 
   12784    12798    12810    12808    12799    12792    12785    12796 
   12811    12800    12789    12804    12807    12792    12789    12795 
   12800    12812    12815    12796    12779    12785    12804    12804 
   12798    12811    12811    12788    12783    12793    12793    12796 
   12811    12815    12793    12775    12787    12804    12804    12808 
   12811    12791    12779    12795    12800    12793    12803    12812 
   12802    12791    12798    12799    12785    12784    12803    12812 
   12798    12785    12795    12795    12784    12802    12816    12791 
   12773    12796    12811    12799    12791    12798    12806    12799 
   12793    12796    12796    12796    12800    12792    12783    12800 
   12818    12802    12784    12796    12799    12784    12791    12806 
   12806    12806    12810    12795    12773    12779    12807    12814 
   12802    12804    12802    12783    12783    12798    12796    12793 
   12807    12810    12791    12785    12800    12800    12787    12789 
   12800    12799    12802    12816    12808    12775    12773    12806 
   12812    12793    12796    12811    12802    12788    12795    12795 
   12788    12802    12816    12810    12796    12792    12793    12787 
   12781    12793    12810    12814    12810    12800    12785    12779 
   12793    12800    12795    12804    12815    12799    12787    12798 
   12796    12781    12789    12814    12816    12806    12795    12779 
   12777    12798    12816    12807    12785    12789    12812    12811 
   12787    12779    12795    12804    12802    12800    12798    12791 
   12802    12810    12787    12776    12798    12810    12798    12795 
   12800    12799    12799    12799    12792    12789    12802    12810 
   12798    12788    12803    12811    12792    12781    12787    12795 
   12808    12822    12810    12783    12779    12796    12800    12796 
   12807    12808    12789    12789    12803    12793    12785    12798 
   12808    12799    12787    12795    12806    12799    12791    12792 
   12793    12788    12795    12807    12802    12795    12807    12804 
   12785    12784    12791    12791    12803    12822    12819    12788 
   12776    12793    12799    12796    12802    12800    12793    12800 
   12804    12799    12793    12795    12803    12804    12795    12796 
   12800    12788    12789    12812    12810    12787    12795    12806 
   12787    12779    12806    12819    12802    12787    12791    12791 
   12789    12806    12811    12795    12792    12806    12799    12781 
   12795    12811    12798    12796    12810    12796    12785    12804 
   12810    12791    12785    12798    12804    12793    12789    12807 
   12811    12796    12789    12787    12781    12802    12835    12816 
   12771    12777    12812    12815    12792    12779    12777    12793 
   12825    12830    12789    12758    12785    12820    12814    12789 
   12779    12784    12804    12819    12806    12779    12779    12804 
   12815    12800    12787    12792    12802    12802    12789    12781 
   12792    12811    12811    12793    12784    12793    12804    12795 
   12779    12792    12816    12810    12795    12792    12785    12787 
   12807    12814    12788    12776    12802    12816    12802    12784 
   12784    12798    12811    12815    12798    12777    12779    12800 
   12808    12808    12804    12791    12781    12792    12808    12806 
   12796    12799    12802    12788    12785    12802    12802    12792 
   12796    12802    12795    12789    12800    12807    12796    12789 
   12796    12800    12795    12799    12808    12798    12785    12791 
   12793    12796    12811    12811    12791    12785    12800    12807 
   12795    12784    12793    12803    12808    12808    12795    12785 
   12798    12808    12796    12783    12793    12811    12806    12796 
   12793    12785    12787    12811    12826    12800    12773    12788 
   12808    12803    12792    12789    12793    12804    12818    12810 
   12777    12775    12802    12804    12795    12799    12804    12800 
   12789    12785    12791    12799    12812    12814    12788    12776 
   12802    12816    12793    12779    12796    12803    12802    12808 
   12808    12787    12777    12799    12810    12799    12798    12804 
   12795    12788    12796    12798    12789    12795    12808    12808 
   12795    12787    12789    12792    12796    12800    12798    12800 
   12804    12793    12783    12789    12804    12806    12798    12796 
   12795    12788    12789    12810    12820    12791    12772    12793 
   12811    12800    12791    12793    12796    12798    12807    12804 
   12785    12787    12800    12800    12795    12796    12798    12791 
   12795    12810    12806    12785    12791    12800    12793    12800 
   12804    12792    12791    12803    12804    12793    12781    12785 
   12807    12815    12803    12792    12787    12783    12798    12814 
   12798    12785    12796    12800    12796    12804    12803    12779 
   12776    12806    12822    12807    12787    12783    12792    12796 
   12802    12807    12789    12781    12807    12811    12785    12781 
   12792    12798    12803    12806    12800    12787    12787    12804 
   12808    12795    12789    12796    12800    12799    12799    12799 
   12795    12792    12796    12799    12802    12806    12802    12791 
   12787    12788    12793    12806    12815    12798    12776    12788 
   12807    12802    12787    12787    12803    12807    12800    12798 
   12789    12779    12798    12816    12807    12784    12783    12799 
   12803    12799    12795    12789    12792    12802    12806    12799 
   12791    12792    12799    12802    12800    12788    12777    12789 
   12811    12814    12792    12787    12799    12795    12791    12803 
   12799    12784    12785    12803    12814    12803    12784    12788 
   12796    12795    12796    12796    12798    12806    12804    12791 
   12783    12789    12803    12804    12802    12800    12789    12784 
   12804    12812    12788    12777    12804    12819    12798    12784 
   12791    12798    12803    12808    12803    12787    12788    12806 
   12803    12787    12792    12804    12804    12802    12798    12788 
   12783    12793    12806    12799    12793    12804    12800    12781 
   12788    12811    12806    12787    12791    12803    12796    12792 
   12806    12807    12788    12784    12803    12806    12793    12800 
   12803    12787    12791    12804    12795    12791    12802    12799 
   12792    12796    12803    12796    12785    12791    12802    12806 
   12806    12802    12792    12785    12789    12806    12800    12788 
   12799    12808    12796    12789    12791    12795    12802    12806 
   12800    12785    12787    12806    12806    12795    12793    12793 
   12793    12796    12800    12803    12795    12788    12796    12802 
   12799    12799    12800    12795    12788    12796    12807    12802 
   12792    12793    12795    12792    12796    12803    12802    12798 
   12798    12792    12781    12789    12808    12804    12796    12799 
   12796    12791    12796    12800    12798    12798    12798    12792 
   12796    12808    12807    12793    12787    12798    12804    12795 
   12792    12800    12803    12799    12796    12793    12793    12799 
   12802    12795    12791    12795    12803    12799    12788    12796 
   12808    12793    12789    12804    12799    12792    12803    12802 
   12789    12789    12799    12806    12802    12792    12793    12796 
   12795    12804    12806    12789    12784    12798    12810    12803 
   12792    12795    12798    12795    12798    12792    12788    12799 
   12807    12803    12796    12793    12791    12789    12795    12807 
   12810    12796    12788    12793    12795    12793    12800    12803 
   12798    12796    12800    12796    12793    12800    12793    12783 
   12798    12816    12804    12785    12787    12795    12795    12800 
   12810    12802    12788    12798    12804    12793    12791    12795 
   12789    12796    12808    12807    12800    12793    12791    12800 
   12800    12787    12795    12810    12803    12796    12799    12793 
   12793    12804    12803    12787    12789    12807    12799    12785 
   12798    12812    12803    12793    12788    12791    12800    12802 
   12799    12795    12793    12803    12806    12793    12785    12791 
   12802    12806    12806    12803    12785    12777    12804    12815 
   12798    12792    12799    12796    12792    12793    12796    12793 
   12802    12811    12795    12779    12793    12807    12803    12796 
   12789    12785    12789    12796    12798    12793    12792    12792 
   12789    12783    12779    12779    12771    12768    12784    12791 
   12783    12779    12792    12815    12847    12868    12868    12855 
   12849    12855    12847    12822    12795    12773    12739    12698 
   12679    12698    12746    12814    12858    12837    12781    12744 
   12734    12771    12841    12873    12839    12775    12737    12741 
   12753    12754    12744    12731    12765    12858    12943    12972 
   12969    12950    12904    12842    12791    12760    12741    12741 
   12753    12744    12735    12784    12849    12861    12820    12766 
   12764    12815    12826    12768    12685    12627    12663    12800 
   12942    12999    12934    12741    12533    12502    12691    12960 
   13139    13112    12888    12629    12513    12561    12671    12776 
   12880    12946    12883    12700    12548    12552    12745    13004 
   13105    13020    12895    12785    12710    12675    12629    12610 
   12672    12750    12829    12960    13100    13167    13134    13036 
   12996    13051    13061    12920    12703    12556    12567    12711 
   12853    12876    12765    12519    12240    12109    12175    12422 
   12822    13203    13371    13281    12980    12617    12396    12380 
   12478    12607    12798    13131    13531    13761    13639    13131 
   12413    11859    11804    12253    12897    13393    13541    13314 
   12864    12455    12299    12398    12586    12722    12793    12900 
   13069    13150    12981    12614    12360    12425    12667    12919 
   13090    13089    12926    12680    12478    12452    12629    12928 
   13161    13177    13027    12870    12847    12962    13050    12942 
   12645    12380    12295    12320    12448    12698    12947    13104 
   13134    13035    12895    12769    12663    12618    12694    12881 
   13100    13225    13120    12766    12398    12307    12505    12764 
   12906    12928    12960    13015    12991    12903    12846    12777 
   12629    12476    12422    12518    12752    12943    12947    12906 
   12897    12795    12629    12571    12634    12745    12895    13089 
   13257    13262    13077    12822    12561    12324    12267    12467 
   12800    13111    13263    13184    12954    12690    12479    12402 
   12479    12700    12968    13132    13151    13005    12735    12556 
   12576    12671    12745    12788    12731    12646    12738    12924 
   12996    12964    12870    12741    12715    12808    12847    12835 
   12910    12987    12911    12749    12588    12498    12592    12781 
   12865    12888    12937    12958    12951    12968    12903    12646 
   12368    12328    12522    12793    13024    13143    13136    13011 
   12793    12609    12581    12718    12884    12930    12926    12984 
   13005    12912    12779    12660    12563    12526    12563    12598 
   12630    12723    12847    12953    13001    12978    12977    13038 
   13030    12860    12614    12453    12461    12569    12700    12883 
   13117    13240    13090    12753    12469    12406    12517    12649 
   12795    12968    13036    12924    12777    12717    12722    12804 
   12933    12969    12884    12760    12660    12668    12853    13139 
   13323    13266    12993    12631    12337    12197    12259    12532 
   12862    13022    12969    12793    12603    12518    12599    12795 
   12985    13047    12954    12827    12816    12885    12903    12880 
   12843    12787    12735    12629    12509    12568    12775    12992 
   13162    13172    12980    12692    12425    12332    12525    12860 
   13076    13077    12926    12742    12656    12734    12898    12997 
   12968    12857    12726    12623    12590    12660    12838    13051 
   13161    13089    12912    12745    12586    12424    12357    12505 
   12812    13063    13123    13035    12880    12700    12599    12641 
   12754    12896    12991    12919    12753    12649    12634    12675 
   12715    12717    12717    12802    12977    13096    13018    12829 
   12702    12617    12542    12583    12729    12891    13042    13080 
   12950    12783    12661    12579    12576    12702    12895    13012 
   13011    12915    12777    12700    12719    12810    12906    12893 
   12781    12669    12588    12564    12642    12822    13050    13209 
   13165    12927    12656    12518    12546    12644    12792    12973 
   12978    12722    12449    12413    12619    12850    12954    12996 
   13028    13004    12911    12781    12696    12717    12768    12754 
   12729    12802    12926    12960    12883    12777    12703    12695 
   12738    12785    12822    12835    12816    12781    12727    12702 
   12764    12818    12756    12671    12706    12891    13108    13171 
   12999    12712    12509    12459    12534    12721    12964    13077 
   12969    12815    12748    12706    12692    12744    12841    12978 
   13072    13001    12802    12586    12461    12491    12630    12804 
   12989    13139    13129    12888    12580    12401    12398    12598 
   12926    13157    13213    13117    12825    12491    12426    12625 
   12829    12911    12908    12854    12761    12676    12676    12792 
   12970    13053    12943    12756    12663    12685    12717    12721 
   12777    12897    12964    12923    12854    12804    12752    12707 
   12722    12775    12762    12676    12644    12737    12888    12981 
   12930    12806    12739    12733    12764    12822    12861    12858 
   12827    12754    12618    12490    12540    12827    13159    13279 
   13086    12707    12409    12368    12546    12789    12977    13053 
   13026    12953    12853    12722    12614    12625    12756    12926 
   13055    13078    12969    12773    12575    12474    12533    12722 
   12910    12988    12964    12870    12746    12661    12636    12656 
   12730    12846    12908    12880    12837    12810    12781    12771 
   12781    12802    12804    12753    12664    12595    12623    12791 
   13018    13188    13223    13090    12864    12657    12534    12522 
   12581    12647    12734    12846    12911    12916    12921    12919 
   12891    12850    12753    12629    12594    12664    12758    12811 
   12852    12908    12933    12912    12874    12818    12756    12725 
   12746    12789    12773    12671    12561    12568    12750    13014 
   13170    13122    12946    12731    12498    12361    12460    12696 
   12861    12931    12987    13020    12993    12904    12762    12636 
   12640    12772    12870    12843    12799    12802    12779    12758 
   12811    12872    12879    12834    12745    12694    12766    12892 
   12949    12941    12906    12803    12694    12695    12742    12717 
   12654    12633    12685    12798    12864    12862    12906    12991 
   12984    12866    12729    12627    12623    12744    12906    12980 
   12931    12826    12735    12687    12703    12792    12862    12835 
   12752    12652    12587    12649    12807    12908    12916    12904 
   12880    12814    12773    12818    12868    12812    12669    12571 
   12621    12795    12958    13011    12993    12958    12874    12721 
   12561    12534    12664    12802    12883    12977    13024    12921 
