Origin Time       2018/09/18 17:11:00
Lat.              36.048
Long.             139.798
Depth. (km)       77
Mag.              4.3
Station Code      NGN014
Station Lat.      36.0956
Station Long.     138.4844
Station Height(m) 857
Record Time       2018/09/18 17:11:32
Sampling Freq(Hz) 100Hz
Duration Time(s)  66
Dir.              N-S
Scale Factor      7845(gal)/8223790
Max. Acc. (gal)   2.073
Last Correction   2018/09/18 17:11:32
Memo.             
[...]
  -11079   -11074   -11080   -11091   -11099   -11105   -11095   -11080 
  -11083   -11084   -11072   -11075   -11094   -11102   -11092   -11079 
  -11080   -11087   -11088   -11092   -11099   -11098   -11086   -11080 
  -11087   -11080   -11072   -11092   -11113   -11103   -11079   -11065 
  -11075   -11097   -11101   -11087   -11076   -11088   -11107   -11097 
  -11072   -11075   -11099   -11111   -11101   -11084   -11070   -11055 
  -11068   -11105   -11117   -11094   -11084   -11088   -11083   -11083 
  -11095   -11098   -11086   -11078   -11079   -11084   -11095   -11105 
  -11099   -11087   -11084   -11086   -11074   -11068   -11083   -11099 
  -11102   -11099   -11094   -11083   -11082   -11094   -11097   -11082 
  -11078   -11091   -11101   -11091   -11070   -11061   -11080   -11114 
  -11129   -11102   -11065   -11068   -11086   -11086   -11088   -11101 
  -11105   -11099   -11091   -11078   -11060   -11065   -11099   -11115 
  -11094   -11074   -11082   -11105   -11105   -11076   -11059   -11074 
  -11097   -11111   -11113   -11097   -11075   -11072   -11080   -11080 
  -11075   -11083   -11105   -11115   -11097   -11064   -11070   -11105 
  -11109   -11079   -11068   -11078   -11087   -11090   -11091   -11092 
  -11095   -11105   -11105   -11082   -11055   -11055   -11091   -11122 
  -11110   -11082   -11072   -11080   -11090   -11087   -11086   -11091 
  -11097   -11098   -11086   -11080   -11097   -11101   -11076   -11059 
  -11074   -11102   -11110   -11097   -11083   -11072   -11080   -11101 
  -11103   -11088   -11083   -11086   -11084   -11082   -11086   -11090 
  -11087   -11086   -11091   -11088   -11080   -11082   -11091   -11099 
  -11101   -11094   -11074   -11060   -11084   -11109   -11097   -11079 
  -11082   -11094   -11097   -11097   -11087   -11065   -11065   -11097 
  -11113   -11090   -11067   -11079   -11102   -11105   -11094   -11082 
  -11079   -11090   -11102   -11095   -11075   -11071   -11084   -11087 
  -11084   -11087   -11086   -11090   -11103   -11103   -11083   -11065 
  -11078   -11097   -11099   -11101   -11099   -11086   -11076   -11079 
  -11080   -11079   -11084   -11095   -11097   -11079   -11075   -11095 
  -11109   -11101   -11087   -11080   -11080   -11084   -11094   -11087 
  -11072   -11083   -11105   -11107   -11084   -11072   -11079   -11079 
  -11080   -11102   -11111   -11094   -11080   -11079   -11084   -11095 
  -11094   -11075   -11068   -11098   -11118   -11097   -11071   -11064 
  -11070   -11084   -11105   -11111   -11095   -11078   -11086   -11103 
  -11094   -11082   -11086   -11080   -11064   -11076   -11109   -11117 
  -11090   -11080   -11091   -11084   -11075   -11083   -11091   -11098 
  -11103   -11087   -11062   -11064   -11092   -11110   -11109   -11095 
  -11074   -11065   -11090   -11111   -11099   -11075   -11076   -11095 
  -11102   -11094   -11079   -11067   -11071   -11090   -11103   -11095 
  -11090   -11102   -11105   -11086   -11067   -11076   -11097   -11098 
  -11088   -11086   -11086   -11086   -11091   -11092   -11082   -11078 
  -11092   -11103   -11088   -11072   -11071   -11078   -11097   -11119 
  -11117   -11088   -11068   -11080   -11101   -11099   -11079   -11061 
  -11064   -11090   -11119   -11114   -11082   -11068   -11082   -11091 
  -11084   -11079   -11084   -11098   -11113   -11111   -11083   -11065 
  -11076   -11087   -11087   -11097   -11101   -11083   -11074   -11080 
  -11091   -11105   -11110   -11091   -11062   -11062   -11091   -11099 
  -11087   -11084   -11090   -11098   -11103   -11098   -11083   -11068 
  -11078   -11107   -11105   -11068   -11057   -11090   -11111   -11102 
  -11088   -11083   -11088   -11095   -11094   -11078   -11065   -11083 
  -11117   -11114   -11080   -11071   -11083   -11079   -11080   -11103 
  -11105   -11080   -11070   -11082   -11099   -11118   -11115   -11079 
  -11049   -11068   -11105   -11105   -11092   -11091   -11083   -11060 
  -11067   -11101   -11119   -11110   -11087   -11065   -11062   -11090 
  -11115   -11102   -11076   -11074   -11078   -11086   -11103   -11110 
  -11092   -11075   -11079   -11088   -11083   -11074   -11080   -11095 
  -11101   -11101   -11098   -11090   -11080   -11076   -11076   -11079 
  -11090   -11105   -11101   -11078   -11071   -11088   -11099   -11082 
  -11072   -11090   -11105   -11103   -11098   -11080   -11064   -11082 
  -11113   -11105   -11076   -11078   -11095   -11101   -11092   -11067 
  -11049   -11075   -11118   -11122   -11097   -11079   -11079   -11087 
  -11092   -11098   -11097   -11083   -11079   -11086   -11086   -11082 
  -11088   -11099   -11091   -11080   -11084   -11092   -11092   -11091 
  -11087   -11082   -11084   -11098   -11101   -11084   -11072   -11078 
  -11095   -11110   -11102   -11080   -11072   -11074   -11086   -11098 
  -11088   -11072   -11084   -11105   -11110   -11099   -11084   -11075 
  -11078   -11084   -11087   -11087   -11090   -11098   -11098   -11087 
  -11087   -11086   -11076   -11083   -11097   -11097   -11087   -11071 
  -11078   -11109   -11115   -11095   -11074   -11055   -11071   -11107 
  -11118   -11109   -11088   -11049   -11041   -11088   -11136   -11125 
  -11076   -11045   -11068   -11121   -11132   -11092   -11049   -11043 
  -11083   -11124   -11113   -11086   -11079   -11074   -11072   -11091 
  -11103   -11092   -11079   -11078   -11090   -11099   -11103   -11109 
  -11088   -11056   -11065   -11094   -11098   -11098   -11091   -11064 
  -11068   -11105   -11111   -11092   -11078   -11076   -11092   -11103 
  -11101   -11094   -11075   -11061   -11079   -11098   -11095   -11090 
  -11088   -11076   -11074   -11094   -11105   -11098   -11088   -11079 
  -11074   -11075   -11087   -11103   -11102   -11095   -11098   -11087 
  -11065   -11070   -11087   -11087   -11088   -11102   -11102   -11084 
  -11074   -11084   -11099   -11097   -11088   -11094   -11091   -11070 
  -11065   -11087   -11099   -11095   -11090   -11086   -11086   -11090 
  -11095   -11092   -11070   -11064   -11091   -11109   -11107   -11102 
  -11072   -11053   -11088   -11118   -11094   -11070   -11070   -11079 
  -11105   -11129   -11101   -11045   -11041   -11099   -11136   -11110 
  -11065   -11049   -11079   -11122   -11124   -11086   -11048   -11056 
  -11105   -11122   -11094   -11072   -11068   -11083   -11095   -11086 
  -11080   -11097   -11105   -11091   -11075   -11072   -11090   -11095 
  -11078   -11084   -11105   -11102   -11082   -11072   -11078   -11088 
  -11099   -11102   -11087   -11075   -11086   -11103   -11101   -11074 
  -11061   -11079   -11097   -11103   -11105   -11090   -11062   -11068 
  -11097   -11101   -11088   -11092   -11095   -11091   -11087   -11074 
  -11070   -11090   -11110   -11098   -11075   -11076   -11090   -11095 
  -11091   -11090   -11095   -11091   -11076   -11079   -11086   -11080 
  -11087   -11105   -11102   -11091   -11094   -11087   -11075   -11079 
  -11086   -11086   -11099   -11113   -11092   -11065   -11068   -11091 
  -11101   -11092   -11086   -11091   -11090   -11080   -11082   -11084 
  -11083   -11097   -11114   -11101   -11072   -11062   -11070   -11091 
  -11115   -11110   -11079   -11074   -11091   -11084   -11068   -11082 
  -11109   -11109   -11082   -11068   -11080   -11094   -11098   -11098 
  -11094   -11088   -11079   -11070   -11080   -11101   -11105   -11092 
  -11083   -11079   -11072   -11074   -11099   -11117   -11098   -11067 
  -11061   -11086   -11103   -11091   -11084   -11094   -11092   -11087 
  -11092   -11090   -11075   -11076   -11094   -11097   -11091   -11091 
  -11083   -11076   -11090   -11097   -11084   -11076   -11083   -11097 
  -11105   -11092   -11075   -11074   -11084   -11099   -11107   -11092 
  -11070   -11074   -11084   -11080   -11094   -11114   -11102   -11076 
  -11072   -11075   -11076   -11097   -11121   -11107   -11074   -11068 
  -11087   -11092   -11086   -11088   -11094   -11087   -11090   -11105 
  -11097   -11071   -11076   -11095   -11082   -11072   -11097   -11105 
  -11087   -11091   -11098   -11075   -11068   -11094   -11105   -11092 
  -11083   -11078   -11070   -11078   -11103   -11115   -11092   -11062 
  -11074   -11101   -11107   -11101   -11086   -11062   -11059   -11083 
  -11101   -11097   -11098   -11099   -11082   -11079   -11097   -11088 
  -11068   -11078   -11098   -11099   -11087   -11080   -11088   -11098 
  -11101   -11095   -11076   -11067   -11088   -11103   -11086   -11072 
  -11082   -11092   -11101   -11105   -11090   -11074   -11082   -11095 
  -11094   -11088   -11084   -11086   -11094   -11092   -11080   -11080 
  -11088   -11092   -11095   -11084   -11067   -11075   -11102   -11113 
  -11101   -11083   -11075   -11086   -11105   -11101   -11075   -11062 
  -11072   -11095   -11109   -11095   -11084   -11092   -11097   -11087 
  -11075   -11067   -11076   -11105   -11117   -11092   -11074   -11078 
  -11082   -11092   -11103   -11094   -11075   -11072   -11084   -11098 
  -11101   -11094   -11092   -11090   -11078   -11079   -11090   -11086 
  -11083   -11091   -11091   -11087   -11094   -11094   -11088   -11092 
  -11094   -11082   -11079   -11095   -11098   -11082   -11075   -11082 
  -11094   -11094   -11087   -11090   -11088   -11079   -11092   -11105 
  -11090   -11079   -11086   -11088   -11080   -11078   -11083   -11094 
  -11101   -11097   -11092   -11088   -11083   -11086   -11088   -11079 
  -11082   -11091   -11092   -11097   -11101   -11087   -11079   -11087 
  -11091   -11082   -11070   -11074   -11095   -11103   -11099   -11099 
  -11090   -11074   -11084   -11102   -11095   -11083   -11076   -11070 
  -11084   -11117   -11114   -11079   -11061   -11079   -11102   -11107 
  -11098   -11083   -11070   -11068   -11087   -11109   -11105   -11091 
  -11084   -11079   -11082   -11086   -11080   -11083   -11092   -11095 
  -11094   -11094   -11088   -11087   -11088   -11082   -11080   -11091 
  -11091   -11086   -11099   -11094   -11065   -11071   -11095   -11097 
  -11099   -11101   -11088   -11084   -11086   -11080   -11088   -11095 
  -11083   -11079   -11090   -11090   -11090   -11088   -11083   -11094 
  -11101   -11079   -11071   -11083   -11092   -11105   -11101   -11082 
  -11080   -11090   -11086   -11087   -11087   -11078   -11083   -11095 
  -11090   -11090   -11097   -11087   -11086   -11090   -11083   -11090 
  -11103   -11094   -11080   -11078   -11084   -11095   -11094   -11087 
  -11091   -11088   -11076   -11076   -11091   -11102   -11097   -11101 
  -11099   -11080   -11074   -11075   -11076   -11095   -11107   -11091 
  -11080   -11076   -11083   -11098   -11098   -11086   -11079   -11079 
  -11091   -11105   -11105   -11092   -11071   -11064   -11080   -11097 
  -11094   -11086   -11090   -11099   -11092   -11072   -11075   -11097 
  -11103   -11091   -11075   -11076   -11102   -11115   -11098   -11079 
  -11078   -11090   -11092   -11076   -11070   -11076   -11086   -11099 
  -11113   -11109   -11086   -11074   -11075   -11078   -11086   -11102 
  -11105   -11092   -11076   -11070   -11080   -11097   -11102   -11098 
  -11087   -11078   -11076   -11086   -11094   -11090   -11084   -11088 
  -11090   -11092   -11099   -11090   -11070   -11074   -11097   -11107 
  -11097   -11086   -11082   -11080   -11082   -11082   -11083   -11091 
  -11103   -11103   -11092   -11078   -11068   -11078   -11090   -11097 
  -11109   -11107   -11086   -11074   -11079   -11087   -11090   -11088 
  -11090   -11087   -11082   -11086   -11091   -11095   -11094   -11088 
  -11090   -11091   -11083   -11080   -11086   -11091   -11094   -11088 
  -11087   -11095   -11087   -11074   -11076   -11091   -11094   -11084 
  -11086   -11097   -11092   -11083   -11087   -11088   -11082   -11087 
  -11091   -11082   -11086   -11098   -11097   -11084   -11086   -11090 
  -11086   -11087   -11092   -11090   -11084   -11087   -11090   -11084 
  -11091   -11102   -11087   -11068   -11075   -11088   -11092   -11091 
  -11087   -11082   -11083   -11091   -11101   -11097   -11083   -11080 
  -11084   -11095   -11095   -11076   -11065   -11075   -11091   -11103 
  -11097   -11086   -11084   -11084   -11094   -11114   -11114   -11087 
  -11068   -11072   -11078   -11078   -11070   -11064   -11071   -11078 
  -11075   -11072   -11098   -11145   -11167   -11159   -11140   -11110 
  -11075   -11049   -11051   -11082   -11109   -11103   -11084   -11056 
  -11001   -10944   -10928   -10957   -11020   -11122   -11234   -11292 
  -11290   -11275   -11286   -11302   -11247   -11071   -10843   -10716 
  -10759   -10897   -10999   -11024   -11025   -11072   -11163   -11226 
  -11237   -11223   -11214   -11245   -11296   -11294   -11250   -11209 
  -11122   -10966   -10783   -10613   -10498   -10501   -10651   -10933 
  -11299   -11651   -11873   -11834   -11549   -11211   -10953   -10827 
  -10854   -10962   -11045   -11033   -10903   -10786   -10868   -11144 
  -11407   -11410   -11107   -10806   -10793   -10982   -11192   -11361 
  -11439   -11411   -11307   -11136   -10920   -10750   -10698   -10710 
  -10741   -10858   -11047   -11171   -11206   -11186   -11133   -11153 
  -11261   -11277   -11118   -10926   -10889   -11022   -11217   -11399 
  -11542   -11661   -11769   -11762   -11487   -10897   -10195    -9784 
   -9898   -10361   -10854   -11211   -11429   -11574   -11732   -11855 
  -11732   -11237   -10563   -10135   -10272   -10917   -11727   -12329 
  -12422   -11847   -10821    -9868    -9404    -9555   -10133   -10794 
  -11352   -11863   -12373   -12707   -12627   -12089   -11211   -10154 
   -9238    -8915    -9421   -10593   -11966   -12972   -13216   -12688 
  -11659   -10455    -9435    -8995    -9396   -10537   -11907   -12853 
  -13007   -12436   -11504   -10593    -9983    -9830   -10138   -10704 
  -11250   -11603   -11669   -11458   -11132   -10821   -10624   -10670 
  -10937   -11211   -11365   -11419   -11398   -11315   -11268   -11287 
  -11247   -11068   -10825   -10654   -10678   -10886   -11082   -11110 
  -11032   -10972   -10962   -10984   -10990   -10951   -10960   -11074 
  -11221   -11384   -11518   -11492   -11391   -11408   -11515   -11562 
  -11500   -11304   -10933   -10490   -10168   -10025   -10046   -10331 
  -10962   -11677   -12032   -11931   -11600   -11186   -10806   -10663 
  -10816   -11144   -11491   -11688   -11615   -11349   -11055   -10782 
  -10543   -10454   -10552   -10712   -10852   -10980   -11124   -11365 
  -11715   -11934   -11790   -11446   -11144   -10878   -10683   -10646 
  -10686   -10736   -10824   -10871   -10818   -10810   -10947   -11111 
  -11181   -11161   -11115   -11130   -11264   -11491   -11770   -11961 
  -11804   -11353   -11021   -10983   -11032   -10990   -10795   -10482 
  -10281   -10369   -10616   -10858   -11118   -11442   -11724   -11857 
  -11858   -11724   -11372   -10821   -10262    -9891    -9837   -10172 
  -10783   -11376   -11780   -11997   -12013   -11843   -11577   -11284 
  -11025   -10844   -10760   -10786   -10889   -11009   -11099   -11098 
  -10956   -10760   -10650   -10624   -10669   -10862   -11218   -11618 
  -11929   -12089   -12073   -11850   -11360   -10701   -10197   -10033 
  -10111   -10323   -10606   -10878   -11165   -11504   -11713   -11655 
  -11468   -11292   -11115   -10943   -10847   -10887   -11068   -11358 
  -11673   -11824   -11577   -10956   -10399   -10265   -10444   -10724 
  -11107   -11531   -11761   -11738   -11562   -11233   -10778   -10386 
  -10193   -10187   -10359   -10731   -11180   -11488   -11635   -11728 
  -11722   -11543   -11308   -11161   -11145   -11217   -11296   -11353 
  -11365   -11249   -10968   -10633   -10376   -10228   -10219   -10413 
  -10785   -11200   -11506   -11600   -11553   -11499   -11520   -11608 
  -11620   -11433   -11092   -10700   -10354   -10207   -10385   -10854 
  -11411   -11813   -11878   -11557   -11071   -10739   -10620   -10656 
  -10932   -11404   -11755   -11761   -11439   -10945   -10552   -10463 
  -10606   -10787   -10859   -10806   -10806   -11036   -11437   -11742 
  -11788   -11674   -11508   -11249   -10933   -10685   -10523   -10501 
  -10743   -11121   -11330   -11269   -11071   -10902   -10916   -11095 
  -11244   -11283   -11300   -11375   -11516   -11615   -11464   -11005 
  -10436   -10038   -10017   -10401   -10991   -11529   -11848   -11848 
  -11562   -11176   -10887   -10804   -10933   -11156   -11310   -11371 
  -11422   -11391   -11110   -10667   -10377   -10434   -10731   -11014 
  -11161   -11218   -11263   -11321   -11365   -11373   -11389   -11415 
  -11329   -11067   -10773   -10629   -10633   -10677   -10768   -10948 
  -11157   -11344   -11514   -11665   -11745   -11661   -11368   -10957 
  -10643   -10598   -10785   -10975   -11014   -10966   -10968   -11009 
  -10926   -10710   -10606   -10797   -11138   -11352   -11410   -11491 
  -11570   -11458   -11173   -10944   -10897   -11024   -11280   -11568 
  -11735   -11658   -11242   -10574   -10066   -10103   -10580   -11055 
  -11272   -11300   -11269   -11194   -11048   -10929   -11003   -11226 
  -11391   -11365   -11137   -10883   -10875   -11044   -11067   -10971 
  -11047   -11260   -11358   -11361   -11412   -11431   -11288   -11041 
  -10860   -10882   -11029   -11034   -10777   -10469   -10374   -10567 
  -10986   -11473   -11766   -11685   -11317   -10930   -10773   -10903 
  -11176   -11403   -11510   -11481   -11304   -11060   -10921   -10948 
  -10970   -10794   -10521   -10446   -10714   -11217   -11685   -11840 
  -11611   -11218   -10941   -10844   -10868   -11017   -11247   -11372 
  -11267   -11029   -10831   -10810   -11024   -11313   -11352   -11025 
  -10617   -10443   -10539   -10794   -11084   -11303   -11480   -11696 
  -11826   -11692   -11315   -10820   -10422   -10378   -10708   -11128 
  -11373   -11399   -11275   -11080   -10944   -10978   -11097   -11159 
  -11210   -11294   -11291   -11173   -11052   -10993   -10993   -11013 
  -11006   -10991   -10999   -11006   -10949   -10844   -10844   -11091 
  -11477   -11701   -11601   -11276   -10893   -10557   -10384   -10477 
  -10800   -11203   -11554   -11765   -11766   -11539   -11203   -10956 
  -10851   -10788   -10750   -10791   -10905   -11037   -11159   -11242 
  -11257   -11191   -11080   -10976   -10910   -10897   -10951   -11067 
  -11237   -11460   -11670   -11736   -11562   -11168   -10694   -10358 
  -10281   -10392   -10554   -10722   -10937   -11229   -11576   -11902 
  -12105   -12058   -11728   -11271   -10856   -10575   -10477   -10542 
  -10689   -10866   -10999   -11025   -10963   -10897   -10848   -10817 
  -10866   -11084   -11418   -11662   -11718   -11649   -11508   -11342 
  -11217   -11086   -10885   -10717   -10669   -10662   -10638   -10620 
  -10628   -10739   -11049   -11450   -11688   -11682   -11553   -11394 
  -11234   -11095   -11003   -11007   -11118   -11223   -11155   -10890 
  -10584   -10388   -10372   -10539   -10797   -11044   -11290   -11587 
  -11896   -12082   -12073   -11880   -11543   -11124   -10712   -10415 
  -10309   -10385   -10501   -10557   -10606   -10739   -10936   -11105 
  -11202   -11356   -11654   -11952   -12058   -11954   -11738   -11449 
  -11064   -10648   -10354   -10268   -10351   -10539   -10777   -10979 
  -11039   -10968   -10939   -11098   -11372   -11603   -11726   -11758 
  -11716   -11535   -11230   -10986   -10881   -10821   -10768   -10704 
  -10570   -10463   -10561   -10817   -11051   -11223   -11369   -11427 
