Origin Time       2017/07/03 16:29:00
Lat.              43.808
Long.             141.805
Depth. (km)       10
Mag.              2.8
Station Code      RMIH05
Station Lat.      44.0254
Station Long.     141.7876
Station Height(m) 21
Record Time       2017/07/03 16:29:43
Sampling Freq(Hz) 100Hz
Duration Time(s)  120
Dir.              5
Scale Factor      3920(gal)/6170801
Max. Acc. (gal)   0.864
Last Correction   2017/07/03 16:29:28
Memo.             
[...]
    2508     2507     2506     2504     2499     2500     2505     2510 
    2508     2502     2500     2500     2499     2505     2510     2502 
    2499     2507     2508     2505     2506     2504     2498     2496 
    2501     2513     2513     2503     2501     2505     2506     2506 
    2507     2507     2504     2499     2502     2505     2501     2501 
    2507     2510     2506     2503     2502     2498     2501     2512 
    2512     2505     2505     2504     2498     2500     2507     2508 
    2504     2506     2510     2506     2501     2505     2506     2498 
    2500     2511     2507     2497     2498     2502     2503     2508 
    2509     2504     2500     2502     2508     2512     2504     2495 
    2501     2508     2507     2504     2501     2497     2499     2506 
    2510     2508     2506     2506     2505     2504     2504     2503 
    2505     2507     2503     2505     2510     2503     2495     2498 
    2502     2508     2515     2509     2499     2498     2505     2508 
    2505     2504     2503     2500     2503     2507     2504     2502 
    2505     2505     2507     2509     2504     2499     2501     2506 
    2508     2506     2505     2503     2501     2505     2511     2513 
    2506     2500     2500     2503     2507     2507     2503     2501 
    2502     2502     2506     2507     2505     2505     2507     2508 
    2506     2507     2506     2500     2500     2503     2505     2506 
    2505     2504     2504     2508     2509     2505     2503     2506 
    2509     2505     2499     2501     2505     2503     2505     2510 
    2508     2503     2502     2502     2503     2506     2507     2504 
    2503     2505     2507     2508     2505     2502     2504     2510 
    2510     2502     2500     2508     2513     2509     2504     2502 
    2501     2499     2501     2507     2510     2509     2505     2501 
    2504     2508     2509     2503     2501     2503     2503     2505 
    2508     2505     2500     2505     2511     2509     2504     2502 
    2501     2500     2503     2510     2509     2501     2499     2503 
    2506     2507     2505     2504     2503     2505     2506     2506 
    2506     2504     2502     2504     2506     2506     2502     2499 
    2504     2508     2506     2508     2510     2505     2503     2509 
    2511     2505     2501     2504     2506     2506     2506     2500 
    2495     2500     2509     2515     2511     2503     2501     2502 
    2505     2508     2505     2501     2505     2511     2509     2502 
    2500     2500     2502     2508     2513     2509     2500     2495 
    2496     2500     2507     2510     2507     2506     2506     2507 
    2505     2502     2500     2501     2506     2511     2509     2507 
    2502     2497     2501     2506     2505     2506     2505     2499 
    2501     2508     2509     2503     2503     2509     2510     2506 
    2502     2496     2496     2505     2510     2508     2505     2502 
    2498     2500     2507     2512     2511     2504     2500     2501 
    2502     2503     2504     2501     2502     2508     2509     2504 
    2502     2501     2502     2505     2505     2504     2504     2501 
    2499     2506     2508     2504     2501     2503     2506     2507 
    2506     2504     2501     2503     2505     2504     2504     2504 
    2502     2505     2509     2506     2502     2503     2505     2505 
    2504     2506     2505     2500     2501     2507     2507     2503 
    2503     2505     2506     2506     2506     2505     2500     2500 
    2505     2509     2511     2507     2498     2494     2497     2506 
    2512     2507     2503     2504     2504     2506     2507     2502 
    2501     2505     2508     2506     2504     2500     2498     2504 
    2506     2503     2502     2503     2503     2505     2508     2507 
    2501     2499     2502     2506     2507     2505     2501     2501 
    2506     2508     2507     2505     2501     2499     2503     2504 
    2503     2503     2502     2502     2502     2505     2508     2507 
    2503     2502     2506     2508     2504     2500     2501     2503 
    2506     2512     2509     2501     2498     2504     2508     2502 
    2500     2503     2502     2502     2507     2508     2501     2496 
    2502     2510     2508     2501     2502     2504     2499     2500 
    2507     2505     2498     2499     2503     2504     2506     2510 
    2506     2501     2506     2510     2506     2504     2504     2502 
    2504     2510     2511     2506     2501     2498     2502     2508 
    2506     2504     2507     2505     2502     2505     2501     2499 
    2504     2505     2505     2506     2503     2502     2503     2503 
    2509     2512     2505     2500     2507     2509     2502     2498 
    2499     2499     2502     2508     2508     2505     2505     2504 
    2503     2507     2506     2503     2502     2503     2507     2509 
    2505     2500     2499     2503     2508     2508     2504     2502 
    2499     2502     2509     2507     2502     2504     2505     2504 
    2506     2509     2508     2503     2499     2505     2511     2508 
    2501     2499     2500     2505     2511     2511     2506     2504 
    2503     2506     2507     2500     2499     2504     2506     2508 
    2509     2503     2498     2496     2502     2511     2510     2504 
    2500     2500     2506     2513     2507     2498     2500     2505 
    2506     2508     2508     2503     2500     2504     2507     2504 
    2499     2498     2502     2507     2508     2505     2501     2497 
    2500     2508     2511     2509     2507     2505     2501     2500 
    2502     2502     2500     2504     2511     2512     2506     2500 
    2498     2499     2503     2508     2508     2501     2497     2500 
    2506     2510     2508     2503     2502     2503     2505     2507 
    2506     2501     2499     2501     2505     2510     2507     2498 
    2496     2501     2507     2507     2500     2497     2502     2508 
    2510     2507     2503     2503     2507     2507     2502     2498 
    2495     2496     2502     2512     2516     2510     2501     2501 
    2504     2506     2508     2507     2501     2500     2504     2507 
    2506     2502     2500     2502     2506     2507     2506     2502 
    2499     2502     2507     2505     2502     2502     2501     2501 
    2506     2510     2507     2504     2502     2502     2504     2506 
    2505     2504     2508     2511     2509     2506     2502     2497 
    2497     2502     2501     2499     2505     2506     2502     2506 
    2509     2506     2504     2506     2505     2505     2505     2502 
    2499     2502     2506     2507     2504     2501     2502     2502 
    2504     2509     2506     2501     2504     2505     2506     2507 
    2503     2498     2500     2504     2505     2502     2501     2503 
    2505     2508     2510     2505     2501     2503     2503     2502 
    2507     2508     2502     2501     2505     2506     2505     2503 
    2498     2498     2502     2505     2506     2504     2504     2505 
    2502     2500     2505     2504     2498     2501     2511     2512 
    2502     2495     2500     2504     2503     2508     2513     2508 
    2504     2506     2507     2501     2498     2499     2502     2510 
    2514     2504     2499     2501     2500     2499     2506     2507 
    2503     2501     2500     2503     2508     2505     2500     2502 
    2508     2509     2506     2502     2499     2498     2500     2506 
    2509     2507     2504     2503     2504     2505     2504     2501 
    2501     2506     2511     2510     2506     2502     2499     2502 
    2508     2504     2500     2503     2505     2504     2504     2505 
    2504     2503     2505     2507     2502     2500     2504     2506 
    2503     2504     2506     2506     2507     2505     2503     2506 
    2506     2500     2499     2503     2505     2505     2501     2500 
    2502     2504     2509     2511     2507     2501     2500     2502 
    2504     2503     2498     2498     2508     2518     2523     2526 
    2518     2499     2481     2472     2476     2491     2508     2521 
    2526     2528     2537     2546     2526     2484     2441     2401 
    2375     2383     2429     2512     2624     2739     2830     2855 
    2771     2587     2372     2182     2045     2006     2097     2294 
    2546     2784     2941     2981     2883     2658     2379     2122 
    1977     2010     2191     2462     2760     2984     3058     2966 
    2730     2463     2293     2234     2249     2329     2473     2636 
    2737     2739     2673     2591     2506     2414     2328     2273 
    2272     2331     2420     2488     2514     2507     2468     2395 
    2320     2303     2384     2540     2705     2835     2908     2889 
    2750     2527     2322     2220     2225     2286     2363     2441 
    2530     2626     2689     2690     2676     2706     2756     2764 
    2699     2579     2441     2309     2189     2118     2146     2263 
    2399     2503     2570     2600     2597     2563     2508     2457 
    2424     2395     2363     2355     2399     2485     2568     2623 
    2661     2684     2680     2674     2694     2712     2677     2596 
    2519     2491     2516     2543     2521     2462     2395     2326 
    2260     2223     2253     2360     2493     2583     2601     2576 
    2547     2524     2518     2538     2575     2598     2583     2537 
    2483     2442     2423     2417     2411     2425     2489     2572 
    2619     2614     2568     2507     2444     2393     2370     2382 
    2434     2517     2615     2701     2737     2705     2622     2513 
    2397     2308     2293     2353     2440     2526     2605     2665 
    2700     2705     2674     2620     2559     2479     2377     2280 
    2225     2238     2310     2389     2442     2486     2545     2608 
    2636     2632     2634     2652     2669     2650     2578     2480 
    2386     2310     2268     2281     2351     2440     2508     2545 
    2561     2577     2616     2672     2712     2733     2740     2704 
    2597     2437     2282     2192     2180     2227     2306     2377 
    2434     2504     2583     2635     2658     2672     2677     2663 
    2639     2613     2591     2572     2550     2512     2445     2350 
    2265     2222     2232     2306     2446     2611     2749     2833 
    2853     2798     2661     2473     2300     2199     2192     2259 
    2351     2423     2461     2480     2484     2476     2480     2528 
    2601     2663     2714     2751     2738     2664     2555     2445 
    2367     2347     2376     2445     2547     2640     2687     2683 
    2629     2559     2511     2488     2467     2434     2392     2362 
    2342     2315     2284     2276     2308     2381     2455     2496 
    2523     2543     2539     2530     2543     2582     2630     2667 
    2699     2729     2738     2722     2680     2606     2518     2454 
    2416     2383     2346     2318     2317     2343     2383     2428 
    2478     2532     2573     2587     2573     2547     2520     2496 
    2478     2489     2521     2540     2553     2578     2594     2579 
    2531     2471     2438     2462     2523     2583     2608     2570 
    2476     2365     2275     2225     2228     2301     2443     2607 
    2729     2785     2787     2750     2689     2628     2569     2514 
    2470     2435     2408     2396     2394     2394     2399     2413 
    2441     2482     2517     2533     2543     2558     2576     2583 
    2557     2506     2451     2417     2419     2449     2489     2526 
    2539     2505     2422     2296     2155     2052     2014     2031 
    2078     2145     2219     2299     2410     2571     2763     2945 
    3081     3154     3163     3100     2967     2796     2637     2537 
    2527     2602     2717     2797     2815     2811     2823     2861 
    2906     2913     2869     2775     2635     2478     2358     2318 
    2368     2482     2593     2622     2527     2314     2037     1768 
    1568     1478     1477     1503     1519     1516     1484     1446 
    1468     1592     1836     2181     2555     2898     3186     3409 
    3573     3680     3710     3652     3540     3449     3445     3531 
    3647     3708     3664     3533     3365     3176     2956     2689 
    2372     2039     1723     1454     1278     1206     1207     1260 
    1368     1520     1700     1879     2031     2167     2320     2490 
    2636     2711     2723     2703     2643     2516     2319     2095 
    1941     1951     2143     2468     2851     3198     3429     3520 
    3486     3354     3146     2906     2714     2626     2632     2678 
    2702     2679     2607     2492     2362     2259     2235     2327 
    2496     2658     2741     2707     2561     2355     2153     2002 
    1934     1942     1975     1975     1927     1853     1804     1837 
    1983     2217     2488     2753     2969     3097     3121     3056 
    2962     2898     2885     2915     2958     2961     2896     2786 
    2658     2531     2427     2354     2321     2325     2352     2402 
    2482     2589     2709     2793     2786     2673     2499     2343 
    2270     2304     2422     2578     2717     2791     2778     2685 
    2550     2409     2290     2227     2223     2243     2242     2184 
    2065     1923     1799     1709     1662     1668     1729     1832 
    1983     2213     2546     2955     3356     3664     3836     3865 
    3753     3521     3203     2871     2614     2476     2445     2486 
    2564     2648     2708     2739     2739     2674     2509     2247 
    1928     1624     1413     1352     1463     1715     2035     2333 
    2544     2653     2710     2768     2828     2881     2911     2904 
    2861     2791     2715     2652     2599     2564     2558     2566 
    2580     2614     2672     2729     2759     2758     2725     2643 
    2513     2355     2205     2102     2072     2116     2212     2327 
    2431     2507     2544     2548     2549     2565     2586     2585 
    2532     2423     2300     2214     2182     2191     2226     2289 
    2378     2475     2576     2667     2744     2820     2891     2944 
    2966     2937     2847     2709     2559     2443     2378     2356 
    2366     2397     2415     2389     2331     2276     2263     2308 
    2378     2441     2497     2548     2598     2644     2663     2627 
    2528     2388     2244     2132     2080     2091     2139     2224 
    2357     2517     2659     2766     2853     2939     3016     3063 
    3051     2965     2826     2665     2497     2344     2230     2160 
    2153     2223     2364     2546     2723     2842     2883     2866 
    2804     2697     2570     2460     2379     2318     2266     2218 
    2179     2174     2217     2281     2335     2364     2361     2328 
    2288     2276     2317     2423     2573     2738     2892     2990 
    3000     2926     2787     2619     2461     2329     2235     2199 
    2223     2287     2375     2479     2599     2716     2795     2825 
    2822     2802     2765     2704     2630     2569     2536     2547 
    2606     2684     2747     2790     2804     2782     2728     2652 
    2546     2392     2191     1968     1740     1529     1379     1342 
    1437     1647     1926     2217     2470     2657     2779     2840 
    2846     2814     2758     2679     2589     2513     2476     2481 
    2525     2603     2708     2839     2967     3051     3081     3061 
    3000     2931     2878     2843     2823     2806     2770     2704 
    2613     2506     2395     2296     2211     2138     2087     2053 
    2027     2022     2048     2088     2124     2141     2133     2119 
    2120     2137     2174     2242     2346     2489     2657     2824 
    2970     3065     3097     3072     2999     2911     2846     2814 
    2800     2790     2776     2749     2704     2643     2570     2505 
    2462     2441     2442     2462     2479     2469     2429     2365 
    2288     2215     2151     2096     2061     2039     2036     2070 
    2129     2189     2245     2287     2318     2346     2372     2408 
    2467     2527     2572     2611     2649     2691     2753     2834 
    2920     2987     3017     3016     2994     2953     2908     2872 
    2840     2806     2766     2722     2668     2594     2517     2455 
    2397     2328     2241     2143     2053     1983     1929     1896 
    1898     1931     1986     2059     2133     2197     2271     2364 
    2458     2544     2623     2693     2757     2809     2843     2858 
    2863     2878     2908     2942     2973     2981     2947     2880 
    2794     2702     2606     2503     2409     2348     2333     2367 
    2433     2495     2543     2579     2604     2620     2612     2564 
    2486     2399     2317     2235     2155     2084     2035     2036 
    2096     2199     2317     2420     2485     2507     2503     2486 
    2457     2444     2480     2568     2682     2781     2822     2791 
    2712     2615     2541     2516     2533     2565     2584     2579 
    2554     2514     2472     2439     2406     2374     2346     2325 
    2318     2330     2379     2472     2590     2709     2797     2826 
    2802     2741     2656     2569     2496     2433     2377     2327 
    2288     2268     2263     2265     2273     2290     2319     2366 
    2432     2510     2585     2635     2652     2638     2609     2581 
    2563     2554     2555     2577     2610     2637     2652     2651 
    2634     2620     2632     2665     2692     2705     2694     2658 
    2607     2549     2487     2430     2386     2360     2348     2342 
    2329     2300     2263     2230     2213     2221     2260     2315 
    2363     2394     2415     2430     2433     2433     2440     2441 
    2439     2437     2426     2414     2425     2475     2558     2663 
    2772     2861     2903     2895     2847     2776     2707     2657 
    2639     2657     2713     2777     2805     2790     2741     2654 
    2550     2459     2384     2319     2271     2239     2215     2200 
    2207     2226     2236     2249     2289     2344     2393     2442 
    2497     2534     2554     2569     2572     2562     2551     2542 
    2531     2525     2528     2535     2533     2518     2499     2487 
    2481     2468     2451     2438     2431     2434     2445     2467 
    2498     2526     2551     2581     2614     2648     2682     2710 
    2732     2756     2769     2759     2729     2686     2629     2564 
    2502     2438     2369     2308     2266     2243     2234     2233 
    2239     2247     2262     2298     2355     2408     2452     2490 
    2521     2548     2582     2622     2650     2672     2701     2735 
    2759     2764     2751     2716     2655     2572     2479     2390 
    2316     2276     2273     2283     2294     2302     2307     2325 
    2367     2426     2484     2533     2579     2620     2643     2654 
    2654     2648     2651     2656     2652     2627     2579     2534 
    2503     2487     2484     2477     2462     2456     2462     2476 
    2503     2541     2576     2611     2649     2674     2666     2626 
    2556     2465     2388     2352     2341     2332     2333     2349 
