Origin Time       2017/07/03 16:29:00
Lat.              43.808
Long.             141.805
Depth. (km)       10
Mag.              2.8
Station Code      RMIH05
Station Lat.      44.0254
Station Long.     141.7876
Station Height(m) 21
Record Time       2017/07/03 16:29:43
Sampling Freq(Hz) 100Hz
Duration Time(s)  120
Dir.              6
Scale Factor      3920(gal)/6170801
Max. Acc. (gal)   0.427
Last Correction   2017/07/03 16:29:28
Memo.             
[...]
  -35423   -35425   -35422   -35418   -35422   -35428   -35430   -35434 
  -35434   -35427   -35421   -35422   -35426   -35426   -35421   -35418 
  -35424   -35431   -35431   -35428   -35424   -35423   -35427   -35431 
  -35432   -35429   -35425   -35425   -35424   -35423   -35426   -35427 
  -35425   -35425   -35426   -35426   -35426   -35428   -35428   -35423 
  -35421   -35424   -35426   -35427   -35427   -35427   -35427   -35426 
  -35424   -35423   -35423   -35422   -35423   -35426   -35425   -35425 
  -35427   -35426   -35424   -35424   -35425   -35422   -35419   -35426 
  -35430   -35429   -35431   -35431   -35427   -35425   -35426   -35425 
  -35424   -35426   -35427   -35424   -35423   -35426   -35428   -35426 
  -35425   -35427   -35433   -35430   -35420   -35420   -35426   -35427 
  -35427   -35428   -35428   -35428   -35426   -35425   -35426   -35424 
  -35425   -35431   -35431   -35427   -35426   -35422   -35418   -35424 
  -35430   -35430   -35427   -35427   -35427   -35421   -35420   -35427 
  -35428   -35423   -35426   -35431   -35426   -35424   -35426   -35424 
  -35424   -35430   -35433   -35428   -35423   -35421   -35421   -35423 
  -35426   -35427   -35425   -35423   -35427   -35430   -35424   -35419 
  -35422   -35427   -35427   -35430   -35432   -35426   -35422   -35424 
  -35421   -35419   -35428   -35433   -35429   -35427   -35427   -35425 
  -35426   -35427   -35424   -35423   -35426   -35429   -35432   -35430 
  -35424   -35421   -35425   -35427   -35421   -35417   -35421   -35428 
  -35432   -35434   -35430   -35424   -35425   -35430   -35429   -35424 
  -35421   -35423   -35427   -35425   -35423   -35427   -35426   -35424 
  -35427   -35427   -35426   -35427   -35427   -35427   -35430   -35431 
  -35430   -35424   -35423   -35425   -35425   -35425   -35427   -35427 
  -35426   -35425   -35424   -35426   -35429   -35426   -35420   -35423 
  -35427   -35428   -35430   -35432   -35428   -35424   -35426   -35426 
  -35424   -35425   -35427   -35426   -35424   -35427   -35426   -35422 
  -35427   -35433   -35427   -35423   -35427   -35428   -35427   -35428 
  -35428   -35427   -35425   -35422   -35424   -35426   -35423   -35422 
  -35426   -35428   -35426   -35426   -35429   -35427   -35425   -35428 
  -35428   -35426   -35423   -35421   -35423   -35426   -35427   -35429 
  -35427   -35423   -35423   -35426   -35426   -35423   -35425   -35430 
  -35429   -35428   -35429   -35426   -35420   -35421   -35429   -35432 
  -35430   -35429   -35426   -35423   -35424   -35427   -35426   -35423 
  -35422   -35425   -35428   -35428   -35426   -35425   -35427   -35431 
  -35430   -35425   -35422   -35422   -35423   -35423   -35423   -35424 
  -35426   -35430   -35431   -35428   -35426   -35425   -35425   -35426 
  -35428   -35428   -35427   -35428   -35430   -35426   -35423   -35425 
  -35426   -35423   -35421   -35423   -35425   -35426   -35430   -35432 
  -35426   -35422   -35426   -35431   -35432   -35429   -35423   -35420 
  -35423   -35425   -35423   -35422   -35426   -35431   -35432   -35428 
  -35425   -35426   -35424   -35423   -35425   -35427   -35429   -35428 
  -35427   -35425   -35423   -35424   -35426   -35426   -35425   -35424 
  -35427   -35430   -35428   -35425   -35427   -35428   -35426   -35428 
  -35428   -35425   -35428   -35427   -35424   -35425   -35427   -35423 
  -35424   -35428   -35426   -35426   -35431   -35431   -35429   -35428 
  -35427   -35422   -35419   -35424   -35428   -35426   -35424   -35423 
  -35426   -35431   -35430   -35427   -35427   -35425   -35424   -35425 
  -35424   -35427   -35431   -35430   -35428   -35428   -35429   -35428 
  -35423   -35420   -35422   -35425   -35426   -35427   -35429   -35430 
  -35429   -35426   -35426   -35428   -35427   -35425   -35425   -35427 
  -35428   -35426   -35425   -35425   -35423   -35424   -35426   -35427 
  -35429   -35431   -35431   -35428   -35426   -35426   -35426   -35423 
  -35424   -35427   -35425   -35424   -35426   -35427   -35429   -35430 
  -35428   -35426   -35426   -35424   -35424   -35426   -35428   -35426 
  -35424   -35427   -35428   -35427   -35428   -35424   -35421   -35427 
  -35433   -35431   -35429   -35426   -35424   -35425   -35427   -35426 
  -35424   -35423   -35423   -35427   -35432   -35432   -35429   -35428 
  -35428   -35426   -35426   -35424   -35423   -35425   -35428   -35429 
  -35428   -35423   -35422   -35427   -35429   -35428   -35427   -35427 
  -35426   -35424   -35426   -35428   -35427   -35425   -35425   -35426 
  -35426   -35429   -35431   -35428   -35425   -35424   -35423   -35424 
  -35425   -35424   -35426   -35428   -35429   -35429   -35429   -35426 
  -35424   -35424   -35428   -35428   -35424   -35428   -35432   -35426 
  -35424   -35425   -35425   -35426   -35424   -35425   -35428   -35424 
  -35423   -35431   -35436   -35428   -35422   -35425   -35426   -35424 
  -35428   -35430   -35428   -35429   -35429   -35426   -35425   -35426 
  -35426   -35425   -35424   -35423   -35424   -35428   -35428   -35426 
  -35429   -35431   -35428   -35430   -35430   -35422   -35421   -35426 
  -35427   -35428   -35424   -35423   -35426   -35427   -35426   -35427 
  -35426   -35424   -35426   -35429   -35429   -35427   -35428   -35427 
  -35425   -35427   -35427   -35423   -35423   -35426   -35427   -35427 
  -35427   -35427   -35428   -35425   -35422   -35426   -35430   -35425 
  -35424   -35429   -35429   -35427   -35427   -35425   -35425   -35428 
  -35430   -35426   -35420   -35422   -35428   -35429   -35426   -35424 
  -35422   -35426   -35430   -35428   -35429   -35430   -35429   -35428 
  -35425   -35423   -35422   -35421   -35420   -35425   -35430   -35433 
  -35433   -35427   -35422   -35424   -35426   -35425   -35426   -35427 
  -35427   -35428   -35430   -35428   -35426   -35428   -35429   -35427 
  -35425   -35427   -35429   -35426   -35427   -35431   -35430   -35427 
  -35423   -35421   -35425   -35431   -35433   -35430   -35427   -35422 
  -35421   -35426   -35430   -35429   -35428   -35426   -35425   -35424 
  -35423   -35423   -35422   -35423   -35429   -35433   -35435   -35432 
  -35425   -35423   -35426   -35428   -35429   -35426   -35422   -35426 
  -35429   -35430   -35433   -35433   -35431   -35429   -35425   -35423 
  -35422   -35421   -35427   -35430   -35428   -35430   -35429   -35425 
  -35425   -35424   -35425   -35429   -35431   -35430   -35426   -35422 
  -35424   -35428   -35428   -35427   -35426   -35425   -35427   -35429 
  -35430   -35427   -35424   -35425   -35429   -35430   -35427   -35425 
  -35426   -35429   -35428   -35424   -35425   -35429   -35428   -35425 
  -35424   -35422   -35425   -35428   -35428   -35426   -35426   -35428 
  -35429   -35426   -35425   -35427   -35428   -35426   -35423   -35425 
  -35429   -35428   -35429   -35430   -35427   -35424   -35423   -35425 
  -35425   -35424   -35427   -35430   -35430   -35427   -35423   -35422 
  -35422   -35424   -35427   -35431   -35432   -35430   -35428   -35429 
  -35426   -35421   -35421   -35424   -35425   -35427   -35429   -35426 
  -35424   -35429   -35432   -35429   -35424   -35422   -35424   -35428 
  -35429   -35432   -35430   -35426   -35427   -35427   -35423   -35424 
  -35426   -35426   -35428   -35431   -35430   -35425   -35421   -35422 
  -35428   -35432   -35432   -35428   -35424   -35423   -35424   -35426 
  -35428   -35428   -35427   -35428   -35430   -35430   -35427   -35424 
  -35424   -35425   -35425   -35426   -35429   -35431   -35429   -35425 
  -35426   -35428   -35429   -35428   -35424   -35425   -35430   -35429 
  -35426   -35424   -35421   -35423   -35428   -35431   -35430   -35427 
  -35426   -35427   -35428   -35429   -35427   -35422   -35423   -35427 
  -35429   -35427   -35427   -35430   -35429   -35425   -35425   -35425 
  -35422   -35424   -35429   -35430   -35429   -35426   -35424   -35424 
  -35425   -35424   -35424   -35425   -35424   -35422   -35422   -35428 
  -35431   -35429   -35430   -35430   -35427   -35426   -35424   -35423 
  -35425   -35426   -35426   -35425   -35425   -35427   -35427   -35428 
  -35430   -35426   -35421   -35422   -35426   -35430   -35431   -35428 
  -35424   -35426   -35428   -35430   -35431   -35425   -35419   -35420 
  -35424   -35428   -35428   -35423   -35423   -35430   -35432   -35428 
  -35423   -35422   -35424   -35427   -35427   -35426   -35427   -35427 
  -35426   -35427   -35426   -35426   -35425   -35423   -35424   -35425 
  -35426   -35430   -35429   -35425   -35429   -35442   -35458   -35475 
  -35493   -35511   -35506   -35446   -35325   -35171   -35058   -35071 
  -35231   -35484   -35721   -35822   -35721   -35486   -35297   -35263 
  -35318   -35345   -35360   -35459   -35611   -35681   -35676   -35689 
  -35661   -35528   -35379   -35275   -35219   -35229   -35268   -35282 
  -35294   -35328   -35374   -35405   -35384   -35371   -35449   -35555 
  -35565   -35432   -35253   -35263   -35454   -35512   -35419   -35429 
  -35519   -35538   -35532   -35547   -35532   -35476   -35417   -35377 
  -35345   -35323   -35356   -35459   -35529   -35463   -35356   -35347 
  -35344   -35267   -35309   -35540   -35713   -35685   -35565   -35475 
  -35443   -35399   -35288   -35178   -35162   -35261   -35403   -35478 
  -35477   -35491   -35520   -35488   -35392   -35327   -35384   -35530 
  -35629   -35594   -35460   -35340   -35311   -35324   -35348   -35443 
  -35566   -35571   -35480   -35418   -35332   -35197   -35197   -35372 
  -35511   -35544   -35555   -35542   -35498   -35464   -35386   -35250 
  -35229   -35410   -35600   -35631   -35595   -35588   -35513   -35351 
  -35259   -35255   -35266   -35323   -35396   -35419   -35449   -35478 
  -35433   -35352   -35276   -35223   -35282   -35439   -35531   -35534 
  -35547   -35549   -35507   -35495   -35532   -35556   -35537   -35519 
  -35536   -35507   -35383   -35267   -35219   -35192   -35216   -35324 
  -35423   -35468   -35490   -35465   -35419   -35439   -35486   -35487 
  -35462   -35447   -35457   -35494   -35506   -35478   -35477   -35501 
  -35488   -35439   -35369   -35292   -35254   -35259   -35268   -35301 
  -35393   -35514   -35571   -35508   -35410   -35415   -35516   -35583 
  -35566   -35503   -35431   -35371   -35328   -35294   -35281   -35306 
  -35354   -35397   -35402   -35352   -35310   -35356   -35464   -35552 
  -35590   -35590   -35567   -35527   -35455   -35356   -35291   -35316 
  -35385   -35417   -35415   -35405   -35397   -35408   -35446   -35488 
  -35519   -35576   -35634   -35604   -35518   -35459   -35410   -35346 
  -35258   -35170   -35183   -35315   -35439   -35492   -35522   -35554 
  -35551   -35507   -35463   -35417   -35346   -35317   -35397   -35493 
  -35474   -35405   -35407   -35403   -35328   -35300   -35362   -35419 
  -35458   -35507   -35508   -35435   -35376   -35397   -35449   -35490 
  -35516   -35492   -35432   -35409   -35394   -35311   -35236   -35292 
  -35407   -35466   -35507   -35576   -35636   -35646   -35588   -35510 
  -35475   -35443   -35388   -35382   -35421   -35401   -35317   -35287 
  -35333   -35333   -35251   -35221   -35310   -35433   -35493   -35481 
  -35483   -35542   -35564   -35493   -35427   -35423   -35438   -35442 
  -35433   -35434   -35462   -35458   -35388   -35345   -35358   -35345 
  -35313   -35344   -35430   -35484   -35470   -35442   -35416   -35351 
  -35315   -35395   -35488   -35513   -35541   -35577   -35548   -35464 
  -35394   -35382   -35397   -35381   -35371   -35436   -35528   -35528 
  -35450   -35422   -35444   -35426   -35398   -35407   -35392   -35330 
  -35320   -35411   -35509   -35527   -35508   -35511   -35515   -35485 
  -35424   -35364   -35356   -35387   -35383   -35374   -35415   -35436 
  -35412   -35415   -35450   -35488   -35493   -35423   -35356   -35384 
  -35439   -35450   -35445   -35426   -35369   -35319   -35332   -35395 
  -35445   -35418   -35336   -35298   -35335   -35367   -35355   -35376 
  -35457   -35511   -35517   -35535   -35554   -35528   -35488   -35498 
  -35548   -35554   -35491   -35440   -35440   -35431   -35407   -35423 
  -35467   -35493   -35477   -35422   -35388   -35419   -35438   -35391 
  -35337   -35320   -35345   -35409   -35425   -35351   -35299   -35312 
  -35308   -35292   -35344   -35431   -35450   -35403   -35378   -35387 
  -35410   -35439   -35417   -35346   -35340   -35381   -35385   -35399 
  -35430   -35419   -35423   -35472   -35487   -35477   -35475   -35462 
  -35462   -35488   -35527   -35596   -35657   -35674   -35688   -35690 
  -35637   -35559   -35500   -35466   -35440   -35388   -35319   -35269 
  -35237   -35222   -35263   -35340   -35390   -35419   -35466   -35511 
  -35519   -35481   -35425   -35381   -35343   -35318   -35326   -35351 
  -35360   -35330   -35274   -35244   -35262   -35302   -35342   -35369 
  -35365   -35340   -35326   -35357   -35421   -35463   -35488   -35536 
  -35568   -35571   -35615   -35673   -35664   -35616   -35568   -35487 
  -35372   -35283   -35246   -35243   -35276   -35375   -35524   -35649 
  -35681   -35625   -35548   -35496   -35458   -35410   -35344   -35287 
  -35266   -35269   -35275   -35294   -35323   -35340   -35356   -35389 
  -35438   -35509   -35586   -35614   -35581   -35543   -35523   -35470 
  -35358   -35258   -35238   -35276   -35323   -35366   -35381   -35365 
  -35372   -35432   -35525   -35627   -35716   -35784   -35823   -35803 
  -35703   -35536   -35332   -35130   -34975   -34895   -34896   -34963 
  -35048   -35120   -35218   -35363   -35512   -35660   -35833   -35983 
  -36066   -36099   -36062   -35922   -35724   -35523   -35311   -35084 
  -34903   -34807   -34781   -34818   -34905   -35004   -35119   -35262 
  -35391   -35491   -35598   -35707   -35796   -35859   -35873   -35845 
  -35824   -35789   -35691   -35574   -35478   -35375   -35272   -35184 
  -35109   -35065   -35061   -35076   -35106   -35162   -35232   -35311 
  -35398   -35500   -35631   -35753   -35810   -35814   -35789   -35716 
  -35591   -35451   -35332   -35247   -35193   -35175   -35212   -35288 
  -35350   -35381   -35406   -35438   -35472   -35504   -35536   -35559 
  -35560   -35551   -35527   -35449   -35321   -35202   -35124   -35081 
  -35075   -35115   -35208   -35354   -35508   -35617   -35697   -35784 
  -35844   -35821   -35735   -35667   -35643   -35595   -35494   -35378 
  -35261   -35155   -35092   -35061   -35055   -35098   -35182   -35286 
  -35400   -35471   -35467   -35457   -35506   -35588   -35641   -35642 
  -35609   -35559   -35502   -35449   -35411   -35378   -35334   -35301 
  -35288   -35283   -35297   -35348   -35409   -35442   -35454   -35469 
  -35480   -35489   -35519   -35567   -35615   -35654   -35657   -35604 
  -35528   -35463   -35386   -35283   -35182   -35105   -35066   -35087 
  -35168   -35285   -35414   -35544   -35677   -35787   -35835   -35814 
  -35738   -35641   -35547   -35437   -35298   -35162   -35068   -35036 
  -35061   -35113   -35179   -35261   -35350   -35420   -35466   -35508 
  -35544   -35559   -35572   -35610   -35653   -35667   -35643   -35594 
  -35527   -35451   -35386   -35343   -35320   -35312   -35305   -35295 
  -35296   -35301   -35289   -35290   -35352   -35448   -35524   -35575 
  -35606   -35598   -35544   -35483   -35437   -35382   -35323   -35310 
  -35341   -35388   -35447   -35514   -35576   -35635   -35665   -35626 
  -35524   -35386   -35234   -35107   -35045   -35042   -35070   -35124 
  -35213   -35344   -35504   -35654   -35769   -35861   -35934   -35968 
  -35956   -35894   -35772   -35597   -35392   -35181   -35003   -34895 
  -34872   -34911   -34981   -35086   -35236   -35403   -35549   -35667 
  -35756   -35787   -35753   -35698   -35640   -35559   -35460   -35366 
  -35269   -35179   -35126   -35119   -35153   -35214   -35284   -35362 
  -35453   -35550   -35632   -35688   -35719   -35708   -35655   -35600 
  -35549   -35478   -35391   -35298   -35207   -35157   -35172   -35215 
  -35246   -35249   -35247   -35290   -35381   -35474   -35543   -35583 
  -35587   -35567   -35547   -35535   -35523   -35520   -35520   -35499 
  -35461   -35431   -35427   -35445   -35471   -35488   -35484   -35449 
  -35402   -35376   -35373   -35365   -35347   -35333   -35328   -35330 
  -35331   -35324   -35316   -35320   -35336   -35363   -35400   -35440 
  -35473   -35481   -35464   -35443   -35440   -35451   -35455   -35451 
  -35461   -35496   -35537   -35577   -35627   -35664   -35644   -35576 
  -35503   -35437   -35379   -35336   -35306   -35282   -35262   -35254 
  -35272   -35304   -35326   -35333   -35344   -35382   -35430   -35451 
  -35450   -35453   -35463   -35472   -35475   -35481   -35489   -35489 
  -35495   -35520   -35542   -35539   -35516   -35490   -35467   -35435 
  -35388   -35345   -35312   -35288   -35292   -35325   -35365   -35395 
  -35409   -35412   -35410   -35409   -35411   -35417   -35418   -35409 
  -35388   -35363   -35350   -35366   -35398   -35425   -35464   -35533 
  -35607   -35653   -35652   -35614   -35560   -35493   -35423   -35364 
  -35299   -35233   -35198   -35193   -35200   -35222   -35280   -35371 
  -35462   -35540   -35609   -35657   -35675   -35680   -35661   -35600 
  -35528   -35467   -35406   -35352   -35322   -35317   -35322   -35324 
  -35326   -35331   -35329   -35327   -35343   -35382   -35429   -35460 
  -35478   -35505   -35524   -35505   -35469   -35450   -35441   -35426 
  -35414   -35412   -35407   -35393   -35386   -35395   -35399   -35387 
  -35385   -35408   -35431   -35437   -35441   -35445   -35435   -35420 
  -35424   -35446   -35464   -35472   -35477   -35480   -35466   -35431 
  -35396   -35379   -35375   -35381   -35395   -35408   -35417   -35436 
  -35469   -35506   -35523   -35513   -35490   -35459   -35412   -35350 
  -35284   -35232   -35201   -35183   -35182   -35202   -35229   -35260 
  -35316   -35398   -35483   -35541   -35565   -35575   -35590   -35608 
  -35618   -35616   -35601   -35565   -35508   -35460   -35441   -35437 
  -35423   -35400   -35372   -35346   -35326   -35313   -35313   -35329 
  -35361   -35404   -35445   -35466   -35469   -35471   -35485   -35511 
  -35538   -35555   -35557   -35549   -35534   -35508   -35474   -35441 
  -35412   -35382   -35360   -35351   -35338   -35315   -35290   -35272 
  -35265   -35274   -35305   -35348   -35396   -35458   -35519   -35551 
  -35563   -35572   -35571   -35558   -35542   -35514   -35470   -35429 
  -35401   -35368   -35318   -35272   -35251   -35255   -35291   -35361 
  -35438   -35494   -35521   -35530   -35531   -35527   -35517   -35493 
  -35462   -35440   -35431   -35425   -35403   -35369   -35352   -35356 
  -35368   -35385   -35405   -35423   -35439   -35450   -35450   -35445 
  -35440   -35439   -35445   -35446   -35440   -35440   -35441   -35424 
  -35396   -35380   -35377   -35376   -35375   -35373   -35373   -35383 
  -35415   -35462   -35505   -35533   -35544   -35548   -35552   -35556 
  -35548   -35522   -35482   -35436   -35382   -35327   -35284   -35251 
  -35228   -35219   -35221   -35244   -35304   -35383   -35457   -35524 
  -35587   -35633   -35643   -35622   -35586   -35542   -35496   -35461 
  -35440   -35420   -35399   -35390   -35387   -35377   -35367   -35362 
  -35350   -35335   -35340   -35364   -35388   -35409   -35423   -35428 
  -35434   -35441   -35439   -35433   -35430   -35429   -35421   -35403 
  -35381   -35376   -35396   -35424   -35450   -35468   -35474   -35472 
