Origin Time       2017/07/03 16:29:00
Lat.              43.808
Long.             141.805
Depth. (km)       10
Mag.              2.8
Station Code      RMIH05
Station Lat.      44.0254
Station Long.     141.7876
Station Height(m) -84
Record Time       2017/07/03 16:29:43
Sampling Freq(Hz) 100Hz
Duration Time(s)  120
Dir.              2
Scale Factor      2940(gal)/6170270
Max. Acc. (gal)   0.117
Last Correction   2017/07/03 16:29:28
Memo.             
[...]
   19594    19593    19591    19589    19587    19590    19591    19590 
   19590    19590    19589    19592    19593    19590    19589    19590 
   19590    19592    19593    19591    19589    19592    19593    19590 
   19588    19588    19590    19595    19594    19590    19590    19592 
   19592    19592    19591    19589    19591    19593    19594    19592 
   19590    19591    19593    19592    19591    19593    19594    19592 
   19591    19591    19590    19590    19591    19592    19591    19588 
   19591    19592    19590    19590    19591    19589    19589    19589 
   19591    19593    19591    19590    19592    19591    19588    19590 
   19592    19592    19594    19592    19589    19589    19589    19589 
   19590    19591    19592    19591    19591    19591    19589    19589 
   19589    19588    19591    19592    19590    19592    19592    19588 
   19590    19592    19589    19592    19594    19589    19589    19594 
   19594    19590    19591    19593    19590    19590    19592    19591 
   19590    19592    19591    19591    19594    19593    19589    19590 
   19592    19591    19588    19590    19593    19592    19590    19593 
   19591    19587    19591    19593    19590    19591    19593    19592 
   19593    19594    19592    19590    19591    19592    19592    19591 
   19589    19591    19591    19588    19590    19593    19591    19593 
   19593    19588    19590    19593    19591    19592    19592    19591 
   19591    19591    19593    19591    19590    19594    19594    19591 
   19590    19591    19591    19591    19591    19590    19590    19590 
   19593    19592    19589    19590    19591    19592    19593    19592 
   19592    19594    19593    19591    19590    19591    19591    19590 
   19591    19592    19592    19590    19590    19592    19593    19592 
   19592    19589    19589    19592    19590    19588    19589    19593 
   19594    19590    19590    19592    19590    19594    19593    19586 
   19590    19595    19593    19592    19593    19591    19590    19593 
   19594    19593    19591    19591    19593    19594    19592    19592 
   19594    19590    19589    19592    19594    19592    19592    19592 
   19592    19591    19591    19593    19593    19593    19593    19591 
   19588    19591    19595    19592    19591    19592    19589    19590 
   19596    19594    19590    19591    19592    19589    19591    19593 
   19590    19593    19594    19592    19593    19594    19590    19589 
   19593    19593    19589    19588    19591    19592    19591    19589 
   19591    19592    19591    19591    19589    19589    19590    19590 
   19592    19591    19590    19591    19592    19592    19594    19592 
   19590    19594    19592    19589    19591    19594    19595    19591 
   19588    19592    19592    19590    19593    19593    19590    19592 
   19593    19593    19590    19590    19594    19593    19591    19595 
   19592    19589    19592    19593    19592    19591    19590    19592 
   19594    19593    19591    19592    19593    19591    19588    19590 
   19595    19594    19591    19591    19591    19593    19593    19592 
   19591    19593    19593    19592    19590    19592    19594    19592 
   19592    19594    19590    19590    19594    19592    19590    19590 
   19590    19593    19594    19592    19588    19586    19591    19594 
   19592    19590    19591    19591    19591    19590    19588    19588 
   19593    19593    19590    19592    19593    19591    19590    19590 
   19591    19592    19589    19588    19591    19591    19590    19592 
   19593    19592    19591    19590    19590    19591    19592    19595 
   19597    19592    19587    19588    19590    19590    19591    19591 
   19590    19592    19591    19590    19592    19592    19591    19592 
   19593    19593    19594    19593    19589    19590    19591    19588 
   19592    19596    19592    19589    19592    19593    19592    19592 
   19591    19591    19592    19589    19588    19593    19592    19586 
   19590    19595    19594    19591    19591    19592    19592    19589 
   19590    19590    19592    19594    19594    19593    19591    19589 
   19590    19593    19594    19594    19593    19591    19591    19593 
   19590    19590    19596    19593    19589    19592    19594    19594 
   19594    19593    19593    19594    19593    19590    19591    19595 
   19594    19589    19589    19594    19594    19590    19590    19592 
   19593    19590    19591    19592    19589    19591    19593    19590 
   19591    19594    19596    19595    19590    19589    19591    19592 
   19593    19592    19589    19588    19589    19593    19596    19595 
   19592    19591    19592    19592    19589    19589    19594    19593 
   19591    19591    19591    19591    19590    19590    19593    19593 
   19592    19593    19593    19591    19589    19590    19591    19590 
   19590    19590    19590    19590    19591    19591    19592    19591 
   19590    19593    19590    19587    19592    19591    19588    19591 
   19593    19590    19589    19590    19591    19592    19593    19592 
   19591    19591    19591    19591    19591    19592    19592    19590 
   19591    19593    19591    19591    19592    19591    19592    19591 
   19588    19589    19591    19591    19592    19592    19592    19593 
   19593    19593    19591    19590    19594    19591    19585    19589 
   19591    19591    19593    19591    19589    19592    19591    19590 
   19591    19590    19589    19591    19592    19591    19590    19590 
   19591    19589    19590    19593    19592    19587    19589    19593 
   19592    19589    19590    19591    19592    19595    19594    19592 
   19588    19587    19590    19594    19592    19588    19590    19593 
   19590    19592    19595    19591    19591    19594    19592    19589 
   19593    19595    19592    19590    19592    19591    19590    19592 
   19594    19590    19589    19592    19593    19591    19592    19591 
   19591    19589    19588    19591    19593    19592    19590    19591 
   19593    19593    19591    19591    19590    19592    19592    19591 
   19590    19590    19591    19593    19591    19589    19591    19593 
   19596    19594    19589    19588    19592    19591    19590    19590 
   19591    19594    19593    19593    19597    19594    19588    19592 
   19592    19589    19594    19592    19589    19592    19592    19590 
   19593    19592    19589    19588    19589    19592    19590    19588 
   19592    19593    19593    19592    19589    19589    19591    19591 
   19591    19588    19588    19594    19595    19590    19589    19592 
   19593    19590    19591    19592    19590    19589    19589    19590 
   19591    19590    19589    19591    19593    19592    19591    19590 
   19590    19592    19593    19592    19590    19590    19591    19592 
   19591    19591    19593    19594    19592    19590    19592    19592 
   19594    19594    19590    19589    19590    19593    19590    19587 
   19592    19594    19588    19589    19595    19592    19589    19593 
   19591    19589    19591    19593    19593    19591    19592    19593 
   19591    19590    19591    19592    19592    19592    19594    19592 
   19588    19593    19596    19590    19588    19590    19588    19590 
   19591    19590    19590    19591    19591    19591    19591    19592 
   19592    19593    19591    19588    19590    19593    19593    19590 
   19590    19592    19591    19592    19592    19591    19592    19590 
   19588    19592    19592    19586    19589    19596    19596    19590 
   19588    19591    19590    19588    19592    19594    19590    19589 
   19592    19592    19592    19593    19594    19591    19590    19592 
   19590    19589    19591    19590    19589    19592    19592    19590 
   19592    19594    19590    19588    19591    19592    19589    19592 
   19595    19589    19588    19592    19592    19592    19593    19590 
   19590    19593    19591    19588    19589    19593    19594    19591 
   19591    19593    19592    19592    19592    19589    19589    19591 
   19594    19593    19590    19592    19593    19589    19591    19592 
   19590    19591    19592    19590    19593    19596    19590    19586 
   19594    19595    19590    19589    19589    19590    19592    19591 
   19592    19592    19589    19590    19592    19592    19589    19587 
   19588    19591    19592    19591    19592    19592    19591    19590 
   19591    19593    19590    19590    19592    19590    19590    19593 
   19591    19589    19592    19593    19589    19589    19591    19593 
   19594    19591    19590    19591    19590    19589    19590    19591 
   19591    19591    19590    19589    19590    19590    19590    19591 
   19588    19589    19594    19591    19588    19592    19592    19589 
   19591    19594    19592    19589    19590    19594    19593    19592 
   19590    19589    19590    19591    19592    19593    19592    19588 
   19590    19592    19591    19588    19591    19593    19590    19590 
   19591    19592    19594    19590    19587    19592    19594    19589 
   19586    19588    19591    19594    19593    19589    19590    19594 
   19591    19589    19591    19592    19594    19592    19583    19579 
   19584    19591    19598    19602    19603    19602    19598    19597 
   19597    19597    19600    19592    19577    19572    19577    19589 
   19590    19567    19548    19558    19591    19632    19652    19641 
   19616    19590    19564    19545    19544    19562    19588    19610 
   19621    19622    19616    19598    19572    19555    19558    19569 
   19576    19580    19593    19618    19645    19657    19648    19627 
   19606    19577    19543    19526    19529    19546    19577    19605 
   19628    19653    19651    19608    19560    19539    19545    19566 
   19574    19569    19581    19608    19624    19611    19583    19572 
   19589    19613    19617    19605    19599    19600    19596    19586 
   19579    19585    19596    19595    19584    19581    19590    19603 
   19614    19625    19629    19617    19594    19571    19558    19555 
   19556    19560    19568    19580    19587    19587    19591    19600 
   19608    19609    19605    19612    19628    19640    19633    19602 
   19558    19525    19515    19535    19582    19628    19646    19636 
   19613    19597    19597    19594    19585    19577    19579    19585 
   19571    19546    19545    19577    19623    19655    19652    19625 
   19603    19596    19595    19588    19570    19554    19555    19567 
   19584    19607    19630    19637    19613    19570    19542    19540 
   19550    19560    19567    19586    19626    19652    19641    19613 
   19589    19578    19576    19566    19560    19572    19591    19598 
   19595    19601    19615    19620    19608    19593    19589    19603 
   19614    19605    19585    19576    19579    19575    19564    19573 
   19600    19619    19620    19606    19594    19611    19632    19607 
   19548    19516    19540    19591    19625    19618    19585    19568 
   19581    19590    19575    19564    19581    19617    19647    19646 
   19616    19591    19589    19582    19559    19543    19555    19585 
   19607    19608    19596    19588    19589    19589    19585    19583 
   19580    19577    19582    19593    19604    19611    19612    19611 
   19611    19615    19610    19584    19561    19566    19586    19598 
   19594    19580    19572    19580    19595    19596    19592    19599 
   19606    19598    19579    19559    19553    19570    19592    19604 
   19606    19596    19586    19594    19611    19613    19601    19583 
   19569    19572    19589    19609    19618    19615    19609    19612 
   19620    19617    19599    19572    19554    19551    19551    19554 
   19570    19592    19612    19622    19613    19599    19601    19612 
   19610    19588    19555    19537    19555    19590    19604    19585 
   19570    19586    19607    19615    19609    19603    19613    19621 
   19598    19554    19528    19545    19587    19619    19622    19598 
   19572    19567    19575    19586    19608    19624    19617    19596 
   19584    19591    19606    19606    19589    19569    19569    19586 
   19598    19598    19591    19589    19596    19601    19606    19617 
   19618    19601    19583    19569    19556    19553    19565    19590 
   19613    19621    19615    19606    19605    19616    19620    19603 
   19573    19566    19586    19598    19592    19578    19570    19581 
   19606    19617    19604    19589    19585    19583    19578    19580 
   19591    19613    19634    19629    19602    19586    19590    19592 
   19581    19568    19568    19573    19564    19537    19511    19505 
   19514    19510    19482    19458    19468    19508    19559    19610 
   19656    19697    19717    19691    19631    19573    19535    19515 
   19505    19507    19531    19572    19608    19606    19569    19547 
   19589    19684    19774    19816    19805    19755    19696    19652 
   19634    19654    19710    19774    19817    19820    19782    19698 
   19580    19474    19426    19434    19455    19451    19426    19424 
   19454    19485    19496    19505    19540    19607    19669    19685 
   19678    19687    19698    19673    19603    19517    19476    19510 
   19580    19633    19642    19604    19543    19498    19493    19520 
   19546    19552    19556    19573    19599    19621    19627    19620 
   19617    19615    19606    19603    19620    19650    19688    19728 
   19772    19820    19836    19784    19688    19594    19531    19502 
   19481    19448    19434    19466    19519    19567    19594    19592 
   19563    19521    19480    19463    19486    19538    19577    19580 
   19563    19561    19587    19620    19629    19603    19559    19518 
   19492    19498    19530    19554    19560    19565    19585    19625 
   19670    19699    19695    19659    19620    19604    19603    19601 
   19592    19580    19576    19587    19598    19597    19594    19583 
   19558    19530    19519    19549    19608    19652    19654    19619 
   19573    19543    19532    19533    19544    19561    19584    19611 
   19628    19632    19651    19687    19711    19703    19662    19615 
   19595    19602    19610    19619    19627    19628    19629    19619 
   19590    19570    19573    19585    19592    19595    19611    19643 
   19667    19665    19630    19585    19559    19547    19525    19487 
   19454    19447    19457    19477    19506    19554    19622    19686 
   19713    19716    19724    19719    19663    19570    19492    19475 
   19513    19559    19577    19583    19612    19649    19648    19595 
   19519    19463    19439    19422    19404    19414    19475    19567 
   19647    19689    19703    19718    19741    19752    19746    19736 
   19722    19694    19634    19547    19471    19444    19459    19493 
   19534    19572    19598    19619    19633    19642    19664    19700 
   19729    19732    19709    19676    19649    19632    19612    19580 
   19544    19520    19515    19520    19534    19554    19572    19600 
   19636    19659    19657    19628    19585    19557    19549    19535 
   19506    19487    19496    19524    19553    19573    19584    19592 
   19596    19590    19585    19589    19595    19598    19599    19600 
   19614    19631    19624    19594    19557    19531    19533    19548 
   19565    19586    19609    19626    19631    19634    19650    19670 
   19672    19640    19581    19540    19540    19554    19548    19518 
   19494    19498    19523    19551    19561    19559    19573    19601 
   19625    19634    19630    19626    19629    19635    19634    19620 
   19599    19583    19583    19600    19625    19650    19665    19665 
   19652    19632    19605    19576    19556    19548    19555    19571 
   19575    19571    19574    19590    19619    19644    19644    19624 
   19610    19603    19599    19602    19612    19629    19657    19678 
   19676    19654    19625    19598    19567    19533    19505    19493 
   19493    19493    19493    19501    19523    19552    19577    19592 
   19610    19641    19687    19731    19750    19744    19721    19698 
   19677    19651    19637    19640    19633    19616    19595    19573 
   19561    19557    19555    19553    19547    19542    19540    19534 
   19529    19538    19562    19587    19596    19591    19585    19590 
   19605    19608    19591    19568    19550    19539    19530    19515 
   19496    19485    19483    19486    19505    19542    19576    19581 
   19562    19542    19546    19575    19605    19618    19625    19632 
   19621    19583    19539    19519    19524    19537    19541    19541 
   19552    19579    19605    19613    19608    19610    19632    19661 
   19680    19679    19666    19660    19657    19648    19636    19621 
   19614    19618    19623    19624    19618    19608    19601    19593 
   19585    19581    19575    19573    19575    19576    19572    19559 
   19546    19543    19545    19557    19570    19575    19580    19589 
   19605    19630    19647    19646    19634    19624    19618    19621 
   19629    19632    19627    19617    19599    19578    19560    19545 
   19536    19530    19530    19532    19520    19506    19513    19531 
   19549    19567    19575    19575    19577    19580    19574    19573 
   19588    19611    19632    19646    19648    19642    19636    19626 
   19612    19611    19620    19617    19599    19575    19556    19560 
   19579    19594    19602    19610    19614    19614    19605    19593 
   19595    19607    19607    19593    19576    19574    19582    19588 
   19593    19593    19588    19584    19588    19598    19604    19602 
   19590    19572    19562    19571    19591    19596    19582    19569 
   19567    19577    19589    19598    19613    19641    19667    19673 
   19655    19630    19618    19622    19631    19627    19614    19608 
   19613    19626    19643    19653    19660    19667    19657    19634 
   19614    19597    19584    19570    19561    19566    19583    19596 
   19589    19563    19535    19521    19526    19540    19554    19565 
   19571    19572    19566    19557    19553    19557    19553    19543 
   19538    19545    19558    19575    19591    19603    19616    19626 
   19628    19623    19613    19603    19604    19600    19584    19565 
   19545    19535    19543    19556    19566    19568    19566    19567 
   19570    19577    19595    19617    19630    19628    19620    19616 
   19609    19604    19605    19605    19600    19592    19582    19568 
   19551    19547    19554    19559    19567    19588    19612    19625 
   19626    19622    19618    19620    19625    19625    19623    19620 
   19622    19624    19618    19603    19590    19590    19589    19587 
   19586    19581    19577    19571    19564    19561    19554    19549 
   19553    19556    19555    19553    19550    19543    19536    19542 
   19568    19604    19629    19636    19633    19627    19625    19621 
   19606    19590    19590    19603    19609    19604    19595    19586 
   19578    19569    19554    19546    19552    19561    19563    19566 
   19570    19585    19613    19633    19632    19636    19651    19667 
   19673    19663    19658    19667    19663    19641    19617    19599 
   19590    19590    19586    19573    19560    19559    19563    19560 
