Origin Time       2017/07/03 16:29:00
Lat.              43.808
Long.             141.805
Depth. (km)       10
Mag.              2.8
Station Code      RMIH05
Station Lat.      44.0254
Station Long.     141.7876
Station Height(m) 21
Record Time       2017/07/03 16:29:43
Sampling Freq(Hz) 100Hz
Duration Time(s)  120
Dir.              4
Scale Factor      3920(gal)/6170801
Max. Acc. (gal)   0.774
Last Correction   2017/07/03 16:29:28
Memo.             
[...]
   -1153    -1150    -1154    -1153    -1144    -1141    -1145    -1149 
   -1156    -1157    -1153    -1154    -1154    -1149    -1148    -1148 
   -1152    -1152    -1151    -1151    -1148    -1148    -1152    -1151 
   -1151    -1154    -1154    -1153    -1146    -1140    -1146    -1153 
   -1151    -1147    -1149    -1155    -1155    -1152    -1153    -1155 
   -1154    -1148    -1149    -1150    -1147    -1149    -1153    -1150 
   -1145    -1147    -1153    -1152    -1145    -1148    -1155    -1154 
   -1149    -1150    -1153    -1150    -1148    -1152    -1149    -1143 
   -1146    -1153    -1152    -1149    -1152    -1153    -1148    -1144 
   -1146    -1150    -1152    -1148    -1145    -1150    -1154    -1153 
   -1151    -1150    -1148    -1149    -1152    -1152    -1147    -1146 
   -1149    -1153    -1153    -1150    -1147    -1146    -1146    -1151 
   -1152    -1149    -1148    -1153    -1158    -1153    -1145    -1144 
   -1146    -1149    -1149    -1146    -1151    -1158    -1156    -1151 
   -1151    -1150    -1145    -1142    -1150    -1158    -1155    -1153 
   -1155    -1149    -1144    -1147    -1148    -1147    -1149    -1148 
   -1149    -1156    -1157    -1149    -1144    -1146    -1150    -1149 
   -1149    -1154    -1153    -1148    -1150    -1154    -1152    -1150 
   -1151    -1151    -1149    -1148    -1145    -1141    -1142    -1154 
   -1162    -1154    -1145    -1146    -1147    -1148    -1150    -1149 
   -1150    -1154    -1153    -1153    -1155    -1151    -1146    -1147 
   -1151    -1154    -1154    -1152    -1150    -1151    -1154    -1155 
   -1152    -1152    -1153    -1147    -1144    -1149    -1151    -1149 
   -1153    -1155    -1151    -1149    -1149    -1151    -1150    -1146 
   -1149    -1151    -1147    -1146    -1147    -1153    -1158    -1154 
   -1150    -1148    -1148    -1152    -1149    -1144    -1146    -1147 
   -1149    -1157    -1160    -1155    -1149    -1144    -1147    -1150 
   -1146    -1148    -1153    -1151    -1156    -1160    -1148    -1143 
   -1149    -1148    -1148    -1154    -1154    -1151    -1150    -1149 
   -1151    -1152    -1150    -1151    -1149    -1147    -1155    -1157 
   -1149    -1146    -1146    -1149    -1151    -1147    -1146    -1151 
   -1154    -1154    -1150    -1150    -1157    -1155    -1153    -1155 
   -1147    -1142    -1149    -1153    -1150    -1150    -1153    -1154 
   -1150    -1147    -1149    -1152    -1150    -1145    -1149    -1154 
   -1150    -1147    -1153    -1157    -1150    -1144    -1146    -1149 
   -1149    -1151    -1154    -1156    -1151    -1147    -1148    -1147 
   -1144    -1147    -1151    -1154    -1157    -1155    -1149    -1146 
   -1148    -1152    -1150    -1146    -1152    -1155    -1146    -1144 
   -1150    -1151    -1152    -1151    -1149    -1156    -1157    -1147 
   -1145    -1150    -1149    -1145    -1149    -1155    -1151    -1152 
   -1162    -1153    -1140    -1145    -1152    -1147    -1143    -1151 
   -1155    -1148    -1146    -1148    -1150    -1152    -1151    -1148 
   -1155    -1154    -1142    -1143    -1154    -1155    -1150    -1146 
   -1149    -1151    -1146    -1150    -1156    -1150    -1148    -1149 
   -1149    -1149    -1150    -1148    -1145    -1147    -1156    -1157 
   -1149    -1147    -1148    -1146    -1147    -1153    -1157    -1150 
   -1144    -1148    -1152    -1151    -1149    -1146    -1150    -1159 
   -1152    -1139    -1146    -1155    -1147    -1145    -1155    -1156 
   -1148    -1144    -1145    -1150    -1153    -1150    -1148    -1149 
   -1148    -1148    -1149    -1154    -1155    -1150    -1149    -1152 
   -1147    -1144    -1150    -1151    -1147    -1150    -1156    -1153 
   -1147    -1144    -1145    -1151    -1151    -1148    -1152    -1152 
   -1151    -1154    -1154    -1146    -1144    -1149    -1153    -1149 
   -1148    -1156    -1156    -1145    -1144    -1150    -1148    -1146 
   -1152    -1154    -1153    -1153    -1150    -1145    -1145    -1150 
   -1153    -1152    -1150    -1152    -1153    -1146    -1145    -1152 
   -1153    -1154    -1151    -1143    -1145    -1151    -1152    -1153 
   -1157    -1156    -1150    -1148    -1146    -1140    -1141    -1151 
   -1156    -1151    -1150    -1152    -1152    -1152    -1151    -1150 
   -1150    -1147    -1144    -1148    -1152    -1147    -1144    -1152 
   -1161    -1158    -1151    -1146    -1144    -1145    -1148    -1150 
   -1155    -1156    -1150    -1146    -1151    -1153    -1149    -1147 
   -1150    -1151    -1149    -1147    -1150    -1154    -1154    -1153 
   -1149    -1142    -1142    -1150    -1154    -1155    -1156    -1156 
   -1151    -1149    -1151    -1147    -1146    -1148    -1144    -1151 
   -1161    -1156    -1148    -1143    -1145    -1150    -1153    -1152 
   -1151    -1150    -1148    -1148    -1151    -1151    -1150    -1150 
   -1147    -1148    -1152    -1155    -1153    -1149    -1150    -1153 
   -1150    -1147    -1150    -1151    -1146    -1149    -1154    -1152 
   -1150    -1151    -1147    -1145    -1150    -1156    -1152    -1149 
   -1152    -1153    -1151    -1149    -1148    -1153    -1158    -1153 
   -1148    -1148    -1148    -1146    -1147    -1151    -1153    -1154 
   -1153    -1149    -1148    -1152    -1154    -1151    -1146    -1145 
   -1151    -1153    -1149    -1146    -1149    -1153    -1149    -1144 
   -1148    -1148    -1149    -1156    -1155    -1152    -1153    -1151 
   -1147    -1145    -1148    -1153    -1152    -1150    -1150    -1152 
   -1155    -1149    -1142    -1144    -1151    -1157    -1155    -1149 
   -1148    -1148    -1150    -1150    -1146    -1147    -1150    -1151 
   -1152    -1152    -1154    -1152    -1144    -1146    -1152    -1150 
   -1146    -1149    -1159    -1159    -1149    -1145    -1148    -1151 
   -1154    -1153    -1150    -1149    -1148    -1148    -1150    -1151 
   -1152    -1153    -1150    -1149    -1150    -1150    -1152    -1148 
   -1142    -1147    -1155    -1154    -1151    -1151    -1152    -1151 
   -1148    -1150    -1151    -1149    -1150    -1151    -1150    -1148 
   -1147    -1151    -1155    -1156    -1156    -1149    -1145    -1151 
   -1153    -1147    -1146    -1151    -1154    -1150    -1148    -1151 
   -1150    -1148    -1149    -1151    -1152    -1150    -1146    -1150 
   -1156    -1149    -1142    -1149    -1155    -1153    -1149    -1147 
   -1145    -1146    -1151    -1150    -1148    -1150    -1153    -1151 
   -1149    -1150    -1151    -1151    -1157    -1158    -1149    -1147 
   -1146    -1144    -1148    -1152    -1153    -1154    -1154    -1151 
   -1150    -1150    -1146    -1143    -1146    -1150    -1155    -1156 
   -1151    -1147    -1148    -1151    -1149    -1145    -1148    -1151 
   -1149    -1149    -1150    -1147    -1145    -1150    -1171    -1197 
   -1205    -1192    -1168    -1148    -1142    -1148    -1162    -1171 
   -1145    -1077     -990     -902     -844     -858     -958    -1128 
   -1311    -1451    -1516    -1493    -1391    -1246    -1107    -1027 
   -1026    -1093    -1200    -1302    -1363    -1360    -1290    -1191 
   -1101    -1034     -989     -948     -915     -921     -969    -1055 
   -1172    -1295    -1394    -1437    -1378    -1212     -999     -812 
    -708     -701     -784     -949    -1158    -1346    -1463    -1509 
   -1511    -1477    -1388    -1252    -1120    -1027     -963     -932 
    -962    -1050    -1175    -1294    -1337    -1264    -1127    -1043 
   -1085    -1229    -1406    -1574    -1677    -1616    -1353     -986 
    -658     -471     -459     -594     -815    -1032    -1165    -1198 
   -1170    -1135    -1166    -1281    -1411    -1493    -1500    -1409 
   -1229    -1028     -901     -906    -1015    -1147    -1248    -1292 
   -1280    -1227    -1158    -1128    -1191    -1329    -1445    -1443 
   -1314    -1122     -940     -812     -770     -833     -988    -1173 
   -1306    -1336    -1271    -1157    -1063    -1036    -1075    -1146 
   -1220    -1261    -1236    -1159    -1077    -1010     -968     -973 
   -1040    -1139    -1197    -1179    -1138    -1141    -1187    -1239 
   -1297    -1374    -1426    -1385    -1251    -1092     -994     -998 
   -1080    -1195    -1285    -1289    -1203    -1063     -925     -861 
    -889     -975    -1097    -1222    -1292    -1290    -1251    -1224 
   -1243    -1307    -1368    -1367    -1285    -1127     -923     -750 
    -693     -788     -988    -1192    -1338    -1407    -1384    -1291 
   -1191    -1143    -1173    -1250    -1322    -1352    -1292    -1135 
    -944     -803     -769     -843     -971    -1093    -1179    -1229 
   -1262    -1283    -1271    -1244    -1244    -1281    -1313    -1293 
   -1209    -1095     -988     -904     -854     -871     -974    -1129 
   -1267    -1343    -1353    -1331    -1316    -1300    -1266    -1251 
   -1291    -1355    -1381    -1326    -1220    -1123    -1052     -986 
    -907     -830     -794     -813     -877     -979    -1108    -1259 
   -1407    -1498    -1492    -1393    -1232    -1065     -958     -938 
    -978    -1036    -1089    -1110    -1081    -1036    -1028    -1061 
   -1111    -1170    -1247    -1315    -1332    -1298    -1257    -1251 
   -1302    -1393    -1475    -1484    -1384    -1213    -1044     -930 
    -890     -921    -1016    -1117    -1160    -1152    -1124    -1086 
   -1055    -1037    -1028    -1037    -1047    -1027     -989     -975 
   -1034    -1153    -1258    -1322    -1376    -1409    -1373    -1253 
   -1127    -1078    -1074    -1047    -1005     -987     -985    -1000 
   -1055    -1147    -1260    -1369    -1429    -1404    -1297    -1160 
   -1053     -995     -981    -1020    -1111    -1206    -1242    -1201 
   -1135    -1097    -1104    -1160    -1239    -1293    -1308    -1288 
   -1249    -1204    -1153    -1113    -1102    -1097    -1087    -1085 
   -1089    -1085    -1081    -1088    -1116    -1167    -1218    -1251 
   -1270    -1273    -1238    -1157    -1066    -1011     -998    -1005 
   -1036    -1103    -1188    -1259    -1287    -1284    -1285    -1288 
   -1270    -1243    -1214    -1178    -1130    -1061     -980     -912 
    -858     -821     -831     -913    -1036    -1146    -1225    -1270 
   -1271    -1235    -1204    -1207    -1236    -1274    -1303    -1310 
   -1296    -1249    -1190    -1174    -1209    -1279    -1369    -1439 
   -1457    -1399    -1250    -1062     -916     -819     -749     -715 
    -735     -790     -837     -869     -928    -1037    -1172    -1300 
   -1403    -1479    -1507    -1484    -1452    -1441    -1447    -1459 
   -1446    -1374    -1253    -1116     -977     -852     -778     -773 
    -814     -853     -854     -840     -852     -902     -994    -1140 
   -1340    -1548    -1693    -1728    -1639    -1432    -1169     -938 
    -779     -687     -659     -702     -814     -978    -1175    -1390 
   -1585    -1733    -1829    -1857    -1798    -1657    -1465    -1267 
   -1077     -898     -754     -664     -632     -679     -825    -1050 
   -1276    -1424    -1445    -1321    -1086     -835     -667     -624 
    -693     -831     -981    -1093    -1149    -1166    -1192    -1253 
   -1338    -1429    -1503    -1535    -1511    -1438    -1337    -1234 
   -1133    -1015     -867     -697     -546     -473     -517     -660 
    -855    -1054    -1249    -1443    -1616    -1757    -1878    -1977 
   -2022    -1995    -1891    -1700    -1413    -1071     -750     -493 
    -316     -242     -281     -436     -692     -999    -1277    -1464 
   -1571    -1629    -1633    -1564    -1430    -1282    -1163    -1058 
    -959     -896     -909    -1005    -1127    -1223    -1287    -1311 
   -1281    -1195    -1076     -982     -957    -1000    -1063    -1079 
   -1011     -895     -816     -845     -986    -1197    -1424    -1599 
   -1659    -1595    -1451    -1282    -1124    -1003     -926     -890 
    -896     -934     -978    -1015    -1049    -1101    -1182    -1282 
   -1366    -1388    -1334    -1243    -1170    -1155    -1201    -1258 
   -1267    -1227    -1171    -1122    -1091    -1080    -1077    -1077 
   -1080    -1074    -1050    -1024    -1018    -1042    -1083    -1121 
   -1153    -1182    -1201    -1202    -1193    -1199    -1221    -1240 
   -1249    -1248    -1239    -1243    -1285    -1378    -1511    -1630 
   -1670    -1603    -1439    -1217     -975     -751     -588     -527 
    -576     -689     -812     -934    -1042    -1106    -1125    -1107 
   -1035     -914     -792     -717     -725     -814     -971    -1174 
   -1344    -1428    -1447    -1434    -1410    -1392    -1384    -1388 
   -1389    -1343    -1257    -1203    -1233    -1340    -1485    -1637 
   -1759    -1805    -1758    -1647    -1503    -1366    -1260    -1159 
   -1030     -870     -685     -496     -345     -272     -303     -439 
    -653     -889    -1084    -1218    -1317    -1376    -1387    -1363 
   -1319    -1265    -1197    -1108    -1006     -895     -774     -669 
    -611     -609     -660     -789     -994    -1243    -1522    -1799 
   -2029    -2176    -2198    -2099    -1923    -1694    -1443    -1207 
   -1010     -868     -785     -780     -865    -1010    -1175    -1327 
   -1435    -1492    -1495    -1423    -1254    -1013     -766     -562 
    -420     -357     -386     -500     -671     -877    -1101    -1300 
   -1426    -1458    -1396    -1268    -1107     -937     -787     -676 
    -619     -632     -713     -863    -1093    -1378    -1679    -1966 
   -2194    -2329    -2369    -2305    -2143    -1908    -1620    -1293 
    -958     -654     -422     -295     -286     -374     -525     -718 
    -919    -1074    -1163    -1204    -1215    -1202    -1170    -1115 
   -1038     -953     -876     -820     -801     -845     -960    -1121 
   -1296    -1447    -1543    -1579    -1567    -1512    -1434    -1364 
   -1295    -1205    -1110    -1038    -1004    -1014    -1068    -1169 
   -1299    -1409    -1456    -1433    -1361    -1267    -1180    -1119 
   -1088    -1063    -1019     -956     -893     -853     -857     -907 
    -978    -1035    -1050    -1026     -987     -963     -966     -999 
   -1063    -1130    -1168    -1164    -1130    -1095    -1076    -1102 
   -1204    -1358    -1510    -1621    -1667    -1657    -1599    -1491 
   -1361    -1230    -1117    -1033     -978     -960     -979    -1028 
   -1110    -1206    -1289    -1345    -1370    -1363    -1309    -1207 
   -1080     -938     -780     -632     -532     -518     -606     -771 
    -952    -1111    -1238    -1331    -1387    -1415    -1425    -1415 
   -1363    -1255    -1109     -961     -844     -790     -820     -939 
   -1114    -1304    -1488    -1647    -1754    -1784    -1739    -1644 
   -1526    -1399    -1265    -1142    -1045     -963     -885     -816 
    -762     -714     -678     -689     -774     -918    -1079    -1221 
   -1321    -1358    -1336    -1283    -1223    -1175    -1160    -1173 
   -1200    -1233    -1239    -1190    -1102    -1022     -995    -1026 
   -1093    -1152    -1165    -1126    -1046     -955     -912     -949 
   -1056    -1209    -1370    -1478    -1492    -1433    -1339    -1243 
   -1186    -1190    -1227    -1250    -1234    -1191    -1144    -1106 
   -1084    -1092    -1136    -1177    -1173    -1130    -1073    -1014 
    -978     -982    -1023    -1094    -1176    -1237    -1264    -1260 
   -1243    -1225    -1207    -1208    -1216    -1192    -1124    -1026 
    -918     -833     -802     -824     -879     -957    -1043    -1116 
   -1191    -1271    -1328    -1360    -1374    -1358    -1301    -1222 
   -1144    -1073    -1025    -1023    -1061    -1134    -1233    -1328 
   -1396    -1436    -1439    -1407    -1361    -1321    -1295    -1255 
   -1194    -1134    -1075    -1014     -961     -920     -890     -873 
    -860     -846     -842     -845     -856     -895     -967    -1050 
   -1128    -1201    -1265    -1316    -1367    -1418    -1442    -1433 
   -1408    -1388    -1373    -1357    -1344    -1339    -1346    -1360 
   -1363    -1348    -1313    -1257    -1190    -1122    -1063    -1019 
    -993     -991    -1006    -1024    -1040    -1037    -1012     -977 
    -935     -892     -858     -832     -814     -806     -808     -834 
    -895     -982    -1087    -1192    -1271    -1318    -1340    -1355 
   -1372    -1400    -1460    -1543    -1608    -1632    -1609    -1545 
   -1451    -1354    -1290    -1264    -1256    -1243    -1207    -1144 
   -1045     -921     -817     -756     -737     -758     -794     -829 
    -865     -897     -927     -965    -1020    -1095    -1178    -1255 
   -1307    -1322    -1318    -1302    -1270    -1243    -1241    -1251 
   -1249    -1243    -1247    -1245    -1227    -1213    -1208    -1201 
   -1195    -1203    -1212    -1193    -1149    -1088    -1010     -941 
    -916     -940    -1001    -1080    -1166    -1237    -1264    -1243 
   -1195    -1145    -1119    -1121    -1133    -1139    -1126    -1086 
   -1026     -973     -949     -959    -1011    -1085    -1162    -1247 
   -1327    -1387    -1431    -1471    -1507    -1523    -1508    -1462 
   -1395    -1330    -1279    -1238    -1213    -1197    -1170    -1110 
   -1021     -926     -852     -813     -818     -850     -877     -892 
    -900     -895     -880     -880     -902     -930     -975    -1043 
   -1111    -1174    -1243    -1318    -1397    -1472    -1523    -1536 
   -1510    -1458    -1389    -1311    -1247    -1202    -1160    -1124 
   -1099    -1085    -1096    -1125    -1155    -1184    -1204    -1203 
   -1181    -1136    -1082    -1036    -1007     -982     -961     -956 
    -953     -942     -939     -966    -1011    -1048    -1088    -1133 
   -1151    -1147    -1142    -1145    -1164    -1197    -1237    -1283 
   -1333    -1383    -1421    -1447    -1468    -1473    -1458    -1435 
   -1404    -1359    -1298    -1236    -1178    -1108    -1041     -993 
    -955     -925     -902     -887     -885     -894     -907     -920 
    -935     -956     -970     -966     -962     -964     -971     -985 
   -1003    -1034    -1084    -1149    -1220    -1292    -1370    -1437 
   -1472    -1482    -1482    -1468    -1434    -1396    -1368    -1343 
   -1314    -1283    -1244    -1191    -1139    -1103    -1082    -1072 
   -1073    -1080    -1082    -1081    -1087    -1096    -1108    -1117 
   -1114    -1099    -1063     -999     -930     -877     -843     -835 
    -855     -902     -959    -1011    -1059    -1106    -1150    -1204 
   -1271    -1337    -1390    -1434    -1471    -1484    -1478    -1476 
   -1480    -1470    -1449    -1425    -1385    -1326    -1265    -1216 
   -1180    -1144    -1100    -1056    -1012     -955     -884     -823 
    -781     -741     -717     -724     -751     -783     -828     -894 
    -974    -1065    -1167    -1258    -1319    -1352    -1364    -1359 
   -1345    -1326    -1303    -1277    -1256    -1255    -1282    -1312 
   -1332    -1347    -1352    -1336    -1310    -1290    -1282    -1278 
   -1264    -1239    -1192    -1114    -1024     -958     -935     -937 
    -956     -985    -1018    -1039    -1033    -1018    -1013    -1013 
   -1015    -1028    -1037    -1032    -1019    -1008    -1003    -1021 
   -1077    -1150    -1213    -1268    -1317    -1348    -1361    -1365 
   -1367    -1373    -1382    -1392    -1395    -1376    -1334    -1280 
