Origin Time       2017/07/03 16:29:00
Lat.              43.808
Long.             141.805
Depth. (km)       10
Mag.              2.8
Station Code      RMIH05
Station Lat.      44.0254
Station Long.     141.7876
Station Height(m) -84
Record Time       2017/07/03 16:29:43
Sampling Freq(Hz) 100Hz
Duration Time(s)  120
Dir.              1
Scale Factor      2940(gal)/6170270
Max. Acc. (gal)   0.174
Last Correction   2017/07/03 16:29:28
Memo.             
[...]
   52572    52573    52573    52571    52572    52571    52570    52571 
   52573    52572    52571    52572    52573    52572    52572    52573 
   52573    52572    52572    52573    52573    52571    52571    52572 
   52573    52572    52570    52572    52576    52574    52573    52574 
   52572    52573    52574    52572    52572    52574    52572    52570 
   52573    52572    52570    52571    52572    52572    52573    52573 
   52571    52572    52572    52572    52573    52572    52570    52572 
   52573    52573    52573    52573    52572    52573    52574    52573 
   52572    52571    52571    52573    52573    52570    52570    52572 
   52571    52571    52573    52573    52572    52572    52573    52574 
   52575    52575    52574    52572    52573    52573    52570    52570 
   52572    52573    52573    52574    52574    52574    52573    52572 
   52572    52572    52572    52572    52572    52571    52572    52571 
   52571    52571    52571    52572    52573    52572    52572    52572 
   52572    52572    52571    52572    52573    52573    52573    52572 
   52571    52571    52571    52571    52572    52572    52572    52572 
   52571    52572    52572    52572    52574    52574    52573    52573 
   52571    52572    52573    52573    52573    52572    52571    52572 
   52572    52573    52574    52573    52572    52573    52572    52573 
   52573    52572    52572    52571    52571    52571    52570    52571 
   52573    52573    52572    52571    52571    52573    52573    52570 
   52571    52572    52571    52571    52570    52571    52573    52572 
   52571    52572    52572    52571    52571    52572    52573    52573 
   52572    52571    52573    52573    52572    52573    52572    52571 
   52573    52574    52571    52570    52573    52573    52571    52571 
   52571    52571    52573    52574    52573    52574    52574    52573 
   52572    52572    52571    52573    52574    52574    52574    52572 
   52571    52573    52573    52572    52574    52573    52570    52572 
   52573    52572    52573    52574    52572    52571    52572    52573 
   52571    52570    52572    52573    52572    52572    52573    52572 
   52571    52572    52572    52572    52574    52574    52571    52571 
   52572    52573    52573    52572    52572    52573    52573    52572 
   52571    52573    52573    52573    52573    52574    52572    52571 
   52573    52574    52573    52573    52572    52572    52574    52573 
   52571    52571    52571    52572    52574    52574    52572    52571 
   52572    52573    52573    52573    52573    52571    52572    52573 
   52571    52571    52573    52573    52573    52574    52573    52571 
   52570    52572    52573    52573    52572    52572    52571    52571 
   52573    52574    52573    52572    52571    52572    52574    52573 
   52571    52572    52572    52572    52574    52574    52573    52574 
   52573    52571    52572    52573    52574    52572    52572    52572 
   52572    52572    52571    52572    52574    52573    52572    52572 
   52572    52571    52572    52573    52573    52571    52571    52573 
   52573    52572    52571    52572    52572    52571    52571    52572 
   52571    52573    52574    52571    52571    52574    52573    52571 
   52572    52572    52572    52572    52572    52573    52573    52573 
   52572    52572    52574    52574    52570    52571    52575    52573 
   52571    52573    52573    52572    52572    52571    52571    52572 
   52573    52572    52572    52574    52573    52573    52572    52571 
   52572    52573    52574    52572    52572    52574    52572    52571 
   52573    52573    52571    52572    52573    52573    52570    52569 
   52572    52574    52573    52571    52571    52573    52574    52574 
   52573    52573    52571    52571    52573    52573    52572    52572 
   52573    52571    52569    52570    52572    52573    52572    52572 
   52572    52572    52572    52572    52571    52569    52570    52572 
   52573    52573    52571    52572    52575    52574    52571    52573 
   52573    52574    52573    52571    52571    52572    52572    52571 
   52572    52572    52572    52572    52572    52571    52570    52572 
   52573    52573    52573    52571    52571    52573    52575    52572 
   52570    52571    52572    52572    52572    52572    52572    52573 
   52574    52573    52572    52572    52573    52575    52574    52572 
   52572    52572    52573    52574    52573    52573    52573    52573 
   52572    52571    52572    52573    52573    52572    52571    52570 
   52571    52573    52571    52571    52572    52571    52572    52574 
   52572    52573    52575    52573    52571    52571    52572    52571 
   52571    52574    52575    52574    52572    52572    52573    52571 
   52571    52572    52572    52571    52572    52572    52573    52574 
   52572    52571    52572    52571    52571    52574    52573    52571 
   52571    52572    52574    52574    52572    52570    52572    52573 
   52570    52571    52573    52572    52571    52572    52572    52572 
   52572    52573    52575    52575    52572    52572    52574    52572 
   52571    52570    52572    52574    52573    52572    52572    52573 
   52572    52571    52573    52573    52571    52572    52573    52572 
   52572    52573    52573    52572    52572    52572    52571    52571 
   52571    52571    52573    52573    52572    52573    52575    52575 
   52572    52571    52574    52575    52573    52571    52571    52573 
   52573    52572    52573    52571    52570    52573    52574    52573 
   52573    52572    52572    52572    52572    52571    52571    52573 
   52573    52572    52572    52573    52573    52572    52572    52572 
   52574    52572    52568    52570    52572    52571    52571    52572 
   52571    52571    52574    52571    52569    52572    52572    52570 
   52571    52571    52572    52573    52573    52573    52573    52572 
   52573    52574    52572    52570    52572    52571    52570    52571 
   52570    52567    52570    52574    52572    52570    52572    52574 
   52572    52572    52573    52572    52570    52572    52572    52571 
   52571    52571    52572    52574    52572    52571    52573    52571 
   52569    52573    52575    52573    52572    52572    52571    52572 
   52570    52569    52572    52573    52573    52572    52570    52570 
   52572    52573    52572    52571    52572    52572    52571    52571 
   52570    52570    52571    52570    52571    52573    52572    52572 
   52572    52571    52571    52572    52573    52573    52572    52572 
   52572    52573    52573    52570    52570    52573    52570    52569 
   52572    52573    52572    52572    52572    52573    52572    52571 
   52572    52574    52573    52571    52571    52574    52573    52572 
   52573    52573    52572    52571    52572    52573    52573    52572 
   52572    52573    52571    52571    52572    52571    52571    52572 
   52573    52571    52569    52570    52572    52572    52571    52573 
   52573    52573    52574    52572    52570    52574    52574    52570 
   52572    52573    52571    52571    52572    52570    52572    52574 
   52574    52573    52572    52571    52573    52575    52571    52570 
   52574    52572    52570    52575    52574    52571    52573    52572 
   52571    52573    52573    52571    52573    52573    52572    52572 
   52571    52571    52573    52571    52572    52573    52573    52571 
   52571    52574    52575    52572    52571    52572    52572    52571 
   52572    52572    52572    52574    52574    52572    52571    52572 
   52573    52572    52571    52571    52571    52573    52574    52573 
   52572    52573    52574    52573    52573    52573    52572    52571 
   52571    52572    52572    52570    52571    52572    52572    52573 
   52572    52573    52573    52571    52572    52573    52572    52570 
   52572    52574    52573    52572    52573    52572    52571    52571 
   52573    52573    52572    52570    52571    52573    52572    52573 
   52572    52571    52573    52573    52571    52572    52573    52572 
   52573    52576    52574    52570    52570    52574    52573    52571 
   52572    52573    52571    52571    52572    52571    52571    52572 
   52572    52571    52571    52570    52570    52571    52574    52574 
   52572    52571    52573    52573    52571    52572    52572    52571 
   52572    52573    52572    52572    52574    52571    52570    52573 
   52573    52571    52572    52572    52572    52571    52571    52572 
   52573    52572    52573    52574    52573    52571    52572    52574 
   52573    52572    52573    52571    52570    52574    52575    52571 
   52570    52571    52572    52573    52573    52572    52572    52573 
   52572    52572    52573    52573    52570    52572    52574    52573 
   52572    52573    52572    52572    52576    52574    52570    52572 
   52573    52572    52572    52571    52570    52570    52571    52573 
   52573    52572    52571    52572    52574    52574    52572    52571 
   52572    52574    52573    52571    52573    52573    52572    52571 
   52572    52572    52571    52572    52573    52572    52571    52572 
   52572    52571    52573    52574    52573    52574    52574    52572 
   52572    52573    52572    52572    52571    52570    52572    52573 
   52571    52572    52574    52573    52571    52572    52570    52569 
   52573    52574    52570    52570    52572    52573    52571    52572 
   52572    52572    52572    52571    52571    52573    52574    52572 
   52572    52573    52572    52572    52573    52572    52573    52573 
   52572    52571    52572    52573    52572    52571    52572    52574 
   52573    52572    52573    52572    52572    52574    52574    52572 
   52571    52571    52571    52570    52572    52574    52572    52572 
   52572    52572    52571    52571    52572    52573    52572    52573 
   52574    52572    52572    52574    52573    52572    52572    52573 
   52572    52573    52575    52577    52573    52571    52573    52573 
   52571    52572    52574    52574    52573    52573    52574    52573 
   52572    52571    52570    52571    52573    52572    52572    52573 
   52572    52571    52573    52574    52572    52573    52574    52573 
   52572    52572    52572    52572    52573    52572    52573    52573 
   52572    52573    52573    52574    52575    52573    52572    52574 
   52574    52572    52570    52572    52573    52573    52573    52572 
   52572    52571    52571    52574    52573    52572    52573    52574 
   52573    52572    52573    52573    52570    52572    52576    52575 
   52573    52574    52573    52573    52574    52572    52572    52573 
   52572    52572    52574    52574    52572    52571    52571    52573 
   52573    52573    52573    52572    52572    52573    52573    52572 
   52573    52573    52571    52570    52572    52573    52573    52572 
   52574    52572    52571    52572    52573    52572    52572    52574 
   52572    52571    52573    52573    52571    52572    52575    52574 
   52572    52572    52572    52572    52572    52572    52573    52574 
   52572    52571    52573    52574    52573    52573    52572    52571 
   52573    52573    52573    52573    52572    52571    52571    52573 
   52573    52571    52573    52573    52572    52572    52573    52573 
   52573    52573    52572    52574    52574    52572    52572    52571 
   52569    52572    52574    52571    52571    52573    52572    52572 
   52574    52574    52574    52574    52573    52573    52575    52573 
   52571    52573    52574    52573    52571    52570    52571    52571 
   52571    52571    52571    52571    52572    52573    52572    52572 
   52571    52570    52573    52572    52569    52571    52574    52573 
   52572    52572    52571    52571    52573    52574    52573    52571 
   52572    52573    52571    52570    52572    52572    52571    52572 
   52573    52573    52573    52572    52571    52572    52572    52572 
   52573    52573    52573    52572    52572    52571    52571    52574 
   52573    52570    52572    52573    52571    52570    52572    52571 
   52569    52571    52573    52572    52571    52572    52573    52572 
   52571    52573    52574    52572    52570    52572    52573    52572 
   52571    52571    52571    52572    52573    52574    52574    52573 
   52571    52572    52573    52574    52574    52573    52570    52570 
   52572    52573    52573    52575    52573    52569    52572    52574 
   52571    52572    52573    52570    52570    52573    52573    52572 
   52573    52574    52572    52572    52572    52571    52573    52575 
   52573    52571    52573    52573    52571    52572    52573    52572 
   52572    52574    52572    52570    52573    52575    52572    52571 
   52574    52572    52571    52572    52572    52573    52575    52574 
   52575    52574    52572    52573    52574    52572    52571    52572 
   52572    52572    52572    52571    52573    52572    52571    52573 
   52573    52572    52572    52572    52573    52575    52573    52572 
   52573    52574    52572    52570    52571    52573    52574    52572 
   52570    52571    52572    52573    52573    52574    52572    52569 
   52568    52565    52556    52545    52533    52525    52536    52578 
   52649    52735    52801    52793    52691    52526    52358    52257 
   52265    52368    52510    52644    52759    52853    52880    52797 
   52624    52419    52256    52208    52298    52482    52683    52829 
   52887    52854    52744    52592    52447    52361    52343    52366 
   52425    52517    52613    52696    52759    52774    52704    52579 
   52484    52462    52486    52515    52533    52550    52586    52637 
   52654    52602    52525    52493    52538    52626    52678    52656 
   52613    52605    52621    52612    52553    52468    52419    52440 
   52503    52550    52549    52521    52525    52589    52681    52744 
   52750    52706    52642    52578    52516    52458    52431    52456 
   52520    52584    52611    52589    52554    52554    52589    52620 
   52619    52597    52583    52595    52615    52595    52517    52432 
   52417    52490    52593    52657    52666    52654    52646    52640 
   52615    52560    52509    52502    52526    52550    52561    52561 
   52566    52584    52598    52591    52580    52582    52597    52605 
   52582    52538    52514    52527    52568    52612    52631    52618 
   52594    52569    52548    52538    52535    52538    52549    52557 
   52565    52587    52608    52611    52607    52614    52619    52603 
   52573    52546    52530    52524    52531    52558    52593    52617 
   52618    52594    52556    52525    52519    52520    52510    52523 
   52581    52646    52679    52668    52626    52587    52576    52579 
   52568    52537    52509    52513    52534    52548    52549    52534 
   52514    52516    52546    52583    52614    52635    52643    52642 
   52637    52624    52609    52597    52583    52563    52545    52535 
   52527    52513    52507    52530    52576    52623    52653    52662 
   52658    52645    52625    52597    52566    52537    52516    52511 
   52519    52530    52545    52566    52582    52574    52541    52525 
   52551    52592    52613    52616    52614    52611    52606    52593 
   52566    52526    52491    52491    52515    52527    52522    52525 
   52554    52595    52628    52640    52639    52632    52621    52606 
   52576    52538    52520    52521    52530    52552    52580    52595 
   52602    52607    52591    52560    52540    52542    52551    52558 
   52561    52554    52545    52545    52560    52590    52622    52633 
   52620    52598    52583    52577    52581    52590    52581    52555 
   52547    52557    52548    52515    52492    52506    52549    52582 
   52582    52574    52590    52620    52632    52608    52565    52547 
   52583    52635    52642    52593    52534    52514    52549    52600 
   52612    52574    52536    52543    52587    52624    52626    52601 
   52577    52574    52583    52582    52566    52546    52545    52565 
   52582    52572    52555    52571    52617    52647    52626    52573 
   52527    52519    52552    52585    52584    52569    52578    52598 
   52597    52565    52521    52496    52503    52522    52531    52533 
   52547    52579    52610    52625    52620    52587    52543    52525 
   52527    52520    52504    52496    52505    52534    52581    52634 
   52664    52654    52621    52590    52568    52559    52557    52555 
   52557    52566    52578    52591    52601    52597    52582    52572 
   52579    52594    52598    52589    52580    52579    52587    52596 
   52597    52598    52597    52592    52591    52594    52595    52591 
   52574    52552    52552    52586    52632    52653    52638    52601 
   52560    52533    52517    52485    52439    52406    52397    52409 
   52426    52441    52460    52491    52524    52540    52542    52559 
   52605    52665    52708    52720    52722    52744    52782    52796 
   52747    52641    52540    52506    52533    52557    52544    52521 
   52523    52569    52637    52668    52631    52570    52550    52582 
   52610    52589    52535    52508    52543    52611    52641    52606 
   52547    52524    52547    52571    52550    52491    52430    52398 
   52402    52423    52446    52481    52533    52586    52621    52618 
   52579    52533    52507    52511    52531    52540    52531    52522 
   52534    52574    52627    52674    52707    52721    52712    52690 
   52667    52651    52655    52678    52699    52697    52676    52654 
   52636    52624    52616    52600    52575    52554    52542    52533 
   52524    52510    52496    52495    52504    52510    52516    52527 
   52547    52576    52609    52631    52631    52605    52560    52510 
   52465    52441    52455    52498    52532    52541    52549    52578 
   52626    52678    52703    52677    52611    52544    52514    52525 
   52553    52574    52575    52558    52532    52516    52513    52518 
   52537    52564    52583    52578    52554    52523    52500    52494 
   52517    52559    52605    52649    52674    52666    52636    52608 
   52600    52615    52638    52633    52597    52570    52580    52607 
   52614    52584    52534    52501    52508    52545    52582    52595 
   52588    52580    52581    52583    52586    52594    52606    52614 
   52605    52580    52555    52549    52557    52558    52539    52510 
   52498    52515    52538    52544    52535    52528    52542    52573 
   52599    52606    52601    52601    52608    52607    52588    52550 
   52513    52493    52489    52492    52507    52538    52580    52625 
   52653    52636    52584    52537    52523    52542    52579    52616 
   52641    52650    52654    52654    52638    52602    52567    52554 
   52551    52546    52538    52531    52522    52517    52511    52506 
   52513    52540    52587    52645    52686    52697    52682    52656 
   52636    52626    52616    52600    52577    52539    52497    52468 
   52458    52462    52475    52484    52494    52525    52580    52637 
   52667    52652    52604    52564    52552    52557    52558    52540 
   52523    52537    52575    52601    52595    52565    52547    52571 
