Origin Time       2017/07/03 16:29:00
Lat.              43.808
Long.             141.805
Depth. (km)       10
Mag.              2.8
Station Code      RMIH05
Station Lat.      44.0254
Station Long.     141.7876
Station Height(m) -84
Record Time       2017/07/03 16:29:43
Sampling Freq(Hz) 100Hz
Duration Time(s)  120
Dir.              3
Scale Factor      2940(gal)/6170270
Max. Acc. (gal)   0.095
Last Correction   2017/07/03 16:29:28
Memo.             
[...]
  -17135   -17133   -17134   -17135   -17134   -17133   -17133   -17135 
  -17136   -17136   -17136   -17136   -17135   -17135   -17135   -17133 
  -17133   -17134   -17135   -17133   -17132   -17133   -17133   -17133 
  -17134   -17133   -17133   -17134   -17134   -17134   -17135   -17135 
  -17133   -17132   -17134   -17134   -17133   -17134   -17134   -17134 
  -17135   -17136   -17135   -17135   -17133   -17133   -17134   -17135 
  -17134   -17134   -17132   -17132   -17133   -17134   -17134   -17135 
  -17134   -17134   -17134   -17133   -17133   -17134   -17133   -17133 
  -17134   -17135   -17135   -17134   -17133   -17132   -17132   -17135 
  -17136   -17136   -17134   -17133   -17134   -17133   -17131   -17133 
  -17135   -17132   -17132   -17133   -17134   -17134   -17134   -17135 
  -17135   -17133   -17133   -17134   -17134   -17134   -17133   -17133 
  -17134   -17135   -17134   -17133   -17133   -17133   -17132   -17134 
  -17136   -17134   -17134   -17136   -17135   -17132   -17133   -17134 
  -17134   -17134   -17133   -17133   -17134   -17133   -17133   -17133 
  -17133   -17134   -17134   -17132   -17133   -17134   -17133   -17133 
  -17134   -17132   -17133   -17135   -17136   -17136   -17134   -17132 
  -17132   -17133   -17134   -17134   -17135   -17136   -17133   -17133 
  -17136   -17135   -17134   -17135   -17133   -17133   -17133   -17133 
  -17132   -17133   -17132   -17133   -17135   -17136   -17134   -17134 
  -17135   -17134   -17133   -17135   -17135   -17134   -17133   -17133 
  -17134   -17134   -17135   -17135   -17134   -17133   -17134   -17135 
  -17133   -17132   -17132   -17132   -17134   -17133   -17131   -17133 
  -17135   -17133   -17133   -17133   -17133   -17134   -17134   -17133 
  -17134   -17133   -17132   -17134   -17135   -17134   -17135   -17135 
  -17135   -17134   -17132   -17134   -17136   -17134   -17133   -17133 
  -17134   -17134   -17133   -17133   -17134   -17133   -17133   -17133 
  -17132   -17132   -17132   -17132   -17131   -17131   -17134   -17133 
  -17132   -17133   -17132   -17132   -17134   -17134   -17133   -17132 
  -17134   -17133   -17133   -17134   -17133   -17132   -17135   -17135 
  -17133   -17134   -17134   -17133   -17134   -17135   -17135   -17135 
  -17132   -17131   -17135   -17135   -17132   -17132   -17134   -17132 
  -17132   -17132   -17132   -17133   -17134   -17135   -17134   -17133 
  -17134   -17133   -17133   -17136   -17135   -17133   -17134   -17135 
  -17134   -17133   -17135   -17135   -17133   -17132   -17134   -17135 
  -17135   -17134   -17133   -17135   -17136   -17135   -17135   -17134 
  -17135   -17135   -17133   -17133   -17134   -17134   -17135   -17135 
  -17135   -17134   -17133   -17134   -17134   -17133   -17133   -17133 
  -17132   -17132   -17135   -17135   -17133   -17134   -17134   -17133 
  -17134   -17136   -17135   -17134   -17134   -17134   -17132   -17133 
  -17135   -17135   -17135   -17136   -17134   -17132   -17132   -17133 
  -17132   -17132   -17133   -17134   -17134   -17132   -17132   -17134 
  -17134   -17134   -17133   -17134   -17135   -17133   -17133   -17135 
  -17133   -17133   -17134   -17134   -17135   -17135   -17133   -17134 
  -17136   -17135   -17134   -17135   -17135   -17135   -17135   -17135 
  -17133   -17133   -17135   -17136   -17133   -17132   -17134   -17135 
  -17135   -17135   -17134   -17134   -17135   -17134   -17134   -17135 
  -17133   -17132   -17134   -17135   -17135   -17134   -17133   -17134 
  -17134   -17134   -17134   -17135   -17135   -17134   -17134   -17133 
  -17132   -17134   -17136   -17136   -17135   -17134   -17134   -17134 
  -17133   -17132   -17133   -17132   -17131   -17132   -17133   -17134 
  -17134   -17135   -17136   -17134   -17133   -17134   -17134   -17134 
  -17134   -17134   -17134   -17133   -17132   -17132   -17134   -17134 
  -17133   -17134   -17135   -17134   -17132   -17133   -17135   -17134 
  -17133   -17134   -17134   -17133   -17133   -17134   -17134   -17132 
  -17133   -17135   -17133   -17133   -17136   -17136   -17134   -17134 
  -17134   -17133   -17133   -17133   -17133   -17134   -17134   -17133 
  -17134   -17135   -17133   -17132   -17133   -17133   -17134   -17134 
  -17132   -17132   -17134   -17135   -17134   -17134   -17134   -17133 
  -17134   -17134   -17134   -17134   -17134   -17132   -17131   -17133 
  -17134   -17132   -17131   -17132   -17133   -17133   -17133   -17133 
  -17133   -17135   -17133   -17132   -17134   -17136   -17136   -17133 
  -17131   -17132   -17135   -17135   -17134   -17133   -17133   -17134 
  -17135   -17135   -17135   -17136   -17135   -17132   -17133   -17133 
  -17133   -17134   -17134   -17134   -17136   -17136   -17134   -17134 
  -17135   -17134   -17133   -17134   -17134   -17133   -17135   -17136 
  -17133   -17134   -17135   -17134   -17135   -17134   -17132   -17134 
  -17132   -17131   -17133   -17133   -17132   -17135   -17135   -17134 
  -17133   -17133   -17134   -17135   -17134   -17134   -17135   -17135 
  -17134   -17134   -17134   -17134   -17133   -17134   -17134   -17133 
  -17133   -17134   -17135   -17134   -17133   -17135   -17135   -17135 
  -17134   -17133   -17133   -17133   -17132   -17132   -17133   -17133 
  -17133   -17135   -17134   -17132   -17132   -17135   -17135   -17134 
  -17134   -17134   -17134   -17136   -17135   -17134   -17135   -17136 
  -17133   -17133   -17134   -17133   -17135   -17136   -17133   -17132 
  -17136   -17135   -17133   -17133   -17134   -17135   -17133   -17130 
  -17131   -17134   -17133   -17133   -17134   -17135   -17134   -17134 
  -17135   -17134   -17133   -17135   -17137   -17134   -17134   -17136 
  -17135   -17133   -17134   -17133   -17132   -17134   -17136   -17135 
  -17133   -17133   -17133   -17133   -17133   -17133   -17131   -17132 
  -17135   -17134   -17132   -17134   -17134   -17133   -17135   -17136 
  -17134   -17132   -17133   -17134   -17132   -17130   -17130   -17132 
  -17135   -17135   -17133   -17133   -17134   -17136   -17135   -17133 
  -17133   -17135   -17134   -17133   -17133   -17133   -17132   -17134 
  -17135   -17133   -17133   -17133   -17133   -17134   -17133   -17133 
  -17133   -17134   -17134   -17132   -17133   -17136   -17134   -17131 
  -17132   -17135   -17135   -17132   -17132   -17133   -17132   -17132 
  -17133   -17132   -17133   -17135   -17133   -17133   -17134   -17134 
  -17131   -17133   -17134   -17133   -17134   -17134   -17131   -17133 
  -17133   -17132   -17133   -17134   -17133   -17134   -17135   -17135 
  -17133   -17133   -17135   -17134   -17134   -17135   -17134   -17133 
  -17133   -17133   -17134   -17137   -17134   -17132   -17135   -17136 
  -17136   -17135   -17134   -17134   -17134   -17134   -17136   -17136 
  -17133   -17134   -17137   -17136   -17133   -17132   -17136   -17137 
  -17135   -17134   -17134   -17134   -17135   -17136   -17135   -17134 
  -17132   -17131   -17133   -17133   -17132   -17134   -17135   -17134 
  -17133   -17134   -17133   -17131   -17134   -17137   -17135   -17133 
  -17133   -17133   -17133   -17134   -17135   -17134   -17134   -17134 
  -17133   -17134   -17134   -17133   -17135   -17134   -17131   -17132 
  -17135   -17135   -17136   -17135   -17133   -17134   -17136   -17133 
  -17131   -17135   -17138   -17134   -17132   -17135   -17135   -17133 
  -17134   -17134   -17134   -17134   -17134   -17135   -17133   -17131 
  -17135   -17136   -17131   -17131   -17134   -17136   -17135   -17133 
  -17133   -17133   -17133   -17132   -17132   -17133   -17135   -17133 
  -17131   -17134   -17134   -17132   -17133   -17133   -17133   -17135 
  -17134   -17133   -17134   -17133   -17132   -17132   -17136   -17136 
  -17132   -17133   -17135   -17134   -17134   -17134   -17134   -17134 
  -17134   -17135   -17136   -17135   -17132   -17133   -17135   -17136 
  -17137   -17135   -17131   -17132   -17135   -17136   -17134   -17133 
  -17135   -17134   -17133   -17135   -17134   -17132   -17134   -17136 
  -17135   -17134   -17134   -17132   -17131   -17133   -17135   -17134 
  -17135   -17134   -17133   -17134   -17134   -17133   -17135   -17135 
  -17135   -17136   -17134   -17133   -17135   -17134   -17133   -17135 
  -17134   -17133   -17134   -17135   -17135   -17135   -17134   -17134 
  -17134   -17134   -17134   -17134   -17135   -17134   -17135   -17135 
  -17134   -17133   -17132   -17132   -17132   -17133   -17135   -17135 
  -17132   -17132   -17133   -17134   -17134   -17134   -17135   -17135 
  -17135   -17134   -17135   -17135   -17135   -17134   -17133   -17135 
  -17134   -17132   -17133   -17135   -17135   -17135   -17136   -17134 
  -17133   -17134   -17135   -17135   -17134   -17134   -17135   -17135 
  -17134   -17134   -17136   -17135   -17132   -17134   -17134   -17133 
  -17135   -17134   -17132   -17134   -17136   -17136   -17134   -17132 
  -17133   -17134   -17135   -17135   -17134   -17134   -17135   -17135 
  -17135   -17134   -17134   -17134   -17133   -17135   -17138   -17135 
  -17132   -17133   -17133   -17133   -17133   -17133   -17133   -17133 
  -17134   -17134   -17135   -17135   -17133   -17133   -17135   -17133 
  -17134   -17135   -17135   -17135   -17134   -17134   -17135   -17135 
  -17134   -17135   -17135   -17133   -17133   -17135   -17136   -17135 
  -17134   -17132   -17132   -17135   -17136   -17135   -17133   -17132 
  -17133   -17133   -17133   -17134   -17134   -17134   -17134   -17133 
  -17132   -17135   -17136   -17133   -17133   -17136   -17136   -17134 
  -17135   -17135   -17133   -17132   -17133   -17134   -17134   -17134 
  -17134   -17133   -17134   -17134   -17133   -17135   -17136   -17134 
  -17135   -17136   -17133   -17132   -17135   -17135   -17133   -17133 
  -17134   -17134   -17134   -17133   -17133   -17133   -17134   -17134 
  -17132   -17133   -17134   -17133   -17133   -17134   -17132   -17132 
  -17134   -17134   -17132   -17133   -17134   -17134   -17134   -17134 
  -17134   -17134   -17134   -17134   -17134   -17134   -17135   -17134 
  -17134   -17135   -17135   -17135   -17135   -17133   -17133   -17134 
  -17133   -17133   -17133   -17133   -17134   -17135   -17134   -17133 
  -17134   -17134   -17134   -17135   -17135   -17135   -17133   -17133 
  -17135   -17136   -17133   -17133   -17135   -17134   -17133   -17134 
  -17134   -17135   -17135   -17134   -17135   -17137   -17136   -17132 
  -17132   -17133   -17133   -17132   -17132   -17135   -17134   -17132 
  -17131   -17132   -17132   -17133   -17133   -17133   -17135   -17136 
  -17136   -17135   -17133   -17134   -17135   -17134   -17134   -17136 
  -17135   -17134   -17132   -17132   -17133   -17132   -17134   -17136 
  -17136   -17136   -17134   -17133   -17135   -17135   -17133   -17134 
  -17135   -17134   -17132   -17131   -17132   -17134   -17135   -17135 
  -17134   -17133   -17133   -17134   -17134   -17133   -17132   -17134 
  -17134   -17134   -17135   -17134   -17133   -17135   -17135   -17134 
  -17134   -17134   -17134   -17134   -17134   -17134   -17133   -17132 
  -17134   -17135   -17135   -17135   -17134   -17135   -17136   -17134 
  -17133   -17134   -17133   -17131   -17133   -17134   -17133   -17133 
  -17134   -17135   -17134   -17133   -17134   -17135   -17133   -17132 
  -17133   -17135   -17135   -17133   -17133   -17132   -17131   -17134 
  -17134   -17131   -17131   -17136   -17135   -17133   -17136   -17136 
  -17133   -17133   -17135   -17133   -17134   -17135   -17135   -17135 
  -17136   -17135   -17134   -17134   -17133   -17133   -17134   -17134 
  -17133   -17133   -17134   -17135   -17133   -17132   -17134   -17135 
  -17134   -17134   -17134   -17135   -17136   -17137   -17134   -17134 
  -17135   -17134   -17133   -17134   -17134   -17133   -17133   -17133 
  -17132   -17133   -17136   -17135   -17134   -17135   -17134   -17132 
  -17133   -17135   -17132   -17132   -17134   -17133   -17134   -17135 
  -17134   -17134   -17134   -17133   -17132   -17134   -17136   -17134 
  -17132   -17135   -17136   -17134   -17134   -17133   -17133   -17135 
  -17134   -17132   -17133   -17134   -17133   -17133   -17133   -17133 
  -17133   -17135   -17133   -17131   -17133   -17134   -17134   -17134 
  -17134   -17134   -17134   -17132   -17132   -17134   -17134   -17132 
  -17131   -17134   -17135   -17133   -17132   -17132   -17132   -17133 
  -17134   -17133   -17133   -17132   -17133   -17134   -17135   -17135 
  -17133   -17134   -17136   -17135   -17133   -17134   -17134   -17132 
  -17133   -17133   -17134   -17134   -17133   -17132   -17133   -17134 
  -17135   -17135   -17134   -17135   -17135   -17132   -17133   -17135 
  -17133   -17131   -17133   -17134   -17134   -17133   -17132   -17132 
  -17133   -17135   -17136   -17134   -17133   -17134   -17134   -17135 
  -17135   -17134   -17134   -17135   -17134   -17133   -17134   -17135 
  -17136   -17134   -17131   -17133   -17136   -17135   -17132   -17132 
  -17132   -17133   -17134   -17133   -17133   -17134   -17134   -17134 
  -17134   -17135   -17136   -17135   -17134   -17133   -17132   -17133 
  -17134   -17132   -17131   -17133   -17132   -17132   -17132   -17132 
  -17133   -17134   -17133   -17133   -17133   -17133   -17132   -17134 
  -17133   -17133   -17135   -17136   -17134   -17135   -17135   -17133 
  -17133   -17133   -17133   -17135   -17135   -17133   -17131   -17132 
  -17133   -17134   -17136   -17136   -17133   -17133   -17134   -17136 
  -17141   -17147   -17156   -17170   -17181   -17181   -17159   -17106 
  -17027   -16956   -16936   -16990   -17113   -17251   -17332   -17309 
  -17198   -17063   -16982   -16983   -17040   -17123   -17216   -17284 
  -17294   -17268   -17247   -17234   -17216   -17158   -17062   -16996 
  -16994   -17029   -17085   -17147   -17186   -17191   -17159   -17111 
  -17076   -17067   -17093   -17126   -17121   -17106   -17131   -17166 
  -17167   -17142   -17117   -17096   -17078   -17095   -17169   -17241 
  -17253   -17231   -17192   -17117   -17032   -16997   -17048   -17142 
  -17192   -17182   -17151   -17098   -17042   -17047   -17115   -17195 
  -17234   -17214   -17179   -17171   -17170   -17156   -17133   -17120 
  -17128   -17126   -17094   -17077   -17108   -17144   -17136   -17100 
  -17084   -17109   -17163   -17214   -17217   -17165   -17093   -17046 
  -17042   -17074   -17143   -17219   -17241   -17211   -17162   -17097 
  -17050   -17063   -17113   -17155   -17177   -17162   -17116   -17082 
  -17082   -17094   -17098   -17116   -17178   -17237   -17231   -17195 
  -17163   -17119   -17092   -17104   -17119   -17133   -17156   -17164 
  -17163   -17147   -17091   -17041   -17035   -17046   -17069   -17110 
  -17141   -17159   -17181   -17183   -17157   -17130   -17119   -17136 
  -17162   -17148   -17115   -17124   -17150   -17147   -17148   -17173 
  -17184   -17163   -17126   -17102   -17101   -17095   -17072   -17077 
  -17122   -17166   -17177   -17164   -17158   -17164   -17161   -17141 
  -17128   -17136   -17149   -17156   -17151   -17129   -17110   -17104 
  -17101   -17091   -17090   -17119   -17165   -17189   -17168   -17136 
  -17139   -17163   -17172   -17174   -17162   -17125   -17085   -17059 
  -17047   -17053   -17061   -17073   -17111   -17150   -17148   -17120 
  -17106   -17133   -17180   -17200   -17187   -17164   -17135   -17097 
  -17063   -17062   -17097   -17143   -17175   -17181   -17172   -17155 
  -17128   -17109   -17109   -17126   -17155   -17175   -17181   -17178 
  -17155   -17143   -17164   -17174   -17154   -17136   -17125   -17115 
  -17111   -17109   -17116   -17132   -17142   -17147   -17146   -17131 
  -17119   -17126   -17132   -17124   -17127   -17146   -17147   -17123 
  -17102   -17103   -17115   -17139   -17166   -17156   -17116   -17092 
  -17090   -17093   -17105   -17126   -17157   -17199   -17213   -17167 
  -17109   -17096   -17117   -17136   -17144   -17149   -17166   -17177 
  -17154   -17126   -17122   -17121   -17118   -17136   -17179   -17208 
  -17184   -17138   -17129   -17146   -17133   -17094   -17078   -17115 
  -17176   -17190   -17145   -17116   -17128   -17132   -17134   -17149 
  -17150   -17126   -17100   -17084   -17082   -17085   -17077   -17078 
  -17108   -17127   -17107   -17083   -17097   -17130   -17130   -17124 
  -17154   -17175   -17156   -17136   -17131   -17134   -17156   -17175 
  -17157   -17133   -17129   -17122   -17101   -17097   -17123   -17158 
  -17183   -17177   -17140   -17124   -17143   -17150   -17137   -17146 
  -17178   -17188   -17164   -17138   -17133   -17145   -17160   -17171 
  -17169   -17151   -17130   -17112   -17105   -17117   -17136   -17147 
  -17154   -17152   -17131   -17108   -17108   -17136   -17163   -17153 
  -17133   -17137   -17145   -17132   -17123   -17126   -17113   -17083 
  -17065   -17070   -17090   -17107   -17114   -17118   -17119   -17116 
  -17102   -17087   -17104   -17145   -17157   -17145   -17151   -17162 
  -17142   -17119   -17132   -17164   -17185   -17193   -17194   -17194 
  -17198   -17201   -17195   -17191   -17180   -17149   -17126   -17137 
  -17151   -17136   -17101   -17079   -17086   -17106   -17111   -17099 
  -17093   -17092   -17072   -17038   -17034   -17086   -17155   -17182 
  -17160   -17123   -17105   -17119   -17140   -17140   -17129   -17106 
  -17062   -17029   -17018   -17007   -17010   -17030   -17048   -17085 
  -17135   -17160   -17168   -17184   -17206   -17237   -17258   -17254 
  -17247   -17237   -17216   -17195   -17188   -17201   -17224   -17231 
  -17216   -17203   -17198   -17196   -17201   -17200   -17172   -17130 
  -17101   -17087   -17076   -17065   -17055   -17058   -17082   -17102 
  -17103   -17103   -17114   -17117   -17105   -17100   -17113   -17127 
  -17131   -17130   -17128   -17130   -17125   -17094   -17063   -17050 
  -17051   -17058   -17060   -17048   -17046   -17064   -17083   -17095 
  -17105   -17123   -17153   -17181   -17191   -17191   -17193   -17199 
  -17215   -17244   -17265   -17261   -17235   -17202   -17178   -17150 
  -17110   -17081   -17084   -17110   -17139   -17155   -17142   -17111 
  -17087   -17082   -17090   -17101   -17102   -17089   -17077   -17086 
  -17122   -17163   -17178   -17162   -17149   -17149   -17147   -17146 
  -17152   -17158   -17160   -17164   -17174   -17179   -17174   -17169 
  -17166   -17154   -17136   -17117   -17098   -17075   -17049   -17037 
  -17060   -17116   -17171   -17193   -17195   -17208   -17213   -17192 
  -17173   -17174   -17179   -17177   -17172   -17160   -17136   -17107 
  -17086   -17080   -17081   -17081   -17089   -17104   -17110   -17110 
  -17117   -17134   -17150   -17161   -17174   -17176   -17160   -17143 
  -17127   -17111   -17109   -17127   -17142   -17142   -17131   -17108 
  -17079   -17068   -17082   -17107   -17130   -17138   -17130   -17119 
  -17117   -17119   -17119   -17114   -17122   -17140   -17143   -17125 
  -17107   -17096   -17098   -17107   -17118   -17139   -17164   -17177 
  -17185   -17204   -17222   -17229   -17233   -17233   -17215   -17178 
  -17138   -17117   -17116   -17111   -17091   -17073   -17062   -17058 
  -17061   -17072   -17084   -17091   -17103   -17130   -17157   -17166 
  -17162   -17155   -17154   -17155   -17146   -17137   -17138   -17131 
  -17118   -17127   -17146   -17147   -17137   -17118   -17092   -17077 
  -17078   -17090   -17111   -17133   -17143   -17140   -17133   -17127 
